"Station Name","KINGSTON CLIMATE"
"Province","ONTARIO"
"Current Station Operator","Environment and Climate Change Canada - Meteorological Service of Canada"
"Latitude","44.22"
"Longitude","-76.60"
"Elevation","93.00"
"Climate Identifier","6104142"
"WMO Identifier","71820"
"TC Identifier","TKG"
"All times are specified in Local Standard Time (LST). Add 1 hour to adjust for Daylight Saving Time where and when it is observed."

"Legend"
"E","Estimated"
"M","Missing"
"NA","Not Available"

"Date/Time","Year","Month","Day","Time","Temp (°C)","Temp Flag","Dew Point Temp (°C)","Dew Point Temp Flag","Rel Hum (%)","Rel Hum Flag","Wind Dir (10s deg)","Wind Dir Flag","Wind Spd (km/h)","Wind Spd Flag","Visibility (km)","Visibility Flag","Stn Press (kPa)","Stn Press Flag","Hmdx","Hmdx Flag","Wind Chill","Wind Chill Flag","Weather"
"2018-07-01 00:00","2018","07","01","00:00","22.9","","21.3","","91","","23","","9","","","","100.33","","32","","","","NA"
"2018-07-01 01:00","2018","07","01","01:00","23.5","","20.8","","85","","25","","8","","","","100.38","","32","","","","NA"
"2018-07-01 02:00","2018","07","01","02:00","22.6","","20.4","","87","","24","","6","","","","100.40","","31","","","","NA"
"2018-07-01 03:00","2018","07","01","03:00","22.1","","20.3","","90","","21","","6","","","","100.38","","30","","","","NA"
"2018-07-01 04:00","2018","07","01","04:00","20.9","","19.5","","92","","14","","6","","","","100.37","","28","","","","NA"
"2018-07-01 05:00","2018","07","01","05:00","20.6","","19.7","","95","","15","","5","","","","100.41","","28","","","","NA"
"2018-07-01 06:00","2018","07","01","06:00","21.3","","19.9","","92","","18","","8","","","","100.48","","29","","","","NA"
"2018-07-01 07:00","2018","07","01","07:00","21.7","","20.0","","90","","17","","9","","","","100.49","","29","","","","NA"
"2018-07-01 08:00","2018","07","01","08:00","22.4","","20.4","","88","","17","","13","","","","100.48","","30","","","","NA"
"2018-07-01 09:00","2018","07","01","09:00","23.4","","20.9","","86","","18","","13","","","","100.46","","32","","","","NA"
"2018-07-01 10:00","2018","07","01","10:00","23.1","","20.7","","87","","18","","14","","","","100.51","","31","","","","NA"
"2018-07-01 11:00","2018","07","01","11:00","23.0","","20.9","","88","","16","","15","","","","100.51","","31","","","","NA"
"2018-07-01 12:00","2018","07","01","12:00","23.5","","20.8","","85","","15","","18","","","","100.49","","32","","","","NA"
"2018-07-01 13:00","2018","07","01","13:00","23.7","","20.9","","85","","15","","19","","","","100.44","","32","","","","NA"
"2018-07-01 14:00","2018","07","01","14:00","24.0","","21.2","","85","","16","","18","","","","100.41","","33","","","","NA"
"2018-07-01 15:00","2018","07","01","15:00","24.8","","21.6","","83","","17","","13","","","","100.36","","34","","","","NA"
"2018-07-01 16:00","2018","07","01","16:00","25.8","","21.7","","78","","17","","13","","","","100.32","","35","","","","NA"
"2018-07-01 17:00","2018","07","01","17:00","25.5","","21.9","","81","","17","","14","","","","100.27","","35","","","","NA"
"2018-07-01 18:00","2018","07","01","18:00","24.6","","21.3","","82","","17","","14","","","","100.28","","33","","","","NA"
"2018-07-01 19:00","2018","07","01","19:00","24.2","","21.7","","86","","19","","9","","","","100.27","","33","","","","NA"
"2018-07-01 20:00","2018","07","01","20:00","23.4","","21.4","","89","","20","","5","","","","100.28","","32","","","","NA"
"2018-07-01 21:00","2018","07","01","21:00","22.9","","21.4","","91","","17","","7","","","","100.31","","32","","","","NA"
"2018-07-01 22:00","2018","07","01","22:00","21.7","","21.1","","96","","","","0","","","","100.33","","30","","","","NA"
"2018-07-01 23:00","2018","07","01","23:00","21.6","","21.2","","97","","","","0","","","","100.33","","30","","","","NA"
"2018-07-02 00:00","2018","07","02","00:00","22.3","","21.5","","95","","15","","8","","","","100.36","","31","","","","NA"
"2018-07-02 01:00","2018","07","02","01:00","21.0","","20.1","","95","","32","","5","","","","100.32","","29","","","","NA"
"2018-07-02 02:00","2018","07","02","02:00","20.7","","19.8","","95","","29","","1","","","","100.29","","28","","","","NA"
"2018-07-02 03:00","2018","07","02","03:00","22.0","","21.3","","96","","18","","9","","","","100.29","","31","","","","NA"
"2018-07-02 04:00","2018","07","02","04:00","21.7","","20.9","","95","","15","","11","","","","100.31","","30","","","","NA"
"2018-07-02 05:00","2018","07","02","05:00","21.5","","20.9","","96","","15","","9","","","","100.34","","30","","","","NA"
"2018-07-02 06:00","2018","07","02","06:00","22.3","","20.7","","91","","17","","7","","","","100.34","","30","","","","NA"
"2018-07-02 07:00","2018","07","02","07:00","23.0","","20.4","","85","","18","","11","","","","100.38","","31","","","","NA"
"2018-07-02 08:00","2018","07","02","08:00","24.6","","21.3","","82","","18","","13","","","","100.38","","33","","","","NA"
"2018-07-02 09:00","2018","07","02","09:00","24.9","","21.5","","81","","18","","16","","","","100.38","","34","","","","NA"
"2018-07-02 10:00","2018","07","02","10:00","24.6","","21.4","","83","","17","","15","","","","100.38","","33","","","","NA"
"2018-07-02 11:00","2018","07","02","11:00","26.2","","22.1","","78","","18","","17","","","","100.36","","36","","","","NA"
"2018-07-02 12:00","2018","07","02","12:00","27.6","","22.3","","73","","19","","21","","","","100.35","","37","","","","NA"
"2018-07-02 13:00","2018","07","02","13:00","27.5","","23.1","","77","","19","","18","","","","100.34","","38","","","","NA"
"2018-07-02 14:00","2018","07","02","14:00","28.2","","22.8","","72","","18","","14","","","","100.34","","38","","","","NA"
"2018-07-02 15:00","2018","07","02","15:00","28.1","","22.6","","72","","18","","18","","","","100.35","","38","","","","NA"
"2018-07-02 16:00","2018","07","02","16:00","27.1","","21.9","","73","","19","","22","","","","100.30","","36","","","","NA"
"2018-07-02 17:00","2018","07","02","17:00","23.9","","21.3","","86","","18","","18","","","","100.34","","33","","","","NA"
"2018-07-02 18:00","2018","07","02","18:00","23.3","","21.2","","88","","18","","9","","","","100.39","","32","","","","NA"
"2018-07-02 19:00","2018","07","02","19:00","22.8","","21.1","","90","","18","","4","","","","100.45","","31","","","","NA"
"2018-07-02 20:00","2018","07","02","20:00","22.6","","21.3","","93","","21","","7","","","","100.53","","31","","","","NA"
"2018-07-02 21:00","2018","07","02","21:00","22.2","","21.2","","94","","19","","16","","","","100.61","","31","","","","NA"
"2018-07-02 22:00","2018","07","02","22:00","23.1","","21.9","","93","","26","","7","","","","100.64","","32","","","","NA"
"2018-07-02 23:00","2018","07","02","23:00","22.1","","21.3","","95","","23","","8","","","","100.67","","31","","","","NA"
"2018-07-03 00:00","2018","07","03","00:00","23.4","","20.2","","82","","27","","10","","","","100.71","","31","","","","NA"
"2018-07-03 01:00","2018","07","03","01:00","21.5","","17.8","","79","","29","","10","","","","100.78","","27","","","","NA"
"2018-07-03 02:00","2018","07","03","02:00","19.9","","16.6","","82","","27","","7","","","","100.83","","","","","","NA"
"2018-07-03 03:00","2018","07","03","03:00","18.1","","15.5","","85","","27","","9","","","","100.85","","","","","","NA"
"2018-07-03 04:00","2018","07","03","04:00","17.5","","15.7","","89","","28","","9","","","","100.92","","","","","","NA"
"2018-07-03 05:00","2018","07","03","05:00","17.1","","15.6","","91","","29","","8","","","","101.03","","","","","","NA"
"2018-07-03 06:00","2018","07","03","06:00","18.8","","15.9","","83","","35","","2","","","","101.11","","","","","","NA"
"2018-07-03 07:00","2018","07","03","07:00","20.6","","15.5","","73","","34","","2","","","","101.15","","25","","","","NA"
"2018-07-03 08:00","2018","07","03","08:00","22.6","","17.5","","73","","32","","6","","","","101.17","","28","","","","NA"
"2018-07-03 09:00","2018","07","03","09:00","23.3","","17.7","","71","","20","","8","","","","101.20","","29","","","","NA"
"2018-07-03 10:00","2018","07","03","10:00","24.4","","18.2","","68","","18","","9","","","","101.24","","31","","","","NA"
"2018-07-03 11:00","2018","07","03","11:00","25.8","","19.2","","67","","18","","10","","","","101.27","","33","","","","NA"
"2018-07-03 12:00","2018","07","03","12:00","25.3","","18.6","","67","","18","","19","","","","101.29","","32","","","","NA"
"2018-07-03 13:00","2018","07","03","13:00","26.2","","18.4","","62","","19","","19","","","","101.28","","33","","","","NA"
"2018-07-03 14:00","2018","07","03","14:00","26.4","","18.5","","62","","19","","18","","","","101.28","","33","","","","NA"
"2018-07-03 15:00","2018","07","03","15:00","27.8","","17.9","","55","","20","","11","","","","101.28","","34","","","","NA"
"2018-07-03 16:00","2018","07","03","16:00","28.0","","18.1","","55","","23","","9","","","","101.26","","34","","","","NA"
"2018-07-03 17:00","2018","07","03","17:00","28.1","","17.0","","51","","23","","8","","","","101.25","","33","","","","NA"
"2018-07-03 18:00","2018","07","03","18:00","27.7","","18.3","","57","","22","","8","","","","101.25","","34","","","","NA"
"2018-07-03 19:00","2018","07","03","19:00","26.8","","18.6","","61","","0","","1","","","","101.25","","33","","","","NA"
"2018-07-03 20:00","2018","07","03","20:00","24.7","","18.4","","68","","19","","4","","","","101.26","","31","","","","NA"
"2018-07-03 21:00","2018","07","03","21:00","22.2","","17.4","","74","","30","","1","","","","101.30","","28","","","","NA"
"2018-07-03 22:00","2018","07","03","22:00","20.4","","18.1","","87","","34","","9","","","","101.32","","26","","","","NA"
"2018-07-03 23:00","2018","07","03","23:00","21.2","","18.4","","85","","","","0","","","","101.31","","28","","","","NA"
"2018-07-04 00:00","2018","07","04","00:00","19.8","","18.4","","92","","35","","6","","","","101.31","","","","","","NA"
"2018-07-04 01:00","2018","07","04","01:00","18.5","","16.9","","90","","34","","8","","","","101.32","","","","","","NA"
"2018-07-04 02:00","2018","07","04","02:00","18.6","","16.8","","90","","32","","1","","","","101.34","","","","","","NA"
"2018-07-04 03:00","2018","07","04","03:00","17.4","","16.6","","95","","34","","1","","","","101.34","","","","","","NA"
"2018-07-04 04:00","2018","07","04","04:00","17.6","","17.1","","97","","34","","5","","","","101.40","","","","","","NA"
"2018-07-04 05:00","2018","07","04","05:00","16.3","","15.8","","96","","1","","5","","","","101.44","","","","","","NA"
"2018-07-04 06:00","2018","07","04","06:00","20.4","","19.3","","94","","34","","3","","","","101.50","","27","","","","NA"
"2018-07-04 07:00","2018","07","04","07:00","22.7","","19.6","","83","","16","","6","","","","101.51","","30","","","","NA"
"2018-07-04 08:00","2018","07","04","08:00","25.1","","18.7","","68","","15","","5","","","","101.50","","32","","","","NA"
"2018-07-04 09:00","2018","07","04","09:00","24.8","","18.2","","67","","16","","11","","","","101.52","","31","","","","NA"
"2018-07-04 10:00","2018","07","04","10:00","27.0","","20.0","","66","","16","","4","","","","101.49","","35","","","","NA"
"2018-07-04 11:00","2018","07","04","11:00","29.0","","17.1","","49","","13","","7","","","","101.47","","34","","","","NA"
"2018-07-04 12:00","2018","07","04","12:00","29.4","","18.7","","53","","16","","7","","","","101.46","","36","","","","NA"
"2018-07-04 13:00","2018","07","04","13:00","29.4","","18.5","","52","","16","","8","","","","101.37","","36","","","","NA"
"2018-07-04 14:00","2018","07","04","14:00","29.8","","18.5","","51","","20","","10","","","","101.31","","36","","","","NA"
"2018-07-04 15:00","2018","07","04","15:00","29.9","","18.4","","50","","18","","7","","","","101.27","","36","","","","NA"
"2018-07-04 16:00","2018","07","04","16:00","29.4","","19.5","","55","","18","","10","","","","101.25","","37","","","","NA"
"2018-07-04 17:00","2018","07","04","17:00","29.0","","20.0","","58","","18","","9","","","","101.23","","37","","","","NA"
"2018-07-04 18:00","2018","07","04","18:00","28.1","","21.4","","67","","16","","5","","","","101.23","","37","","","","NA"
"2018-07-04 19:00","2018","07","04","19:00","26.5","","21.4","","74","","17","","8","","","","101.20","","35","","","","NA"
"2018-07-04 20:00","2018","07","04","20:00","25.5","","22.0","","81","","16","","7","","","","101.19","","35","","","","NA"
"2018-07-04 21:00","2018","07","04","21:00","23.9","","21.5","","87","","15","","1","","","","101.25","","33","","","","NA"
"2018-07-04 22:00","2018","07","04","22:00","22.8","","18.9","","79","","15","","2","","","","101.26","","29","","","","NA"
"2018-07-04 23:00","2018","07","04","23:00","22.8","","19.1","","80","","","","0","","","","101.27","","30","","","","NA"
"2018-07-05 00:00","2018","07","05","00:00","21.5","","19.7","","89","","36","","3","","","","101.23","","29","","","","NA"
"2018-07-05 01:00","2018","07","05","01:00","24.4","","22.3","","88","","15","","11","","","","101.20","","34","","","","NA"
"2018-07-05 02:00","2018","07","05","02:00","24.4","","22.0","","87","","16","","3","","","","101.16","","34","","","","NA"
"2018-07-05 03:00","2018","07","05","03:00","23.5","","21.7","","90","","19","","9","","","","101.15","","33","","","","NA"
"2018-07-05 04:00","2018","07","05","04:00","23.1","","21.5","","91","","18","","11","","","","101.15","","32","","","","NA"
"2018-07-05 05:00","2018","07","05","05:00","23.0","","21.3","","91","","18","","13","","","","101.17","","32","","","","NA"
"2018-07-05 06:00","2018","07","05","06:00","23.1","","21.6","","91","","18","","10","","","","101.20","","32","","","","NA"
"2018-07-05 07:00","2018","07","05","07:00","23.6","","21.7","","89","","19","","10","","","","101.22","","33","","","","NA"
"2018-07-05 08:00","2018","07","05","08:00","23.8","","22.0","","89","","18","","14","","","","101.21","","33","","","","NA"
"2018-07-05 09:00","2018","07","05","09:00","24.6","","22.3","","87","","18","","15","","","","101.15","","34","","","","NA"
"2018-07-05 10:00","2018","07","05","10:00","24.7","","22.0","","85","","17","","15","","","","101.10","","34","","","","NA"
"2018-07-05 11:00","2018","07","05","11:00","25.5","","22.2","","82","","17","","16","","","","101.04","","35","","","","NA"
"2018-07-05 12:00","2018","07","05","12:00","25.6","","22.4","","83","","17","","19","","","","100.99","","35","","","","NA"
"2018-07-05 13:00","2018","07","05","13:00","26.6","","23.5","","83","","18","","13","","","","100.94","","37","","","","NA"
"2018-07-05 14:00","2018","07","05","14:00","26.4","","22.9","","81","","18","","16","","","","100.84","","37","","","","NA"
"2018-07-05 15:00","2018","07","05","15:00","27.4","","22.3","","74","","19","","17","","","","100.73","","37","","","","NA"
"2018-07-05 16:00","2018","07","05","16:00","26.7","","22.7","","79","","19","","18","","","","100.64","","37","","","","NA"
"2018-07-05 17:00","2018","07","05","17:00","27.6","","22.3","","73","","19","","16","","","","100.53","","37","","","","NA"
"2018-07-05 18:00","2018","07","05","18:00","28.0","","22.5","","72","","21","","14","","","","100.52","","38","","","","NA"
"2018-07-05 19:00","2018","07","05","19:00","26.8","","22.1","","76","","22","","12","","","","100.54","","36","","","","NA"
"2018-07-05 20:00","2018","07","05","20:00","25.5","","22.4","","83","","20","","9","","","","100.45","","35","","","","NA"
"2018-07-05 21:00","2018","07","05","21:00","25.9","","23.3","","86","","23","","15","","","","100.44","","36","","","","NA"
"2018-07-05 22:00","2018","07","05","22:00","25.3","","23.5","","90","","25","","5","","","","100.40","","36","","","","NA"
"2018-07-05 23:00","2018","07","05","23:00","25.5","","23.2","","87","","26","","14","","","","100.42","","36","","","","NA"
"2018-07-06 00:00","2018","07","06","00:00","25.0","","22.7","","87","","26","","11","","","","100.37","","35","","","","NA"
"2018-07-06 01:00","2018","07","06","01:00","24.5","","22.6","","89","","24","","15","","","","100.32","","34","","","","NA"
"2018-07-06 02:00","2018","07","06","02:00","23.8","","21.7","","88","","27","","14","","","","100.31","","33","","","","NA"
"2018-07-06 03:00","2018","07","06","03:00","23.1","","20.4","","85","","28","","20","","","","100.32","","31","","","","NA"
"2018-07-06 04:00","2018","07","06","04:00","21.8","","19.3","","86","","29","","17","","","","100.37","","29","","","","NA"
"2018-07-06 05:00","2018","07","06","05:00","20.5","","18.4","","88","","30","","14","","","","100.44","","27","","","","NA"
"2018-07-06 06:00","2018","07","06","06:00","20.9","","18.2","","84","","31","","18","","","","100.56","","27","","","","NA"
"2018-07-06 07:00","2018","07","06","07:00","22.1","","13.3","","58","","34","","29","","","","100.69","","25","","","","NA"
"2018-07-06 08:00","2018","07","06","08:00","22.2","","11.8","","52","","34","","27","","","","100.78","","","","","","NA"
"2018-07-06 09:00","2018","07","06","09:00","22.6","","10.8","","47","","33","","26","","","","100.83","","","","","","NA"
"2018-07-06 10:00","2018","07","06","10:00","22.6","","9.5","","43","","32","","33","","","","100.93","","","","","","NA"
"2018-07-06 11:00","2018","07","06","11:00","21.8","","9.1","","44","","34","","33","","","","101.05","","","","","","NA"
"2018-07-06 12:00","2018","07","06","12:00","21.5","","8.5","","43","","34","","32","","","","101.11","","","","","","NA"
"2018-07-06 13:00","2018","07","06","13:00","23.0","","10.1","","44","","34","","24","","","","101.11","","","","","","NA"
"2018-07-06 14:00","2018","07","06","14:00","22.8","","9.4","","42","","32","","24","","","","101.14","","","","","","NA"
"2018-07-06 15:00","2018","07","06","15:00","22.9","","8.2","","39","","33","","26","","","","101.15","","","","","","NA"
"2018-07-06 16:00","2018","07","06","16:00","22.4","","6.8","","36","","34","","23","","","","101.13","","","","","","NA"
"2018-07-06 17:00","2018","07","06","17:00","22.4","","7.7","","39","","34","","20","","","","101.14","","","","","","NA"
"2018-07-06 18:00","2018","07","06","18:00","21.4","","5.0","","34","","36","","19","","","","101.17","","","","","","NA"
"2018-07-06 19:00","2018","07","06","19:00","20.4","","6.0","","39","","1","","16","","","","101.20","","","","","","NA"
"2018-07-06 20:00","2018","07","06","20:00","18.2","","6.3","","46","","2","","9","","","","101.26","","","","","","NA"
"2018-07-06 21:00","2018","07","06","21:00","16.2","","7.5","","57","","36","","9","","","","101.41","","","","","","NA"
"2018-07-06 22:00","2018","07","06","22:00","14.7","","6.8","","59","","1","","9","","","","101.44","","","","","","NA"
"2018-07-06 23:00","2018","07","06","23:00","14.5","","8.1","","65","","35","","5","","","","101.46","","","","","","NA"
"2018-07-07 00:00","2018","07","07","00:00","12.9","","8.1","","73","","34","","7","","","","101.48","","","","","","NA"
"2018-07-07 01:00","2018","07","07","01:00","10.5","","8.2","","86","","34","","9","","","","101.50","","","","","","NA"
"2018-07-07 02:00","2018","07","07","02:00","10.0","","8.0","","88","","33","","10","","","","101.50","","","","","","NA"
"2018-07-07 03:00","2018","07","07","03:00","10.6","","8.1","","84","","33","","9","","","","101.53","","","","","","NA"
"2018-07-07 04:00","2018","07","07","04:00","10.0","","7.6","","85","","33","","11","","","","101.54","","","","","","NA"
"2018-07-07 05:00","2018","07","07","05:00","10.3","","8.2","","87","","34","","13","","","","101.58","","","","","","NA"
"2018-07-07 06:00","2018","07","07","06:00","13.8","","9.9","","77","","33","","4","","","","101.62","","","","","","NA"
"2018-07-07 07:00","2018","07","07","07:00","17.6","","10.9","","65","","33","","6","","","","101.64","","","","","","NA"
"2018-07-07 08:00","2018","07","07","08:00","20.6","","9.6","","49","","29","","10","","","","101.69","","","","","","NA"
"2018-07-07 09:00","2018","07","07","09:00","22.0","","11.0","","50","","23","","12","","","","101.71","","","","","","NA"
"2018-07-07 10:00","2018","07","07","10:00","23.2","","7.1","","36","","23","","16","","","","101.73","","","","","","NA"
"2018-07-07 11:00","2018","07","07","11:00","23.7","","10.3","","43","","18","","20","","","","101.71","","25","","","","NA"
"2018-07-07 12:00","2018","07","07","12:00","22.8","","13.9","","57","","19","","28","","","","101.66","","26","","","","NA"
"2018-07-07 13:00","2018","07","07","13:00","23.8","","10.8","","44","","19","","29","","","","101.60","","25","","","","NA"
"2018-07-07 14:00","2018","07","07","14:00","23.4","","10.7","","45","","20","","30","","","","101.55","","25","","","","NA"
"2018-07-07 15:00","2018","07","07","15:00","23.6","","12.5","","50","","19","","27","","","","101.55","","26","","","","NA"
"2018-07-07 16:00","2018","07","07","16:00","24.1","","12.1","","47","","20","","23","","","","101.53","","26","","","","NA"
"2018-07-07 17:00","2018","07","07","17:00","24.4","","10.9","","43","","22","","21","","","","101.49","","26","","","","NA"
"2018-07-07 18:00","2018","07","07","18:00","23.3","","10.4","","44","","22","","19","","","","101.45","","25","","","","NA"
"2018-07-07 19:00","2018","07","07","19:00","22.1","","9.6","","45","","23","","15","","","","101.46","","","","","","NA"
"2018-07-07 20:00","2018","07","07","20:00","19.8","","10.3","","54","","23","","11","","","","101.47","","","","","","NA"
"2018-07-07 21:00","2018","07","07","21:00","19.3","","11.5","","61","","24","","10","","","","101.52","","","","","","NA"
"2018-07-07 22:00","2018","07","07","22:00","19.0","","12.2","","65","","24","","8","","","","101.50","","","","","","NA"
"2018-07-07 23:00","2018","07","07","23:00","17.3","","11.5","","69","","21","","8","","","","101.51","","","","","","NA"
"2018-07-08 00:00","2018","07","08","00:00","16.9","","12.1","","73","","20","","9","","","","101.48","","","","","","NA"
"2018-07-08 01:00","2018","07","08","01:00","14.1","","11.5","","85","","28","","2","","","","101.50","","","","","","NA"
"2018-07-08 02:00","2018","07","08","02:00","14.1","","11.9","","87","","0","","1","","","","101.46","","","","","","NA"
"2018-07-08 03:00","2018","07","08","03:00","15.2","","13.3","","88","","22","","9","","","","101.48","","","","","","NA"
"2018-07-08 04:00","2018","07","08","04:00","12.9","","11.8","","93","","23","","6","","","","101.51","","","","","","NA"
"2018-07-08 05:00","2018","07","08","05:00","12.7","","11.7","","94","","32","","4","","","","101.59","","","","","","NA"
"2018-07-08 06:00","2018","07","08","06:00","17.0","","15.8","","92","","25","","3","","","","101.62","","","","","","NA"
"2018-07-08 07:00","2018","07","08","07:00","20.1","","17.1","","83","","19","","8","","","","101.66","","25","","","","NA"
"2018-07-08 08:00","2018","07","08","08:00","21.2","","17.4","","79","","18","","12","","","","101.67","","27","","","","NA"
"2018-07-08 09:00","2018","07","08","09:00","21.6","","17.4","","77","","19","","19","","","","101.64","","27","","","","NA"
"2018-07-08 10:00","2018","07","08","10:00","22.1","","17.8","","77","","19","","20","","","","101.64","","28","","","","NA"
"2018-07-08 11:00","2018","07","08","11:00","22.5","","17.1","","71","","19","","21","","","","101.63","","28","","","","NA"
"2018-07-08 12:00","2018","07","08","12:00","22.9","","17.3","","71","","18","","20","","","","101.60","","28","","","","NA"
"2018-07-08 13:00","2018","07","08","13:00","22.6","","17.2","","72","","18","","21","","","","101.51","","28","","","","NA"
"2018-07-08 14:00","2018","07","08","14:00","23.0","","16.4","","66","","19","","19","","","","101.46","","28","","","","NA"
"2018-07-08 15:00","2018","07","08","15:00","23.6","","16.3","","64","","19","","23","","","","101.40","","28","","","","NA"
"2018-07-08 16:00","2018","07","08","16:00","23.3","","15.8","","63","","19","","23","","","","101.33","","28","","","","NA"
"2018-07-08 17:00","2018","07","08","17:00","23.9","","14.5","","56","","19","","21","","","","101.29","","28","","","","NA"
"2018-07-08 18:00","2018","07","08","18:00","23.3","","15.1","","60","","19","","16","","","","101.28","","27","","","","NA"
"2018-07-08 19:00","2018","07","08","19:00","22.0","","15.9","","68","","20","","11","","","","101.23","","27","","","","NA"
"2018-07-08 20:00","2018","07","08","20:00","20.3","","15.9","","76","","20","","12","","","","101.20","","25","","","","NA"
"2018-07-08 21:00","2018","07","08","21:00","20.5","","16.0","","76","","20","","14","","","","101.19","","25","","","","NA"
"2018-07-08 22:00","2018","07","08","22:00","19.9","","16.0","","79","","20","","10","","","","101.16","","","","","","NA"
"2018-07-08 23:00","2018","07","08","23:00","18.1","","13.2","","73","","24","","7","","","","101.15","","","","","","NA"
"2018-07-09 00:00","2018","07","09","00:00","16.4","","14.7","","90","","0","","1","","","","101.14","","","","","","NA"
"2018-07-09 01:00","2018","07","09","01:00","15.8","","14.3","","91","","0","","1","","","","101.10","","","","","","NA"
"2018-07-09 02:00","2018","07","09","02:00","14.6","","13.6","","94","","26","","4","","","","101.11","","","","","","NA"
"2018-07-09 03:00","2018","07","09","03:00","17.2","","16.2","","94","","24","","9","","","","101.07","","","","","","NA"
"2018-07-09 04:00","2018","07","09","04:00","14.4","","13.7","","96","","28","","4","","","","101.08","","","","","","NA"
"2018-07-09 05:00","2018","07","09","05:00","14.0","","12.9","","93","","27","","5","","","","101.06","","","","","","NA"
"2018-07-09 06:00","2018","07","09","06:00","17.6","","16.0","","91","","20","","5","","","","101.03","","","","","","NA"
"2018-07-09 07:00","2018","07","09","07:00","20.7","","16.8","","79","","22","","9","","","","101.00","","26","","","","NA"
"2018-07-09 08:00","2018","07","09","08:00","23.2","","16.0","","64","","23","","14","","","","100.96","","28","","","","NA"
"2018-07-09 09:00","2018","07","09","09:00","24.2","","15.8","","59","","23","","17","","","","100.95","","29","","","","NA"
"2018-07-09 10:00","2018","07","09","10:00","22.7","","18.4","","77","","19","","25","","","","100.90","","29","","","","NA"
"2018-07-09 11:00","2018","07","09","11:00","23.4","","18.4","","74","","19","","28","","","","100.84","","30","","","","NA"
"2018-07-09 12:00","2018","07","09","12:00","24.8","","18.8","","69","","19","","26","","","","100.79","","31","","","","NA"
"2018-07-09 13:00","2018","07","09","13:00","24.9","","18.8","","69","","19","","24","","","","100.75","","32","","","","NA"
"2018-07-09 14:00","2018","07","09","14:00","25.3","","18.2","","65","","19","","28","","","","100.68","","31","","","","NA"
"2018-07-09 15:00","2018","07","09","15:00","25.4","","18.7","","66","","19","","27","","","","100.61","","32","","","","NA"
"2018-07-09 16:00","2018","07","09","16:00","28.8","","13.9","","40","","22","","22","","","","100.55","","32","","","","NA"
"2018-07-09 17:00","2018","07","09","17:00","24.4","","18.5","","70","","19","","23","","","","100.47","","31","","","","NA"
"2018-07-09 18:00","2018","07","09","18:00","23.6","","18.3","","72","","19","","23","","","","100.45","","30","","","","NA"
"2018-07-09 19:00","2018","07","09","19:00","23.5","","18.4","","73","","20","","13","","","","100.45","","30","","","","NA"
"2018-07-09 20:00","2018","07","09","20:00","23.5","","18.2","","72","","21","","13","","","","100.46","","30","","","","NA"
"2018-07-09 21:00","2018","07","09","21:00","23.4","","17.1","","68","","23","","15","","","","100.47","","29","","","","NA"
"2018-07-09 22:00","2018","07","09","22:00","21.7","","17.8","","79","","23","","9","","","","100.44","","28","","","","NA"
"2018-07-09 23:00","2018","07","09","23:00","21.9","","17.7","","77","","23","","11","","","","100.38","","28","","","","NA"
"2018-07-10 00:00","2018","07","10","00:00","22.1","","16.8","","72","","25","","11","","","","100.33","","27","","","","NA"
"2018-07-10 01:00","2018","07","10","01:00","21.5","","17.9","","80","","24","","13","","","","100.28","","27","","","","NA"
"2018-07-10 02:00","2018","07","10","02:00","21.4","","17.7","","79","","24","","12","","","","100.25","","27","","","","NA"
"2018-07-10 03:00","2018","07","10","03:00","20.1","","16.8","","81","","27","","4","","","","100.22","","25","","","","NA"
"2018-07-10 04:00","2018","07","10","04:00","19.1","","16.8","","87","","0","","1","","","","100.21","","","","","","NA"
"2018-07-10 05:00","2018","07","10","05:00","19.6","","17.3","","86","","17","","6","","","","100.23","","","","","","NA"
"2018-07-10 06:00","2018","07","10","06:00","21.2","","19.0","","87","","13","","2","","","","100.20","","28","","","","NA"
"2018-07-10 07:00","2018","07","10","07:00","22.0","","18.5","","80","","25","","2","","","","100.23","","28","","","","NA"
"2018-07-10 08:00","2018","07","10","08:00","22.7","","18.3","","76","","17","","7","","","","100.21","","29","","","","NA"
"2018-07-10 09:00","2018","07","10","09:00","23.6","","19.5","","78","","17","","9","","","","100.21","","31","","","","NA"
"2018-07-10 10:00","2018","07","10","10:00","24.5","","19.5","","73","","18","","10","","","","100.18","","32","","","","NA"
"2018-07-10 11:00","2018","07","10","11:00","26.1","","18.1","","62","","18","","13","","","","100.19","","32","","","","NA"
"2018-07-10 12:00","2018","07","10","12:00","25.9","","19.2","","67","","18","","14","","","","100.15","","33","","","","NA"
"2018-07-10 13:00","2018","07","10","13:00","25.7","","19.3","","68","","18","","16","","","","100.15","","33","","","","NA"
"2018-07-10 14:00","2018","07","10","14:00","25.0","","18.6","","68","","20","","13","","","","100.16","","31","","","","NA"
"2018-07-10 15:00","2018","07","10","15:00","22.2","","20.2","","89","","8","","16","","","","100.17","","30","","","","NA"
"2018-07-10 16:00","2018","07","10","16:00","22.3","","19.4","","84","","12","","10","","","","100.17","","29","","","","NA"
"2018-07-10 17:00","2018","07","10","17:00","22.8","","19.2","","80","","11","","2","","","","100.16","","30","","","","NA"
"2018-07-10 18:00","2018","07","10","18:00","23.4","","19.7","","80","","20","","3","","","","100.18","","31","","","","NA"
"2018-07-10 19:00","2018","07","10","19:00","23.1","","14.6","","59","","1","","11","","","","100.21","","27","","","","NA"
"2018-07-10 20:00","2018","07","10","20:00","21.0","","15.0","","69","","35","","9","","","","100.29","","25","","","","NA"
"2018-07-10 21:00","2018","07","10","21:00","21.7","","12.5","","56","","1","","13","","","","100.38","","","","","","NA"
"2018-07-10 22:00","2018","07","10","22:00","21.0","","11.5","","55","","2","","19","","","","100.45","","","","","","NA"
"2018-07-10 23:00","2018","07","10","23:00","19.4","","11.2","","59","","2","","10","","","","100.48","","","","","","NA"
"2018-07-11 00:00","2018","07","11","00:00","19.2","","11.2","","60","","2","","10","","","","100.49","","","","","","NA"
"2018-07-11 01:00","2018","07","11","01:00","18.2","","10.9","","62","","3","","7","","","","100.48","","","","","","NA"
"2018-07-11 02:00","2018","07","11","02:00","16.3","","11.8","","75","","35","","7","","","","100.50","","","","","","NA"
"2018-07-11 03:00","2018","07","11","03:00","15.6","","11.3","","76","","36","","7","","","","100.51","","","","","","NA"
"2018-07-11 04:00","2018","07","11","04:00","12.5","","10.5","","88","","33","","9","","","","100.59","","","","","","NA"
"2018-07-11 05:00","2018","07","11","05:00","12.8","","10.0","","83","","35","","11","","","","100.67","","","","","","NA"
"2018-07-11 06:00","2018","07","11","06:00","15.0","","10.9","","76","","35","","12","","","","100.73","","","","","","NA"
"2018-07-11 07:00","2018","07","11","07:00","18.6","","10.5","","59","","3","","9","","","","100.75","","","","","","NA"
"2018-07-11 08:00","2018","07","11","08:00","20.5","","10.3","","52","","2","","12","","","","100.80","","","","","","NA"
"2018-07-11 09:00","2018","07","11","09:00","22.2","","10.0","","46","","3","","12","","","","100.81","","","","","","NA"
"2018-07-11 10:00","2018","07","11","10:00","23.8","","7.7","","36","","4","","17","","","","100.84","","","","","","NA"
"2018-07-11 11:00","2018","07","11","11:00","24.1","","6.4","","32","","2","","18","","","","100.82","","","","","","NA"
"2018-07-11 12:00","2018","07","11","12:00","24.8","","6.7","","31","","35","","18","","","","100.82","","25","","","","NA"
"2018-07-11 13:00","2018","07","11","13:00","25.4","","7.6","","32","","35","","16","","","","100.79","","26","","","","NA"
"2018-07-11 14:00","2018","07","11","14:00","26.0","","7.4","","31","","34","","18","","","","100.78","","26","","","","NA"
"2018-07-11 15:00","2018","07","11","15:00","26.6","","8.1","","31","","36","","15","","","","100.75","","27","","","","NA"
"2018-07-11 16:00","2018","07","11","16:00","24.8","","12.7","","47","","19","","14","","","","100.75","","27","","","","NA"
"2018-07-11 17:00","2018","07","11","17:00","24.6","","10.6","","41","","24","","17","","","","100.76","","26","","","","NA"
"2018-07-11 18:00","2018","07","11","18:00","23.8","","10.3","","43","","23","","14","","","","100.76","","25","","","","NA"
"2018-07-11 19:00","2018","07","11","19:00","22.4","","11.5","","50","","24","","15","","","","100.76","","","","","","NA"
"2018-07-11 20:00","2018","07","11","20:00","20.6","","10.4","","52","","26","","9","","","","100.82","","","","","","NA"
"2018-07-11 21:00","2018","07","11","21:00","18.8","","10.4","","58","","28","","7","","","","100.89","","","","","","NA"
"2018-07-11 22:00","2018","07","11","22:00","18.1","","11.4","","65","","26","","7","","","","100.93","","","","","","NA"
"2018-07-11 23:00","2018","07","11","23:00","15.0","","11.3","","79","","34","","2","","","","100.96","","","","","","NA"
"2018-07-12 00:00","2018","07","12","00:00","14.6","","12.2","","85","","33","","5","","","","100.99","","","","","","NA"
"2018-07-12 01:00","2018","07","12","01:00","14.5","","12.4","","88","","33","","6","","","","101.00","","","","","","NA"
"2018-07-12 02:00","2018","07","12","02:00","12.5","","10.5","","87","","35","","7","","","","100.98","","","","","","NA"
"2018-07-12 03:00","2018","07","12","03:00","13.3","","12.1","","92","","33","","7","","","","100.96","","","","","","NA"
"2018-07-12 04:00","2018","07","12","04:00","12.7","","11.6","","93","","34","","4","","","","100.97","","","","","","NA"
"2018-07-12 05:00","2018","07","12","05:00","13.5","","12.5","","93","","33","","6","","","","101.04","","","","","","NA"
"2018-07-12 06:00","2018","07","12","06:00","16.1","","15.1","","93","","25","","2","","","","101.09","","","","","","NA"
"2018-07-12 07:00","2018","07","12","07:00","18.9","","13.9","","73","","35","","4","","","","101.13","","","","","","NA"
"2018-07-12 08:00","2018","07","12","08:00","20.8","","14.8","","68","","16","","4","","","","101.18","","25","","","","NA"
"2018-07-12 09:00","2018","07","12","09:00","21.4","","14.4","","64","","16","","10","","","","101.20","","25","","","","NA"
"2018-07-12 10:00","2018","07","12","10:00","22.6","","16.5","","68","","17","","13","","","","101.19","","28","","","","NA"
"2018-07-12 11:00","2018","07","12","11:00","22.9","","17.1","","70","","18","","16","","","","101.17","","28","","","","NA"
"2018-07-12 12:00","2018","07","12","12:00","23.2","","19.0","","77","","17","","18","","","","101.18","","30","","","","NA"
"2018-07-12 13:00","2018","07","12","13:00","23.5","","19.7","","79","","17","","17","","","","101.15","","31","","","","NA"
"2018-07-12 14:00","2018","07","12","14:00","23.3","","18.7","","75","","18","","18","","","","101.10","","30","","","","NA"
"2018-07-12 15:00","2018","07","12","15:00","23.9","","19.2","","75","","17","","17","","","","101.09","","31","","","","NA"
"2018-07-12 16:00","2018","07","12","16:00","24.0","","18.6","","72","","19","","14","","","","101.08","","30","","","","NA"
"2018-07-12 17:00","2018","07","12","17:00","23.6","","18.5","","73","","19","","14","","","","101.07","","30","","","","NA"
"2018-07-12 18:00","2018","07","12","18:00","24.7","","16.7","","61","","20","","9","","","","101.09","","30","","","","NA"
"2018-07-12 19:00","2018","07","12","19:00","23.6","","15.3","","60","","22","","8","","","","101.10","","28","","","","NA"
"2018-07-12 20:00","2018","07","12","20:00","22.2","","14.5","","61","","23","","7","","","","101.11","","26","","","","NA"
"2018-07-12 21:00","2018","07","12","21:00","21.0","","18.7","","86","","17","","9","","","","101.16","","28","","","","NA"
"2018-07-12 22:00","2018","07","12","22:00","19.7","","18.6","","93","","14","","7","","","","101.12","","","","","","NA"
"2018-07-12 23:00","2018","07","12","23:00","20.5","","18.8","","90","","17","","7","","","","101.10","","27","","","","NA"
"2018-07-13 00:00","2018","07","13","00:00","20.5","","18.3","","87","","16","","8","","","","101.08","","27","","","","NA"
"2018-07-13 01:00","2018","07","13","01:00","18.5","","18.0","","97","","14","","4","","","","101.12","","","","","","NA"
"2018-07-13 02:00","2018","07","13","02:00","20.1","","18.8","","92","","19","","7","","","","101.14","","27","","","","NA"
"2018-07-13 03:00","2018","07","13","03:00","19.4","","18.7","","96","","20","","8","","","","101.13","","","","","","NA"
"2018-07-13 04:00","2018","07","13","04:00","19.7","","19.4","","98","","19","","7","","","","101.13","","","","","","NA"
"2018-07-13 05:00","2018","07","13","05:00","17.5","","15.6","","88","","18","","7","","","","101.16","","","","","","NA"
"2018-07-13 06:00","2018","07","13","06:00","21.1","","18.6","","86","","17","","10","","","","101.19","","28","","","","NA"
"2018-07-13 07:00","2018","07","13","07:00","21.9","","18.6","","81","","15","","13","","","","101.18","","28","","","","NA"
"2018-07-13 08:00","2018","07","13","08:00","22.4","","17.9","","76","","18","","12","","","","101.20","","28","","","","NA"
"2018-07-13 09:00","2018","07","13","09:00","22.8","","17.6","","72","","17","","14","","","","101.19","","29","","","","NA"
"2018-07-13 10:00","2018","07","13","10:00","23.2","","17.8","","72","","16","","15","","","","101.15","","29","","","","NA"
"2018-07-13 11:00","2018","07","13","11:00","23.7","","17.0","","66","","18","","15","","","","101.15","","29","","","","NA"
"2018-07-13 12:00","2018","07","13","12:00","24.7","","19.1","","71","","17","","14","","","","101.09","","32","","","","NA"
"2018-07-13 13:00","2018","07","13","13:00","24.6","","18.1","","67","","16","","13","","","","101.01","","31","","","","NA"
"2018-07-13 14:00","2018","07","13","14:00","24.8","","16.8","","61","","18","","12","","","","101.01","","30","","","","NA"
"2018-07-13 15:00","2018","07","13","15:00","26.3","","16.7","","56","","19","","11","","","","100.96","","31","","","","NA"
"2018-07-13 16:00","2018","07","13","16:00","25.7","","16.2","","56","","17","","14","","","","100.92","","30","","","","NA"
"2018-07-13 17:00","2018","07","13","17:00","25.6","","14.7","","51","","16","","9","","","","100.84","","29","","","","NA"
"2018-07-13 18:00","2018","07","13","18:00","25.2","","14.8","","52","","15","","7","","","","100.80","","29","","","","NA"
"2018-07-13 19:00","2018","07","13","19:00","25.2","","13.6","","49","","13","","5","","","","100.76","","28","","","","NA"
"2018-07-13 20:00","2018","07","13","20:00","24.3","","14.0","","53","","11","","4","","","","100.74","","28","","","","NA"
"2018-07-13 21:00","2018","07","13","21:00","24.6","","14.3","","53","","14","","5","","","","100.74","","28","","","","NA"
"2018-07-13 22:00","2018","07","13","22:00","21.3","","15.4","","69","","29","","4","","","","100.69","","26","","","","NA"
"2018-07-13 23:00","2018","07","13","23:00","22.4","","16.3","","68","","0","","1","","","","100.66","","27","","","","NA"
"2018-07-14 00:00","2018","07","14","00:00","23.4","","18.7","","75","","17","","10","","","","100.61","","30","","","","NA"
"2018-07-14 01:00","2018","07","14","01:00","23.1","","19.3","","79","","20","","12","","","","100.57","","30","","","","NA"
"2018-07-14 02:00","2018","07","14","02:00","23.1","","18.9","","77","","22","","8","","","","100.53","","30","","","","NA"
"2018-07-14 03:00","2018","07","14","03:00","23.5","","18.0","","71","","22","","8","","","","100.53","","30","","","","NA"
"2018-07-14 04:00","2018","07","14","04:00","22.9","","17.8","","73","","22","","9","","","","100.51","","29","","","","NA"
"2018-07-14 05:00","2018","07","14","05:00","23.0","","18.0","","74","","21","","10","","","","100.53","","29","","","","NA"
"2018-07-14 06:00","2018","07","14","06:00","22.9","","18.7","","77","","23","","11","","","","100.57","","29","","","","NA"
"2018-07-14 07:00","2018","07","14","07:00","23.2","","17.9","","72","","25","","9","","","","100.57","","29","","","","NA"
"2018-07-14 08:00","2018","07","14","08:00","23.8","","18.6","","73","","21","","9","","","","100.55","","30","","","","NA"
"2018-07-14 09:00","2018","07","14","09:00","24.8","","18.5","","68","","23","","12","","","","100.55","","31","","","","NA"
"2018-07-14 10:00","2018","07","14","10:00","26.3","","19.7","","67","","22","","15","","","","100.54","","34","","","","NA"
"2018-07-14 11:00","2018","07","14","11:00","25.6","","19.9","","71","","23","","17","","","","100.56","","33","","","","NA"
"2018-07-14 12:00","2018","07","14","12:00","25.4","","19.5","","70","","22","","14","","","","100.54","","33","","","","NA"
"2018-07-14 13:00","2018","07","14","13:00","26.8","","20.2","","67","","21","","16","","","","100.50","","35","","","","NA"
"2018-07-14 14:00","2018","07","14","14:00","26.7","","20.1","","67","","23","","18","","","","100.51","","34","","","","NA"
"2018-07-14 15:00","2018","07","14","15:00","24.3","","20.7","","80","","24","","22","","","","100.51","","32","","","","NA"
"2018-07-14 16:00","2018","07","14","16:00","23.8","","21.5","","87","","24","","15","","","","100.47","","33","","","","NA"
"2018-07-14 17:00","2018","07","14","17:00","25.1","","21.5","","81","","24","","17","","","","100.42","","34","","","","NA"
"2018-07-14 18:00","2018","07","14","18:00","24.7","","20.9","","79","","24","","19","","","","100.40","","33","","","","NA"
"2018-07-14 19:00","2018","07","14","19:00","24.9","","20.7","","78","","25","","13","","","","100.36","","33","","","","NA"
"2018-07-14 20:00","2018","07","14","20:00","23.3","","21.4","","89","","24","","14","","","","100.37","","32","","","","NA"
"2018-07-14 21:00","2018","07","14","21:00","23.1","","21.4","","90","","23","","14","","","","100.38","","32","","","","NA"
"2018-07-14 22:00","2018","07","14","22:00","22.9","","20.8","","88","","24","","15","","","","100.38","","31","","","","NA"
"2018-07-14 23:00","2018","07","14","23:00","21.5","","20.0","","91","","31","","7","","","","100.44","","29","","","","NA"
"2018-07-15 00:00","2018","07","15","00:00","21.1","","20.0","","93","","23","","1","","","","100.43","","29","","","","NA"
"2018-07-15 01:00","2018","07","15","01:00","21.7","","20.0","","90","","23","","12","","","","100.43","","29","","","","NA"
"2018-07-15 02:00","2018","07","15","02:00","21.3","","19.9","","92","","22","","14","","","","100.38","","29","","","","NA"
"2018-07-15 03:00","2018","07","15","03:00","21.6","","20.4","","93","","24","","13","","","","100.39","","30","","","","NA"
"2018-07-15 04:00","2018","07","15","04:00","21.6","","19.9","","90","","28","","7","","","","100.44","","29","","","","NA"
"2018-07-15 05:00","2018","07","15","05:00","20.3","","19.3","","94","","27","","6","","","","100.43","","27","","","","NA"
"2018-07-15 06:00","2018","07","15","06:00","21.4","","19.9","","91","","27","","9","","","","100.42","","29","","","","NA"
"2018-07-15 07:00","2018","07","15","07:00","22.8","","20.4","","87","","23","","9","","","","100.44","","31","","","","NA"
"2018-07-15 08:00","2018","07","15","08:00","23.8","","20.6","","82","","21","","8","","","","100.42","","32","","","","NA"
"2018-07-15 09:00","2018","07","15","09:00","25.9","","20.2","","71","","16","","7","","","","100.40","","34","","","","NA"
"2018-07-15 10:00","2018","07","15","10:00","26.1","","20.5","","71","","17","","12","","","","100.40","","34","","","","NA"
"2018-07-15 11:00","2018","07","15","11:00","26.4","","21.4","","74","","17","","16","","","","100.41","","35","","","","NA"
"2018-07-15 12:00","2018","07","15","12:00","25.6","","21.6","","78","","17","","17","","","","100.41","","35","","","","NA"
"2018-07-15 13:00","2018","07","15","13:00","25.5","","21.0","","76","","17","","17","","","","100.39","","34","","","","NA"
"2018-07-15 14:00","2018","07","15","14:00","26.2","","21.3","","75","","19","","19","","","","100.38","","35","","","","NA"
"2018-07-15 15:00","2018","07","15","15:00","27.4","","20.9","","68","","19","","18","","","","100.36","","36","","","","NA"
"2018-07-15 16:00","2018","07","15","16:00","28.2","","20.7","","64","","19","","14","","","","100.31","","36","","","","NA"
"2018-07-15 17:00","2018","07","15","17:00","27.2","","20.4","","66","","19","","12","","","","100.28","","35","","","","NA"
"2018-07-15 18:00","2018","07","15","18:00","26.8","","20.4","","68","","18","","8","","","","100.26","","35","","","","NA"
"2018-07-15 19:00","2018","07","15","19:00","25.2","","21.2","","79","","16","","4","","","","100.26","","34","","","","NA"
"2018-07-15 20:00","2018","07","15","20:00","23.5","","20.1","","81","","0","","1","","","","100.26","","31","","","","NA"
"2018-07-15 21:00","2018","07","15","21:00","23.4","","20.4","","84","","15","","5","","","","100.31","","31","","","","NA"
"2018-07-15 22:00","2018","07","15","22:00","22.1","","21.2","","95","","16","","3","","","","100.32","","31","","","","NA"
"2018-07-15 23:00","2018","07","15","23:00","22.3","","21.3","","94","","18","","8","","","","100.33","","31","","","","NA"
"2018-07-16 00:00","2018","07","16","00:00","21.7","","21.1","","97","","18","","6","","","","100.33","","30","","","","NA"
"2018-07-16 01:00","2018","07","16","01:00","19.4","","18.7","","96","","","","0","","","","100.35","","","","","","NA"
"2018-07-16 02:00","2018","07","16","02:00","20.0","","19.7","","98","","","","0","","","","100.34","","27","","","","NA"
"2018-07-16 03:00","2018","07","16","03:00","19.1","","18.8","","98","","","","0","","","","100.30","","","","","","NA"
"2018-07-16 04:00","2018","07","16","04:00","18.3","","18.1","","98","","34","","2","","","","100.30","","","","","","NA"
"2018-07-16 05:00","2018","07","16","05:00","17.6","","17.2","","98","","34","","1","","","","100.30","","","","","","NA"
"2018-07-16 06:00","2018","07","16","06:00","19.2","","18.9","","98","","35","","3","","","","100.34","","","","","","NA"
"2018-07-16 07:00","2018","07","16","07:00","22.5","","22.2","","98","","15","","9","","","","100.32","","32","","","","NA"
"2018-07-16 08:00","2018","07","16","08:00","24.4","","21.4","","84","","16","","12","","","","100.32","","33","","","","NA"
"2018-07-16 09:00","2018","07","16","09:00","24.2","","21.2","","84","","16","","13","","","","100.30","","33","","","","NA"
"2018-07-16 10:00","2018","07","16","10:00","25.1","","21.5","","81","","16","","12","","","","100.26","","34","","","","NA"
"2018-07-16 11:00","2018","07","16","11:00","25.6","","21.3","","77","","18","","15","","","","100.24","","34","","","","NA"
"2018-07-16 12:00","2018","07","16","12:00","25.7","","21.6","","78","","16","","14","","","","100.18","","35","","","","NA"
"2018-07-16 13:00","2018","07","16","13:00","25.6","","22.0","","81","","19","","14","","","","100.15","","35","","","","NA"
"2018-07-16 14:00","2018","07","16","14:00","26.0","","21.4","","76","","18","","14","","","","100.06","","35","","","","NA"
"2018-07-16 15:00","2018","07","16","15:00","25.9","","21.9","","79","","15","","8","","","","100.03","","35","","","","NA"
"2018-07-16 16:00","2018","07","16","16:00","26.3","","22.1","","78","","15","","6","","","","99.96","","36","","","","NA"
"2018-07-16 17:00","2018","07","16","17:00","27.2","","22.0","","73","","16","","5","","","","99.89","","37","","","","NA"
"2018-07-16 18:00","2018","07","16","18:00","26.0","","21.8","","78","","16","","6","","","","99.88","","35","","","","NA"
"2018-07-16 19:00","2018","07","16","19:00","25.2","","21.9","","82","","19","","5","","","","99.84","","34","","","","NA"
"2018-07-16 20:00","2018","07","16","20:00","24.8","","20.6","","78","","23","","7","","","","99.80","","33","","","","NA"
"2018-07-16 21:00","2018","07","16","21:00","24.7","","21.4","","82","","19","","11","","","","99.82","","33","","","","NA"
"2018-07-16 22:00","2018","07","16","22:00","24.2","","21.9","","87","","19","","16","","","","99.86","","33","","","","NA"
"2018-07-16 23:00","2018","07","16","23:00","24.1","","22.0","","88","","24","","7","","","","99.87","","33","","","","NA"
"2018-07-17 00:00","2018","07","17","00:00","24.0","","22.1","","90","","20","","12","","","","99.79","","33","","","","NA"
"2018-07-17 01:00","2018","07","17","01:00","22.8","","20.7","","88","","19","","26","","","","99.78","","31","","","","NA"
"2018-07-17 02:00","2018","07","17","02:00","22.7","","21.0","","90","","23","","15","","","","99.71","","31","","","","NA"
"2018-07-17 03:00","2018","07","17","03:00","22.9","","21.5","","92","","18","","17","","","","99.73","","32","","","","NA"
"2018-07-17 04:00","2018","07","17","04:00","23.0","","21.9","","94","","17","","17","","","","99.71","","32","","","","NA"
"2018-07-17 05:00","2018","07","17","05:00","23.0","","21.7","","92","","21","","13","","","","99.71","","32","","","","NA"
"2018-07-17 06:00","2018","07","17","06:00","23.0","","21.2","","90","","26","","9","","","","99.71","","32","","","","NA"
"2018-07-17 07:00","2018","07","17","07:00","23.3","","20.8","","86","","27","","11","","","","99.76","","32","","","","NA"
"2018-07-17 08:00","2018","07","17","08:00","24.8","","18.1","","66","","31","","15","","","","99.80","","31","","","","NA"
"2018-07-17 09:00","2018","07","17","09:00","25.9","","17.1","","58","","34","","15","","","","99.80","","31","","","","NA"
"2018-07-17 10:00","2018","07","17","10:00","27.7","","13.7","","42","","32","","20","","","","99.80","","31","","","","NA"
"2018-07-17 11:00","2018","07","17","11:00","29.1","","12.4","","36","","28","","14","","","","99.74","","32","","","","NA"
"2018-07-17 12:00","2018","07","17","12:00","29.2","","12.0","","34","","24","","25","","","","99.72","","31","","","","NA"
"2018-07-17 13:00","2018","07","17","13:00","29.7","","10.9","","31","","26","","26","","","","99.71","","31","","","","NA"
"2018-07-17 14:00","2018","07","17","14:00","29.2","","10.9","","32","","25","","23","","","","99.68","","31","","","","NA"
"2018-07-17 15:00","2018","07","17","15:00","29.3","","10.3","","31","","29","","21","","","","99.69","","31","","","","NA"
"2018-07-17 16:00","2018","07","17","16:00","28.5","","11.0","","34","","30","","20","","","","99.72","","30","","","","NA"
"2018-07-17 17:00","2018","07","17","17:00","27.7","","10.2","","33","","31","","20","","","","99.73","","29","","","","NA"
"2018-07-17 18:00","2018","07","17","18:00","26.4","","10.2","","36","","32","","14","","","","99.77","","28","","","","NA"
"2018-07-17 19:00","2018","07","17","19:00","26.0","","11.1","","39","","33","","20","","","","99.86","","28","","","","NA"
"2018-07-17 20:00","2018","07","17","20:00","24.7","","11.5","","44","","35","","18","","","","99.97","","27","","","","NA"
"2018-07-17 21:00","2018","07","17","21:00","23.3","","11.9","","49","","36","","18","","","","100.08","","26","","","","NA"
"2018-07-17 22:00","2018","07","17","22:00","22.3","","11.3","","50","","36","","23","","","","100.12","","","","","","NA"
"2018-07-17 23:00","2018","07","17","23:00","20.8","","11.7","","56","","36","","18","","","","100.16","","","","","","NA"
"2018-07-18 00:00","2018","07","18","00:00","19.6","","11.5","","60","","36","","18","","","","100.19","","","","","","NA"
"2018-07-18 01:00","2018","07","18","01:00","17.4","","11.6","","69","","36","","12","","","","100.26","","","","","","NA"
"2018-07-18 02:00","2018","07","18","02:00","17.6","","11.7","","69","","2","","11","","","","100.32","","","","","","NA"
"2018-07-18 03:00","2018","07","18","03:00","17.1","","10.7","","66","","2","","16","","","","100.38","","","","","","NA"
"2018-07-18 04:00","2018","07","18","04:00","16.2","","10.0","","67","","2","","12","","","","100.44","","","","","","NA"
"2018-07-18 05:00","2018","07","18","05:00","15.1","","9.2","","68","","1","","10","","","","100.52","","","","","","NA"
"2018-07-18 06:00","2018","07","18","06:00","16.1","","9.2","","64","","36","","12","","","","100.59","","","","","","NA"
"2018-07-18 07:00","2018","07","18","07:00","17.5","","6.6","","49","","1","","22","","","","100.65","","","","","","NA"
"2018-07-18 08:00","2018","07","18","08:00","18.7","","4.9","","40","","3","","19","","","","100.68","","","","","","NA"
"2018-07-18 09:00","2018","07","18","09:00","20.2","","7.2","","43","","4","","17","","","","100.67","","","","","","NA"
"2018-07-18 10:00","2018","07","18","10:00","20.8","","5.7","","37","","2","","17","","","","100.67","","","","","","NA"
"2018-07-18 11:00","2018","07","18","11:00","20.9","","5.0","","35","","4","","14","","","","100.64","","","","","","NA"
"2018-07-18 12:00","2018","07","18","12:00","22.9","","7.4","","37","","34","","11","","","","100.63","","","","","","NA"
"2018-07-18 13:00","2018","07","18","13:00","23.2","","6.7","","35","","1","","14","","","","100.58","","","","","","NA"
"2018-07-18 14:00","2018","07","18","14:00","22.4","","9.0","","42","","19","","21","","","","100.58","","","","","","NA"
"2018-07-18 15:00","2018","07","18","15:00","22.6","","9.6","","44","","19","","23","","","","100.54","","","","","","NA"
"2018-07-18 16:00","2018","07","18","16:00","22.9","","10.2","","45","","22","","20","","","","100.53","","","","","","NA"
"2018-07-18 17:00","2018","07","18","17:00","22.3","","10.7","","48","","20","","19","","","","100.50","","","","","","NA"
"2018-07-18 18:00","2018","07","18","18:00","21.9","","11.2","","51","","22","","19","","","","100.50","","","","","","NA"
"2018-07-18 19:00","2018","07","18","19:00","20.7","","11.6","","56","","21","","15","","","","100.51","","","","","","NA"
"2018-07-18 20:00","2018","07","18","20:00","19.5","","11.7","","60","","24","","14","","","","100.52","","","","","","NA"
"2018-07-18 21:00","2018","07","18","21:00","18.0","","12.6","","71","","22","","11","","","","100.56","","","","","","NA"
"2018-07-18 22:00","2018","07","18","22:00","18.3","","12.4","","69","","25","","12","","","","100.59","","","","","","NA"
"2018-07-18 23:00","2018","07","18","23:00","17.2","","12.8","","75","","25","","8","","","","100.57","","","","","","NA"
"2018-07-19 00:00","2018","07","19","00:00","14.4","","12.7","","90","","3","","4","","","","100.61","","","","","","NA"
"2018-07-19 01:00","2018","07","19","01:00","13.6","","11.5","","87","","9","","3","","","","100.63","","","","","","NA"
"2018-07-19 02:00","2018","07","19","02:00","13.2","","11.5","","90","","","","0","","","","100.64","","","","","","NA"
"2018-07-19 03:00","2018","07","19","03:00","11.5","","10.4","","93","","33","","3","","","","100.66","","","","","","NA"
"2018-07-19 04:00","2018","07","19","04:00","11.1","","10.3","","95","","30","","7","","","","100.68","","","","","","NA"
"2018-07-19 05:00","2018","07","19","05:00","13.9","","11.4","","85","","28","","7","","","","100.71","","","","","","NA"
"2018-07-19 06:00","2018","07","19","06:00","15.2","","11.9","","81","","29","","8","","","","100.77","","","","","","NA"
"2018-07-19 07:00","2018","07","19","07:00","17.6","","11.9","","69","","26","","9","","","","100.78","","","","","","NA"
"2018-07-19 08:00","2018","07","19","08:00","19.8","","12.5","","63","","23","","12","","","","100.83","","","","","","NA"
"2018-07-19 09:00","2018","07","19","09:00","21.2","","13.7","","63","","18","","11","","","","100.84","","","","","","NA"
"2018-07-19 10:00","2018","07","19","10:00","23.1","","14.9","","60","","18","","16","","","","100.84","","27","","","","NA"
"2018-07-19 11:00","2018","07","19","11:00","22.9","","14.5","","59","","19","","21","","","","100.83","","27","","","","NA"
"2018-07-19 12:00","2018","07","19","12:00","23.3","","12.6","","51","","19","","26","","","","100.80","","26","","","","NA"
"2018-07-19 13:00","2018","07","19","13:00","24.3","","11.6","","45","","19","","24","","","","100.81","","26","","","","NA"
"2018-07-19 14:00","2018","07","19","14:00","24.2","","12.3","","47","","19","","23","","","","100.78","","27","","","","NA"
"2018-07-19 15:00","2018","07","19","15:00","24.1","","11.4","","45","","19","","21","","","","100.76","","26","","","","NA"
"2018-07-19 16:00","2018","07","19","16:00","24.1","","12.3","","48","","18","","16","","","","100.72","","27","","","","NA"
"2018-07-19 17:00","2018","07","19","17:00","23.9","","11.8","","47","","18","","16","","","","100.69","","26","","","","NA"
"2018-07-19 18:00","2018","07","19","18:00","23.5","","12.2","","49","","18","","12","","","","100.69","","26","","","","NA"
"2018-07-19 19:00","2018","07","19","19:00","22.6","","13.2","","55","","16","","11","","","","100.69","","26","","","","NA"
"2018-07-19 20:00","2018","07","19","20:00","21.6","","14.0","","62","","14","","6","","","","100.71","","25","","","","NA"
"2018-07-19 21:00","2018","07","19","21:00","18.8","","13.4","","71","","10","","5","","","","100.72","","","","","","NA"
"2018-07-19 22:00","2018","07","19","22:00","18.0","","14.1","","78","","12","","1","","","","100.70","","","","","","NA"
"2018-07-19 23:00","2018","07","19","23:00","16.3","","13.8","","85","","1","","2","","","","100.72","","","","","","NA"
"2018-07-20 00:00","2018","07","20","00:00","15.6","","13.7","","88","","5","","1","","","","100.71","","","","","","NA"
"2018-07-20 01:00","2018","07","20","01:00","14.0","","12.0","","88","","36","","3","","","","100.69","","","","","","NA"
"2018-07-20 02:00","2018","07","20","02:00","13.6","","12.0","","90","","8","","4","","","","100.70","","","","","","NA"
"2018-07-20 03:00","2018","07","20","03:00","13.8","","12.1","","90","","7","","4","","","","100.72","","","","","","NA"
"2018-07-20 04:00","2018","07","20","04:00","13.2","","11.7","","91","","36","","3","","","","100.74","","","","","","NA"
"2018-07-20 05:00","2018","07","20","05:00","12.1","","10.8","","92","","5","","4","","","","100.72","","","","","","NA"
"2018-07-20 06:00","2018","07","20","06:00","17.2","","15.0","","87","","7","","6","","","","100.78","","","","","","NA"
"2018-07-20 07:00","2018","07","20","07:00","21.3","","15.8","","71","","13","","8","","","","100.79","","26","","","","NA"
"2018-07-20 08:00","2018","07","20","08:00","23.0","","16.0","","65","","16","","17","","","","100.82","","28","","","","NA"
"2018-07-20 09:00","2018","07","20","09:00","23.4","","15.9","","62","","17","","18","","","","100.81","","28","","","","NA"
"2018-07-20 10:00","2018","07","20","10:00","24.2","","16.5","","62","","16","","15","","","","100.81","","29","","","","NA"
"2018-07-20 11:00","2018","07","20","11:00","25.3","","17.4","","62","","16","","16","","","","100.79","","31","","","","NA"
"2018-07-20 12:00","2018","07","20","12:00","25.9","","17.0","","58","","15","","16","","","","100.71","","31","","","","NA"
"2018-07-20 13:00","2018","07","20","13:00","27.5","","17.5","","55","","15","","17","","","","100.67","","33","","","","NA"
"2018-07-20 14:00","2018","07","20","14:00","27.6","","15.3","","47","","15","","12","","","","100.61","","32","","","","NA"
"2018-07-20 15:00","2018","07","20","15:00","28.8","","14.7","","42","","15","","11","","","","100.53","","33","","","","NA"
"2018-07-20 16:00","2018","07","20","16:00","29.0","","15.0","","42","","15","","13","","","","100.49","","33","","","","NA"
"2018-07-20 17:00","2018","07","20","17:00","28.6","","14.3","","42","","15","","10","","","","100.45","","32","","","","NA"
"2018-07-20 18:00","2018","07","20","18:00","27.9","","15.5","","47","","14","","13","","","","100.43","","32","","","","NA"
"2018-07-20 19:00","2018","07","20","19:00","26.0","","16.5","","56","","14","","15","","","","100.42","","31","","","","NA"
"2018-07-20 20:00","2018","07","20","20:00","25.6","","17.1","","59","","13","","15","","","","100.43","","31","","","","NA"
"2018-07-20 21:00","2018","07","20","21:00","24.7","","17.5","","64","","14","","13","","","","100.47","","30","","","","NA"
"2018-07-20 22:00","2018","07","20","22:00","24.5","","16.5","","61","","12","","14","","","","100.45","","29","","","","NA"
"2018-07-20 23:00","2018","07","20","23:00","24.3","","17.1","","64","","13","","19","","","","100.44","","30","","","","NA"
"2018-07-21 00:00","2018","07","21","00:00","24.1","","16.7","","63","","14","","23","","","","100.48","","29","","","","NA"
"2018-07-21 01:00","2018","07","21","01:00","23.2","","17.8","","72","","14","","19","","","","100.51","","29","","","","NA"
"2018-07-21 02:00","2018","07","21","02:00","22.6","","17.0","","71","","14","","19","","","","100.54","","28","","","","NA"
"2018-07-21 03:00","2018","07","21","03:00","22.2","","16.8","","72","","13","","19","","","","100.55","","27","","","","NA"
"2018-07-21 04:00","2018","07","21","04:00","21.8","","15.9","","69","","14","","24","","","","100.56","","26","","","","NA"
"2018-07-21 05:00","2018","07","21","05:00","21.4","","15.1","","67","","14","","29","","","","100.55","","25","","","","NA"
"2018-07-21 06:00","2018","07","21","06:00","21.6","","14.6","","64","","14","","25","","","","100.56","","25","","","","NA"
"2018-07-21 07:00","2018","07","21","07:00","21.2","","13.6","","62","","14","","29","","","","100.58","","","","","","NA"
"2018-07-21 08:00","2018","07","21","08:00","21.9","","14.2","","62","","14","","24","","","","100.59","","25","","","","NA"
"2018-07-21 09:00","2018","07","21","09:00","23.1","","15.1","","61","","14","","19","","","","100.61","","27","","","","NA"
"2018-07-21 10:00","2018","07","21","10:00","23.8","","12.6","","49","","14","","27","","","","100.60","","26","","","","NA"
"2018-07-21 11:00","2018","07","21","11:00","24.6","","13.4","","50","","13","","17","","","","100.58","","28","","","","NA"
"2018-07-21 12:00","2018","07","21","12:00","23.8","","13.8","","54","","17","","9","","","","100.53","","27","","","","NA"
"2018-07-21 13:00","2018","07","21","13:00","25.4","","15.4","","54","","20","","19","","","","100.47","","30","","","","NA"
"2018-07-21 14:00","2018","07","21","14:00","26.1","","12.1","","42","","19","","18","","","","100.44","","28","","","","NA"
"2018-07-21 15:00","2018","07","21","15:00","27.3","","10.6","","35","","20","","16","","","","100.42","","29","","","","NA"
"2018-07-21 16:00","2018","07","21","16:00","26.4","","9.9","","35","","21","","10","","","","100.38","","28","","","","NA"
"2018-07-21 17:00","2018","07","21","17:00","26.6","","10.8","","37","","25","","3","","","","100.33","","28","","","","NA"
"2018-07-21 18:00","2018","07","21","18:00","26.4","","11.2","","39","","22","","4","","","","100.35","","28","","","","NA"
"2018-07-21 19:00","2018","07","21","19:00","25.1","","11.7","","43","","16","","3","","","","100.36","","27","","","","NA"
"2018-07-21 20:00","2018","07","21","20:00","23.7","","12.9","","51","","11","","6","","","","100.37","","26","","","","NA"
"2018-07-21 21:00","2018","07","21","21:00","24.0","","15.6","","59","","13","","12","","","","100.39","","28","","","","NA"
"2018-07-21 22:00","2018","07","21","22:00","22.4","","13.4","","57","","11","","10","","","","100.40","","25","","","","NA"
"2018-07-21 23:00","2018","07","21","23:00","23.7","","13.9","","54","","13","","17","","","","100.38","","27","","","","NA"
"2018-07-22 00:00","2018","07","22","00:00","23.1","","12.6","","52","","12","","19","","","","100.35","","26","","","","NA"
"2018-07-22 01:00","2018","07","22","01:00","20.9","","12.6","","59","","8","","11","","","","100.30","","","","","","NA"
"2018-07-22 02:00","2018","07","22","02:00","21.8","","12.7","","56","","9","","16","","","","100.23","","","","","","NA"
"2018-07-22 03:00","2018","07","22","03:00","21.5","","12.9","","58","","8","","18","","","","100.17","","","","","","NA"
"2018-07-22 04:00","2018","07","22","04:00","20.0","","12.8","","63","","7","","18","","","","100.14","","","","","","NA"
"2018-07-22 05:00","2018","07","22","05:00","16.9","","15.3","","90","","4","","17","","","","100.11","","","","","","NA"
"2018-07-22 06:00","2018","07","22","06:00","17.2","","15.7","","91","","4","","20","","","","100.04","","","","","","NA"
"2018-07-22 07:00","2018","07","22","07:00","17.2","","15.9","","92","","4","","29","","","","99.98","","","","","","NA"
"2018-07-22 08:00","2018","07","22","08:00","19.5","","16.7","","84","","5","","27","","","","99.95","","","","","","NA"
"2018-07-22 09:00","2018","07","22","09:00","21.9","","17.1","","74","","6","","29","","","","99.88","","27","","","","NA"
"2018-07-22 10:00","2018","07","22","10:00","22.2","","17.3","","74","","6","","34","","","","99.88","","28","","","","NA"
"2018-07-22 11:00","2018","07","22","11:00","22.8","","17.8","","73","","6","","27","","","","99.89","","29","","","","NA"
"2018-07-22 12:00","2018","07","22","12:00","23.0","","18.7","","77","","7","","25","","","","99.90","","30","","","","NA"
"2018-07-22 13:00","2018","07","22","13:00","24.0","","19.1","","74","","6","","21","","","","99.91","","31","","","","NA"
"2018-07-22 14:00","2018","07","22","14:00","25.3","","19.3","","69","","7","","13","","","","99.95","","32","","","","NA"
"2018-07-22 15:00","2018","07","22","15:00","26.8","","19.8","","65","","10","","7","","","","99.98","","34","","","","NA"
"2018-07-22 16:00","2018","07","22","16:00","27.4","","20.3","","65","","17","","11","","","","100.02","","35","","","","NA"
"2018-07-22 17:00","2018","07","22","17:00","27.4","","19.2","","61","","20","","18","","","","100.06","","34","","","","NA"
"2018-07-22 18:00","2018","07","22","18:00","27.8","","18.9","","58","","22","","8","","","","100.12","","34","","","","NA"
"2018-07-22 19:00","2018","07","22","19:00","25.2","","19.6","","71","","6","","5","","","","100.19","","32","","","","NA"
"2018-07-22 20:00","2018","07","22","20:00","24.4","","20.1","","77","","8","","12","","","","100.29","","32","","","","NA"
"2018-07-22 21:00","2018","07","22","21:00","23.6","","20.2","","81","","7","","11","","","","100.33","","31","","","","NA"
"2018-07-22 22:00","2018","07","22","22:00","24.2","","20.1","","78","","10","","12","","","","100.37","","32","","","","NA"
"2018-07-22 23:00","2018","07","22","23:00","23.4","","20.0","","81","","9","","12","","","","100.35","","31","","","","NA"
"2018-07-23 00:00","2018","07","23","00:00","23.8","","19.9","","79","","11","","11","","","","100.34","","31","","","","NA"
"2018-07-23 01:00","2018","07","23","01:00","22.7","","19.8","","84","","9","","9","","","","100.34","","30","","","","NA"
"2018-07-23 02:00","2018","07","23","02:00","22.7","","20.0","","85","","9","","12","","","","100.32","","30","","","","NA"
"2018-07-23 03:00","2018","07","23","03:00","22.9","","20.1","","84","","10","","9","","","","100.36","","31","","","","NA"
"2018-07-23 04:00","2018","07","23","04:00","23.0","","20.2","","84","","10","","12","","","","100.36","","31","","","","NA"
"2018-07-23 05:00","2018","07","23","05:00","22.7","","20.2","","86","","10","","12","","","","100.43","","30","","","","NA"
"2018-07-23 06:00","2018","07","23","06:00","23.6","","20.8","","84","","15","","15","","","","100.52","","32","","","","NA"
"2018-07-23 07:00","2018","07","23","07:00","23.7","","20.8","","84","","10","","10","","","","100.51","","32","","","","NA"
"2018-07-23 08:00","2018","07","23","08:00","24.7","","21.3","","81","","9","","13","","","","100.52","","33","","","","NA"
"2018-07-23 09:00","2018","07","23","09:00","26.6","","21.9","","75","","12","","12","","","","100.51","","36","","","","NA"
"2018-07-23 10:00","2018","07","23","10:00","27.5","","21.5","","70","","17","","10","","","","100.52","","36","","","","NA"
"2018-07-23 11:00","2018","07","23","11:00","28.2","","22.1","","70","","16","","13","","","","100.55","","38","","","","NA"
"2018-07-23 12:00","2018","07","23","12:00","27.5","","21.7","","71","","16","","16","","","","100.55","","37","","","","NA"
"2018-07-23 13:00","2018","07","23","13:00","26.9","","21.9","","74","","18","","13","","","","100.52","","36","","","","NA"
"2018-07-23 14:00","2018","07","23","14:00","27.0","","21.4","","72","","18","","13","","","","100.49","","36","","","","NA"
"2018-07-23 15:00","2018","07","23","15:00","28.2","","20.7","","64","","23","","8","","","","100.47","","36","","","","NA"
"2018-07-23 16:00","2018","07","23","16:00","26.9","","21.7","","73","","19","","7","","","","100.53","","36","","","","NA"
"2018-07-23 17:00","2018","07","23","17:00","26.3","","21.6","","76","","19","","12","","","","100.49","","35","","","","NA"
"2018-07-23 18:00","2018","07","23","18:00","24.2","","21.6","","85","","16","","13","","","","100.55","","33","","","","NA"
"2018-07-23 19:00","2018","07","23","19:00","24.0","","22.2","","90","","15","","10","","","","100.63","","34","","","","NA"
"2018-07-23 20:00","2018","07","23","20:00","23.9","","22.5","","92","","14","","16","","","","100.67","","34","","","","NA"
"2018-07-23 21:00","2018","07","23","21:00","23.7","","22.3","","92","","11","","10","","","","100.65","","33","","","","NA"
"2018-07-23 22:00","2018","07","23","22:00","24.5","","22.2","","87","","13","","16","","","","100.62","","34","","","","NA"
"2018-07-23 23:00","2018","07","23","23:00","24.3","","22.3","","89","","14","","30","","","","100.61","","34","","","","NA"
"2018-07-24 00:00","2018","07","24","00:00","24.2","","21.9","","87","","14","","29","","","","100.60","","33","","","","NA"
"2018-07-24 01:00","2018","07","24","01:00","24.0","","21.8","","88","","14","","31","","","","100.58","","33","","","","NA"
"2018-07-24 02:00","2018","07","24","02:00","23.9","","21.7","","88","","16","","28","","","","100.59","","33","","","","NA"
"2018-07-24 03:00","2018","07","24","03:00","23.4","","21.7","","90","","16","","25","","","","100.59","","32","","","","NA"
"2018-07-24 04:00","2018","07","24","04:00","23.1","","21.7","","92","","16","","24","","","","100.60","","32","","","","NA"
"2018-07-24 05:00","2018","07","24","05:00","23.3","","21.7","","91","","15","","19","","","","100.58","","32","","","","NA"
"2018-07-24 06:00","2018","07","24","06:00","23.5","","21.4","","88","","15","","26","","","","100.57","","32","","","","NA"
"2018-07-24 07:00","2018","07","24","07:00","23.9","","21.6","","87","","16","","26","","","","100.60","","33","","","","NA"
"2018-07-24 08:00","2018","07","24","08:00","23.8","","21.5","","87","","17","","27","","","","100.62","","33","","","","NA"
"2018-07-24 09:00","2018","07","24","09:00","24.5","","21.9","","86","","17","","24","","","","100.64","","34","","","","NA"
"2018-07-24 10:00","2018","07","24","10:00","25.3","","22.2","","83","","16","","28","","","","100.64","","35","","","","NA"
"2018-07-24 11:00","2018","07","24","11:00","25.6","","22.4","","83","","16","","26","","","","100.63","","35","","","","NA"
"2018-07-24 12:00","2018","07","24","12:00","24.5","","21.7","","85","","16","","30","","","","100.61","","34","","","","NA"
"2018-07-24 13:00","2018","07","24","13:00","23.6","","22.2","","92","","16","","30","","","","100.57","","33","","","","NA"
"2018-07-24 14:00","2018","07","24","14:00","23.4","","22.3","","94","","16","","27","","","","100.55","","33","","","","NA"
"2018-07-24 15:00","2018","07","24","15:00","22.8","","21.8","","94","","15","","29","","","","100.53","","32","","","","NA"
"2018-07-24 16:00","2018","07","24","16:00","22.7","","21.6","","94","","16","","26","","","","100.50","","32","","","","NA"
"2018-07-24 17:00","2018","07","24","17:00","23.1","","21.9","","93","","15","","24","","","","100.45","","32","","","","NA"
"2018-07-24 18:00","2018","07","24","18:00","23.3","","22.4","","95","","15","","17","","","","100.44","","33","","","","NA"
"2018-07-24 19:00","2018","07","24","19:00","23.0","","22.0","","94","","16","","18","","","","100.40","","32","","","","NA"
"2018-07-24 20:00","2018","07","24","20:00","23.7","","22.3","","92","","14","","24","","","","100.36","","33","","","","NA"
"2018-07-24 21:00","2018","07","24","21:00","23.3","","22.0","","92","","16","","27","","","","100.39","","33","","","","NA"
"2018-07-24 22:00","2018","07","24","22:00","23.2","","22.2","","94","","16","","24","","","","100.36","","33","","","","NA"
"2018-07-24 23:00","2018","07","24","23:00","23.1","","22.0","","94","","17","","27","","","","100.32","","32","","","","NA"
"2018-07-25 00:00","2018","07","25","00:00","23.0","","22.1","","95","","16","","27","","","","100.26","","32","","","","NA"
"2018-07-25 01:00","2018","07","25","01:00","22.8","","22.0","","95","","17","","32","","","","100.21","","32","","","","NA"
"2018-07-25 02:00","2018","07","25","02:00","22.6","","21.9","","96","","16","","34","","","","100.16","","32","","","","NA"
"2018-07-25 03:00","2018","07","25","03:00","22.3","","21.9","","98","","20","","19","","","","100.15","","32","","","","NA"
"2018-07-25 04:00","2018","07","25","04:00","22.5","","21.8","","96","","16","","29","","","","100.12","","32","","","","NA"
"2018-07-25 05:00","2018","07","25","05:00","22.3","","21.7","","96","","16","","26","","","","100.09","","31","","","","NA"
"2018-07-25 06:00","2018","07","25","06:00","22.3","","21.8","","97","","17","","22","","","","100.10","","31","","","","NA"
"2018-07-25 07:00","2018","07","25","07:00","22.2","","21.8","","98","","16","","20","","","","100.06","","31","","","","NA"
"2018-07-25 08:00","2018","07","25","08:00","22.1","","21.7","","97","","16","","26","","","","100.06","","31","","","","NA"
"2018-07-25 09:00","2018","07","25","09:00","22.3","","21.9","","98","","17","","18","","","","100.03","","32","","","","NA"
"2018-07-25 10:00","2018","07","25","10:00","22.5","","22.0","","97","","18","","15","","","","100.04","","32","","","","NA"
"2018-07-25 11:00","2018","07","25","11:00","22.2","","21.9","","98","","14","","13","","","","99.93","","31","","","","NA"
"2018-07-25 12:00","2018","07","25","12:00","22.5","","22.0","","97","","23","","18","","","","99.92","","32","","","","NA"
"2018-07-25 13:00","2018","07","25","13:00","24.2","","22.9","","92","","23","","17","","","","99.93","","34","","","","NA"
"2018-07-25 14:00","2018","07","25","14:00","24.6","","22.2","","87","","22","","12","","","","99.89","","34","","","","NA"
"2018-07-25 15:00","2018","07","25","15:00","24.8","","22.5","","87","","18","","14","","","","99.86","","35","","","","NA"
"2018-07-25 16:00","2018","07","25","16:00","23.8","","22.1","","90","","18","","18","","","","99.81","","33","","","","NA"
"2018-07-25 17:00","2018","07","25","17:00","23.1","","21.8","","92","","19","","19","","","","99.80","","32","","","","NA"
"2018-07-25 18:00","2018","07","25","18:00","21.5","","20.6","","94","","36","","12","","","","99.85","","30","","","","NA"
"2018-07-25 19:00","2018","07","25","19:00","22.1","","20.9","","93","","20","","7","","","","99.83","","30","","","","NA"
"2018-07-25 20:00","2018","07","25","20:00","22.6","","21.8","","96","","14","","9","","","","99.85","","32","","","","NA"
"2018-07-25 21:00","2018","07","25","21:00","22.2","","21.4","","95","","20","","8","","","","99.88","","31","","","","NA"
"2018-07-25 22:00","2018","07","25","22:00","22.0","","21.3","","96","","19","","12","","","","99.89","","31","","","","NA"
"2018-07-25 23:00","2018","07","25","23:00","21.9","","21.3","","96","","20","","13","","","","99.86","","31","","","","NA"
"2018-07-26 00:00","2018","07","26","00:00","21.7","","21.1","","96","","21","","10","","","","99.84","","30","","","","NA"
"2018-07-26 01:00","2018","07","26","01:00","21.8","","20.7","","94","","26","","9","","","","99.79","","30","","","","NA"
"2018-07-26 02:00","2018","07","26","02:00","20.4","","18.7","","90","","29","","9","","","","99.78","","27","","","","NA"
"2018-07-26 03:00","2018","07","26","03:00","19.6","","17.2","","86","","28","","9","","","","99.81","","","","","","NA"
"2018-07-26 04:00","2018","07","26","04:00","18.3","","16.1","","87","","30","","5","","","","99.78","","","","","","NA"
"2018-07-26 05:00","2018","07","26","05:00","17.6","","15.1","","85","","28","","9","","","","99.82","","","","","","NA"
"2018-07-26 06:00","2018","07","26","06:00","17.3","","15.3","","88","","29","","9","","","","99.88","","","","","","NA"
"2018-07-26 07:00","2018","07","26","07:00","18.6","","15.8","","84","","31","","5","","","","99.91","","","","","","NA"
"2018-07-26 08:00","2018","07","26","08:00","20.6","","16.3","","77","","27","","10","","","","99.91","","25","","","","NA"
"2018-07-26 09:00","2018","07","26","09:00","22.4","","17.4","","73","","23","","14","","","","99.93","","28","","","","NA"
"2018-07-26 10:00","2018","07","26","10:00","24.2","","17.4","","66","","22","","17","","","","99.96","","30","","","","NA"
"2018-07-26 11:00","2018","07","26","11:00","24.8","","17.6","","64","","21","","21","","","","99.96","","31","","","","NA"
"2018-07-26 12:00","2018","07","26","12:00","23.9","","19.5","","77","","19","","28","","","","99.93","","31","","","","NA"
"2018-07-26 13:00","2018","07","26","13:00","25.1","","19.0","","69","","19","","25","","","","99.91","","32","","","","NA"
"2018-07-26 14:00","2018","07","26","14:00","25.6","","19.0","","67","","19","","26","","","","99.89","","32","","","","NA"
"2018-07-26 15:00","2018","07","26","15:00","24.7","","18.0","","66","","19","","25","","","","99.86","","31","","","","NA"
"2018-07-26 16:00","2018","07","26","16:00","24.9","","16.9","","61","","18","","17","","","","99.84","","30","","","","NA"
"2018-07-26 17:00","2018","07","26","17:00","24.4","","18.6","","70","","18","","14","","","","99.85","","31","","","","NA"
"2018-07-26 18:00","2018","07","26","18:00","23.6","","19.4","","77","","16","","8","","","","99.86","","31","","","","NA"
"2018-07-26 19:00","2018","07","26","19:00","23.4","","19.1","","77","","17","","9","","","","99.86","","30","","","","NA"
"2018-07-26 20:00","2018","07","26","20:00","23.0","","18.9","","78","","19","","14","","","","99.89","","30","","","","NA"
"2018-07-26 21:00","2018","07","26","21:00","24.4","","17.6","","66","","22","","14","","","","99.91","","30","","","","NA"
"2018-07-26 22:00","2018","07","26","22:00","23.2","","18.7","","76","","25","","12","","","","99.92","","30","","","","NA"
"2018-07-26 23:00","2018","07","26","23:00","22.4","","17.7","","75","","24","","10","","","","99.93","","28","","","","NA"
"2018-07-27 00:00","2018","07","27","00:00","22.6","","17.1","","71","","21","","16","","","","100.00","","28","","","","NA"
"2018-07-27 01:00","2018","07","27","01:00","21.6","","17.7","","78","","22","","14","","","","99.96","","27","","","","NA"
"2018-07-27 02:00","2018","07","27","02:00","20.9","","17.8","","83","","23","","7","","","","99.95","","27","","","","NA"
"2018-07-27 03:00","2018","07","27","03:00","20.7","","18.5","","88","","19","","8","","","","99.97","","27","","","","NA"
"2018-07-27 04:00","2018","07","27","04:00","20.6","","17.7","","84","","22","","9","","","","99.99","","26","","","","NA"
"2018-07-27 05:00","2018","07","27","05:00","21.4","","18.6","","84","","21","","13","","","","100.02","","28","","","","NA"
"2018-07-27 06:00","2018","07","27","06:00","21.7","","18.4","","81","","21","","15","","","","100.06","","28","","","","NA"
"2018-07-27 07:00","2018","07","27","07:00","22.2","","18.1","","77","","21","","17","","","","100.09","","28","","","","NA"
"2018-07-27 08:00","2018","07","27","08:00","22.7","","18.3","","76","","22","","16","","","","100.10","","29","","","","NA"
"2018-07-27 09:00","2018","07","27","09:00","22.9","","18.5","","76","","24","","14","","","","100.14","","29","","","","NA"
"2018-07-27 10:00","2018","07","27","10:00","24.6","","18.6","","70","","21","","15","","","","100.14","","31","","","","NA"
"2018-07-27 11:00","2018","07","27","11:00","23.6","","19.5","","78","","19","","22","","","","100.16","","31","","","","NA"
"2018-07-27 12:00","2018","07","27","12:00","24.7","","18.9","","70","","20","","27","","","","100.18","","31","","","","NA"
"2018-07-27 13:00","2018","07","27","13:00","25.8","","16.4","","56","","21","","29","","","","100.18","","31","","","","NA"
"2018-07-27 14:00","2018","07","27","14:00","25.6","","13.5","","47","","24","","29","","","","100.16","","29","","","","NA"
"2018-07-27 15:00","2018","07","27","15:00","25.6","","14.8","","52","","24","","28","","","","100.16","","29","","","","NA"
"2018-07-27 16:00","2018","07","27","16:00","25.4","","14.1","","49","","24","","30","","","","100.17","","29","","","","NA"
"2018-07-27 17:00","2018","07","27","17:00","24.9","","14.5","","52","","23","","27","","","","100.16","","29","","","","NA"
"2018-07-27 18:00","2018","07","27","18:00","24.3","","14.2","","53","","24","","21","","","","100.16","","28","","","","NA"
"2018-07-27 19:00","2018","07","27","19:00","23.3","","15.2","","60","","24","","20","","","","100.20","","27","","","","NA"
"2018-07-27 20:00","2018","07","27","20:00","22.4","","15.3","","64","","25","","11","","","","100.21","","27","","","","NA"
"2018-07-27 21:00","2018","07","27","21:00","22.0","","15.8","","68","","24","","13","","","","100.28","","26","","","","NA"
"2018-07-27 22:00","2018","07","27","22:00","21.3","","15.8","","71","","25","","8","","","","100.26","","26","","","","NA"
"2018-07-27 23:00","2018","07","27","23:00","20.7","","15.9","","74","","22","","8","","","","100.28","","25","","","","NA"
"2018-07-28 00:00","2018","07","28","00:00","21.6","","17.3","","77","","20","","12","","","","100.28","","27","","","","NA"
"2018-07-28 01:00","2018","07","28","01:00","20.4","","16.4","","78","","21","","9","","","","100.24","","25","","","","NA"
"2018-07-28 02:00","2018","07","28","02:00","20.7","","16.8","","78","","21","","12","","","","100.23","","26","","","","NA"
"2018-07-28 03:00","2018","07","28","03:00","20.5","","17.3","","82","","22","","10","","","","100.19","","26","","","","NA"
"2018-07-28 04:00","2018","07","28","04:00","20.3","","17.7","","85","","23","","12","","","","100.23","","26","","","","NA"
"2018-07-28 05:00","2018","07","28","05:00","19.6","","17.8","","90","","21","","10","","","","100.26","","","","","","NA"
"2018-07-28 06:00","2018","07","28","06:00","20.4","","18.5","","89","","23","","8","","","","100.29","","27","","","","NA"
"2018-07-28 07:00","2018","07","28","07:00","20.6","","18.1","","86","","29","","7","","","","100.32","","27","","","","NA"
"2018-07-28 08:00","2018","07","28","08:00","21.4","","17.5","","79","","24","","12","","","","100.36","","27","","","","NA"
"2018-07-28 09:00","2018","07","28","09:00","22.1","","16.1","","69","","24","","13","","","","100.36","","27","","","","NA"
"2018-07-28 10:00","2018","07","28","10:00","23.1","","16.2","","65","","23","","13","","","","100.39","","28","","","","NA"
"2018-07-28 11:00","2018","07","28","11:00","22.9","","15.1","","62","","22","","16","","","","100.40","","27","","","","NA"
"2018-07-28 12:00","2018","07","28","12:00","23.5","","17.7","","70","","18","","23","","","","100.37","","29","","","","NA"
"2018-07-28 13:00","2018","07","28","13:00","23.9","","18.1","","70","","19","","29","","","","100.33","","30","","","","NA"
"2018-07-28 14:00","2018","07","28","14:00","24.6","","16.1","","59","","22","","23","","","","100.32","","29","","","","NA"
"2018-07-28 15:00","2018","07","28","15:00","24.8","","14.7","","54","","23","","23","","","","100.31","","29","","","","NA"
"2018-07-28 16:00","2018","07","28","16:00","23.8","","15.9","","61","","23","","24","","","","100.31","","28","","","","NA"
"2018-07-28 17:00","2018","07","28","17:00","21.8","","14.9","","65","","25","","26","","","","100.35","","26","","","","NA"
"2018-07-28 18:00","2018","07","28","18:00","22.3","","15.0","","63","","25","","13","","","","100.37","","26","","","","NA"
"2018-07-28 19:00","2018","07","28","19:00","21.2","","14.0","","64","","26","","14","","","","100.43","","25","","","","NA"
"2018-07-28 20:00","2018","07","28","20:00","20.2","","14.0","","67","","26","","13","","","","100.47","","","","","","NA"
"2018-07-28 21:00","2018","07","28","21:00","19.3","","14.1","","72","","26","","14","","","","100.54","","","","","","NA"
"2018-07-28 22:00","2018","07","28","22:00","19.1","","13.9","","72","","27","","13","","","","100.55","","","","","","NA"
"2018-07-28 23:00","2018","07","28","23:00","18.6","","13.9","","74","","26","","12","","","","100.56","","","","","","NA"
"2018-07-29 00:00","2018","07","29","00:00","18.0","","14.1","","78","","27","","12","","","","100.60","","","","","","NA"
"2018-07-29 01:00","2018","07","29","01:00","17.2","","14.2","","83","","27","","11","","","","100.62","","","","","","NA"
"2018-07-29 02:00","2018","07","29","02:00","16.6","","14.1","","85","","29","","11","","","","100.62","","","","","","NA"
"2018-07-29 03:00","2018","07","29","03:00","15.6","","13.8","","89","","27","","6","","","","100.67","","","","","","NA"
"2018-07-29 04:00","2018","07","29","04:00","14.9","","13.6","","92","","28","","11","","","","100.72","","","","","","NA"
"2018-07-29 05:00","2018","07","29","05:00","14.7","","13.5","","93","","28","","13","","","","100.75","","","","","","NA"
"2018-07-29 06:00","2018","07","29","06:00","15.0","","13.6","","91","","29","","10","","","","100.80","","","","","","NA"
"2018-07-29 07:00","2018","07","29","07:00","17.3","","14.6","","84","","31","","8","","","","100.81","","","","","","NA"
"2018-07-29 08:00","2018","07","29","08:00","19.7","","14.7","","73","","29","","11","","","","100.79","","","","","","NA"
"2018-07-29 09:00","2018","07","29","09:00","20.9","","15.0","","69","","25","","12","","","","100.78","","25","","","","NA"
"2018-07-29 10:00","2018","07","29","10:00","21.9","","15.1","","66","","22","","15","","","","100.80","","26","","","","NA"
"2018-07-29 11:00","2018","07","29","11:00","23.2","","15.0","","60","","22","","18","","","","100.79","","27","","","","NA"
"2018-07-29 12:00","2018","07","29","12:00","23.0","","17.4","","71","","19","","26","","","","100.77","","29","","","","NA"
"2018-07-29 13:00","2018","07","29","13:00","23.2","","17.5","","71","","18","","27","","","","100.74","","29","","","","NA"
"2018-07-29 14:00","2018","07","29","14:00","22.8","","16.6","","68","","19","","32","","","","100.71","","28","","","","NA"
"2018-07-29 15:00","2018","07","29","15:00","24.0","","16.5","","63","","20","","22","","","","100.69","","29","","","","NA"
"2018-07-29 16:00","2018","07","29","16:00","23.1","","16.0","","65","","19","","25","","","","100.69","","28","","","","NA"
"2018-07-29 17:00","2018","07","29","17:00","22.4","","14.8","","62","","20","","21","","","","100.71","","26","","","","NA"
"2018-07-29 18:00","2018","07","29","18:00","21.9","","15.6","","67","","20","","13","","","","100.69","","26","","","","NA"
"2018-07-29 19:00","2018","07","29","19:00","21.0","","15.9","","72","","21","","14","","","","100.73","","26","","","","NA"
"2018-07-29 20:00","2018","07","29","20:00","20.3","","14.8","","71","","23","","8","","","","100.71","","","","","","NA"
"2018-07-29 21:00","2018","07","29","21:00","19.8","","14.6","","72","","22","","10","","","","100.76","","","","","","NA"
"2018-07-29 22:00","2018","07","29","22:00","20.0","","15.5","","75","","26","","6","","","","100.79","","","","","","NA"
"2018-07-29 23:00","2018","07","29","23:00","19.5","","15.6","","78","","24","","6","","","","100.82","","","","","","NA"
"2018-07-30 00:00","2018","07","30","00:00","19.7","","16.1","","80","","24","","9","","","","100.85","","","","","","NA"
"2018-07-30 01:00","2018","07","30","01:00","19.3","","16.3","","83","","23","","10","","","","100.84","","","","","","NA"
"2018-07-30 02:00","2018","07","30","02:00","16.6","","15.4","","93","","32","","6","","","","100.86","","","","","","NA"
"2018-07-30 03:00","2018","07","30","03:00","17.3","","15.3","","88","","29","","9","","","","100.85","","","","","","NA"
"2018-07-30 04:00","2018","07","30","04:00","14.9","","14.0","","94","","34","","10","","","","100.83","","","","","","NA"
"2018-07-30 05:00","2018","07","30","05:00","15.0","","14.2","","95","","22","","1","","","","100.88","","","","","","NA"
"2018-07-30 06:00","2018","07","30","06:00","16.8","","16.2","","96","","","","0","","","","100.89","","","","","","NA"
"2018-07-30 07:00","2018","07","30","07:00","20.5","","16.8","","79","","21","","9","","","","100.92","","26","","","","NA"
"2018-07-30 08:00","2018","07","30","08:00","21.5","","14.9","","66","","23","","8","","","","100.91","","25","","","","NA"
"2018-07-30 09:00","2018","07","30","09:00","22.5","","18.0","","75","","18","","8","","","","100.89","","29","","","","NA"
"2018-07-30 10:00","2018","07","30","10:00","23.3","","17.9","","72","","15","","11","","","","100.87","","29","","","","NA"
"2018-07-30 11:00","2018","07","30","11:00","23.2","","17.5","","70","","17","","17","","","","100.88","","29","","","","NA"
"2018-07-30 12:00","2018","07","30","12:00","23.4","","19.2","","77","","17","","15","","","","100.86","","30","","","","NA"
"2018-07-30 13:00","2018","07","30","13:00","23.7","","19.2","","76","","17","","16","","","","100.82","","31","","","","NA"
"2018-07-30 14:00","2018","07","30","14:00","23.8","","18.4","","72","","19","","15","","","","100.82","","30","","","","NA"
"2018-07-30 15:00","2018","07","30","15:00","23.6","","18.6","","74","","18","","14","","","","100.83","","30","","","","NA"
"2018-07-30 16:00","2018","07","30","16:00","23.7","","16.6","","64","","17","","11","","","","100.80","","29","","","","NA"
"2018-07-30 17:00","2018","07","30","17:00","23.6","","16.2","","63","","19","","6","","","","100.73","","28","","","","NA"
"2018-07-30 18:00","2018","07","30","18:00","23.8","","15.9","","61","","22","","7","","","","100.72","","28","","","","NA"
"2018-07-30 19:00","2018","07","30","19:00","23.0","","17.2","","70","","16","","6","","","","100.71","","28","","","","NA"
"2018-07-30 20:00","2018","07","30","20:00","20.7","","16.6","","77","","15","","3","","","","100.69","","26","","","","NA"
"2018-07-30 21:00","2018","07","30","21:00","21.2","","16.2","","73","","20","","6","","","","100.73","","26","","","","NA"
"2018-07-30 22:00","2018","07","30","22:00","22.2","","18.6","","80","","20","","12","","","","100.78","","29","","","","NA"
"2018-07-30 23:00","2018","07","30","23:00","20.7","","16.8","","78","","22","","7","","","","100.75","","26","","","","NA"
"2018-07-31 00:00","2018","07","31","00:00","20.9","","17.2","","79","","20","","8","","","","100.79","","26","","","","NA"
"2018-07-31 01:00","2018","07","31","01:00","21.1","","18.0","","83","","20","","9","","","","100.78","","27","","","","NA"
"2018-07-31 02:00","2018","07","31","02:00","21.2","","18.7","","86","","18","","14","","","","100.78","","28","","","","NA"
"2018-07-31 03:00","2018","07","31","03:00","21.1","","18.1","","83","","17","","17","","","","100.77","","27","","","","NA"
"2018-07-31 04:00","2018","07","31","04:00","20.6","","17.3","","82","","16","","16","","","","100.81","","26","","","","NA"
"2018-07-31 05:00","2018","07","31","05:00","20.8","","17.1","","79","","15","","16","","","","100.81","","26","","","","NA"
"2018-07-31 06:00","2018","07","31","06:00","20.6","","17.3","","82","","13","","14","","","","100.82","","26","","","","NA"
"2018-07-31 07:00","2018","07","31","07:00","20.7","","17.3","","81","","12","","11","","","","100.84","","26","","","","NA"
"2018-07-31 08:00","2018","07","31","08:00","22.3","","18.2","","78","","13","","9","","","","100.82","","28","","","","NA"
"2018-07-31 09:00","2018","07","31","09:00","22.7","","17.1","","71","","15","","14","","","","100.84","","28","","","","NA"
"2018-07-31 10:00","2018","07","31","10:00","22.7","","17.0","","70","","16","","9","","","","100.83","","28","","","","NA"
"2018-07-31 11:00","2018","07","31","11:00","23.0","","18.0","","74","","16","","9","","","","100.82","","29","","","","NA"
"2018-07-31 12:00","2018","07","31","12:00","23.1","","18.3","","74","","16","","11","","","","100.82","","29","","","","NA"
"2018-07-31 13:00","2018","07","31","13:00","23.9","","18.0","","70","","16","","9","","","","100.78","","30","","","","NA"
"2018-07-31 14:00","2018","07","31","14:00","24.5","","17.5","","65","","16","","8","","","","100.75","","30","","","","NA"
"2018-07-31 15:00","2018","07","31","15:00","24.4","","16.9","","63","","17","","6","","","","100.71","","30","","","","NA"
"2018-07-31 16:00","2018","07","31","16:00","25.0","","18.1","","66","","16","","7","","","","100.64","","31","","","","NA"
"2018-07-31 17:00","2018","07","31","17:00","24.7","","18.4","","68","","16","","7","","","","100.61","","31","","","","NA"
"2018-07-31 18:00","2018","07","31","18:00","24.4","","18.1","","68","","14","","6","","","","100.56","","30","","","","NA"
"2018-07-31 19:00","2018","07","31","19:00","23.8","","18.7","","73","","17","","5","","","","100.55","","30","","","","NA"
"2018-07-31 20:00","2018","07","31","20:00","22.4","","18.4","","78","","9","","6","","","","100.51","","29","","","","NA"
"2018-07-31 21:00","2018","07","31","21:00","21.8","","18.0","","79","","7","","7","","","","100.51","","28","","","","NA"
"2018-07-31 22:00","2018","07","31","22:00","22.9","","19.3","","80","","9","","8","","","","100.53","","30","","","","NA"
"2018-07-31 23:00","2018","07","31","23:00","23.3","","19.5","","79","","11","","11","","","","100.49","","30","","","","NA"
