"Station Name","KINGSTON CLIMATE"
"Province","ONTARIO"
"Latitude","44.22"
"Longitude","-76.60"
"Elevation","93.00"
"Climate Identifier","6104142"
"WMO Identifier","71820"
"TC Identifier","TKG"
"All times are specified in Local Standard Time (LST). Add 1 hour to adjust for Daylight Saving Time where and when it is observed."

"Legend"
"E","Estimated"
"M","Missing"
"NA","Not Available"

"Date/Time","Year","Month","Day","Time","Temp (°C)","Temp Flag","Dew Point Temp (°C)","Dew Point Temp Flag","Rel Hum (%)","Rel Hum Flag","Wind Dir (10s deg)","Wind Dir Flag","Wind Spd (km/h)","Wind Spd Flag","Visibility (km)","Visibility Flag","Stn Press (kPa)","Stn Press Flag","Hmdx","Hmdx Flag","Wind Chill","Wind Chill Flag","Weather"
"2016-02-01 00:00","2016","02","01","00:00","5.5","","2.5","","81","","18","","26","","","","98.65","","","","","","NA"
"2016-02-01 01:00","2016","02","01","01:00","6.0","","2.7","","80","","17","","37","","","","98.57","","","","","","NA"
"2016-02-01 02:00","2016","02","01","02:00","5.8","","3.7","","86","","20","","31","","","","98.61","","","","","","NA"
"2016-02-01 03:00","2016","02","01","03:00","5.8","","4.8","","93","","21","","18","","","","98.63","","","","","","NA"
"2016-02-01 04:00","2016","02","01","04:00","7.3","","6.0","","92","","23","","22","","","","98.65","","","","","","NA"
"2016-02-01 05:00","2016","02","01","05:00","6.4","","4.8","","90","","23","","28","","","","98.76","","","","","","NA"
"2016-02-01 06:00","2016","02","01","06:00","5.2","","1.9","","79","","26","","36","","","","99.03","","","","","","NA"
"2016-02-01 07:00","2016","02","01","07:00","4.1","","0.9","","80","","26","","27","","","","99.31","","","","","","NA"
"2016-02-01 08:00","2016","02","01","08:00","3.7","","0.4","","79","","27","","22","","","","99.57","","","","","","NA"
"2016-02-01 09:00","2016","02","01","09:00","3.5","","0.1","","78","","26","","15","","","","99.72","","","","","","NA"
"2016-02-01 10:00","2016","02","01","10:00","4.4","","0.0","","73","","28","","20","","","","99.84","","","","","","NA"
"2016-02-01 11:00","2016","02","01","11:00","5.3","","-0.8","","65","","28","","20","","","","99.96","","","","","","NA"
"2016-02-01 12:00","2016","02","01","12:00","5.6","","-2.0","","58","","27","","18","","","","100.02","","","","","","NA"
"2016-02-01 13:00","2016","02","01","13:00","6.1","","-1.2","","59","","26","","19","","","","100.04","","","","","","NA"
"2016-02-01 14:00","2016","02","01","14:00","6.7","","-1.3","","57","","27","","21","","","","100.09","","","","","","NA"
"2016-02-01 15:00","2016","02","01","15:00","5.6","","-2.4","","56","","26","","22","","","","100.18","","","","","","NA"
"2016-02-01 16:00","2016","02","01","16:00","4.3","","0.0","","73","","24","","20","","","","100.26","","","","","","NA"
"2016-02-01 17:00","2016","02","01","17:00","3.6","","-0.7","","73","","25","","13","","","","100.36","","","","","","NA"
"2016-02-01 18:00","2016","02","01","18:00","2.9","","-1.6","","72","","25","","9","","","","100.44","","","","","","NA"
"2016-02-01 19:00","2016","02","01","19:00","3.0","","-1.9","","70","","25","","10","","","","100.51","","","","","","NA"
"2016-02-01 20:00","2016","02","01","20:00","1.8","","-0.6","","84","","24","","12","","","","100.54","","","","","","NA"
"2016-02-01 21:00","2016","02","01","21:00","1.2","","-0.4","","89","","24","","8","","","","100.59","","","","","","NA"
"2016-02-01 22:00","2016","02","01","22:00","1.3","","-0.6","","87","","24","","12","","","","100.65","","","","","","NA"
"2016-02-01 23:00","2016","02","01","23:00","1.1","","-1.3","","84","","28","","8","","","","100.73","","","","","","NA"
"2016-02-02 00:00","2016","02","02","00:00","1.5","","-1.4","","81","","27","","9","","","","100.79","","","","","","NA"
"2016-02-02 01:00","2016","02","02","01:00","1.5","","-1.7","","79","","27","","10","","","","100.82","","","","","","NA"
"2016-02-02 02:00","2016","02","02","02:00","-0.1","","-2.4","","84","","28","","9","","","","100.90","","","","-3","","NA"
"2016-02-02 03:00","2016","02","02","03:00","0.4","","-2.6","","80","","27","","8","","","","100.96","","","","","","NA"
"2016-02-02 04:00","2016","02","02","04:00","0.2","","-2.7","","81","","33","","8","","","","101.04","","","","","","NA"
"2016-02-02 05:00","2016","02","02","05:00","0.1","","-3.0","","80","","3","","9","","","","101.12","","","","","","NA"
"2016-02-02 06:00","2016","02","02","06:00","-0.2","","-3.3","","80","","3","","10","","","","101.22","","","","-4","","NA"
"2016-02-02 07:00","2016","02","02","07:00","-0.6","","-4.4","","76","","5","","6","","","","101.42","","","","-3","","NA"
"2016-02-02 08:00","2016","02","02","08:00","-0.6","","-4.2","","77","","4","","10","","","","101.52","","","","-4","","NA"
"2016-02-02 09:00","2016","02","02","09:00","-0.8","","-4.6","","75","","5","","16","","","","101.57","","","","-6","","NA"
"2016-02-02 10:00","2016","02","02","10:00","-0.7","","-4.7","","74","","4","","15","","","","101.68","","","","-5","","NA"
"2016-02-02 11:00","2016","02","02","11:00","-0.8","","-4.7","","75","","6","","14","","","","101.76","","","","-5","","NA"
"2016-02-02 12:00","2016","02","02","12:00","-0.5","","-4.9","","72","","6","","12","","","","101.70","","","","-4","","NA"
"2016-02-02 13:00","2016","02","02","13:00","-0.4","","-5.4","","69","","5","","14","","","","101.61","","","","-5","","NA"
"2016-02-02 14:00","2016","02","02","14:00","-0.4","","-5.4","","69","","4","","13","","","","101.61","","","","-5","","NA"
"2016-02-02 15:00","2016","02","02","15:00","-0.3","","-5.2","","70","","5","","14","","","","101.56","","","","-5","","NA"
"2016-02-02 16:00","2016","02","02","16:00","-0.5","","-5.3","","70","","5","","15","","","","101.56","","","","-5","","NA"
"2016-02-02 17:00","2016","02","02","17:00","-0.7","","-5.3","","71","","6","","12","","","","101.55","","","","-5","","NA"
"2016-02-02 18:00","2016","02","02","18:00","-1.4","","-5.4","","74","","6","","17","","","","101.51","","","","-7","","NA"
"2016-02-02 19:00","2016","02","02","19:00","-1.5","","-5.6","","74","","6","","18","","","","101.51","","","","-7","","NA"
"2016-02-02 20:00","2016","02","02","20:00","-1.5","","-5.5","","74","","6","","24","","","","101.35","","","","-8","","NA"
"2016-02-02 21:00","2016","02","02","21:00","-1.3","","-5.7","","72","","7","","21","","","","101.22","","","","-7","","NA"
"2016-02-02 22:00","2016","02","02","22:00","-1.1","","-6.0","","69","","5","","21","","","","101.16","","","","-7","","NA"
"2016-02-02 23:00","2016","02","02","23:00","-1.0","","-5.8","","70","","5","","31","","","","100.85","","","","-8","","NA"
"2016-02-03 00:00","2016","02","03","00:00","-0.8","","-5.6","","70","","5","","31","","","","100.78","","","","-8","","NA"
"2016-02-03 01:00","2016","02","03","01:00","-0.4","","-4.2","","75","","6","","26","","","","100.62","","","","-7","","NA"
"2016-02-03 02:00","2016","02","03","02:00","-0.2","","-2.4","","85","","6","","24","","","","100.52","","","","-6","","NA"
"2016-02-03 03:00","2016","02","03","03:00","0.4","","-1.5","","87","","8","","21","","","","100.30","","","","","","NA"
"2016-02-03 04:00","2016","02","03","04:00","1.6","","0.0","","89","","12","","21","","","","100.13","","","","","","NA"
"2016-02-03 05:00","2016","02","03","05:00","2.4","","0.5","","87","","14","","31","","","","99.99","","","","","","NA"
"2016-02-03 06:00","2016","02","03","06:00","2.6","","0.8","","89","","15","","27","","","","99.92","","","","","","NA"
"2016-02-03 07:00","2016","02","03","07:00","2.8","","1.3","","90","","16","","39","","","","99.79","","","","","","NA"
"2016-02-03 08:00","2016","02","03","08:00","2.8","","1.8","","93","","17","","25","","","","99.86","","","","","","NA"
"2016-02-03 09:00","2016","02","03","09:00","2.9","","1.9","","93","","16","","26","","","","99.78","","","","","","NA"
"2016-02-03 10:00","2016","02","03","10:00","3.5","","2.5","","94","","15","","34","","","","99.50","","","","","","NA"
"2016-02-03 11:00","2016","02","03","11:00","4.6","","3.0","","89","","17","","28","","","","99.51","","","","","","NA"
"2016-02-03 12:00","2016","02","03","12:00","4.8","","3.2","","90","","19","","17","","","","99.38","","","","","","NA"
"2016-02-03 13:00","2016","02","03","13:00","5.0","","3.5","","90","","18","","17","","","","99.24","","","","","","NA"
"2016-02-03 14:00","2016","02","03","14:00","4.8","","3.5","","91","","16","","9","","","","99.18","","","","","","NA"
"2016-02-03 15:00","2016","02","03","15:00","5.9","","4.1","","88","","17","","14","","","","99.11","","","","","","NA"
"2016-02-03 16:00","2016","02","03","16:00","6.9","","4.5","","85","","16","","34","","","","99.10","","","","","","NA"
"2016-02-03 17:00","2016","02","03","17:00","6.5","","4.3","","86","","16","","34","","","","99.08","","","","","","NA"
"2016-02-03 18:00","2016","02","03","18:00","5.9","","4.2","","89","","17","","21","","","","99.16","","","","","","NA"
"2016-02-03 19:00","2016","02","03","19:00","7.5","","5.3","","85","","20","","31","","","","99.26","","","","","","NA"
"2016-02-03 20:00","2016","02","03","20:00","6.9","","5.2","","89","","20","","23","","","","99.31","","","","","","NA"
"2016-02-03 21:00","2016","02","03","21:00","8.0","","4.1","","77","","22","","22","","","","99.39","","","","","","NA"
"2016-02-03 22:00","2016","02","03","22:00","6.8","","1.6","","69","","24","","27","","","","99.50","","","","","","NA"
"2016-02-03 23:00","2016","02","03","23:00","5.3","","1.9","","79","","24","","22","","","","99.62","","","","","","NA"
"2016-02-04 00:00","2016","02","04","00:00","3.8","","1.1","","83","","25","","19","","","","99.71","","","","","","NA"
"2016-02-04 01:00","2016","02","04","01:00","3.4","","0.0","","78","","23","","14","","","","99.81","","","","","","NA"
"2016-02-04 02:00","2016","02","04","02:00","3.3","","0.3","","81","","22","","20","","","","99.89","","","","","","NA"
"2016-02-04 03:00","2016","02","04","03:00","3.6","","0.2","","78","","23","","25","","","","99.92","","","","","","NA"
"2016-02-04 04:00","2016","02","04","04:00","3.1","","0.0","","80","","21","","22","","","","99.99","","","","","","NA"
"2016-02-04 05:00","2016","02","04","05:00","3.6","","0.6","","81","","24","","27","","","","100.07","","","","","","NA"
"2016-02-04 06:00","2016","02","04","06:00","3.6","","0.9","","83","","23","","22","","","","100.17","","","","","","NA"
"2016-02-04 07:00","2016","02","04","07:00","3.4","","1.0","","85","","23","","21","","","","100.24","","","","","","NA"
"2016-02-04 08:00","2016","02","04","08:00","2.5","","-0.8","","79","","27","","19","","","","100.37","","","","","","NA"
"2016-02-04 09:00","2016","02","04","09:00","2.5","","-1.0","","78","","26","","14","","","","100.47","","","","","","NA"
"2016-02-04 10:00","2016","02","04","10:00","3.0","","-1.4","","73","","25","","17","","","","100.55","","","","","","NA"
"2016-02-04 11:00","2016","02","04","11:00","3.9","","-1.0","","71","","23","","22","","","","100.61","","","","","","NA"
"2016-02-04 12:00","2016","02","04","12:00","4.4","","-1.9","","64","","24","","21","","","","100.61","","","","","","NA"
"2016-02-04 13:00","2016","02","04","13:00","3.6","","-2.5","","64","","28","","27","","","","100.63","","","","","","NA"
"2016-02-04 14:00","2016","02","04","14:00","3.4","","-3.2","","62","","27","","20","","","","100.65","","","","","","NA"
"2016-02-04 15:00","2016","02","04","15:00","3.0","","-3.7","","62","","28","","18","","","","100.69","","","","","","NA"
"2016-02-04 16:00","2016","02","04","16:00","2.7","","-4.4","","59","","28","","17","","","","100.74","","","","","","NA"
"2016-02-04 17:00","2016","02","04","17:00","1.8","","-5.0","","61","","26","","13","","","","100.81","","","","","","NA"
"2016-02-04 18:00","2016","02","04","18:00","0.2","","-5.5","","65","","28","","9","","","","100.88","","","","","","NA"
"2016-02-04 19:00","2016","02","04","19:00","-0.2","","-5.8","","66","","27","","11","","","","100.97","","","","-4","","NA"
"2016-02-04 20:00","2016","02","04","20:00","-1.1","","-6.0","","69","","28","","14","","","","100.98","","","","-6","","NA"
"2016-02-04 21:00","2016","02","04","21:00","-1.8","","-6.1","","73","","28","","13","","","","101.03","","","","-6","","NA"
"2016-02-04 22:00","2016","02","04","22:00","-2.4","","-6.3","","74","","28","","9","","","","101.08","","","","-6","","NA"
"2016-02-04 23:00","2016","02","04","23:00","-2.5","","-6.4","","75","","29","","10","","","","101.07","","","","-6","","NA"
"2016-02-05 00:00","2016","02","05","00:00","-2.6","","-6.3","","76","","33","","10","","","","101.10","","","","-6","","NA"
"2016-02-05 01:00","2016","02","05","01:00","-3.3","","-6.6","","78","","35","","11","","","","101.09","","","","-8","","NA"
"2016-02-05 02:00","2016","02","05","02:00","-3.5","","-6.6","","79","","27","","10","","","","101.16","","","","-7","","NA"
"2016-02-05 03:00","2016","02","05","03:00","-4.4","","-7.3","","80","","34","","12","","","","101.10","","","","-9","","NA"
"2016-02-05 04:00","2016","02","05","04:00","-4.3","","-7.5","","78","","34","","9","","","","101.15","","","","-8","","NA"
"2016-02-05 05:00","2016","02","05","05:00","-4.3","","-7.4","","79","","36","","6","","","","101.23","","","","-7","","NA"
"2016-02-05 06:00","2016","02","05","06:00","-5.4","","-7.9","","82","","34","","9","","","","101.20","","","","-9","","NA"
"2016-02-05 07:00","2016","02","05","07:00","-5.6","","-8.7","","79","","34","","10","","","","101.36","","","","-10","","NA"
"2016-02-05 08:00","2016","02","05","08:00","-4.8","","-9.0","","72","","33","","10","","","","101.39","","","","-9","","NA"
"2016-02-05 09:00","2016","02","05","09:00","-4.2","","-9.7","","66","","33","","19","","","","101.43","","","","-10","","NA"
"2016-02-05 10:00","2016","02","05","10:00","-3.8","","-10.1","","62","","35","","19","","","","101.38","","","","-10","","NA"
"2016-02-05 11:00","2016","02","05","11:00","-3.0","","-10.2","","58","","33","","16","","","","101.39","","","","-8","","NA"
"2016-02-05 12:00","2016","02","05","12:00","-2.2","","-10.0","","55","","36","","11","","","","101.38","","","","-6","","NA"
"2016-02-05 13:00","2016","02","05","13:00","-1.4","","-10.6","","50","","32","","11","","","","101.30","","","","-5","","NA"
"2016-02-05 14:00","2016","02","05","14:00","-0.6","","-10.3","","48","","32","","13","","","","101.30","","","","-5","","NA"
"2016-02-05 15:00","2016","02","05","15:00","0.2","","-9.9","","47","","27","","17","","","","101.31","","","","","","NA"
"2016-02-05 16:00","2016","02","05","16:00","0.6","","-9.5","","47","","27","","13","","","","101.34","","","","","","NA"
"2016-02-05 17:00","2016","02","05","17:00","-0.3","","-9.0","","52","","27","","15","","","","101.34","","","","-5","","NA"
"2016-02-05 18:00","2016","02","05","18:00","-1.4","","-8.6","","58","","26","","9","","","","101.40","","","","-5","","NA"
"2016-02-05 19:00","2016","02","05","19:00","-1.0","","-6.6","","66","","24","","14","","","","101.43","","","","-5","","NA"
"2016-02-05 20:00","2016","02","05","20:00","-1.3","","-4.9","","76","","25","","13","","","","101.41","","","","-6","","NA"
"2016-02-05 21:00","2016","02","05","21:00","-1.7","","-4.7","","80","","25","","11","","","","101.39","","","","-6","","NA"
"2016-02-05 22:00","2016","02","05","22:00","-1.9","","-4.4","","83","","25","","9","","","","101.35","","","","-5","","NA"
"2016-02-05 23:00","2016","02","05","23:00","-1.2","","-3.6","","84","","22","","12","","","","101.33","","","","-5","","NA"
"2016-02-06 00:00","2016","02","06","00:00","-1.6","","-3.6","","86","","24","","7","","","","101.28","","","","-4","","NA"
"2016-02-06 01:00","2016","02","06","01:00","-0.9","","-4.7","","75","","24","","10","","","","101.23","","","","-4","","NA"
"2016-02-06 02:00","2016","02","06","02:00","-0.2","","-4.1","","75","","25","","13","","","","101.23","","","","-4","","NA"
"2016-02-06 03:00","2016","02","06","03:00","-0.6","","-1.9","","91","","24","","15","","","","101.21","","","","-5","","NA"
"2016-02-06 04:00","2016","02","06","04:00","-0.5","","-1.8","","91","","22","","13","","","","101.17","","","","-5","","NA"
"2016-02-06 05:00","2016","02","06","05:00","-0.7","","-1.7","","93","","23","","14","","","","101.16","","","","-5","","NA"
"2016-02-06 06:00","2016","02","06","06:00","-0.4","","-1.8","","91","","22","","10","","","","101.15","","","","-4","","NA"
"2016-02-06 07:00","2016","02","06","07:00","-0.2","","-2.4","","85","","23","","12","","","","101.13","","","","-4","","NA"
"2016-02-06 08:00","2016","02","06","08:00","0.5","","-2.9","","78","","21","","16","","","","101.10","","","","","","NA"
"2016-02-06 09:00","2016","02","06","09:00","0.6","","-2.4","","80","","23","","21","","","","101.08","","","","","","NA"
"2016-02-06 10:00","2016","02","06","10:00","0.7","","-1.4","","86","","25","","13","","","","101.07","","","","","","NA"
"2016-02-06 11:00","2016","02","06","11:00","0.4","","-1.0","","90","","24","","15","","","","101.03","","","","","","NA"
"2016-02-06 12:00","2016","02","06","12:00","0.5","","-0.7","","92","","24","","17","","","","100.95","","","","","","NA"
"2016-02-06 13:00","2016","02","06","13:00","1.2","","-2.1","","78","","24","","18","","","","100.93","","","","","","NA"
"2016-02-06 14:00","2016","02","06","14:00","1.6","","-2.4","","74","","24","","23","","","","100.88","","","","","","NA"
"2016-02-06 15:00","2016","02","06","15:00","1.7","","-3.2","","70","","24","","29","","","","100.86","","","","","","NA"
"2016-02-06 16:00","2016","02","06","16:00","1.8","","-2.2","","75","","23","","27","","","","100.84","","","","","","NA"
"2016-02-06 17:00","2016","02","06","17:00","1.6","","-3.0","","72","","23","","24","","","","100.85","","","","","","NA"
"2016-02-06 18:00","2016","02","06","18:00","1.4","","-3.0","","73","","23","","23","","","","100.87","","","","","","NA"
"2016-02-06 19:00","2016","02","06","19:00","1.1","","-3.5","","72","","22","","24","","","","100.89","","","","","","NA"
"2016-02-06 20:00","2016","02","06","20:00","1.3","","-3.1","","72","","22","","22","","","","100.90","","","","","","NA"
"2016-02-06 21:00","2016","02","06","21:00","1.5","","-3.6","","69","","23","","24","","","","100.89","","","","","","NA"
"2016-02-06 22:00","2016","02","06","22:00","1.5","","-2.9","","72","","23","","23","","","","100.86","","","","","","NA"
"2016-02-06 23:00","2016","02","06","23:00","1.4","","-2.7","","74","","24","","23","","","","100.84","","","","","","NA"
"2016-02-07 00:00","2016","02","07","00:00","1.2","","-2.7","","75","","24","","18","","","","100.81","","","","","","NA"
"2016-02-07 01:00","2016","02","07","01:00","1.4","","-3.0","","72","","24","","16","","","","100.77","","","","","","NA"
"2016-02-07 02:00","2016","02","07","02:00","0.7","","-3.3","","74","","22","","13","","","","100.75","","","","","","NA"
"2016-02-07 03:00","2016","02","07","03:00","0.0","","-2.4","","84","","23","","10","","","","100.77","","","","-3","","NA"
"2016-02-07 04:00","2016","02","07","04:00","-0.5","","-2.3","","88","","22","","10","","","","100.77","","","","-4","","NA"
"2016-02-07 05:00","2016","02","07","05:00","-0.6","","-2.7","","86","","24","","8","","","","100.81","","","","-3","","NA"
"2016-02-07 06:00","2016","02","07","06:00","-0.4","","-3.7","","79","","24","","9","","","","100.83","","","","-4","","NA"
"2016-02-07 07:00","2016","02","07","07:00","0.1","","-2.9","","80","","23","","7","","","","100.84","","","","","","NA"
"2016-02-07 08:00","2016","02","07","08:00","-0.3","","-3.1","","81","","22","","6","","","","100.81","","","","-2","","NA"
"2016-02-07 09:00","2016","02","07","09:00","1.3","","-2.6","","76","","25","","6","","","","100.78","","","","","","NA"
"2016-02-07 10:00","2016","02","07","10:00","1.8","","-2.7","","72","","16","","8","","","","100.78","","","","","","NA"
"2016-02-07 11:00","2016","02","07","11:00","2.0","","-1.6","","77","","15","","10","","","","100.77","","","","","","NA"
"2016-02-07 12:00","2016","02","07","12:00","2.0","","-1.7","","76","","15","","11","","","","100.74","","","","","","NA"
"2016-02-07 13:00","2016","02","07","13:00","2.1","","-0.5","","83","","15","","15","","","","100.70","","","","","","NA"
"2016-02-07 14:00","2016","02","07","14:00","2.2","","-0.2","","84","","17","","10","","","","100.64","","","","","","NA"
"2016-02-07 15:00","2016","02","07","15:00","2.7","","-0.8","","78","","15","","9","","","","100.64","","","","","","NA"
"2016-02-07 16:00","2016","02","07","16:00","2.7","","-2.1","","71","","12","","6","","","","100.56","","","","","","NA"
"2016-02-07 17:00","2016","02","07","17:00","2.5","","-2.6","","69","","7","","5","","","","100.52","","","","","","NA"
"2016-02-07 18:00","2016","02","07","18:00","1.9","","-2.0","","75","","7","","17","","","","100.51","","","","","","NA"
"2016-02-07 19:00","2016","02","07","19:00","0.1","","-3.0","","80","","6","","21","","","","100.50","","","","","","NA"
"2016-02-07 20:00","2016","02","07","20:00","-1.0","","-3.9","","81","","5","","21","","","","100.47","","","","-7","","NA"
"2016-02-07 21:00","2016","02","07","21:00","-1.8","","-5.2","","78","","5","","19","","","","100.40","","","","-7","","NA"
"2016-02-07 22:00","2016","02","07","22:00","-3.3","","-7.5","","73","","5","","27","","","","100.40","","","","-10","","NA"
"2016-02-07 23:00","2016","02","07","23:00","-3.8","","-8.4","","70","","3","","19","","","","100.35","","","","-10","","NA"
"2016-02-08 00:00","2016","02","08","00:00","-4.4","","-8.8","","71","","4","","22","","","","100.25","","","","-11","","NA"
"2016-02-08 01:00","2016","02","08","01:00","-4.7","","-8.9","","73","","4","","20","","","","100.16","","","","-11","","NA"
"2016-02-08 02:00","2016","02","08","02:00","-4.9","","-9.1","","72","","4","","22","","","","100.11","","","","-12","","NA"
"2016-02-08 03:00","2016","02","08","03:00","-5.0","","-9.1","","73","","5","","23","","","","100.07","","","","-12","","NA"
"2016-02-08 04:00","2016","02","08","04:00","-5.1","","-9.3","","73","","4","","16","","","","100.00","","","","-11","","NA"
"2016-02-08 05:00","2016","02","08","05:00","-5.5","","-9.5","","73","","5","","21","","","","99.94","","","","-12","","NA"
"2016-02-08 06:00","2016","02","08","06:00","-5.8","","-10.1","","72","","4","","17","","","","99.95","","","","-12","","NA"
"2016-02-08 07:00","2016","02","08","07:00","-6.1","","-10.1","","73","","4","","18","","","","99.96","","","","-13","","NA"
"2016-02-08 08:00","2016","02","08","08:00","-6.0","","-10.1","","72","","5","","23","","","","99.97","","","","-13","","NA"
"2016-02-08 09:00","2016","02","08","09:00","-5.3","","-9.8","","71","","4","","21","","","","99.97","","","","-12","","NA"
"2016-02-08 10:00","2016","02","08","10:00","-4.1","","-9.0","","69","","5","","22","","","","99.93","","","","-11","","NA"
"2016-02-08 11:00","2016","02","08","11:00","-3.1","","-8.7","","66","","4","","26","","","","99.89","","","","-10","","NA"
"2016-02-08 12:00","2016","02","08","12:00","-2.3","","-8.2","","64","","4","","25","","","","99.78","","","","-9","","NA"
"2016-02-08 13:00","2016","02","08","13:00","-2.0","","-8.1","","63","","4","","27","","","","99.66","","","","-9","","NA"
"2016-02-08 14:00","2016","02","08","14:00","-1.6","","-8.0","","62","","3","","21","","","","99.60","","","","-7","","NA"
"2016-02-08 15:00","2016","02","08","15:00","-1.9","","-8.3","","61","","3","","25","","","","99.59","","","","-8","","NA"
"2016-02-08 16:00","2016","02","08","16:00","-2.5","","-8.9","","61","","4","","24","","","","99.56","","","","-9","","NA"
"2016-02-08 17:00","2016","02","08","17:00","-3.8","","-10.0","","62","","3","","24","","","","99.61","","","","-11","","NA"
"2016-02-08 18:00","2016","02","08","18:00","-4.7","","-11.1","","61","","4","","24","","","","99.65","","","","-12","","NA"
"2016-02-08 19:00","2016","02","08","19:00","-5.2","","-11.3","","62","","4","","29","","","","99.61","","","","-13","","NA"
"2016-02-08 20:00","2016","02","08","20:00","-5.7","","-11.5","","63","","4","","25","","","","99.57","","","","-13","","NA"
"2016-02-08 21:00","2016","02","08","21:00","-5.7","","-11.6","","63","","5","","29","","","","99.52","","","","-14","","NA"
"2016-02-08 22:00","2016","02","08","22:00","-5.5","","-11.5","","62","","5","","25","","","","99.48","","","","-13","","NA"
"2016-02-08 23:00","2016","02","08","23:00","-5.3","","-11.6","","61","","4","","19","","","","99.46","","","","-12","","NA"
"2016-02-09 00:00","2016","02","09","00:00","-5.2","","-11.9","","59","","5","","24","","","","99.40","","","","-12","","NA"
"2016-02-09 01:00","2016","02","09","01:00","-5.2","","-11.6","","61","","4","","23","","","","99.36","","","","-12","","NA"
"2016-02-09 02:00","2016","02","09","02:00","-5.5","","-10.2","","70","","4","","23","","","","99.33","","","","-13","","NA"
"2016-02-09 03:00","2016","02","09","03:00","-5.9","","-8.3","","83","","4","","19","","","","99.25","","","","-13","","NA"
"2016-02-09 04:00","2016","02","09","04:00","-6.0","","-7.8","","87","","4","","21","","","","99.17","","","","-13","","NA"
"2016-02-09 05:00","2016","02","09","05:00","-6.1","","-7.8","","88","","4","","20","","","","99.15","","","","-13","","NA"
"2016-02-09 06:00","2016","02","09","06:00","-6.1","","-7.7","","89","","4","","19","","","","99.12","","","","-13","","NA"
"2016-02-09 07:00","2016","02","09","07:00","-6.2","","-7.8","","88","","4","","20","","","","99.10","","","","-13","","NA"
"2016-02-09 08:00","2016","02","09","08:00","-6.0","","-7.8","","87","","4","","22","","","","99.11","","","","-13","","NA"
"2016-02-09 09:00","2016","02","09","09:00","-6.0","","-8.0","","86","","4","","21","","","","99.10","","","","-13","","NA"
"2016-02-09 10:00","2016","02","09","10:00","-5.8","","-7.8","","86","","4","","20","","","","99.10","","","","-13","","NA"
"2016-02-09 11:00","2016","02","09","11:00","-5.3","","-7.5","","85","","3","","17","","","","99.08","","","","-11","","NA"
"2016-02-09 12:00","2016","02","09","12:00","-4.8","","-7.1","","84","","3","","14","","","","99.03","","","","-10","","NA"
"2016-02-09 13:00","2016","02","09","13:00","-4.1","","-6.6","","83","","4","","18","","","","98.95","","","","-10","","NA"
"2016-02-09 14:00","2016","02","09","14:00","-3.6","","-6.5","","81","","3","","20","","","","98.85","","","","-10","","NA"
"2016-02-09 15:00","2016","02","09","15:00","-3.5","","-6.3","","81","","5","","15","","","","98.87","","","","-9","","NA"
"2016-02-09 16:00","2016","02","09","16:00","-3.8","","-6.6","","80","","4","","18","","","","98.89","","","","-10","","NA"
"2016-02-09 17:00","2016","02","09","17:00","-4.1","","-6.5","","83","","4","","13","","","","98.96","","","","-9","","NA"
"2016-02-09 18:00","2016","02","09","18:00","-4.5","","-6.2","","88","","3","","11","","","","98.99","","","","-9","","NA"
"2016-02-09 19:00","2016","02","09","19:00","-4.8","","-6.5","","88","","3","","12","","","","98.99","","","","-10","","NA"
"2016-02-09 20:00","2016","02","09","20:00","-4.9","","-6.9","","86","","4","","12","","","","98.98","","","","-10","","NA"
"2016-02-09 21:00","2016","02","09","21:00","-5.2","","-7.2","","86","","4","","11","","","","98.98","","","","-10","","NA"
"2016-02-09 22:00","2016","02","09","22:00","-5.4","","-7.1","","88","","4","","10","","","","98.96","","","","-10","","NA"
"2016-02-09 23:00","2016","02","09","23:00","-5.5","","-7.4","","87","","5","","12","","","","98.90","","","","-10","","NA"
"2016-02-10 00:00","2016","02","10","00:00","-5.5","","-7.2","","87","","3","","6","","","","98.89","","","","-8","","NA"
"2016-02-10 01:00","2016","02","10","01:00","-5.6","","-7.3","","88","","5","","10","","","","98.85","","","","-10","","NA"
"2016-02-10 02:00","2016","02","10","02:00","-5.6","","-7.3","","88","","4","","10","","","","98.81","","","","-10","","NA"
"2016-02-10 03:00","2016","02","10","03:00","-5.6","","-7.3","","88","","4","","12","","","","98.77","","","","-11","","NA"
"2016-02-10 04:00","2016","02","10","04:00","-5.6","","-7.3","","88","","4","","11","","","","98.75","","","","-10","","NA"
"2016-02-10 05:00","2016","02","10","05:00","-5.6","","-7.3","","88","","4","","13","","","","98.74","","","","-11","","NA"
"2016-02-10 06:00","2016","02","10","06:00","-5.6","","-7.1","","89","","3","","15","","","","98.74","","","","-11","","NA"
"2016-02-10 07:00","2016","02","10","07:00","-5.7","","-7.2","","89","","2","","15","","","","98.76","","","","-11","","NA"
"2016-02-10 08:00","2016","02","10","08:00","-6.0","","-7.8","","87","","1","","18","","","","98.82","","","","-12","","NA"
"2016-02-10 09:00","2016","02","10","09:00","-6.0","","-7.8","","87","","34","","16","","","","98.88","","","","-12","","NA"
"2016-02-10 10:00","2016","02","10","10:00","-5.6","","-7.4","","87","","33","","13","","","","98.95","","","","-11","","NA"
"2016-02-10 11:00","2016","02","10","11:00","-5.0","","-7.6","","83","","31","","14","","","","99.03","","","","-10","","NA"
"2016-02-10 12:00","2016","02","10","12:00","-4.8","","-7.7","","80","","30","","11","","","","99.04","","","","-9","","NA"
"2016-02-10 13:00","2016","02","10","13:00","-4.3","","-7.5","","78","","31","","8","","","","99.04","","","","-8","","NA"
"2016-02-10 14:00","2016","02","10","14:00","-3.6","","-7.0","","77","","27","","9","","","","99.06","","","","-7","","NA"
"2016-02-10 15:00","2016","02","10","15:00","-3.4","","-7.6","","73","","26","","11","","","","99.11","","","","-8","","NA"
"2016-02-10 16:00","2016","02","10","16:00","-3.3","","-6.9","","76","","27","","10","","","","99.18","","","","-7","","NA"
"2016-02-10 17:00","2016","02","10","17:00","-3.6","","-7.4","","75","","28","","12","","","","99.26","","","","-8","","NA"
"2016-02-10 18:00","2016","02","10","18:00","-3.9","","-6.5","","82","","27","","11","","","","99.33","","","","-8","","NA"
"2016-02-10 19:00","2016","02","10","19:00","-4.5","","-7.2","","81","","26","","15","","","","99.38","","","","-10","","NA"
"2016-02-10 20:00","2016","02","10","20:00","-5.8","","-9.3","","76","","28","","20","","","","99.40","","","","-13","","NA"
"2016-02-10 21:00","2016","02","10","21:00","-6.7","","-10.0","","77","","28","","17","","","","99.44","","","","-13","","NA"
"2016-02-10 22:00","2016","02","10","22:00","-7.6","","-11.0","","77","","28","","17","","","","99.49","","","","-14","","NA"
"2016-02-10 23:00","2016","02","10","23:00","-8.1","","-10.8","","81","","28","","17","","","","99.54","","","","-15","","NA"
"2016-02-11 00:00","2016","02","11","00:00","-8.5","","-12.2","","75","","27","","16","","","","99.59","","","","-15","","NA"
"2016-02-11 01:00","2016","02","11","01:00","-9.4","","-13.9","","70","","27","","17","","","","99.62","","","","-16","","NA"
"2016-02-11 02:00","2016","02","11","02:00","-10.4","","-14.2","","74","","30","","16","","","","99.63","","","","-17","","NA"
"2016-02-11 03:00","2016","02","11","03:00","-11.5","","-13.5","","85","","35","","11","","","","99.66","","","","-17","","NA"
"2016-02-11 04:00","2016","02","11","04:00","-12.0","","-14.3","","83","","35","","10","","","","99.67","","","","-18","","NA"
"2016-02-11 05:00","2016","02","11","05:00","-12.9","","-15.3","","82","","35","","12","","","","99.76","","","","-19","","NA"
"2016-02-11 06:00","2016","02","11","06:00","-14.5","","-17.7","","77","","33","","20","","","","99.85","","","","-24","","NA"
"2016-02-11 07:00","2016","02","11","07:00","-15.9","","-19.2","","75","","32","","19","","","","99.94","","","","-25","","NA"
"2016-02-11 08:00","2016","02","11","08:00","-16.6","","-20.6","","71","","32","","20","","","","100.08","","","","-26","","NA"
"2016-02-11 09:00","2016","02","11","09:00","-16.7","","-21.0","","69","","32","","19","","","","100.17","","","","-26","","NA"
"2016-02-11 10:00","2016","02","11","10:00","-16.5","","-21.0","","68","","32","","23","","","","100.23","","","","-27","","NA"
"2016-02-11 11:00","2016","02","11","11:00","-16.2","","-22.0","","61","","31","","22","","","","100.32","","","","-26","","NA"
"2016-02-11 12:00","2016","02","11","12:00","-15.8","","-22.4","","57","","31","","21","","","","100.35","","","","-25","","NA"
"2016-02-11 13:00","2016","02","11","13:00","-15.1","","-21.3","","60","","31","","20","","","","100.37","","","","-24","","NA"
"2016-02-11 14:00","2016","02","11","14:00","-14.7","","-21.6","","56","","30","","23","","","","100.42","","","","-24","","NA"
"2016-02-11 15:00","2016","02","11","15:00","-14.1","","-21.4","","54","","30","","23","","","","100.48","","","","-24","","NA"
"2016-02-11 16:00","2016","02","11","16:00","-13.4","","-20.5","","55","","31","","21","","","","100.57","","","","-22","","NA"
"2016-02-11 17:00","2016","02","11","17:00","-13.4","","-21.2","","52","","30","","15","","","","100.66","","","","-21","","NA"
"2016-02-11 18:00","2016","02","11","18:00","-14.3","","-21.6","","54","","31","","8","","","","100.76","","","","-20","","NA"
"2016-02-11 19:00","2016","02","11","19:00","-14.1","","-21.5","","53","","29","","11","","","","100.85","","","","-21","","NA"
"2016-02-11 20:00","2016","02","11","20:00","-14.6","","-21.5","","56","","28","","10","","","","100.90","","","","-21","","NA"
"2016-02-11 21:00","2016","02","11","21:00","-14.9","","-20.9","","60","","26","","13","","","","100.97","","","","-22","","NA"
"2016-02-11 22:00","2016","02","11","22:00","-15.2","","-21.5","","59","","27","","14","","","","101.02","","","","-23","","NA"
"2016-02-11 23:00","2016","02","11","23:00","-15.2","","-21.2","","60","","26","","15","","","","101.05","","","","-23","","NA"
"2016-02-12 00:00","2016","02","12","00:00","-15.4","","-21.2","","61","","27","","14","","","","101.04","","","","-23","","NA"
"2016-02-12 01:00","2016","02","12","01:00","-15.3","","-20.5","","64","","27","","11","","","","101.01","","","","-22","","NA"
"2016-02-12 02:00","2016","02","12","02:00","-14.7","","-19.6","","66","","30","","8","","","","100.97","","","","-20","","NA"
"2016-02-12 03:00","2016","02","12","03:00","-14.4","","-19.4","","66","","33","","6","","","","100.91","","","","-19","","NA"
"2016-02-12 04:00","2016","02","12","04:00","-14.1","","-18.8","","67","","3","","6","","","","100.78","","","","-18","","NA"
"2016-02-12 05:00","2016","02","12","05:00","-13.4","","-17.0","","74","","7","","7","","","","100.67","","","","-18","","NA"
"2016-02-12 06:00","2016","02","12","06:00","-10.6","","-13.9","","77","","14","","14","","","","100.65","","","","-17","","NA"
"2016-02-12 07:00","2016","02","12","07:00","-11.1","","-12.9","","86","","10","","12","","","","100.57","","","","-17","","NA"
"2016-02-12 08:00","2016","02","12","08:00","-10.7","","-12.8","","84","","36","","3","","","","100.49","","","","-13","","NA"
"2016-02-12 09:00","2016","02","12","09:00","-8.0","","-13.8","","63","","26","","7","","","","100.42","","","","-12","","NA"
"2016-02-12 10:00","2016","02","12","10:00","-6.5","","-11.1","","70","","21","","17","","","","100.34","","","","-13","","NA"
"2016-02-12 11:00","2016","02","12","11:00","-6.1","","-8.0","","87","","22","","30","","","","100.23","","","","-14","","NA"
"2016-02-12 12:00","2016","02","12","12:00","-6.1","","-8.3","","85","","23","","36","","","","100.14","","","","-15","","NA"
"2016-02-12 13:00","2016","02","12","13:00","-6.0","","-7.2","","91","","22","","38","","","","100.02","","","","-15","","NA"
"2016-02-12 14:00","2016","02","12","14:00","-4.8","","-7.6","","81","","23","","33","","","","99.90","","","","-13","","NA"
"2016-02-12 15:00","2016","02","12","15:00","-5.5","","-6.8","","91","","24","","31","","","","99.82","","","","-14","","NA"
"2016-02-12 16:00","2016","02","12","16:00","-5.4","","-6.3","","93","","23","","31","","","","99.80","","","","-14","","NA"
"2016-02-12 17:00","2016","02","12","17:00","-5.2","","-7.3","","85","","22","","35","","","","99.77","","","","-14","","NA"
"2016-02-12 18:00","2016","02","12","18:00","-5.0","","-9.4","","71","","24","","25","","","","99.75","","","","-12","","NA"
"2016-02-12 19:00","2016","02","12","19:00","-5.8","","-10.4","","70","","26","","17","","","","99.75","","","","-12","","NA"
"2016-02-12 20:00","2016","02","12","20:00","-7.3","","-10.6","","77","","32","","17","","","","99.78","","","","-14","","NA"
"2016-02-12 21:00","2016","02","12","21:00","-10.0","","-13.9","","73","","35","","29","","","","99.87","","","","-19","","NA"
"2016-02-12 22:00","2016","02","12","22:00","-10.7","","-15.9","","65","","35","","19","","","","99.95","","","","-19","","NA"
"2016-02-12 23:00","2016","02","12","23:00","-12.3","","-16.8","","69","","35","","16","","","","100.05","","","","-20","","NA"
"2016-02-13 00:00","2016","02","13","00:00","-13.5","","-17.3","","73","","34","","9","","","","100.13","","","","-19","","NA"
"2016-02-13 01:00","2016","02","13","01:00","-13.9","","-17.6","","73","","34","","18","","","","100.24","","","","-22","","NA"
"2016-02-13 02:00","2016","02","13","02:00","-16.0","","-19.9","","72","","34","","15","","","","100.35","","","","-24","","NA"
"2016-02-13 03:00","2016","02","13","03:00","-17.3","","-22.2","","66","","33","","26","","","","100.48","","","","-28","","NA"
"2016-02-13 04:00","2016","02","13","04:00","-19.6","","-24.8","","63","","33","","29","","","","100.58","","","","-32","","NA"
"2016-02-13 05:00","2016","02","13","05:00","-22.2","","-28.0","","59","","34","","32","","","","100.72","","","","-36","","NA"
"2016-02-13 06:00","2016","02","13","06:00","-24.7","","-31.1","","56","","34","","26","","","","100.92","","","","-38","","NA"
"2016-02-13 07:00","2016","02","13","07:00","-26.3","","-32.1","","58","","32","","22","","","","101.05","","","","-39","","NA"
"2016-02-13 08:00","2016","02","13","08:00","-27.1","","-34.0","","52","","33","","23","","","","101.22","","","","-40","","NA"
"2016-02-13 09:00","2016","02","13","09:00","-26.9","","-34.2","","50","","33","","21","","","","101.31","","","","-39","","NA"
"2016-02-13 10:00","2016","02","13","10:00","-26.7","","-34.8","","46","","31","","22","","","","101.38","","","","-39","","NA"
"2016-02-13 11:00","2016","02","13","11:00","-25.8","","-34.4","","44","","32","","21","","","","101.44","","","","-38","","NA"
"2016-02-13 12:00","2016","02","13","12:00","-25.2","","-34.2","","43","","31","","22","","","","101.43","","","","-38","","NA"
"2016-02-13 13:00","2016","02","13","13:00","-23.8","","-32.4","","45","","28","","17","","","","101.45","","","","-34","","NA"
"2016-02-13 14:00","2016","02","13","14:00","-23.2","","-33.0","","40","","29","","18","","","","101.45","","","","-34","","NA"
"2016-02-13 15:00","2016","02","13","15:00","-22.7","","-32.6","","40","","31","","19","","","","101.46","","","","-34","","NA"
"2016-02-13 16:00","2016","02","13","16:00","-22.4","","-32.2","","41","","32","","16","","","","101.50","","","","-32","","NA"
"2016-02-13 17:00","2016","02","13","17:00","-22.1","","-32.2","","40","","32","","20","","","","101.55","","","","-33","","NA"
"2016-02-13 18:00","2016","02","13","18:00","-22.9","","-32.3","","42","","32","","16","","","","101.65","","","","-33","","NA"
"2016-02-13 19:00","2016","02","13","19:00","-23.7","","-32.5","","44","","33","","17","","","","101.78","","","","-34","","NA"
"2016-02-13 20:00","2016","02","13","20:00","-24.8","","-33.0","","47","","33","","15","","","","101.85","","","","-35","","NA"
"2016-02-13 21:00","2016","02","13","21:00","-25.6","","-32.9","","50","","35","","14","","","","101.94","","","","-36","","NA"
"2016-02-13 22:00","2016","02","13","22:00","-26.3","","-33.2","","52","","35","","16","","","","102.02","","","","-37","","NA"
"2016-02-13 23:00","2016","02","13","23:00","-27.5","","-32.1","","65","","33","","11","","","","102.04","","","","-37","","NA"
"2016-02-14 00:00","2016","02","14","00:00","-27.5","","-33.5","","56","","32","","8","","","","102.09","","","","-35","","NA"
"2016-02-14 01:00","2016","02","14","01:00","-28.8","","-34.4","","58","","32","","10","","","","102.13","","","","-38","","NA"
"2016-02-14 02:00","2016","02","14","02:00","-27.8","","-33.7","","57","","29","","12","","","","102.18","","","","-37","","NA"
"2016-02-14 03:00","2016","02","14","03:00","-28.4","","-33.6","","61","","30","","11","","","","102.19","","","","-38","","NA"
"2016-02-14 04:00","2016","02","14","04:00","-28.5","","-33.5","","62","","29","","12","","","","102.23","","","","-38","","NA"
"2016-02-14 05:00","2016","02","14","05:00","-30.0","","-34.6","","64","","32","","13","","","","102.27","","","","-41","","NA"
"2016-02-14 06:00","2016","02","14","06:00","-29.9","","-34.5","","65","","32","","12","","","","102.32","","","","-40","","NA"
"2016-02-14 07:00","2016","02","14","07:00","-30.5","","-34.6","","67","","33","","10","","","","102.38","","","","-40","","NA"
"2016-02-14 08:00","2016","02","14","08:00","-30.3","","-34.4","","67","","34","","10","","","","102.43","","","","-40","","NA"
"2016-02-14 09:00","2016","02","14","09:00","-27.1","","-32.1","","63","","34","","11","","","","102.44","","","","-36","","NA"
"2016-02-14 10:00","2016","02","14","10:00","-24.6","","-31.6","","52","","35","","5","","","","102.43","","","","-29","","NA"
"2016-02-14 11:00","2016","02","14","11:00","-22.2","","-32.9","","37","","18","","2","","","","102.41","","","","-24","","NA"
"2016-02-14 12:00","2016","02","14","12:00","-22.2","","-30.2","","48","","20","","6","","","","102.38","","","","-28","","NA"
"2016-02-14 13:00","2016","02","14","13:00","-21.6","","-29.7","","48","","19","","9","","","","102.33","","","","-29","","NA"
"2016-02-14 14:00","2016","02","14","14:00","-20.5","","-28.9","","47","","22","","12","","","","102.28","","","","-29","","NA"
"2016-02-14 15:00","2016","02","14","15:00","-19.5","","-28.7","","44","","24","","11","","","","102.23","","","","-27","","NA"
"2016-02-14 16:00","2016","02","14","16:00","-18.9","","-27.0","","49","","23","","7","","","","102.24","","","","-24","","NA"
"2016-02-14 17:00","2016","02","14","17:00","-19.4","","-26.5","","54","","22","","7","","","","102.25","","","","-25","","NA"
"2016-02-14 18:00","2016","02","14","18:00","-19.2","","-27.0","","50","","20","","7","","","","102.22","","","","-25","","NA"
"2016-02-14 19:00","2016","02","14","19:00","-19.6","","-25.0","","62","","23","","9","","","","102.23","","","","-26","","NA"
"2016-02-14 20:00","2016","02","14","20:00","-19.0","","-25.0","","59","","21","","8","","","","102.18","","","","-25","","NA"
"2016-02-14 21:00","2016","02","14","21:00","-23.0","","-26.7","","72","","4","","4","","","","102.11","","","","-27","","NA"
"2016-02-14 22:00","2016","02","14","22:00","-24.7","","-27.5","","77","","5","","6","","","","102.07","","","","-30","","NA"
"2016-02-14 23:00","2016","02","14","23:00","-23.4","","-25.9","","80","","8","","8","","","","102.08","","","","-30","","NA"
"2016-02-15 00:00","2016","02","15","00:00","-22.2","","-24.7","","80","","6","","5","","","","102.10","","","","-27","","NA"
"2016-02-15 01:00","2016","02","15","01:00","-22.2","","-24.8","","79","","7","","11","","","","101.99","","","","-30","","NA"
"2016-02-15 02:00","2016","02","15","02:00","-20.9","","-23.4","","81","","6","","9","","","","101.95","","","","-28","","NA"
"2016-02-15 03:00","2016","02","15","03:00","-18.9","","-21.3","","81","","9","","10","","","","101.92","","","","-26","","NA"
"2016-02-15 04:00","2016","02","15","04:00","-19.6","","-22.1","","80","","8","","7","","","","101.91","","","","-25","","NA"
"2016-02-15 05:00","2016","02","15","05:00","-20.6","","-23.1","","80","","5","","10","","","","101.83","","","","-28","","NA"
"2016-02-15 06:00","2016","02","15","06:00","-21.4","","-23.9","","80","","5","","13","","","","101.72","","","","-30","","NA"
"2016-02-15 07:00","2016","02","15","07:00","-21.2","","-24.3","","75","","5","","13","","","","101.66","","","","-30","","NA"
"2016-02-15 08:00","2016","02","15","08:00","-20.5","","-23.8","","75","","4","","15","","","","101.61","","","","-30","","NA"
"2016-02-15 09:00","2016","02","15","09:00","-18.7","","-22.2","","74","","5","","16","","","","101.52","","","","-28","","NA"
"2016-02-15 10:00","2016","02","15","10:00","-15.4","","-19.5","","71","","7","","14","","","","101.44","","","","-23","","NA"
"2016-02-15 11:00","2016","02","15","11:00","","M","-12.3","","72","","16","","32","","","","101.32","","","","","","NA"
"2016-02-15 12:00","2016","02","15","12:00","-7.3","","-11.6","","71","","16","","42","","","","101.22","","","","-17","","NA"
"2016-02-15 13:00","2016","02","15","13:00","-7.4","","-11.2","","74","","17","","39","","","","101.09","","","","-17","","NA"
"2016-02-15 14:00","2016","02","15","14:00","-6.7","","-10.1","","77","","16","","38","","","","101.01","","","","-16","","NA"
"2016-02-15 15:00","2016","02","15","15:00","-6.4","","-9.9","","77","","15","","39","","","","100.95","","","","-16","","NA"
"2016-02-15 16:00","2016","02","15","16:00","-6.1","","-9.4","","77","","15","","38","","","","100.89","","","","-15","","NA"
"2016-02-15 17:00","2016","02","15","17:00","-5.6","","-9.2","","76","","15","","39","","","","100.85","","","","-15","","NA"
"2016-02-15 18:00","2016","02","15","18:00","-5.3","","-8.5","","78","","15","","37","","","","100.79","","","","-14","","NA"
"2016-02-15 19:00","2016","02","15","19:00","-4.7","","-7.9","","78","","16","","38","","","","100.75","","","","-13","","NA"
"2016-02-15 20:00","2016","02","15","20:00","-4.3","","-7.2","","80","","16","","38","","","","100.69","","","","-13","","NA"
"2016-02-15 21:00","2016","02","15","21:00","-3.8","","-6.0","","85","","17","","34","","","","100.62","","","","-12","","NA"
"2016-02-15 22:00","2016","02","15","22:00","-3.2","","-5.9","","81","","17","","32","","","","100.57","","","","-11","","NA"
"2016-02-15 23:00","2016","02","15","23:00","-2.2","","-5.1","","80","","17","","28","","","","100.47","","","","-9","","NA"
"2016-02-16 00:00","2016","02","16","00:00","-2.1","","-4.4","","84","","17","","27","","","","100.37","","","","-9","","NA"
"2016-02-16 01:00","2016","02","16","01:00","-2.1","","-3.8","","88","","17","","25","","","","100.33","","","","-9","","NA"
"2016-02-16 02:00","2016","02","16","02:00","-1.9","","-3.3","","90","","17","","20","","","","100.27","","","","-8","","NA"
"2016-02-16 03:00","2016","02","16","03:00","-1.9","","-3.1","","91","","16","","18","","","","100.15","","","","-7","","NA"
"2016-02-16 04:00","2016","02","16","04:00","-1.9","","-2.7","","94","","14","","13","","","","100.07","","","","-6","","NA"
"2016-02-16 05:00","2016","02","16","05:00","-2.2","","-3.0","","95","","6","","8","","","","99.95","","","","-5","","NA"
"2016-02-16 06:00","2016","02","16","06:00","-2.7","","-3.5","","94","","5","","16","","","","99.86","","","","-8","","NA"
"2016-02-16 07:00","2016","02","16","07:00","-3.1","","-3.9","","94","","4","","14","","","","99.78","","","","-8","","NA"
"2016-02-16 08:00","2016","02","16","08:00","-3.1","","-3.9","","94","","3","","16","","","","99.65","","","","-8","","NA"
"2016-02-16 09:00","2016","02","16","09:00","-3.4","","-4.3","","94","","3","","18","","","","99.61","","","","-9","","NA"
"2016-02-16 10:00","2016","02","16","10:00","-3.4","","-4.4","","93","","3","","23","","","","99.40","","","","-10","","NA"
"2016-02-16 11:00","2016","02","16","11:00","-2.5","","-3.7","","92","","2","","20","","","","99.18","","","","-8","","NA"
"2016-02-16 12:00","2016","02","16","12:00","-2.3","","-3.5","","92","","3","","26","","","","99.00","","","","-9","","NA"
"2016-02-16 13:00","2016","02","16","13:00","-3.6","","-4.9","","90","","1","","26","","","","98.83","","","","-11","","NA"
"2016-02-16 14:00","2016","02","16","14:00","-4.6","","-5.7","","92","","35","","27","","","","98.72","","","","-12","","NA"
"2016-02-16 15:00","2016","02","16","15:00","-4.3","","-5.2","","93","","34","","28","","","","98.69","","","","-12","","NA"
"2016-02-16 16:00","2016","02","16","16:00","-3.8","","-4.8","","93","","33","","25","","","","98.77","","","","-11","","NA"
"2016-02-16 17:00","2016","02","16","17:00","-3.4","","-4.4","","93","","30","","16","","","","98.88","","","","-9","","NA"
"2016-02-16 18:00","2016","02","16","18:00","-3.1","","-4.1","","93","","27","","19","","","","99.10","","","","-9","","NA"
"2016-02-16 19:00","2016","02","16","19:00","-3.3","","-4.5","","92","","28","","20","","","","99.28","","","","-9","","NA"
"2016-02-16 20:00","2016","02","16","20:00","-3.0","","-4.1","","92","","27","","15","","","","99.37","","","","-8","","NA"
"2016-02-16 21:00","2016","02","16","21:00","-2.0","","-5.6","","77","","29","","20","","","","99.49","","","","-8","","NA"
"2016-02-16 22:00","2016","02","16","22:00","-2.5","","-4.6","","86","","26","","9","","","","99.57","","","","-6","","NA"
"2016-02-16 23:00","2016","02","16","23:00","-1.9","","-5.1","","79","","28","","15","","","","99.70","","","","-7","","NA"
"2016-02-17 00:00","2016","02","17","00:00","-2.0","","-5.0","","80","","27","","7","","","","99.78","","","","-5","","NA"
"2016-02-17 01:00","2016","02","17","01:00","-2.2","","-4.7","","83","","28","","7","","","","99.87","","","","-5","","NA"
"2016-02-17 02:00","2016","02","17","02:00","-2.4","","-5.6","","79","","25","","7","","","","99.98","","","","-5","","NA"
"2016-02-17 03:00","2016","02","17","03:00","-2.7","","-5.5","","81","","22","","7","","","","100.05","","","","-6","","NA"
"2016-02-17 04:00","2016","02","17","04:00","-2.9","","-5.4","","83","","23","","7","","","","100.08","","","","-6","","NA"
"2016-02-17 05:00","2016","02","17","05:00","-3.0","","-5.6","","82","","25","","10","","","","100.11","","","","-7","","NA"
"2016-02-17 06:00","2016","02","17","06:00","-3.5","","-6.2","","82","","28","","10","","","","100.12","","","","-7","","NA"
"2016-02-17 07:00","2016","02","17","07:00","-4.5","","-6.5","","86","","28","","6","","","","100.18","","","","-7","","NA"
"2016-02-17 08:00","2016","02","17","08:00","-4.6","","-6.6","","86","","32","","4","","","","100.25","","","","-6","","NA"
"2016-02-17 09:00","2016","02","17","09:00","-3.7","","-6.2","","82","","0","","1","","","","100.33","","","","-4","","NA"
"2016-02-17 10:00","2016","02","17","10:00","-3.7","","-5.9","","84","","17","","7","","","","100.38","","","","-7","","NA"
"2016-02-17 11:00","2016","02","17","11:00","-2.1","","-5.0","","81","","17","","8","","","","100.41","","","","-5","","NA"
"2016-02-17 12:00","2016","02","17","12:00","-2.1","","-3.6","","89","","20","","14","","","","100.40","","","","-7","","NA"
"2016-02-17 13:00","2016","02","17","13:00","-1.7","","-3.4","","89","","22","","11","","","","100.39","","","","-6","","NA"
"2016-02-17 14:00","2016","02","17","14:00","-1.4","","-3.3","","87","","22","","12","","","","100.41","","","","-5","","NA"
"2016-02-17 15:00","2016","02","17","15:00","-1.2","","-2.8","","89","","24","","12","","","","100.45","","","","-5","","NA"
"2016-02-17 16:00","2016","02","17","16:00","-1.1","","-8.1","","59","","26","","21","","","","100.51","","","","-7","","NA"
"2016-02-17 17:00","2016","02","17","17:00","-2.3","","-10.8","","52","","27","","21","","","","100.58","","","","-8","","NA"
"2016-02-17 18:00","2016","02","17","18:00","-4.0","","-11.1","","58","","26","","14","","","","100.74","","","","-9","","NA"
"2016-02-17 19:00","2016","02","17","19:00","-5.5","","-11.3","","64","","27","","13","","","","100.92","","","","-11","","NA"
"2016-02-17 20:00","2016","02","17","20:00","-6.5","","-11.3","","68","","29","","12","","","","101.08","","","","-12","","NA"
"2016-02-17 21:00","2016","02","17","21:00","-7.7","","-13.2","","65","","32","","18","","","","101.23","","","","-15","","NA"
"2016-02-17 22:00","2016","02","17","22:00","-10.1","","-15.6","","64","","34","","28","","","","101.36","","","","-19","","NA"
"2016-02-17 23:00","2016","02","17","23:00","-11.5","","-16.6","","66","","34","","19","","","","101.45","","","","-20","","NA"
"2016-02-18 00:00","2016","02","18","00:00","-12.5","","-17.4","","67","","33","","17","","","","101.56","","","","-20","","NA"
"2016-02-18 01:00","2016","02","18","01:00","-13.7","","-17.9","","70","","33","","9","","","","101.68","","","","-19","","NA"
"2016-02-18 02:00","2016","02","18","02:00","-14.9","","-18.4","","74","","33","","3","","","","101.79","","","","-17","","NA"
"2016-02-18 03:00","2016","02","18","03:00","-15.5","","-18.3","","79","","29","","4","","","","101.84","","","","-18","","NA"
"2016-02-18 04:00","2016","02","18","04:00","-16.2","","-19.3","","77","","30","","9","","","","101.93","","","","-22","","NA"
"2016-02-18 05:00","2016","02","18","05:00","-18.2","","-20.4","","82","","31","","10","","","","102.04","","","","-25","","NA"
"2016-02-18 06:00","2016","02","18","06:00","-20.4","","-22.9","","80","","31","","12","","","","102.15","","","","-29","","NA"
"2016-02-18 07:00","2016","02","18","07:00","-19.3","","-21.5","","83","","31","","10","","","","102.26","","","","-26","","NA"
"2016-02-18 08:00","2016","02","18","08:00","-19.4","","-21.8","","82","","32","","11","","","","102.37","","","","-27","","NA"
"2016-02-18 09:00","2016","02","18","09:00","-17.7","","-21.1","","75","","34","","12","","","","102.47","","","","-25","","NA"
"2016-02-18 10:00","2016","02","18","10:00","-14.3","","-19.2","","67","","32","","8","","","","102.52","","","","-20","","NA"
"2016-02-18 11:00","2016","02","18","11:00","-11.1","","-18.9","","53","","15","","2","","","","102.56","","","","-12","","NA"
"2016-02-18 12:00","2016","02","18","12:00","-11.6","","-17.8","","60","","19","","8","","","","102.56","","","","-16","","NA"
"2016-02-18 13:00","2016","02","18","13:00","-10.9","","-17.9","","56","","20","","8","","","","102.52","","","","-16","","NA"
"2016-02-18 14:00","2016","02","18","14:00","-10.2","","-17.3","","56","","18","","9","","","","102.46","","","","-15","","NA"
"2016-02-18 15:00","2016","02","18","15:00","-9.9","","-16.0","","61","","20","","11","","","","102.51","","","","-15","","NA"
"2016-02-18 16:00","2016","02","18","16:00","-9.9","","-16.6","","58","","23","","9","","","","102.50","","","","-15","","NA"
"2016-02-18 17:00","2016","02","18","17:00","-9.6","","-17.6","","52","","22","","6","","","","102.51","","","","-13","","NA"
"2016-02-18 18:00","2016","02","18","18:00","-11.1","","-17.8","","58","","23","","6","","","","102.53","","","","-15","","NA"
"2016-02-18 19:00","2016","02","18","19:00","-13.4","","-16.4","","78","","21","","3","","","","102.50","","","","-15","","NA"
"2016-02-18 20:00","2016","02","18","20:00","-13.4","","-16.8","","76","","23","","3","","","","102.48","","","","-15","","NA"
"2016-02-18 21:00","2016","02","18","21:00","-15.3","","-17.2","","85","","19","","3","","","","102.43","","","","-17","","NA"
"2016-02-18 22:00","2016","02","18","22:00","-16.0","","-17.6","","87","","5","","7","","","","102.40","","","","-21","","NA"
"2016-02-18 23:00","2016","02","18","23:00","-17.5","","-19.6","","84","","3","","5","","","","102.36","","","","-21","","NA"
"2016-02-19 00:00","2016","02","19","00:00","-19.2","","-21.6","","81","","3","","6","","","","102.31","","","","-24","","NA"
"2016-02-19 01:00","2016","02","19","01:00","-20.0","","-22.3","","82","","4","","6","","","","102.27","","","","-25","","NA"
"2016-02-19 02:00","2016","02","19","02:00","-20.1","","-22.6","","81","","6","","7","","","","102.17","","","","-26","","NA"
"2016-02-19 03:00","2016","02","19","03:00","-18.6","","-20.7","","84","","8","","7","","","","102.13","","","","-24","","NA"
"2016-02-19 04:00","2016","02","19","04:00","-18.6","","-20.6","","85","","6","","7","","","","102.08","","","","-24","","NA"
"2016-02-19 05:00","2016","02","19","05:00","-18.4","","-20.8","","81","","6","","7","","","","102.05","","","","-24","","NA"
"2016-02-19 06:00","2016","02","19","06:00","-14.6","","-16.4","","86","","7","","7","","","","101.97","","","","-19","","NA"
"2016-02-19 07:00","2016","02","19","07:00","-13.9","","-15.6","","87","","8","","12","","","","101.91","","","","-21","","NA"
"2016-02-19 08:00","2016","02","19","08:00","-12.7","","-14.5","","87","","7","","11","","","","101.86","","","","-19","","NA"
"2016-02-19 09:00","2016","02","19","09:00","-11.4","","-14.5","","78","","7","","10","","","","101.74","","","","-17","","NA"
"2016-02-19 10:00","2016","02","19","10:00","-8.1","","-13.8","","63","","9","","11","","","","101.54","","","","-13","","NA"
"2016-02-19 11:00","2016","02","19","11:00","-6.1","","-11.7","","65","","14","","7","","","","101.41","","","","-9","","NA"
"2016-02-19 12:00","2016","02","19","12:00","-1.8","","-7.4","","66","","15","","25","","","","101.18","","","","-8","","NA"
"2016-02-19 13:00","2016","02","19","13:00","-1.3","","-7.2","","64","","15","","24","","","","100.94","","","","-7","","NA"
"2016-02-19 14:00","2016","02","19","14:00","-0.6","","-6.6","","63","","15","","28","","","","100.72","","","","-7","","NA"
"2016-02-19 15:00","2016","02","19","15:00","0.1","","-6.4","","62","","15","","30","","","","100.53","","","","","","NA"
"2016-02-19 16:00","2016","02","19","16:00","0.3","","-5.3","","66","","15","","30","","","","100.41","","","","","","NA"
"2016-02-19 17:00","2016","02","19","17:00","1.3","","-3.8","","69","","16","","33","","","","100.26","","","","","","NA"
"2016-02-19 18:00","2016","02","19","18:00","1.5","","-3.2","","71","","15","","27","","","","100.09","","","","","","NA"
"2016-02-19 19:00","2016","02","19","19:00","2.2","","-4.3","","63","","17","","28","","","","100.02","","","","","","NA"
"2016-02-19 20:00","2016","02","19","20:00","2.0","","-4.9","","60","","17","","40","","","","99.81","","","","","","NA"
"2016-02-19 21:00","2016","02","19","21:00","1.9","","-3.4","","68","","16","","38","","","","99.64","","","","","","NA"
"2016-02-19 22:00","2016","02","19","22:00","1.8","","-3.5","","68","","16","","42","","","","99.47","","","","","","NA"
"2016-02-19 23:00","2016","02","19","23:00","2.2","","-3.9","","64","","16","","36","","","","99.33","","","","","","NA"
"2016-02-20 00:00","2016","02","20","00:00","2.1","","-2.7","","71","","17","","50","","","","99.17","","","","","","NA"
"2016-02-20 01:00","2016","02","20","01:00","2.3","","-2.5","","70","","18","","52","","","","99.09","","","","","","NA"
"2016-02-20 02:00","2016","02","20","02:00","2.4","","-1.3","","77","","17","","52","","","","98.98","","","","","","NA"
"2016-02-20 03:00","2016","02","20","03:00","2.7","","-1.1","","76","","18","","56","","","","98.97","","","","","","NA"
"2016-02-20 04:00","2016","02","20","04:00","2.0","","0.4","","89","","19","","42","","","","99.02","","","","","","NA"
"2016-02-20 05:00","2016","02","20","05:00","2.4","","1.2","","92","","20","","38","","","","99.09","","","","","","NA"
"2016-02-20 06:00","2016","02","20","06:00","4.2","","2.3","","88","","23","","35","","","","99.10","","","","","","NA"
"2016-02-20 07:00","2016","02","20","07:00","3.3","","1.8","","90","","21","","27","","","","99.14","","","","","","NA"
"2016-02-20 08:00","2016","02","20","08:00","4.3","","0.6","","77","","23","","32","","","","99.16","","","","","","NA"
"2016-02-20 09:00","2016","02","20","09:00","5.0","","0.5","","73","","23","","40","","","","99.14","","","","","","NA"
"2016-02-20 10:00","2016","02","20","10:00","5.1","","0.2","","71","","23","","40","","","","99.18","","","","","","NA"
"2016-02-20 11:00","2016","02","20","11:00","5.4","","0.3","","69","","24","","40","","","","99.20","","","","","","NA"
"2016-02-20 12:00","2016","02","20","12:00","5.2","","-0.1","","68","","23","","32","","","","99.18","","","","","","NA"
"2016-02-20 13:00","2016","02","20","13:00","4.9","","0.1","","71","","23","","29","","","","99.22","","","","","","NA"
"2016-02-20 14:00","2016","02","20","14:00","4.4","","0.2","","74","","24","","20","","","","99.18","","","","","","NA"
"2016-02-20 15:00","2016","02","20","15:00","4.2","","-0.1","","74","","24","","17","","","","99.19","","","","","","NA"
"2016-02-20 16:00","2016","02","20","16:00","5.2","","0.2","","70","","25","","12","","","","99.24","","","","","","NA"
"2016-02-20 17:00","2016","02","20","17:00","6.1","","0.4","","67","","26","","12","","","","99.31","","","","","","NA"
"2016-02-20 18:00","2016","02","20","18:00","6.5","","0.9","","67","","27","","18","","","","99.41","","","","","","NA"
"2016-02-20 19:00","2016","02","20","19:00","5.9","","0.8","","70","","26","","14","","","","99.53","","","","","","NA"
"2016-02-20 20:00","2016","02","20","20:00","5.5","","0.9","","72","","26","","14","","","","99.58","","","","","","NA"
"2016-02-20 21:00","2016","02","20","21:00","4.0","","0.6","","79","","24","","13","","","","99.63","","","","","","NA"
"2016-02-20 22:00","2016","02","20","22:00","4.5","","-0.1","","72","","28","","20","","","","99.65","","","","","","NA"
"2016-02-20 23:00","2016","02","20","23:00","4.1","","-0.2","","73","","28","","20","","","","99.73","","","","","","NA"
"2016-02-21 00:00","2016","02","21","00:00","3.8","","-0.1","","76","","26","","16","","","","99.80","","","","","","NA"
"2016-02-21 01:00","2016","02","21","01:00","3.4","","0.0","","78","","27","","17","","","","99.86","","","","","","NA"
"2016-02-21 02:00","2016","02","21","02:00","3.2","","0.1","","81","","25","","16","","","","99.92","","","","","","NA"
"2016-02-21 03:00","2016","02","21","03:00","3.2","","0.2","","81","","26","","17","","","","99.96","","","","","","NA"
"2016-02-21 04:00","2016","02","21","04:00","3.0","","-0.2","","80","","27","","13","","","","99.98","","","","","","NA"
"2016-02-21 05:00","2016","02","21","05:00","1.7","","-0.4","","86","","23","","16","","","","100.01","","","","","","NA"
"2016-02-21 06:00","2016","02","21","06:00","1.5","","-0.4","","87","","25","","10","","","","100.06","","","","","","NA"
"2016-02-21 07:00","2016","02","21","07:00","1.8","","-0.3","","86","","25","","12","","","","100.12","","","","","","NA"
"2016-02-21 08:00","2016","02","21","08:00","2.0","","-0.1","","86","","28","","3","","","","100.20","","","","","","NA"
"2016-02-21 09:00","2016","02","21","09:00","1.7","","0.3","","90","","32","","6","","","","100.30","","","","","","NA"
"2016-02-21 10:00","2016","02","21","10:00","1.8","","-0.5","","84","","1","","11","","","","100.35","","","","","","NA"
"2016-02-21 11:00","2016","02","21","11:00","2.4","","-1.5","","76","","1","","15","","","","100.38","","","","","","NA"
"2016-02-21 12:00","2016","02","21","12:00","3.5","","-2.5","","65","","5","","6","","","","100.36","","","","","","NA"
"2016-02-21 13:00","2016","02","21","13:00","1.9","","-0.6","","83","","18","","9","","","","100.39","","","","","","NA"
"2016-02-21 14:00","2016","02","21","14:00","1.1","","-0.9","","86","","18","","10","","","","100.36","","","","","","NA"
"2016-02-21 15:00","2016","02","21","15:00","1.1","","-0.4","","90","","18","","9","","","","100.38","","","","","","NA"
"2016-02-21 16:00","2016","02","21","16:00","1.4","","-0.6","","87","","2","","2","","","","100.48","","","","","","NA"
"2016-02-21 17:00","2016","02","21","17:00","1.2","","-3.1","","73","","3","","11","","","","100.56","","","","","","NA"
"2016-02-21 18:00","2016","02","21","18:00","0.0","","-4.0","","75","","2","","16","","","","100.61","","","","-5","","NA"
"2016-02-21 19:00","2016","02","21","19:00","-0.6","","-6.0","","67","","3","","14","","","","100.69","","","","-5","","NA"
"2016-02-21 20:00","2016","02","21","20:00","-2.2","","-9.5","","57","","3","","21","","","","100.77","","","","-8","","NA"
"2016-02-21 21:00","2016","02","21","21:00","-3.4","","-11.9","","52","","2","","20","","","","100.83","","","","-10","","NA"
"2016-02-21 22:00","2016","02","21","22:00","-4.2","","-12.1","","54","","4","","16","","","","100.88","","","","-10","","NA"
"2016-02-21 23:00","2016","02","21","23:00","-4.7","","-12.5","","54","","2","","15","","","","100.90","","","","-10","","NA"
"2016-02-22 00:00","2016","02","22","00:00","-5.1","","-12.0","","58","","1","","16","","","","100.91","","","","-11","","NA"
"2016-02-22 01:00","2016","02","22","01:00","-5.6","","-12.5","","58","","1","","17","","","","100.93","","","","-12","","NA"
"2016-02-22 02:00","2016","02","22","02:00","-6.0","","-12.2","","62","","1","","13","","","","100.96","","","","-11","","NA"
"2016-02-22 03:00","2016","02","22","03:00","-6.7","","-13.4","","59","","1","","16","","","","100.96","","","","-13","","NA"
"2016-02-22 04:00","2016","02","22","04:00","-7.6","","-13.5","","63","","1","","13","","","","101.01","","","","-13","","NA"
"2016-02-22 05:00","2016","02","22","05:00","-8.4","","-14.3","","62","","2","","13","","","","101.12","","","","-14","","NA"
"2016-02-22 06:00","2016","02","22","06:00","-9.2","","-15.6","","60","","2","","13","","","","101.23","","","","-15","","NA"
"2016-02-22 07:00","2016","02","22","07:00","-10.0","","-15.8","","62","","3","","12","","","","101.31","","","","-16","","NA"
"2016-02-22 08:00","2016","02","22","08:00","-10.2","","-15.5","","65","","2","","11","","","","101.39","","","","-16","","NA"
"2016-02-22 09:00","2016","02","22","09:00","-9.8","","-16.0","","61","","2","","14","","","","101.42","","","","-16","","NA"
"2016-02-22 10:00","2016","02","22","10:00","-8.9","","-16.3","","55","","1","","12","","","","101.45","","","","-15","","NA"
"2016-02-22 11:00","2016","02","22","11:00","-8.1","","-15.8","","54","","36","","5","","","","101.46","","","","-11","","NA"
"2016-02-22 12:00","2016","02","22","12:00","-7.0","","-15.6","","51","","1","","7","","","","101.47","","","","-11","","NA"
"2016-02-22 13:00","2016","02","22","13:00","-6.2","","-13.4","","57","","17","","8","","","","101.43","","","","-10","","NA"
"2016-02-22 14:00","2016","02","22","14:00","-5.7","","-13.6","","54","","20","","7","","","","101.43","","","","-9","","NA"
"2016-02-22 15:00","2016","02","22","15:00","-5.2","","-14.4","","48","","19","","6","","","","101.43","","","","-8","","NA"
"2016-02-22 16:00","2016","02","22","16:00","-5.1","","-14.1","","49","","20","","3","","","","101.42","","","","-6","","NA"
"2016-02-22 17:00","2016","02","22","17:00","-5.9","","-11.9","","63","","15","","10","","","","101.47","","","","-10","","NA"
"2016-02-22 18:00","2016","02","22","18:00","-6.6","","-13.4","","58","","13","","8","","","","101.52","","","","-10","","NA"
"2016-02-22 19:00","2016","02","22","19:00","-7.3","","-14.6","","56","","9","","15","","","","101.58","","","","-13","","NA"
"2016-02-22 20:00","2016","02","22","20:00","-8.3","","-14.1","","63","","6","","8","","","","101.56","","","","-12","","NA"
"2016-02-22 21:00","2016","02","22","21:00","-9.1","","-15.1","","62","","5","","9","","","","101.58","","","","-14","","NA"
"2016-02-22 22:00","2016","02","22","22:00","-9.9","","-16.7","","57","","5","","11","","","","101.59","","","","-15","","NA"
"2016-02-22 23:00","2016","02","22","23:00","-10.7","","-16.7","","61","","4","","10","","","","101.60","","","","-16","","NA"
"2016-02-23 00:00","2016","02","23","00:00","-11.3","","-16.1","","68","","3","","9","","","","101.60","","","","-16","","NA"
"2016-02-23 01:00","2016","02","23","01:00","-11.5","","-16.1","","69","","4","","8","","","","101.60","","","","-16","","NA"
"2016-02-23 02:00","2016","02","23","02:00","-11.9","","-16.4","","70","","4","","8","","","","101.59","","","","-17","","NA"
"2016-02-23 03:00","2016","02","23","03:00","-13.5","","-16.4","","79","","36","","11","","","","101.58","","","","-20","","NA"
"2016-02-23 04:00","2016","02","23","04:00","-10.9","","-15.9","","67","","3","","14","","","","101.53","","","","-18","","NA"
"2016-02-23 05:00","2016","02","23","05:00","-10.6","","-16.4","","63","","3","","16","","","","101.57","","","","-18","","NA"
"2016-02-23 06:00","2016","02","23","06:00","-10.6","","-16.4","","63","","4","","16","","","","101.59","","","","-18","","NA"
"2016-02-23 07:00","2016","02","23","07:00","-10.6","","-16.1","","64","","3","","16","","","","101.60","","","","-18","","NA"
"2016-02-23 08:00","2016","02","23","08:00","-10.2","","-15.7","","64","","2","","16","","","","101.62","","","","-17","","NA"
"2016-02-23 09:00","2016","02","23","09:00","-9.7","","-15.1","","65","","3","","15","","","","101.57","","","","-16","","NA"
"2016-02-23 10:00","2016","02","23","10:00","-8.9","","-14.8","","62","","4","","14","","","","101.54","","","","-15","","NA"
"2016-02-23 11:00","2016","02","23","11:00","-7.6","","-13.7","","62","","3","","13","","","","101.50","","","","-13","","NA"
"2016-02-23 12:00","2016","02","23","12:00","-6.8","","-13.5","","59","","2","","15","","","","101.48","","","","-13","","NA"
"2016-02-23 13:00","2016","02","23","13:00","-6.3","","-13.2","","58","","1","","15","","","","101.46","","","","-12","","NA"
"2016-02-23 14:00","2016","02","23","14:00","-5.9","","-12.6","","59","","4","","16","","","","101.40","","","","-12","","NA"
"2016-02-23 15:00","2016","02","23","15:00","-5.6","","-12.2","","60","","3","","18","","","","101.36","","","","-12","","NA"
"2016-02-23 16:00","2016","02","23","16:00","-5.6","","-11.8","","61","","1","","17","","","","101.32","","","","-12","","NA"
"2016-02-23 17:00","2016","02","23","17:00","-5.6","","-11.9","","61","","2","","21","","","","101.28","","","","-12","","NA"
"2016-02-23 18:00","2016","02","23","18:00","-5.8","","-12.0","","61","","1","","19","","","","101.34","","","","-12","","NA"
"2016-02-23 19:00","2016","02","23","19:00","-5.8","","-11.8","","62","","4","","16","","","","101.37","","","","-12","","NA"
"2016-02-23 20:00","2016","02","23","20:00","-5.9","","-11.6","","64","","3","","18","","","","101.34","","","","-12","","NA"
"2016-02-23 21:00","2016","02","23","21:00","-6.0","","-11.4","","66","","4","","13","","","","101.35","","","","-11","","NA"
"2016-02-23 22:00","2016","02","23","22:00","-6.0","","-10.7","","69","","3","","18","","","","101.28","","","","-12","","NA"
"2016-02-23 23:00","2016","02","23","23:00","-5.8","","-10.6","","69","","3","","16","","","","101.21","","","","-12","","NA"
"2016-02-24 00:00","2016","02","24","00:00","-5.7","","-10.2","","70","","3","","17","","","","101.15","","","","-12","","NA"
"2016-02-24 01:00","2016","02","24","01:00","-6.4","","-8.6","","84","","3","","19","","","","101.14","","","","-13","","NA"
"2016-02-24 02:00","2016","02","24","02:00","-6.4","","-7.7","","90","","3","","20","","","","101.08","","","","-13","","NA"
"2016-02-24 03:00","2016","02","24","03:00","-6.3","","-7.6","","90","","4","","15","","","","100.96","","","","-12","","NA"
"2016-02-24 04:00","2016","02","24","04:00","-6.3","","-7.7","","89","","4","","21","","","","100.87","","","","-13","","NA"
"2016-02-24 05:00","2016","02","24","05:00","-6.0","","-7.2","","91","","4","","18","","","","100.82","","","","-12","","NA"
"2016-02-24 06:00","2016","02","24","06:00","-5.6","","-6.7","","92","","4","","20","","","","100.74","","","","-12","","NA"
"2016-02-24 07:00","2016","02","24","07:00","-5.0","","-6.2","","91","","3","","20","","","","100.69","","","","-12","","NA"
"2016-02-24 08:00","2016","02","24","08:00","-4.4","","-5.6","","91","","4","","22","","","","100.60","","","","-11","","NA"
"2016-02-24 09:00","2016","02","24","09:00","-3.7","","-5.1","","90","","4","","22","","","","100.49","","","","-10","","NA"
"2016-02-24 10:00","2016","02","24","10:00","-2.5","","-3.8","","91","","4","","22","","","","100.35","","","","-9","","NA"
"2016-02-24 11:00","2016","02","24","11:00","-1.3","","-2.6","","91","","5","","16","","","","100.16","","","","-6","","NA"
"2016-02-24 12:00","2016","02","24","12:00","-0.5","","-1.7","","92","","5","","7","","","","99.94","","","","-3","","NA"
"2016-02-24 13:00","2016","02","24","13:00","-0.2","","-1.3","","92","","4","","3","","","","99.73","","","","-1","","NA"
"2016-02-24 14:00","2016","02","24","14:00","0.0","","-1.1","","93","","4","","3","","","","99.39","","","","-1","","NA"
"2016-02-24 15:00","2016","02","24","15:00","0.3","","-0.7","","93","","4","","3","","","","99.20","","","","","","NA"
"2016-02-24 16:00","2016","02","24","16:00","0.5","","-0.7","","92","","3","","3","","","","99.12","","","","","","NA"
"2016-02-24 17:00","2016","02","24","17:00","0.5","","-0.6","","93","","3","","26","","","","98.94","","","","","","NA"
"2016-02-24 18:00","2016","02","24","18:00","0.5","","-0.6","","92","","3","","31","","","","98.81","","","","","","NA"
"2016-02-24 19:00","2016","02","24","19:00","0.7","","-0.5","","92","","4","","28","","","","98.65","","","","","","NA"
"2016-02-24 20:00","2016","02","24","20:00","0.6","","-0.5","","93","","4","","30","","","","98.44","","","","","","NA"
"2016-02-24 21:00","2016","02","24","21:00","0.6","","-0.5","","92","","4","","31","","","","98.30","","","","","","NA"
"2016-02-24 22:00","2016","02","24","22:00","0.6","","-0.4","","93","","4","","32","","","","97.98","","","","","","NA"
"2016-02-24 23:00","2016","02","24","23:00","0.8","","-0.2","","93","","5","","32","","","","97.79","","","","","","NA"
"2016-02-25 00:00","2016","02","25","00:00","0.9","","-0.1","","93","","4","","25","","","","97.69","","","","","","NA"
"2016-02-25 01:00","2016","02","25","01:00","1.0","","0.1","","94","","2","","17","","","","97.61","","","","","","NA"
"2016-02-25 02:00","2016","02","25","02:00","0.9","","0.1","","94","","3","","10","","","","97.54","","","","","","NA"
"2016-02-25 03:00","2016","02","25","03:00","0.9","","0.1","","94","","2","","6","","","","97.53","","","","","","NA"
"2016-02-25 04:00","2016","02","25","04:00","0.8","","0.1","","95","","1","","7","","","","97.50","","","","","","NA"
"2016-02-25 05:00","2016","02","25","05:00","0.5","","0.0","","96","","32","","8","","","","97.55","","","","","","NA"
"2016-02-25 06:00","2016","02","25","06:00","0.6","","0.1","","96","","25","","3","","","","97.65","","","","","","NA"
"2016-02-25 07:00","2016","02","25","07:00","0.6","","0.1","","97","","29","","5","","","","97.74","","","","","","NA"
"2016-02-25 08:00","2016","02","25","08:00","0.4","","-0.1","","97","","21","","8","","","","97.81","","","","","","NA"
"2016-02-25 09:00","2016","02","25","09:00","0.6","","0.1","","97","","24","","7","","","","97.80","","","","","","NA"
"2016-02-25 10:00","2016","02","25","10:00","0.8","","0.3","","97","","24","","7","","","","97.82","","","","","","NA"
"2016-02-25 11:00","2016","02","25","11:00","0.9","","0.4","","97","","23","","5","","","","97.85","","","","","","NA"
"2016-02-25 12:00","2016","02","25","12:00","0.8","","0.3","","97","","31","","8","","","","97.90","","","","","","NA"
"2016-02-25 13:00","2016","02","25","13:00","0.5","","0.0","","96","","31","","12","","","","97.90","","","","","","NA"
"2016-02-25 14:00","2016","02","25","14:00","0.7","","-0.3","","93","","33","","15","","","","97.94","","","","","","NA"
"2016-02-25 15:00","2016","02","25","15:00","0.2","","-2.1","","84","","32","","24","","","","98.04","","","","","","NA"
"2016-02-25 16:00","2016","02","25","16:00","-0.1","","-3.5","","78","","33","","27","","","","98.13","","","","-6","","NA"
"2016-02-25 17:00","2016","02","25","17:00","-0.4","","-3.9","","77","","33","","26","","","","98.28","","","","-7","","NA"
"2016-02-25 18:00","2016","02","25","18:00","-0.9","","-4.2","","79","","30","","22","","","","98.45","","","","-7","","NA"
"2016-02-25 19:00","2016","02","25","19:00","-2.0","","-3.9","","87","","30","","19","","","","98.63","","","","-8","","NA"
"2016-02-25 20:00","2016","02","25","20:00","-2.5","","-4.0","","89","","30","","17","","","","98.74","","","","-8","","NA"
"2016-02-25 21:00","2016","02","25","21:00","-2.7","","-6.8","","73","","31","","33","","","","98.89","","","","-10","","NA"
"2016-02-25 22:00","2016","02","25","22:00","-3.6","","-7.8","","73","","31","","31","","","","99.02","","","","-11","","NA"
"2016-02-25 23:00","2016","02","25","23:00","-4.8","","-9.8","","68","","31","","26","","","","99.14","","","","-12","","NA"
"2016-02-26 00:00","2016","02","26","00:00","-5.8","","-11.2","","66","","32","","29","","","","99.26","","","","-14","","NA"
"2016-02-26 01:00","2016","02","26","01:00","-6.5","","-11.7","","67","","31","","30","","","","99.38","","","","-15","","NA"
"2016-02-26 02:00","2016","02","26","02:00","-8.4","","-13.3","","68","","30","","23","","","","99.54","","","","-16","","NA"
"2016-02-26 03:00","2016","02","26","03:00","-9.5","","-14.4","","68","","30","","20","","","","99.64","","","","-17","","NA"
"2016-02-26 04:00","2016","02","26","04:00","-10.1","","-14.9","","68","","31","","21","","","","99.72","","","","-18","","NA"
"2016-02-26 05:00","2016","02","26","05:00","-10.7","","-16.2","","64","","32","","25","","","","99.87","","","","-20","","NA"
"2016-02-26 06:00","2016","02","26","06:00","-11.5","","-16.4","","67","","30","","19","","","","99.99","","","","-20","","NA"
"2016-02-26 07:00","2016","02","26","07:00","-12.3","","-17.2","","66","","31","","18","","","","100.14","","","","-20","","NA"
"2016-02-26 08:00","2016","02","26","08:00","-12.2","","-17.0","","68","","30","","17","","","","100.29","","","","-20","","NA"
"2016-02-26 09:00","2016","02","26","09:00","-12.0","","-17.4","","64","","31","","22","","","","100.38","","","","-21","","NA"
"2016-02-26 10:00","2016","02","26","10:00","-11.3","","-17.0","","62","","31","","19","","","","100.44","","","","-19","","NA"
"2016-02-26 11:00","2016","02","26","11:00","-9.8","","-16.1","","60","","29","","16","","","","100.50","","","","-17","","NA"
"2016-02-26 12:00","2016","02","26","12:00","-8.6","","-15.9","","55","","30","","15","","","","100.50","","","","-15","","NA"
"2016-02-26 13:00","2016","02","26","13:00","-7.2","","-14.8","","55","","25","","15","","","","100.48","","","","-13","","NA"
"2016-02-26 14:00","2016","02","26","14:00","-6.4","","-13.8","","55","","24","","18","","","","100.46","","","","-13","","NA"
"2016-02-26 15:00","2016","02","26","15:00","-6.0","","-13.2","","57","","24","","21","","","","100.46","","","","-13","","NA"
"2016-02-26 16:00","2016","02","26","16:00","-5.1","","-12.3","","57","","26","","17","","","","100.51","","","","-11","","NA"
"2016-02-26 17:00","2016","02","26","17:00","-5.5","","-12.6","","57","","29","","15","","","","100.58","","","","-11","","NA"
"2016-02-26 18:00","2016","02","26","18:00","-6.2","","-12.8","","60","","28","","11","","","","100.65","","","","-11","","NA"
"2016-02-26 19:00","2016","02","26","19:00","-6.8","","-12.7","","63","","26","","16","","","","100.72","","","","-13","","NA"
"2016-02-26 20:00","2016","02","26","20:00","-7.5","","-13.0","","65","","26","","11","","","","100.73","","","","-13","","NA"
"2016-02-26 21:00","2016","02","26","21:00","-8.1","","-13.0","","67","","26","","10","","","","100.73","","","","-13","","NA"
"2016-02-26 22:00","2016","02","26","22:00","-8.5","","-13.1","","69","","25","","12","","","","100.74","","","","-14","","NA"
"2016-02-26 23:00","2016","02","26","23:00","-9.1","","-13.3","","71","","27","","12","","","","100.73","","","","-15","","NA"
"2016-02-27 00:00","2016","02","27","00:00","-9.5","","-13.3","","74","","26","","11","","","","100.72","","","","-15","","NA"
"2016-02-27 01:00","2016","02","27","01:00","-9.7","","-12.9","","77","","25","","11","","","","100.71","","","","-15","","NA"
"2016-02-27 02:00","2016","02","27","02:00","-9.3","","-12.5","","78","","26","","6","","","","100.69","","","","-13","","NA"
"2016-02-27 03:00","2016","02","27","03:00","-8.8","","-12.0","","78","","24","","7","","","","100.66","","","","-13","","NA"
"2016-02-27 04:00","2016","02","27","04:00","-8.3","","-11.7","","77","","19","","5","","","","100.58","","","","-11","","NA"
"2016-02-27 05:00","2016","02","27","05:00","-7.1","","-11.4","","72","","20","","6","","","","100.50","","","","-10","","NA"
"2016-02-27 06:00","2016","02","27","06:00","-6.0","","-9.5","","76","","20","","5","","","","100.42","","","","-8","","NA"
"2016-02-27 07:00","2016","02","27","07:00","-2.8","","-5.9","","79","","20","","19","","","","100.31","","","","-9","","NA"
"2016-02-27 08:00","2016","02","27","08:00","-2.0","","-5.4","","77","","21","","24","","","","100.28","","","","-8","","NA"
"2016-02-27 09:00","2016","02","27","09:00","-1.3","","-4.9","","76","","21","","29","","","","100.22","","","","-8","","NA"
"2016-02-27 10:00","2016","02","27","10:00","-1.2","","-4.3","","79","","21","","25","","","","100.09","","","","-7","","NA"
"2016-02-27 11:00","2016","02","27","11:00","-0.9","","-4.4","","77","","22","","38","","","","100.07","","","","-8","","NA"
"2016-02-27 12:00","2016","02","27","12:00","-0.6","","-4.4","","75","","21","","37","","","","99.99","","","","-8","","NA"
"2016-02-27 13:00","2016","02","27","13:00","0.5","","-5.9","","63","","23","","42","","","","99.89","","","","","","NA"
"2016-02-27 14:00","2016","02","27","14:00","0.7","","-5.0","","66","","21","","40","","","","99.77","","","","","","NA"
"2016-02-27 15:00","2016","02","27","15:00","1.0","","-4.1","","69","","21","","43","","","","99.70","","","","","","NA"
"2016-02-27 16:00","2016","02","27","16:00","1.2","","-3.6","","70","","21","","33","","","","99.66","","","","","","NA"
"2016-02-27 17:00","2016","02","27","17:00","1.8","","-3.0","","70","","21","","31","","","","99.59","","","","","","NA"
"2016-02-27 18:00","2016","02","27","18:00","2.1","","-2.0","","74","","21","","30","","","","99.57","","","","","","NA"
"2016-02-27 19:00","2016","02","27","19:00","3.1","","-2.4","","68","","22","","35","","","","99.55","","","","","","NA"
"2016-02-27 20:00","2016","02","27","20:00","3.4","","-1.9","","68","","23","","35","","","","99.55","","","","","","NA"
"2016-02-27 21:00","2016","02","27","21:00","3.2","","-1.4","","71","","23","","33","","","","99.56","","","","","","NA"
"2016-02-27 22:00","2016","02","27","22:00","3.4","","-1.1","","72","","24","","33","","","","99.56","","","","","","NA"
"2016-02-27 23:00","2016","02","27","23:00","3.7","","-0.4","","74","","24","","29","","","","99.59","","","","","","NA"
"2016-02-28 00:00","2016","02","28","00:00","3.8","","-0.3","","75","","24","","26","","","","99.57","","","","","","NA"
"2016-02-28 01:00","2016","02","28","01:00","3.2","","-0.2","","78","","23","","22","","","","99.61","","","","","","NA"
"2016-02-28 02:00","2016","02","28","02:00","3.1","","0.0","","80","","24","","18","","","","99.63","","","","","","NA"
"2016-02-28 03:00","2016","02","28","03:00","3.0","","-0.1","","80","","23","","19","","","","99.62","","","","","","NA"
"2016-02-28 04:00","2016","02","28","04:00","2.8","","-0.3","","80","","24","","17","","","","99.63","","","","","","NA"
"2016-02-28 05:00","2016","02","28","05:00","2.7","","-0.3","","81","","24","","13","","","","99.64","","","","","","NA"
"2016-02-28 06:00","2016","02","28","06:00","2.2","","-0.4","","83","","24","","9","","","","99.66","","","","","","NA"
"2016-02-28 07:00","2016","02","28","07:00","2.1","","-0.3","","84","","24","","6","","","","99.67","","","","","","NA"
"2016-02-28 08:00","2016","02","28","08:00","1.3","","-0.3","","89","","16","","8","","","","99.71","","","","","","NA"
"2016-02-28 09:00","2016","02","28","09:00","0.6","","-2.6","","79","","4","","19","","","","99.73","","","","","","NA"
"2016-02-28 10:00","2016","02","28","10:00","-0.3","","-3.2","","80","","5","","23","","","","99.71","","","","-6","","NA"
"2016-02-28 11:00","2016","02","28","11:00","-0.8","","-4.5","","76","","5","","20","","","","99.65","","","","-6","","NA"
"2016-02-28 12:00","2016","02","28","12:00","-0.6","","-5.8","","68","","4","","21","","","","99.56","","","","-6","","NA"
"2016-02-28 13:00","2016","02","28","13:00","0.0","","-4.8","","70","","6","","21","","","","99.44","","","","-5","","NA"
"2016-02-28 14:00","2016","02","28","14:00","-0.2","","-4.5","","72","","5","","19","","","","99.30","","","","-5","","NA"
"2016-02-28 15:00","2016","02","28","15:00","-0.2","","-5.0","","70","","3","","22","","","","99.27","","","","-6","","NA"
"2016-02-28 16:00","2016","02","28","16:00","-0.7","","-5.8","","68","","4","","23","","","","99.16","","","","-7","","NA"
"2016-02-28 17:00","2016","02","28","17:00","-2.4","","-6.5","","73","","4","","24","","","","99.10","","","","-9","","NA"
"2016-02-28 18:00","2016","02","28","18:00","-3.4","","-6.3","","80","","4","","20","","","","99.06","","","","-10","","NA"
"2016-02-28 19:00","2016","02","28","19:00","-3.4","","-6.0","","82","","3","","21","","","","99.04","","","","-10","","NA"
"2016-02-28 20:00","2016","02","28","20:00","-4.0","","-6.9","","80","","3","","21","","","","99.01","","","","-10","","NA"
"2016-02-28 21:00","2016","02","28","21:00","-4.8","","-7.7","","80","","5","","21","","","","98.91","","","","-11","","NA"
"2016-02-28 22:00","2016","02","28","22:00","-5.0","","-7.6","","82","","5","","18","","","","98.79","","","","-11","","NA"
"2016-02-28 23:00","2016","02","28","23:00","-4.9","","-7.4","","83","","5","","17","","","","98.60","","","","-11","","NA"
"2016-02-29 00:00","2016","02","29","00:00","-4.4","","-7.0","","82","","5","","12","","","","98.46","","","","-9","","NA"
"2016-02-29 01:00","2016","02","29","01:00","-3.7","","-6.3","","82","","35","","15","","","","98.50","","","","-9","","NA"
"2016-02-29 02:00","2016","02","29","02:00","-2.8","","-4.6","","87","","9","","10","","","","98.36","","","","-7","","NA"
"2016-02-29 03:00","2016","02","29","03:00","0.1","","-1.9","","87","","14","","15","","","","98.21","","","","","","NA"
"2016-02-29 04:00","2016","02","29","04:00","1.9","","0.3","","89","","26","","5","","","","98.15","","","","","","NA"
"2016-02-29 05:00","2016","02","29","05:00","5.1","","3.7","","90","","22","","26","","","","98.13","","","","","","NA"
"2016-02-29 06:00","2016","02","29","06:00","5.2","","4.2","","93","","23","","24","","","","98.17","","","","","","NA"
"2016-02-29 07:00","2016","02","29","07:00","4.2","","2.3","","88","","28","","26","","","","98.34","","","","","","NA"
"2016-02-29 08:00","2016","02","29","08:00","2.5","","0.4","","86","","27","","19","","","","98.54","","","","","","NA"
"2016-02-29 09:00","2016","02","29","09:00","1.7","","-0.8","","83","","26","","20","","","","98.74","","","","","","NA"
"2016-02-29 10:00","2016","02","29","10:00","0.7","","-2.5","","79","","25","","22","","","","98.94","","","","","","NA"
"2016-02-29 11:00","2016","02","29","11:00","0.0","","-4.9","","70","","25","","27","","","","99.09","","","","-6","","NA"
"2016-02-29 12:00","2016","02","29","12:00","-0.1","","-5.7","","66","","26","","30","","","","99.24","","","","-7","","NA"
"2016-02-29 13:00","2016","02","29","13:00","-0.5","","-5.2","","71","","25","","32","","","","99.25","","","","-7","","NA"
"2016-02-29 14:00","2016","02","29","14:00","0.0","","-4.2","","73","","24","","24","","","","99.25","","","","-6","","NA"
"2016-02-29 15:00","2016","02","29","15:00","0.5","","-3.1","","77","","24","","42","","","","99.23","","","","","","NA"
"2016-02-29 16:00","2016","02","29","16:00","1.0","","-2.6","","77","","22","","34","","","","99.24","","","","","","NA"
"2016-02-29 17:00","2016","02","29","17:00","1.7","","-1.6","","79","","23","","36","","","","99.23","","","","","","NA"
"2016-02-29 18:00","2016","02","29","18:00","2.2","","-1.1","","79","","22","","35","","","","99.21","","","","","","NA"
"2016-02-29 19:00","2016","02","29","19:00","1.1","","-1.8","","81","","28","","41","","","","99.39","","","","","","NA"
"2016-02-29 20:00","2016","02","29","20:00","-1.5","","-7.7","","63","","28","","39","","","","99.62","","","","-9","","NA"
"2016-02-29 21:00","2016","02","29","21:00","-3.2","","-10.0","","59","","29","","30","","","","99.89","","","","-11","","NA"
"2016-02-29 22:00","2016","02","29","22:00","-4.9","","-11.0","","62","","30","","37","","","","100.25","","","","-14","","NA"
"2016-02-29 23:00","2016","02","29","23:00","-6.8","","-16.0","","48","","30","","34","","","","100.55","","","","-16","","NA"
