"Station Name","KINGSTON CLIMATE"
"Province","ONTARIO"
"Current Station Operator","Environment and Climate Change Canada - Meteorological Service of Canada"
"Latitude","44.22"
"Longitude","-76.60"
"Elevation","93.00"
"Climate Identifier","6104142"
"WMO Identifier","71820"
"TC Identifier","TKG"
"All times are specified in Local Standard Time (LST). Add 1 hour to adjust for Daylight Saving Time where and when it is observed."

"Legend"
"E","Estimated"
"M","Missing"
"NA","Not Available"

"Date/Time","Year","Month","Day","Time","Temp (°C)","Temp Flag","Dew Point Temp (°C)","Dew Point Temp Flag","Rel Hum (%)","Rel Hum Flag","Wind Dir (10s deg)","Wind Dir Flag","Wind Spd (km/h)","Wind Spd Flag","Visibility (km)","Visibility Flag","Stn Press (kPa)","Stn Press Flag","Hmdx","Hmdx Flag","Wind Chill","Wind Chill Flag","Weather"
"2018-08-01 00:00","2018","08","01","00:00","23.8","","20.4","","81","","16","","16","","","","100.45","","32","","","","NA"
"2018-08-01 01:00","2018","08","01","01:00","23.6","","20.5","","83","","16","","18","","","","100.46","","32","","","","NA"
"2018-08-01 02:00","2018","08","01","02:00","23.3","","20.3","","83","","15","","15","","","","100.43","","31","","","","NA"
"2018-08-01 03:00","2018","08","01","03:00","21.4","","20.1","","93","","14","","18","","","","100.42","","29","","","","NA"
"2018-08-01 04:00","2018","08","01","04:00","21.5","","20.2","","92","","15","","18","","","","100.37","","29","","","","NA"
"2018-08-01 05:00","2018","08","01","05:00","22.7","","20.2","","86","","15","","21","","","","100.33","","30","","","","NA"
"2018-08-01 06:00","2018","08","01","06:00","22.5","","20.3","","87","","16","","25","","","","100.33","","30","","","","NA"
"2018-08-01 07:00","2018","08","01","07:00","22.9","","20.3","","85","","16","","29","","","","100.31","","31","","","","NA"
"2018-08-01 08:00","2018","08","01","08:00","23.0","","20.4","","85","","16","","27","","","","100.29","","31","","","","NA"
"2018-08-01 09:00","2018","08","01","09:00","23.6","","20.5","","83","","16","","29","","","","100.25","","32","","","","NA"
"2018-08-01 10:00","2018","08","01","10:00","23.6","","20.5","","83","","16","","30","","","","100.22","","32","","","","NA"
"2018-08-01 11:00","2018","08","01","11:00","24.4","","21.8","","86","","16","","29","","","","100.21","","34","","","","NA"
"2018-08-01 12:00","2018","08","01","12:00","24.7","","21.6","","83","","16","","22","","","","100.18","","34","","","","NA"
"2018-08-01 13:00","2018","08","01","13:00","24.3","","21.5","","85","","17","","22","","","","100.19","","33","","","","NA"
"2018-08-01 14:00","2018","08","01","14:00","25.2","","22.0","","82","","17","","19","","","","100.13","","35","","","","NA"
"2018-08-01 15:00","2018","08","01","15:00","24.6","","22.2","","87","","17","","17","","","","100.08","","34","","","","NA"
"2018-08-01 16:00","2018","08","01","16:00","25.0","","22.3","","85","","19","","24","","","","100.10","","35","","","","NA"
"2018-08-01 17:00","2018","08","01","17:00","25.8","","22.2","","80","","21","","13","","","","100.11","","35","","","","NA"
"2018-08-01 18:00","2018","08","01","18:00","24.2","","21.5","","85","","19","","16","","","","100.09","","33","","","","NA"
"2018-08-01 19:00","2018","08","01","19:00","23.1","","22.1","","94","","19","","14","","","","100.09","","33","","","","NA"
"2018-08-01 20:00","2018","08","01","20:00","24.0","","19.5","","76","","21","","18","","","","100.11","","31","","","","NA"
"2018-08-01 21:00","2018","08","01","21:00","24.0","","19.4","","76","","22","","18","","","","100.17","","31","","","","NA"
"2018-08-01 22:00","2018","08","01","22:00","23.7","","19.6","","78","","22","","21","","","","100.20","","31","","","","NA"
"2018-08-01 23:00","2018","08","01","23:00","23.4","","19.1","","77","","23","","23","","","","100.20","","30","","","","NA"
"2018-08-02 00:00","2018","08","02","00:00","22.9","","19.4","","81","","25","","22","","","","100.23","","30","","","","NA"
"2018-08-02 01:00","2018","08","02","01:00","22.1","","19.6","","86","","25","","14","","","","100.23","","29","","","","NA"
"2018-08-02 02:00","2018","08","02","02:00","22.1","","19.4","","84","","23","","14","","","","100.26","","29","","","","NA"
"2018-08-02 03:00","2018","08","02","03:00","21.9","","20.0","","89","","25","","18","","","","100.31","","29","","","","NA"
"2018-08-02 04:00","2018","08","02","04:00","21.9","","20.2","","91","","24","","17","","","","100.34","","30","","","","NA"
"2018-08-02 05:00","2018","08","02","05:00","21.6","","19.6","","89","","26","","12","","","","100.36","","29","","","","NA"
"2018-08-02 06:00","2018","08","02","06:00","21.5","","20.0","","91","","25","","12","","","","100.45","","29","","","","NA"
"2018-08-02 07:00","2018","08","02","07:00","22.2","","20.4","","89","","24","","13","","","","100.52","","30","","","","NA"
"2018-08-02 08:00","2018","08","02","08:00","22.5","","19.9","","85","","24","","14","","","","100.58","","30","","","","NA"
"2018-08-02 09:00","2018","08","02","09:00","24.1","","20.0","","78","","23","","13","","","","100.61","","32","","","","NA"
"2018-08-02 10:00","2018","08","02","10:00","25.2","","19.8","","72","","22","","13","","","","100.62","","33","","","","NA"
"2018-08-02 11:00","2018","08","02","11:00","24.9","","20.3","","75","","19","","21","","","","100.61","","33","","","","NA"
"2018-08-02 12:00","2018","08","02","12:00","24.3","","21.1","","82","","19","","24","","","","100.63","","33","","","","NA"
"2018-08-02 13:00","2018","08","02","13:00","24.2","","21.1","","83","","19","","25","","","","100.64","","33","","","","NA"
"2018-08-02 14:00","2018","08","02","14:00","24.9","","20.8","","78","","19","","23","","","","100.61","","33","","","","NA"
"2018-08-02 15:00","2018","08","02","15:00","24.8","","21.3","","81","","19","","21","","","","100.58","","33","","","","NA"
"2018-08-02 16:00","2018","08","02","16:00","24.2","","20.6","","80","","19","","21","","","","100.56","","32","","","","NA"
"2018-08-02 17:00","2018","08","02","17:00","24.4","","20.5","","79","","19","","20","","","","100.55","","32","","","","NA"
"2018-08-02 18:00","2018","08","02","18:00","23.6","","20.7","","84","","18","","15","","","","100.52","","32","","","","NA"
"2018-08-02 19:00","2018","08","02","19:00","23.0","","20.2","","84","","19","","13","","","","100.57","","31","","","","NA"
"2018-08-02 20:00","2018","08","02","20:00","22.7","","20.4","","87","","18","","10","","","","100.63","","31","","","","NA"
"2018-08-02 21:00","2018","08","02","21:00","22.7","","20.3","","87","","19","","7","","","","100.67","","31","","","","NA"
"2018-08-02 22:00","2018","08","02","22:00","21.9","","20.0","","89","","23","","5","","","","100.67","","29","","","","NA"
"2018-08-02 23:00","2018","08","02","23:00","22.2","","20.9","","93","","25","","3","","","","100.67","","31","","","","NA"
"2018-08-03 00:00","2018","08","03","00:00","22.5","","21.2","","93","","18","","6","","","","100.66","","31","","","","NA"
"2018-08-03 01:00","2018","08","03","01:00","22.5","","21.4","","94","","18","","6","","","","100.65","","31","","","","NA"
"2018-08-03 02:00","2018","08","03","02:00","22.6","","21.6","","94","","17","","8","","","","100.66","","32","","","","NA"
"2018-08-03 03:00","2018","08","03","03:00","22.6","","21.5","","94","","18","","10","","","","100.65","","31","","","","NA"
"2018-08-03 04:00","2018","08","03","04:00","22.7","","21.7","","95","","19","","11","","","","100.67","","32","","","","NA"
"2018-08-03 05:00","2018","08","03","05:00","22.4","","21.7","","95","","19","","9","","","","100.70","","31","","","","NA"
"2018-08-03 06:00","2018","08","03","06:00","22.9","","22.0","","95","","20","","9","","","","100.75","","32","","","","NA"
"2018-08-03 07:00","2018","08","03","07:00","23.0","","22.0","","94","","18","","12","","","","100.75","","32","","","","NA"
"2018-08-03 08:00","2018","08","03","08:00","23.4","","21.9","","91","","18","","15","","","","100.82","","33","","","","NA"
"2018-08-03 09:00","2018","08","03","09:00","23.7","","21.5","","87","","18","","12","","","","100.83","","33","","","","NA"
"2018-08-03 10:00","2018","08","03","10:00","24.0","","22.0","","89","","17","","13","","","","100.84","","33","","","","NA"
"2018-08-03 11:00","2018","08","03","11:00","23.7","","21.4","","87","","16","","16","","","","100.85","","32","","","","NA"
"2018-08-03 12:00","2018","08","03","12:00","23.7","","21.5","","88","","16","","13","","","","100.85","","33","","","","NA"
"2018-08-03 13:00","2018","08","03","13:00","24.6","","22.2","","87","","18","","15","","","","100.83","","34","","","","NA"
"2018-08-03 14:00","2018","08","03","14:00","24.4","","21.6","","85","","17","","14","","","","100.77","","33","","","","NA"
"2018-08-03 15:00","2018","08","03","15:00","24.1","","21.2","","84","","17","","10","","","","100.72","","33","","","","NA"
"2018-08-03 16:00","2018","08","03","16:00","24.6","","21.4","","83","","16","","11","","","","100.70","","33","","","","NA"
"2018-08-03 17:00","2018","08","03","17:00","24.2","","21.2","","83","","17","","13","","","","100.69","","33","","","","NA"
"2018-08-03 18:00","2018","08","03","18:00","24.2","","21.1","","83","","17","","6","","","","100.69","","33","","","","NA"
"2018-08-03 19:00","2018","08","03","19:00","23.6","","21.3","","87","","16","","5","","","","100.74","","32","","","","NA"
"2018-08-03 20:00","2018","08","03","20:00","23.6","","21.4","","87","","16","","7","","","","100.70","","32","","","","NA"
"2018-08-03 21:00","2018","08","03","21:00","23.6","","21.5","","88","","17","","9","","","","100.73","","32","","","","NA"
"2018-08-03 22:00","2018","08","03","22:00","23.3","","21.4","","89","","18","","7","","","","100.72","","32","","","","NA"
"2018-08-03 23:00","2018","08","03","23:00","22.3","","20.8","","92","","19","","3","","","","100.70","","31","","","","NA"
"2018-08-04 00:00","2018","08","04","00:00","21.0","","20.5","","97","","11","","3","","","","100.70","","29","","","","NA"
"2018-08-04 01:00","2018","08","04","01:00","21.1","","19.8","","92","","21","","3","","","","100.71","","29","","","","NA"
"2018-08-04 02:00","2018","08","04","02:00","22.8","","21.4","","92","","17","","10","","","","100.67","","32","","","","NA"
"2018-08-04 03:00","2018","08","04","03:00","22.7","","21.8","","95","","18","","5","","","","100.64","","32","","","","NA"
"2018-08-04 04:00","2018","08","04","04:00","22.5","","21.4","","94","","15","","11","","","","100.62","","31","","","","NA"
"2018-08-04 05:00","2018","08","04","05:00","22.2","","21.0","","93","","18","","11","","","","100.69","","31","","","","NA"
"2018-08-04 06:00","2018","08","04","06:00","22.4","","21.3","","93","","19","","10","","","","100.75","","31","","","","NA"
"2018-08-04 07:00","2018","08","04","07:00","23.1","","21.3","","90","","24","","3","","","","100.78","","32","","","","NA"
"2018-08-04 08:00","2018","08","04","08:00","23.5","","21.1","","86","","16","","6","","","","100.79","","32","","","","NA"
"2018-08-04 09:00","2018","08","04","09:00","23.6","","20.9","","85","","16","","9","","","","100.79","","32","","","","NA"
"2018-08-04 10:00","2018","08","04","10:00","24.3","","21.2","","83","","14","","9","","","","100.79","","33","","","","NA"
"2018-08-04 11:00","2018","08","04","11:00","24.4","","21.4","","83","","15","","14","","","","100.77","","33","","","","NA"
"2018-08-04 12:00","2018","08","04","12:00","24.9","","21.7","","82","","17","","15","","","","100.74","","34","","","","NA"
"2018-08-04 13:00","2018","08","04","13:00","25.1","","22.2","","84","","18","","20","","","","100.68","","35","","","","NA"
"2018-08-04 14:00","2018","08","04","14:00","25.4","","22.8","","86","","19","","19","","","","100.68","","35","","","","NA"
"2018-08-04 15:00","2018","08","04","15:00","25.7","","22.4","","82","","18","","20","","","","100.66","","35","","","","NA"
"2018-08-04 16:00","2018","08","04","16:00","25.7","","21.9","","79","","17","","22","","","","100.62","","35","","","","NA"
"2018-08-04 17:00","2018","08","04","17:00","26.7","","21.6","","73","","20","","18","","","","100.63","","36","","","","NA"
"2018-08-04 18:00","2018","08","04","18:00","27.3","","20.3","","66","","23","","17","","","","100.62","","35","","","","NA"
"2018-08-04 19:00","2018","08","04","19:00","26.2","","20.3","","70","","22","","15","","","","100.65","","34","","","","NA"
"2018-08-04 20:00","2018","08","04","20:00","24.8","","20.6","","78","","23","","13","","","","100.69","","33","","","","NA"
"2018-08-04 21:00","2018","08","04","21:00","24.1","","20.6","","81","","24","","14","","","","100.71","","32","","","","NA"
"2018-08-04 22:00","2018","08","04","22:00","23.7","","20.9","","85","","24","","14","","","","100.73","","32","","","","NA"
"2018-08-04 23:00","2018","08","04","23:00","22.6","","20.7","","89","","25","","12","","","","100.73","","31","","","","NA"
"2018-08-05 00:00","2018","08","05","00:00","22.5","","20.8","","90","","25","","12","","","","100.73","","31","","","","NA"
"2018-08-05 01:00","2018","08","05","01:00","21.7","","20.4","","93","","25","","7","","","","100.74","","30","","","","NA"
"2018-08-05 02:00","2018","08","05","02:00","22.4","","19.9","","86","","26","","10","","","","100.77","","30","","","","NA"
"2018-08-05 03:00","2018","08","05","03:00","20.7","","19.1","","91","","31","","5","","","","100.80","","28","","","","NA"
"2018-08-05 04:00","2018","08","05","04:00","20.0","","19.4","","97","","","","0","","","","100.84","","27","","","","NA"
"2018-08-05 05:00","2018","08","05","05:00","19.1","","18.7","","98","","1","","3","","","","100.87","","","","","","NA"
"2018-08-05 06:00","2018","08","05","06:00","19.6","","19.2","","98","","36","","2","","","","100.90","","","","","","NA"
"2018-08-05 07:00","2018","08","05","07:00","23.1","","21.0","","88","","19","","7","","","","100.92","","32","","","","NA"
"2018-08-05 08:00","2018","08","05","08:00","24.3","","21.1","","82","","18","","10","","","","100.94","","33","","","","NA"
"2018-08-05 09:00","2018","08","05","09:00","24.8","","21.6","","82","","19","","17","","","","100.92","","34","","","","NA"
"2018-08-05 10:00","2018","08","05","10:00","25.3","","21.1","","78","","19","","20","","","","100.92","","34","","","","NA"
"2018-08-05 11:00","2018","08","05","11:00","25.3","","21.0","","77","","18","","20","","","","100.92","","34","","","","NA"
"2018-08-05 12:00","2018","08","05","12:00","25.4","","21.4","","79","","18","","21","","","","100.87","","34","","","","NA"
"2018-08-05 13:00","2018","08","05","13:00","25.3","","20.8","","76","","19","","21","","","","100.84","","34","","","","NA"
"2018-08-05 14:00","2018","08","05","14:00","26.0","","20.7","","72","","19","","20","","","","100.83","","34","","","","NA"
"2018-08-05 15:00","2018","08","05","15:00","26.6","","20.3","","68","","19","","19","","","","100.76","","34","","","","NA"
"2018-08-05 16:00","2018","08","05","16:00","26.2","","20.0","","69","","19","","18","","","","100.73","","34","","","","NA"
"2018-08-05 17:00","2018","08","05","17:00","25.3","","19.7","","71","","19","","16","","","","100.68","","33","","","","NA"
"2018-08-05 18:00","2018","08","05","18:00","25.3","","19.9","","72","","18","","14","","","","100.62","","33","","","","NA"
"2018-08-05 19:00","2018","08","05","19:00","25.2","","19.9","","72","","18","","11","","","","100.61","","33","","","","NA"
"2018-08-05 20:00","2018","08","05","20:00","24.2","","20.7","","81","","22","","5","","","","100.64","","32","","","","NA"
"2018-08-05 21:00","2018","08","05","21:00","24.1","","21.3","","85","","19","","5","","","","100.65","","33","","","","NA"
"2018-08-05 22:00","2018","08","05","22:00","24.6","","21.4","","82","","19","","6","","","","100.64","","33","","","","NA"
"2018-08-05 23:00","2018","08","05","23:00","24.1","","21.9","","87","","24","","5","","","","100.67","","33","","","","NA"
"2018-08-06 00:00","2018","08","06","00:00","24.5","","20.8","","80","","21","","13","","","","100.58","","33","","","","NA"
"2018-08-06 01:00","2018","08","06","01:00","24.1","","20.2","","78","","21","","14","","","","100.54","","32","","","","NA"
"2018-08-06 02:00","2018","08","06","02:00","24.0","","20.5","","81","","22","","14","","","","100.53","","32","","","","NA"
"2018-08-06 03:00","2018","08","06","03:00","23.8","","20.2","","80","","22","","13","","","","100.51","","32","","","","NA"
"2018-08-06 04:00","2018","08","06","04:00","23.7","","21.2","","86","","18","","13","","","","100.50","","32","","","","NA"
"2018-08-06 05:00","2018","08","06","05:00","24.0","","20.6","","81","","21","","13","","","","100.50","","32","","","","NA"
"2018-08-06 06:00","2018","08","06","06:00","24.2","","20.8","","81","","20","","12","","","","100.52","","32","","","","NA"
"2018-08-06 07:00","2018","08","06","07:00","24.6","","21.2","","81","","21","","16","","","","100.55","","33","","","","NA"
"2018-08-06 08:00","2018","08","06","08:00","26.7","","22.0","","76","","23","","14","","","","100.54","","36","","","","NA"
"2018-08-06 09:00","2018","08","06","09:00","27.5","","22.0","","72","","24","","19","","","","100.50","","37","","","","NA"
"2018-08-06 10:00","2018","08","06","10:00","28.7","","22.1","","68","","23","","18","","","","100.49","","38","","","","NA"
"2018-08-06 11:00","2018","08","06","11:00","29.1","","23.3","","71","","20","","20","","","","100.45","","40","","","","NA"
"2018-08-06 12:00","2018","08","06","12:00","29.9","","23.5","","68","","20","","21","","","","100.43","","41","","","","NA"
"2018-08-06 13:00","2018","08","06","13:00","30.2","","22.7","","64","","22","","19","","","","100.43","","40","","","","NA"
"2018-08-06 14:00","2018","08","06","14:00","30.9","","22.5","","61","","22","","20","","","","100.32","","41","","","","NA"
"2018-08-06 15:00","2018","08","06","15:00","30.7","","21.8","","59","","23","","21","","","","100.30","","40","","","","NA"
"2018-08-06 16:00","2018","08","06","16:00","29.4","","21.3","","62","","24","","25","","","","100.28","","38","","","","NA"
"2018-08-06 17:00","2018","08","06","17:00","26.9","","16.5","","53","","28","","17","","","","100.33","","32","","","","NA"
"2018-08-06 18:00","2018","08","06","18:00","22.6","","19.9","","85","","28","","16","","","","100.31","","30","","","","NA"
"2018-08-06 19:00","2018","08","06","19:00","23.0","","19.5","","81","","30","","17","","","","100.36","","30","","","","NA"
"2018-08-06 20:00","2018","08","06","20:00","21.4","","19.5","","89","","31","","9","","","","100.31","","29","","","","NA"
"2018-08-06 21:00","2018","08","06","21:00","22.4","","20.3","","88","","18","","13","","","","100.37","","30","","","","NA"
"2018-08-06 22:00","2018","08","06","22:00","21.9","","20.1","","90","","23","","9","","","","100.34","","30","","","","NA"
"2018-08-06 23:00","2018","08","06","23:00","22.7","","21.5","","93","","21","","11","","","","100.29","","32","","","","NA"
"2018-08-07 00:00","2018","08","07","00:00","23.0","","21.3","","90","","23","","7","","","","100.27","","32","","","","NA"
"2018-08-07 01:00","2018","08","07","01:00","22.9","","21.1","","90","","20","","8","","","","100.21","","31","","","","NA"
"2018-08-07 02:00","2018","08","07","02:00","23.1","","22.1","","94","","18","","8","","","","100.14","","33","","","","NA"
"2018-08-07 03:00","2018","08","07","03:00","23.5","","22.1","","92","","22","","14","","","","100.24","","33","","","","NA"
"2018-08-07 04:00","2018","08","07","04:00","21.2","","20.4","","96","","24","","3","","","","100.12","","29","","","","NA"
"2018-08-07 05:00","2018","08","07","05:00","21.9","","20.7","","93","","19","","11","","","","100.15","","30","","","","NA"
"2018-08-07 06:00","2018","08","07","06:00","22.1","","20.8","","92","","23","","13","","","","100.17","","30","","","","NA"
"2018-08-07 07:00","2018","08","07","07:00","22.5","","21.2","","93","","24","","14","","","","100.20","","31","","","","NA"
"2018-08-07 08:00","2018","08","07","08:00","22.6","","21.2","","92","","26","","12","","","","100.20","","31","","","","NA"
"2018-08-07 09:00","2018","08","07","09:00","22.5","","20.7","","90","","26","","7","","","","100.21","","31","","","","NA"
"2018-08-07 10:00","2018","08","07","10:00","23.8","","20.7","","83","","25","","10","","","","100.24","","32","","","","NA"
"2018-08-07 11:00","2018","08","07","11:00","24.2","","21.0","","82","","22","","14","","","","100.23","","33","","","","NA"
"2018-08-07 12:00","2018","08","07","12:00","25.6","","20.2","","72","","24","","14","","","","100.24","","33","","","","NA"
"2018-08-07 13:00","2018","08","07","13:00","26.1","","19.7","","68","","23","","17","","","","100.24","","33","","","","NA"
"2018-08-07 14:00","2018","08","07","14:00","27.1","","20.1","","65","","24","","16","","","","100.16","","35","","","","NA"
"2018-08-07 15:00","2018","08","07","15:00","26.7","","20.8","","70","","22","","15","","","","100.10","","35","","","","NA"
"2018-08-07 16:00","2018","08","07","16:00","25.2","","20.7","","76","","19","","23","","","","100.07","","33","","","","NA"
"2018-08-07 17:00","2018","08","07","17:00","25.7","","21.2","","76","","19","","18","","","","100.08","","34","","","","NA"
"2018-08-07 18:00","2018","08","07","18:00","25.6","","21.3","","77","","21","","12","","","","100.07","","34","","","","NA"
"2018-08-07 19:00","2018","08","07","19:00","24.4","","20.9","","81","","22","","11","","","","100.10","","33","","","","NA"
"2018-08-07 20:00","2018","08","07","20:00","23.3","","20.8","","86","","23","","11","","","","100.18","","32","","","","NA"
"2018-08-07 21:00","2018","08","07","21:00","23.0","","20.4","","85","","23","","10","","","","100.19","","31","","","","NA"
"2018-08-07 22:00","2018","08","07","22:00","22.3","","20.0","","87","","22","","10","","","","100.18","","30","","","","NA"
"2018-08-07 23:00","2018","08","07","23:00","22.2","","20.2","","88","","21","","9","","","","100.18","","30","","","","NA"
"2018-08-08 00:00","2018","08","08","00:00","21.9","","19.5","","86","","21","","6","","","","100.16","","29","","","","NA"
"2018-08-08 01:00","2018","08","08","01:00","21.3","","19.6","","90","","18","","5","","","","100.16","","29","","","","NA"
"2018-08-08 02:00","2018","08","08","02:00","21.5","","19.5","","89","","21","","9","","","","100.16","","29","","","","NA"
"2018-08-08 03:00","2018","08","08","03:00","21.0","","19.5","","91","","24","","6","","","","100.11","","28","","","","NA"
"2018-08-08 04:00","2018","08","08","04:00","19.2","","18.6","","97","","","","0","","","","100.10","","","","","","NA"
"2018-08-08 05:00","2018","08","08","05:00","19.4","","19.0","","98","","35","","6","","","","100.09","","","","","","NA"
"2018-08-08 06:00","2018","08","08","06:00","19.8","","19.4","","98","","","","0","","","","100.11","","","","","","NA"
"2018-08-08 07:00","2018","08","08","07:00","23.0","","21.8","","93","","18","","9","","","","100.11","","32","","","","NA"
"2018-08-08 08:00","2018","08","08","08:00","24.0","","21.3","","85","","20","","10","","","","100.12","","33","","","","NA"
"2018-08-08 09:00","2018","08","08","09:00","23.7","","21.9","","90","","17","","15","","","","100.13","","33","","","","NA"
"2018-08-08 10:00","2018","08","08","10:00","23.1","","21.4","","90","","17","","15","","","","100.11","","32","","","","NA"
"2018-08-08 11:00","2018","08","08","11:00","23.5","","21.6","","89","","16","","10","","","","100.06","","32","","","","NA"
"2018-08-08 12:00","2018","08","08","12:00","23.9","","21.2","","85","","14","","12","","","","99.95","","32","","","","NA"
"2018-08-08 13:00","2018","08","08","13:00","24.2","","20.0","","78","","16","","8","","","","99.95","","32","","","","NA"
"2018-08-08 14:00","2018","08","08","14:00","23.9","","20.2","","80","","11","","11","","","","99.84","","32","","","","NA"
"2018-08-08 15:00","2018","08","08","15:00","20.5","","19.8","","96","","35","","8","","","","99.87","","28","","","","NA"
"2018-08-08 16:00","2018","08","08","16:00","20.8","","20.0","","96","","36","","8","","","","99.79","","28","","","","NA"
"2018-08-08 17:00","2018","08","08","17:00","21.9","","21.0","","94","","1","","7","","","","99.67","","30","","","","NA"
"2018-08-08 18:00","2018","08","08","18:00","22.1","","20.5","","90","","2","","7","","","","99.71","","30","","","","NA"
"2018-08-08 19:00","2018","08","08","19:00","22.3","","20.9","","92","","34","","8","","","","99.69","","31","","","","NA"
"2018-08-08 20:00","2018","08","08","20:00","22.0","","20.6","","92","","2","","12","","","","99.74","","30","","","","NA"
"2018-08-08 21:00","2018","08","08","21:00","20.8","","19.9","","95","","3","","6","","","","99.74","","28","","","","NA"
"2018-08-08 22:00","2018","08","08","22:00","20.0","","19.4","","97","","32","","3","","","","99.78","","27","","","","NA"
"2018-08-08 23:00","2018","08","08","23:00","19.8","","19.4","","98","","36","","6","","","","99.76","","","","","","NA"
"2018-08-09 00:00","2018","08","09","00:00","19.8","","19.4","","98","","32","","5","","","","99.77","","","","","","NA"
"2018-08-09 01:00","2018","08","09","01:00","19.3","","19.0","","98","","33","","5","","","","99.74","","","","","","NA"
"2018-08-09 02:00","2018","08","09","02:00","19.7","","19.4","","98","","30","","9","","","","99.74","","","","","","NA"
"2018-08-09 03:00","2018","08","09","03:00","19.9","","19.6","","98","","32","","5","","","","99.74","","","","","","NA"
"2018-08-09 04:00","2018","08","09","04:00","20.3","","19.3","","94","","28","","10","","","","99.71","","27","","","","NA"
"2018-08-09 05:00","2018","08","09","05:00","19.4","","18.0","","92","","29","","9","","","","99.75","","","","","","NA"
"2018-08-09 06:00","2018","08","09","06:00","18.7","","17.4","","92","","27","","7","","","","99.81","","","","","","NA"
"2018-08-09 07:00","2018","08","09","07:00","19.0","","16.7","","87","","27","","12","","","","99.88","","","","","","NA"
"2018-08-09 08:00","2018","08","09","08:00","20.1","","17.2","","84","","28","","11","","","","99.90","","26","","","","NA"
"2018-08-09 09:00","2018","08","09","09:00","21.0","","17.7","","82","","28","","12","","","","99.89","","27","","","","NA"
"2018-08-09 10:00","2018","08","09","10:00","22.6","","17.9","","74","","26","","10","","","","99.90","","29","","","","NA"
"2018-08-09 11:00","2018","08","09","11:00","23.9","","19.3","","76","","23","","17","","","","99.91","","31","","","","NA"
"2018-08-09 12:00","2018","08","09","12:00","24.8","","19.7","","73","","22","","18","","","","99.90","","32","","","","NA"
"2018-08-09 13:00","2018","08","09","13:00","25.7","","19.3","","68","","22","","17","","","","99.89","","33","","","","NA"
"2018-08-09 14:00","2018","08","09","14:00","25.4","","19.2","","68","","24","","18","","","","99.85","","32","","","","NA"
"2018-08-09 15:00","2018","08","09","15:00","26.6","","20.6","","70","","24","","20","","","","99.85","","35","","","","NA"
"2018-08-09 16:00","2018","08","09","16:00","25.7","","18.7","","66","","24","","24","","","","99.83","","32","","","","NA"
"2018-08-09 17:00","2018","08","09","17:00","24.6","","19.3","","72","","24","","21","","","","99.81","","32","","","","NA"
"2018-08-09 18:00","2018","08","09","18:00","24.7","","18.0","","66","","25","","18","","","","99.82","","31","","","","NA"
"2018-08-09 19:00","2018","08","09","19:00","24.2","","19.2","","74","","24","","8","","","","99.82","","31","","","","NA"
"2018-08-09 20:00","2018","08","09","20:00","21.9","","17.4","","76","","28","","16","","","","99.91","","27","","","","NA"
"2018-08-09 21:00","2018","08","09","21:00","20.4","","17.3","","82","","28","","6","","","","99.96","","26","","","","NA"
"2018-08-09 22:00","2018","08","09","22:00","20.3","","17.5","","84","","28","","9","","","","99.97","","26","","","","NA"
"2018-08-09 23:00","2018","08","09","23:00","20.1","","17.8","","87","","31","","11","","","","99.99","","26","","","","NA"
"2018-08-10 00:00","2018","08","10","00:00","20.2","","16.3","","78","","36","","15","","","","100.02","","25","","","","NA"
"2018-08-10 01:00","2018","08","10","01:00","19.6","","14.3","","72","","1","","11","","","","100.06","","","","","","NA"
"2018-08-10 02:00","2018","08","10","02:00","19.3","","13.6","","70","","2","","14","","","","100.09","","","","","","NA"
"2018-08-10 03:00","2018","08","10","03:00","19.5","","14.2","","72","","2","","13","","","","100.12","","","","","","NA"
"2018-08-10 04:00","2018","08","10","04:00","18.7","","13.8","","73","","2","","13","","","","100.17","","","","","","NA"
"2018-08-10 05:00","2018","08","10","05:00","17.2","","13.8","","80","","3","","10","","","","100.20","","","","","","NA"
"2018-08-10 06:00","2018","08","10","06:00","17.3","","14.1","","82","","2","","13","","","","100.25","","","","","","NA"
"2018-08-10 07:00","2018","08","10","07:00","19.0","","14.4","","75","","2","","12","","","","100.33","","","","","","NA"
"2018-08-10 08:00","2018","08","10","08:00","20.3","","13.6","","65","","2","","18","","","","100.38","","","","","","NA"
"2018-08-10 09:00","2018","08","10","09:00","21.3","","13.4","","60","","36","","20","","","","100.39","","","","","","NA"
"2018-08-10 10:00","2018","08","10","10:00","22.4","","13.4","","57","","2","","18","","","","100.39","","25","","","","NA"
"2018-08-10 11:00","2018","08","10","11:00","23.9","","12.1","","48","","3","","15","","","","100.38","","26","","","","NA"
"2018-08-10 12:00","2018","08","10","12:00","24.3","","12.6","","48","","2","","13","","","","100.35","","27","","","","NA"
"2018-08-10 13:00","2018","08","10","13:00","24.9","","12.5","","46","","6","","18","","","","100.34","","27","","","","NA"
"2018-08-10 14:00","2018","08","10","14:00","24.8","","11.5","","43","","6","","12","","","","100.31","","27","","","","NA"
"2018-08-10 15:00","2018","08","10","15:00","24.7","","12.6","","47","","16","","14","","","","100.29","","27","","","","NA"
"2018-08-10 16:00","2018","08","10","16:00","24.9","","12.8","","47","","22","","11","","","","100.25","","28","","","","NA"
"2018-08-10 17:00","2018","08","10","17:00","24.2","","12.8","","49","","20","","8","","","","100.25","","27","","","","NA"
"2018-08-10 18:00","2018","08","10","18:00","23.7","","12.9","","51","","22","","8","","","","100.24","","26","","","","NA"
"2018-08-10 19:00","2018","08","10","19:00","22.2","","13.4","","57","","0","","1","","","","100.25","","25","","","","NA"
"2018-08-10 20:00","2018","08","10","20:00","19.2","","14.5","","74","","2","","3","","","","100.26","","","","","","NA"
"2018-08-10 21:00","2018","08","10","21:00","18.0","","14.7","","81","","35","","5","","","","100.30","","","","","","NA"
"2018-08-10 22:00","2018","08","10","22:00","16.5","","14.2","","87","","33","","7","","","","100.31","","","","","","NA"
"2018-08-10 23:00","2018","08","10","23:00","15.8","","14.1","","89","","34","","8","","","","100.32","","","","","","NA"
"2018-08-11 00:00","2018","08","11","00:00","14.9","","13.5","","91","","34","","8","","","","100.35","","","","","","NA"
"2018-08-11 01:00","2018","08","11","01:00","13.6","","12.4","","92","","34","","8","","","","100.35","","","","","","NA"
"2018-08-11 02:00","2018","08","11","02:00","13.2","","12.2","","94","","35","","8","","","","100.31","","","","","","NA"
"2018-08-11 03:00","2018","08","11","03:00","14.0","","13.2","","95","","1","","3","","","","100.31","","","","","","NA"
"2018-08-11 04:00","2018","08","11","04:00","13.1","","12.4","","95","","2","","4","","","","100.29","","","","","","NA"
"2018-08-11 05:00","2018","08","11","05:00","11.9","","11.2","","95","","34","","10","","","","100.29","","","","","","NA"
"2018-08-11 06:00","2018","08","11","06:00","14.2","","13.5","","95","","35","","9","","","","100.31","","","","","","NA"
"2018-08-11 07:00","2018","08","11","07:00","18.2","","15.6","","85","","34","","8","","","","100.33","","","","","","NA"
"2018-08-11 08:00","2018","08","11","08:00","21.3","","15.6","","70","","7","","9","","","","100.36","","26","","","","NA"
"2018-08-11 09:00","2018","08","11","09:00","23.5","","15.8","","62","","6","","7","","","","100.37","","28","","","","NA"
"2018-08-11 10:00","2018","08","11","10:00","24.6","","13.6","","50","","5","","11","","","","100.40","","28","","","","NA"
"2018-08-11 11:00","2018","08","11","11:00","24.6","","15.4","","57","","14","","16","","","","100.42","","29","","","","NA"
"2018-08-11 12:00","2018","08","11","12:00","25.2","","14.0","","50","","14","","17","","","","100.39","","29","","","","NA"
"2018-08-11 13:00","2018","08","11","13:00","25.7","","12.7","","45","","16","","15","","","","100.37","","28","","","","NA"
"2018-08-11 14:00","2018","08","11","14:00","26.3","","9.3","","34","","16","","11","","","","100.35","","27","","","","NA"
"2018-08-11 15:00","2018","08","11","15:00","26.6","","11.1","","38","","19","","10","","","","100.31","","28","","","","NA"
"2018-08-11 16:00","2018","08","11","16:00","25.9","","13.2","","45","","18","","12","","","","100.30","","29","","","","NA"
"2018-08-11 17:00","2018","08","11","17:00","25.8","","12.8","","45","","19","","8","","","","100.30","","28","","","","NA"
"2018-08-11 18:00","2018","08","11","18:00","25.2","","15.3","","54","","22","","7","","","","100.31","","29","","","","NA"
"2018-08-11 19:00","2018","08","11","19:00","22.7","","15.7","","65","","24","","9","","","","100.37","","27","","","","NA"
"2018-08-11 20:00","2018","08","11","20:00","21.1","","15.9","","72","","34","","2","","","","100.42","","26","","","","NA"
"2018-08-11 21:00","2018","08","11","21:00","18.7","","14.8","","78","","35","","6","","","","100.46","","","","","","NA"
"2018-08-11 22:00","2018","08","11","22:00","18.0","","14.5","","80","","33","","7","","","","100.51","","","","","","NA"
"2018-08-11 23:00","2018","08","11","23:00","16.3","","14.1","","87","","34","","11","","","","100.51","","","","","","NA"
"2018-08-12 00:00","2018","08","12","00:00","16.1","","13.7","","85","","34","","9","","","","100.55","","","","","","NA"
"2018-08-12 01:00","2018","08","12","01:00","15.2","","12.9","","87","","35","","9","","","","100.56","","","","","","NA"
"2018-08-12 02:00","2018","08","12","02:00","15.4","","12.9","","85","","36","","9","","","","100.55","","","","","","NA"
"2018-08-12 03:00","2018","08","12","03:00","14.7","","12.6","","87","","35","","13","","","","100.59","","","","","","NA"
"2018-08-12 04:00","2018","08","12","04:00","14.5","","13.2","","92","","35","","9","","","","100.62","","","","","","NA"
"2018-08-12 05:00","2018","08","12","05:00","16.0","","14.2","","89","","3","","9","","","","100.66","","","","","","NA"
"2018-08-12 06:00","2018","08","12","06:00","15.6","","14.6","","94","","3","","8","","","","100.71","","","","","","NA"
"2018-08-12 07:00","2018","08","12","07:00","19.0","","15.6","","81","","5","","10","","","","100.80","","","","","","NA"
"2018-08-12 08:00","2018","08","12","08:00","21.1","","16.5","","75","","5","","11","","","","100.81","","26","","","","NA"
"2018-08-12 09:00","2018","08","12","09:00","22.9","","17.0","","69","","6","","11","","","","100.82","","28","","","","NA"
"2018-08-12 10:00","2018","08","12","10:00","25.1","","18.7","","68","","7","","10","","","","100.83","","32","","","","NA"
"2018-08-12 11:00","2018","08","12","11:00","26.1","","18.6","","63","","8","","11","","","","100.82","","33","","","","NA"
"2018-08-12 12:00","2018","08","12","12:00","25.8","","17.7","","61","","15","","12","","","","100.80","","32","","","","NA"
"2018-08-12 13:00","2018","08","12","13:00","27.7","","16.6","","51","","6","","11","","","","100.78","","33","","","","NA"
"2018-08-12 14:00","2018","08","12","14:00","28.1","","15.9","","48","","6","","11","","","","100.76","","33","","","","NA"
"2018-08-12 15:00","2018","08","12","15:00","28.4","","15.3","","45","","36","","10","","","","100.70","","33","","","","NA"
"2018-08-12 16:00","2018","08","12","16:00","27.1","","14.7","","47","","5","","11","","","","100.67","","31","","","","NA"
"2018-08-12 17:00","2018","08","12","17:00","27.7","","15.0","","46","","5","","16","","","","100.66","","32","","","","NA"
"2018-08-12 18:00","2018","08","12","18:00","27.2","","12.7","","41","","2","","19","","","","100.69","","30","","","","NA"
"2018-08-12 19:00","2018","08","12","19:00","26.0","","13.4","","45","","3","","11","","","","100.71","","29","","","","NA"
"2018-08-12 20:00","2018","08","12","20:00","23.9","","14.8","","57","","3","","6","","","","100.75","","28","","","","NA"
"2018-08-12 21:00","2018","08","12","21:00","22.6","","15.4","","64","","3","","7","","","","100.77","","27","","","","NA"
"2018-08-12 22:00","2018","08","12","22:00","19.2","","15.5","","79","","34","","8","","","","100.75","","","","","","NA"
"2018-08-12 23:00","2018","08","12","23:00","19.7","","16.6","","82","","34","","12","","","","100.78","","","","","","NA"
"2018-08-13 00:00","2018","08","13","00:00","19.6","","16.6","","83","","36","","10","","","","100.78","","","","","","NA"
"2018-08-13 01:00","2018","08","13","01:00","18.7","","16.3","","86","","2","","7","","","","100.78","","","","","","NA"
"2018-08-13 02:00","2018","08","13","02:00","18.5","","16.3","","87","","1","","8","","","","100.76","","","","","","NA"
"2018-08-13 03:00","2018","08","13","03:00","19.3","","17.0","","87","","5","","9","","","","100.72","","","","","","NA"
"2018-08-13 04:00","2018","08","13","04:00","18.9","","16.9","","88","","3","","6","","","","100.73","","","","","","NA"
"2018-08-13 05:00","2018","08","13","05:00","18.6","","16.9","","90","","4","","6","","","","100.74","","","","","","NA"
"2018-08-13 06:00","2018","08","13","06:00","19.2","","17.6","","91","","4","","9","","","","100.76","","","","","","NA"
"2018-08-13 07:00","2018","08","13","07:00","21.3","","18.7","","85","","4","","9","","","","100.74","","28","","","","NA"
"2018-08-13 08:00","2018","08","13","08:00","23.4","","19.6","","79","","34","","5","","","","100.75","","31","","","","NA"
"2018-08-13 09:00","2018","08","13","09:00","23.1","","19.9","","82","","15","","9","","","","100.75","","31","","","","NA"
"2018-08-13 10:00","2018","08","13","10:00","24.0","","20.8","","83","","12","","7","","","","100.74","","32","","","","NA"
"2018-08-13 11:00","2018","08","13","11:00","24.8","","19.8","","74","","22","","3","","","","100.69","","32","","","","NA"
"2018-08-13 12:00","2018","08","13","12:00","25.5","","20.8","","75","","14","","7","","","","100.61","","34","","","","NA"
"2018-08-13 13:00","2018","08","13","13:00","25.1","","20.2","","75","","15","","13","","","","100.58","","33","","","","NA"
"2018-08-13 14:00","2018","08","13","14:00","26.4","","19.3","","65","","4","","7","","","","100.50","","33","","","","NA"
"2018-08-13 15:00","2018","08","13","15:00","26.1","","18.9","","65","","4","","8","","","","100.44","","33","","","","NA"
"2018-08-13 16:00","2018","08","13","16:00","25.8","","19.2","","67","","5","","7","","","","100.40","","33","","","","NA"
"2018-08-13 17:00","2018","08","13","17:00","26.1","","20.1","","70","","5","","5","","","","100.37","","34","","","","NA"
"2018-08-13 18:00","2018","08","13","18:00","24.9","","20.6","","77","","25","","5","","","","100.32","","33","","","","NA"
"2018-08-13 19:00","2018","08","13","19:00","23.8","","20.6","","82","","28","","2","","","","100.32","","32","","","","NA"
"2018-08-13 20:00","2018","08","13","20:00","23.6","","21.3","","87","","26","","8","","","","100.33","","32","","","","NA"
"2018-08-13 21:00","2018","08","13","21:00","23.0","","21.3","","90","","24","","9","","","","100.33","","32","","","","NA"
"2018-08-13 22:00","2018","08","13","22:00","22.6","","21.1","","91","","28","","5","","","","100.29","","31","","","","NA"
"2018-08-13 23:00","2018","08","13","23:00","22.1","","20.9","","93","","30","","7","","","","100.26","","30","","","","NA"
"2018-08-14 00:00","2018","08","14","00:00","21.9","","20.8","","93","","30","","10","","","","100.23","","30","","","","NA"
"2018-08-14 01:00","2018","08","14","01:00","21.5","","20.4","","94","","33","","8","","","","100.17","","29","","","","NA"
"2018-08-14 02:00","2018","08","14","02:00","21.5","","20.1","","92","","34","","10","","","","100.14","","29","","","","NA"
"2018-08-14 03:00","2018","08","14","03:00","21.1","","20.3","","95","","35","","8","","","","100.08","","29","","","","NA"
"2018-08-14 04:00","2018","08","14","04:00","20.9","","20.0","","95","","35","","8","","","","100.03","","28","","","","NA"
"2018-08-14 05:00","2018","08","14","05:00","21.0","","19.9","","94","","34","","11","","","","100.00","","28","","","","NA"
"2018-08-14 06:00","2018","08","14","06:00","21.2","","20.2","","94","","1","","6","","","","100.05","","29","","","","NA"
"2018-08-14 07:00","2018","08","14","07:00","21.5","","20.3","","93","","35","","13","","","","100.01","","29","","","","NA"
"2018-08-14 08:00","2018","08","14","08:00","23.2","","20.5","","84","","3","","9","","","","100.00","","31","","","","NA"
"2018-08-14 09:00","2018","08","14","09:00","23.9","","20.7","","82","","4","","14","","","","99.98","","32","","","","NA"
"2018-08-14 10:00","2018","08","14","10:00","24.0","","21.0","","84","","7","","17","","","","100.00","","32","","","","NA"
"2018-08-14 11:00","2018","08","14","11:00","23.9","","21.0","","84","","4","","11","","","","99.98","","32","","","","NA"
"2018-08-14 12:00","2018","08","14","12:00","24.8","","20.5","","77","","4","","13","","","","99.93","","33","","","","NA"
"2018-08-14 13:00","2018","08","14","13:00","25.6","","20.2","","72","","1","","12","","","","99.88","","33","","","","NA"
"2018-08-14 14:00","2018","08","14","14:00","24.8","","20.8","","79","","35","","20","","","","99.84","","33","","","","NA"
"2018-08-14 15:00","2018","08","14","15:00","23.9","","21.8","","88","","32","","10","","","","99.81","","33","","","","NA"
"2018-08-14 16:00","2018","08","14","16:00","24.8","","21.8","","83","","35","","10","","","","99.80","","34","","","","NA"
"2018-08-14 17:00","2018","08","14","17:00","25.3","","20.8","","76","","33","","7","","","","99.81","","34","","","","NA"
"2018-08-14 18:00","2018","08","14","18:00","24.6","","20.7","","79","","32","","7","","","","99.82","","33","","","","NA"
"2018-08-14 19:00","2018","08","14","19:00","24.1","","20.7","","81","","","","0","","","","99.84","","32","","","","NA"
"2018-08-14 20:00","2018","08","14","20:00","22.8","","21.0","","90","","28","","7","","","","99.86","","31","","","","NA"
"2018-08-14 21:00","2018","08","14","21:00","23.3","","21.1","","88","","26","","6","","","","99.86","","32","","","","NA"
"2018-08-14 22:00","2018","08","14","22:00","22.4","","20.8","","91","","26","","9","","","","99.84","","31","","","","NA"
"2018-08-14 23:00","2018","08","14","23:00","21.2","","20.3","","95","","4","","1","","","","99.88","","29","","","","NA"
"2018-08-15 00:00","2018","08","15","00:00","20.7","","20.1","","96","","26","","3","","","","99.91","","28","","","","NA"
"2018-08-15 01:00","2018","08","15","01:00","20.9","","19.3","","91","","25","","5","","","","99.89","","28","","","","NA"
"2018-08-15 02:00","2018","08","15","02:00","19.9","","18.2","","90","","28","","8","","","","99.88","","","","","","NA"
"2018-08-15 03:00","2018","08","15","03:00","19.2","","17.8","","91","","27","","12","","","","99.87","","","","","","NA"
"2018-08-15 04:00","2018","08","15","04:00","18.8","","17.2","","91","","26","","13","","","","99.87","","","","","","NA"
"2018-08-15 05:00","2018","08","15","05:00","18.5","","16.6","","89","","27","","11","","","","99.93","","","","","","NA"
"2018-08-15 06:00","2018","08","15","06:00","19.0","","16.8","","87","","28","","7","","","","99.99","","","","","","NA"
"2018-08-15 07:00","2018","08","15","07:00","21.1","","18.6","","86","","27","","8","","","","100.02","","28","","","","NA"
"2018-08-15 08:00","2018","08","15","08:00","22.8","","19.6","","82","","25","","11","","","","100.05","","30","","","","NA"
"2018-08-15 09:00","2018","08","15","09:00","23.6","","19.5","","78","","27","","15","","","","100.06","","31","","","","NA"
"2018-08-15 10:00","2018","08","15","10:00","24.3","","19.9","","76","","22","","12","","","","100.07","","32","","","","NA"
"2018-08-15 11:00","2018","08","15","11:00","26.0","","21.3","","75","","21","","12","","","","100.07","","35","","","","NA"
"2018-08-15 12:00","2018","08","15","12:00","27.1","","21.1","","70","","22","","14","","","","100.07","","36","","","","NA"
"2018-08-15 13:00","2018","08","15","13:00","27.2","","22.8","","77","","19","","19","","","","100.09","","37","","","","NA"
"2018-08-15 14:00","2018","08","15","14:00","26.2","","22.9","","82","","19","","18","","","","100.06","","36","","","","NA"
"2018-08-15 15:00","2018","08","15","15:00","27.4","","22.9","","76","","19","","25","","","","99.95","","38","","","","NA"
"2018-08-15 16:00","2018","08","15","16:00","23.4","","21.1","","87","","1","","4","","","","100.05","","32","","","","NA"
"2018-08-15 17:00","2018","08","15","17:00","22.4","","20.8","","91","","1","","14","","","","100.22","","31","","","","NA"
"2018-08-15 18:00","2018","08","15","18:00","21.1","","19.8","","92","","25","","19","","","","100.17","","29","","","","NA"
"2018-08-15 19:00","2018","08","15","19:00","20.1","","19.0","","94","","30","","23","","","","100.22","","27","","","","NA"
"2018-08-15 20:00","2018","08","15","20:00","20.9","","19.3","","91","","1","","18","","","","100.24","","28","","","","NA"
"2018-08-15 21:00","2018","08","15","21:00","22.1","","19.9","","87","","26","","26","","","","100.28","","30","","","","NA"
"2018-08-15 22:00","2018","08","15","22:00","22.1","","20.3","","89","","21","","13","","","","100.27","","30","","","","NA"
"2018-08-15 23:00","2018","08","15","23:00","20.2","","19.5","","96","","35","","6","","","","100.30","","27","","","","NA"
"2018-08-16 00:00","2018","08","16","00:00","19.8","","19.3","","98","","34","","7","","","","100.31","","","","","","NA"
"2018-08-16 01:00","2018","08","16","01:00","20.1","","19.4","","96","","34","","11","","","","100.33","","27","","","","NA"
"2018-08-16 02:00","2018","08","16","02:00","20.0","","18.9","","94","","35","","13","","","","100.40","","27","","","","NA"
"2018-08-16 03:00","2018","08","16","03:00","19.2","","18.0","","93","","36","","11","","","","100.44","","","","","","NA"
"2018-08-16 04:00","2018","08","16","04:00","18.9","","16.8","","88","","1","","11","","","","100.48","","","","","","NA"
"2018-08-16 05:00","2018","08","16","05:00","18.9","","16.8","","88","","1","","5","","","","100.56","","","","","","NA"
"2018-08-16 06:00","2018","08","16","06:00","18.9","","17.0","","88","","2","","11","","","","100.58","","","","","","NA"
"2018-08-16 07:00","2018","08","16","07:00","19.6","","16.9","","84","","2","","9","","","","100.64","","","","","","NA"
"2018-08-16 08:00","2018","08","16","08:00","20.1","","17.1","","83","","2","","10","","","","100.68","","25","","","","NA"
"2018-08-16 09:00","2018","08","16","09:00","20.7","","17.4","","81","","5","","8","","","","100.72","","26","","","","NA"
"2018-08-16 10:00","2018","08","16","10:00","21.6","","16.6","","73","","4","","10","","","","100.74","","27","","","","NA"
"2018-08-16 11:00","2018","08","16","11:00","22.7","","17.4","","72","","16","","6","","","","100.73","","28","","","","NA"
"2018-08-16 12:00","2018","08","16","12:00","23.5","","18.5","","74","","17","","9","","","","100.72","","30","","","","NA"
"2018-08-16 13:00","2018","08","16","13:00","24.1","","18.1","","69","","16","","12","","","","100.70","","30","","","","NA"
"2018-08-16 14:00","2018","08","16","14:00","24.6","","18.0","","67","","16","","8","","","","100.65","","31","","","","NA"
"2018-08-16 15:00","2018","08","16","15:00","24.8","","18.5","","68","","17","","8","","","","100.62","","31","","","","NA"
"2018-08-16 16:00","2018","08","16","16:00","24.8","","15.9","","58","","16","","8","","","","100.59","","29","","","","NA"
"2018-08-16 17:00","2018","08","16","17:00","24.7","","17.1","","62","","15","","7","","","","100.56","","30","","","","NA"
"2018-08-16 18:00","2018","08","16","18:00","24.2","","18.4","","70","","16","","8","","","","100.57","","31","","","","NA"
"2018-08-16 19:00","2018","08","16","19:00","23.5","","19.2","","77","","15","","6","","","","100.56","","30","","","","NA"
"2018-08-16 20:00","2018","08","16","20:00","23.3","","19.7","","80","","15","","6","","","","100.59","","31","","","","NA"
"2018-08-16 21:00","2018","08","16","21:00","20.9","","19.1","","89","","8","","5","","","","100.57","","28","","","","NA"
"2018-08-16 22:00","2018","08","16","22:00","21.5","","19.9","","91","","9","","5","","","","100.55","","29","","","","NA"
"2018-08-16 23:00","2018","08","16","23:00","22.2","","19.6","","85","","5","","3","","","","100.55","","29","","","","NA"
"2018-08-17 00:00","2018","08","17","00:00","23.6","","21.7","","89","","20","","11","","","","100.54","","33","","","","NA"
"2018-08-17 01:00","2018","08","17","01:00","23.1","","21.6","","91","","21","","6","","","","100.49","","32","","","","NA"
"2018-08-17 02:00","2018","08","17","02:00","23.7","","21.9","","90","","18","","10","","","","100.47","","33","","","","NA"
"2018-08-17 03:00","2018","08","17","03:00","23.8","","21.7","","88","","16","","15","","","","100.42","","33","","","","NA"
"2018-08-17 04:00","2018","08","17","04:00","24.0","","22.0","","89","","17","","16","","","","100.39","","33","","","","NA"
"2018-08-17 05:00","2018","08","17","05:00","23.5","","21.8","","90","","19","","16","","","","100.38","","33","","","","NA"
"2018-08-17 06:00","2018","08","17","06:00","22.8","","21.0","","90","","21","","16","","","","100.35","","31","","","","NA"
"2018-08-17 07:00","2018","08","17","07:00","22.3","","21.1","","93","","20","","33","","","","100.35","","31","","","","NA"
"2018-08-17 08:00","2018","08","17","08:00","22.4","","20.9","","92","","19","","28","","","","100.32","","31","","","","NA"
"2018-08-17 09:00","2018","08","17","09:00","22.1","","21.1","","94","","19","","27","","","","100.26","","31","","","","NA"
"2018-08-17 10:00","2018","08","17","10:00","22.9","","20.9","","89","","19","","27","","","","100.22","","31","","","","NA"
"2018-08-17 11:00","2018","08","17","11:00","23.1","","21.1","","89","","20","","25","","","","100.19","","32","","","","NA"
"2018-08-17 12:00","2018","08","17","12:00","23.7","","21.4","","87","","19","","22","","","","100.12","","32","","","","NA"
"2018-08-17 13:00","2018","08","17","13:00","23.6","","21.9","","90","","19","","26","","","","100.08","","33","","","","NA"
"2018-08-17 14:00","2018","08","17","14:00","24.5","","22.1","","87","","21","","17","","","","100.04","","34","","","","NA"
"2018-08-17 15:00","2018","08","17","15:00","25.2","","22.5","","85","","22","","16","","","","99.97","","35","","","","NA"
"2018-08-17 16:00","2018","08","17","16:00","24.5","","22.4","","88","","25","","11","","","","99.95","","34","","","","NA"
"2018-08-17 17:00","2018","08","17","17:00","24.4","","22.3","","88","","21","","7","","","","99.96","","34","","","","NA"
"2018-08-17 18:00","2018","08","17","18:00","24.1","","22.2","","89","","23","","4","","","","99.96","","34","","","","NA"
"2018-08-17 19:00","2018","08","17","19:00","22.8","","21.2","","91","","2","","10","","","","99.98","","31","","","","NA"
"2018-08-17 20:00","2018","08","17","20:00","21.4","","18.9","","86","","1","","20","","","","100.06","","28","","","","NA"
"2018-08-17 21:00","2018","08","17","21:00","20.6","","18.3","","87","","3","","17","","","","100.04","","27","","","","NA"
"2018-08-17 22:00","2018","08","17","22:00","20.3","","17.9","","86","","1","","8","","","","100.07","","26","","","","NA"
"2018-08-17 23:00","2018","08","17","23:00","20.1","","17.0","","83","","1","","12","","","","100.11","","25","","","","NA"
"2018-08-18 00:00","2018","08","18","00:00","18.9","","17.5","","92","","35","","9","","","","100.12","","","","","","NA"
"2018-08-18 01:00","2018","08","18","01:00","18.4","","16.0","","86","","3","","8","","","","100.12","","","","","","NA"
"2018-08-18 02:00","2018","08","18","02:00","17.8","","15.3","","85","","1","","12","","","","100.10","","","","","","NA"
"2018-08-18 03:00","2018","08","18","03:00","17.2","","15.4","","89","","35","","8","","","","100.13","","","","","","NA"
"2018-08-18 04:00","2018","08","18","04:00","17.4","","15.0","","86","","2","","8","","","","100.16","","","","","","NA"
"2018-08-18 05:00","2018","08","18","05:00","16.4","","14.5","","89","","36","","9","","","","100.19","","","","","","NA"
"2018-08-18 06:00","2018","08","18","06:00","16.9","","14.6","","87","","1","","14","","","","100.22","","","","","","NA"
"2018-08-18 07:00","2018","08","18","07:00","16.9","","14.3","","85","","3","","14","","","","100.25","","","","","","NA"
"2018-08-18 08:00","2018","08","18","08:00","17.3","","14.7","","85","","2","","16","","","","100.24","","","","","","NA"
"2018-08-18 09:00","2018","08","18","09:00","19.4","","15.0","","76","","3","","18","","","","100.25","","","","","","NA"
"2018-08-18 10:00","2018","08","18","10:00","20.6","","15.9","","74","","3","","16","","","","100.27","","25","","","","NA"
"2018-08-18 11:00","2018","08","18","11:00","21.9","","14.6","","63","","4","","17","","","","100.27","","26","","","","NA"
"2018-08-18 12:00","2018","08","18","12:00","22.5","","15.5","","65","","2","","21","","","","100.24","","27","","","","NA"
"2018-08-18 13:00","2018","08","18","13:00","23.1","","16.6","","67","","3","","17","","","","100.23","","28","","","","NA"
"2018-08-18 14:00","2018","08","18","14:00","23.5","","15.9","","63","","2","","15","","","","100.21","","28","","","","NA"
"2018-08-18 15:00","2018","08","18","15:00","23.6","","15.6","","61","","2","","18","","","","100.22","","28","","","","NA"
"2018-08-18 16:00","2018","08","18","16:00","23.6","","15.0","","59","","2","","20","","","","100.22","","28","","","","NA"
"2018-08-18 17:00","2018","08","18","17:00","23.4","","15.3","","60","","2","","15","","","","100.23","","28","","","","NA"
"2018-08-18 18:00","2018","08","18","18:00","22.4","","15.7","","66","","3","","11","","","","100.26","","27","","","","NA"
"2018-08-18 19:00","2018","08","18","19:00","20.9","","15.4","","71","","6","","7","","","","100.29","","25","","","","NA"
"2018-08-18 20:00","2018","08","18","20:00","19.3","","15.6","","79","","3","","4","","","","100.33","","","","","","NA"
"2018-08-18 21:00","2018","08","18","21:00","17.5","","15.9","","91","","34","","6","","","","100.36","","","","","","NA"
"2018-08-18 22:00","2018","08","18","22:00","17.1","","16.0","","94","","33","","7","","","","100.39","","","","","","NA"
"2018-08-18 23:00","2018","08","18","23:00","16.5","","15.6","","95","","34","","8","","","","100.38","","","","","","NA"
"2018-08-19 00:00","2018","08","19","00:00","15.9","","15.2","","96","","34","","7","","","","100.38","","","","","","NA"
"2018-08-19 01:00","2018","08","19","01:00","15.1","","14.5","","96","","35","","8","","","","100.38","","","","","","NA"
"2018-08-19 02:00","2018","08","19","02:00","15.0","","14.6","","98","","36","","7","","","","100.35","","","","","","NA"
"2018-08-19 03:00","2018","08","19","03:00","15.1","","14.7","","98","","1","","10","","","","100.39","","","","","","NA"
"2018-08-19 04:00","2018","08","19","04:00","16.1","","15.3","","96","","3","","7","","","","100.43","","","","","","NA"
"2018-08-19 05:00","2018","08","19","05:00","15.8","","15.3","","97","","4","","7","","","","100.46","","","","","","NA"
"2018-08-19 06:00","2018","08","19","06:00","15.2","","14.8","","98","","2","","7","","","","100.54","","","","","","NA"
"2018-08-19 07:00","2018","08","19","07:00","17.9","","16.8","","93","","4","","10","","","","100.59","","","","","","NA"
"2018-08-19 08:00","2018","08","19","08:00","19.7","","16.9","","84","","5","","14","","","","100.60","","","","","","NA"
"2018-08-19 09:00","2018","08","19","09:00","21.8","","17.1","","74","","7","","17","","","","100.62","","27","","","","NA"
"2018-08-19 10:00","2018","08","19","10:00","23.1","","17.0","","68","","7","","14","","","","100.65","","28","","","","NA"
"2018-08-19 11:00","2018","08","19","11:00","24.2","","15.4","","58","","11","","12","","","","100.63","","28","","","","NA"
"2018-08-19 12:00","2018","08","19","12:00","24.0","","16.2","","62","","15","","13","","","","100.60","","29","","","","NA"
"2018-08-19 13:00","2018","08","19","13:00","23.7","","16.3","","63","","17","","15","","","","100.57","","29","","","","NA"
"2018-08-19 14:00","2018","08","19","14:00","24.5","","15.7","","58","","16","","10","","","","100.57","","29","","","","NA"
"2018-08-19 15:00","2018","08","19","15:00","24.8","","16.7","","61","","20","","11","","","","100.59","","30","","","","NA"
"2018-08-19 16:00","2018","08","19","16:00","25.1","","15.3","","54","","20","","9","","","","100.58","","29","","","","NA"
"2018-08-19 17:00","2018","08","19","17:00","24.9","","17.4","","63","","20","","7","","","","100.58","","30","","","","NA"
"2018-08-19 18:00","2018","08","19","18:00","23.6","","16.9","","66","","25","","11","","","","100.60","","29","","","","NA"
"2018-08-19 19:00","2018","08","19","19:00","22.3","","16.7","","71","","27","","7","","","","100.61","","27","","","","NA"
"2018-08-19 20:00","2018","08","19","20:00","20.4","","16.9","","81","","27","","1","","","","100.65","","26","","","","NA"
"2018-08-19 21:00","2018","08","19","21:00","18.7","","16.3","","86","","0","","1","","","","100.67","","","","","","NA"
"2018-08-19 22:00","2018","08","19","22:00","17.7","","16.4","","92","","34","","9","","","","100.72","","","","","","NA"
"2018-08-19 23:00","2018","08","19","23:00","18.2","","16.4","","89","","4","","5","","","","100.76","","","","","","NA"
"2018-08-20 00:00","2018","08","20","00:00","17.6","","15.3","","87","","5","","4","","","","100.77","","","","","","NA"
"2018-08-20 01:00","2018","08","20","01:00","16.6","","15.3","","92","","2","","5","","","","100.79","","","","","","NA"
"2018-08-20 02:00","2018","08","20","02:00","16.1","","15.5","","96","","3","","4","","","","100.80","","","","","","NA"
"2018-08-20 03:00","2018","08","20","03:00","16.5","","15.3","","93","","5","","4","","","","100.80","","","","","","NA"
"2018-08-20 04:00","2018","08","20","04:00","16.9","","16.3","","96","","10","","7","","","","100.80","","","","","","NA"
"2018-08-20 05:00","2018","08","20","05:00","14.7","","14.1","","96","","2","","3","","","","100.86","","","","","","NA"
"2018-08-20 06:00","2018","08","20","06:00","16.6","","15.9","","96","","4","","6","","","","100.92","","","","","","NA"
"2018-08-20 07:00","2018","08","20","07:00","19.8","","17.8","","88","","11","","10","","","","100.95","","","","","","NA"
"2018-08-20 08:00","2018","08","20","08:00","21.3","","18.2","","83","","13","","12","","","","100.97","","27","","","","NA"
"2018-08-20 09:00","2018","08","20","09:00","22.5","","17.1","","71","","15","","18","","","","101.01","","28","","","","NA"
"2018-08-20 10:00","2018","08","20","10:00","23.3","","15.6","","62","","16","","20","","","","101.00","","28","","","","NA"
"2018-08-20 11:00","2018","08","20","11:00","23.6","","16.7","","65","","16","","19","","","","100.95","","29","","","","NA"
"2018-08-20 12:00","2018","08","20","12:00","23.6","","16.1","","63","","16","","19","","","","100.91","","28","","","","NA"
"2018-08-20 13:00","2018","08","20","13:00","24.1","","17.1","","65","","18","","15","","","","100.89","","29","","","","NA"
"2018-08-20 14:00","2018","08","20","14:00","24.1","","16.6","","63","","16","","10","","","","100.77","","29","","","","NA"
"2018-08-20 15:00","2018","08","20","15:00","24.2","","14.8","","56","","19","","8","","","","100.76","","28","","","","NA"
"2018-08-20 16:00","2018","08","20","16:00","24.3","","14.6","","55","","19","","9","","","","100.75","","28","","","","NA"
"2018-08-20 17:00","2018","08","20","17:00","23.8","","14.7","","56","","15","","7","","","","100.73","","28","","","","NA"
"2018-08-20 18:00","2018","08","20","18:00","23.3","","14.8","","59","","14","","4","","","","100.72","","27","","","","NA"
"2018-08-20 19:00","2018","08","20","19:00","20.5","","14.9","","70","","2","","3","","","","100.72","","","","","","NA"
"2018-08-20 20:00","2018","08","20","20:00","20.2","","14.9","","72","","7","","4","","","","100.74","","","","","","NA"
"2018-08-20 21:00","2018","08","20","21:00","19.7","","15.1","","75","","7","","6","","","","100.73","","","","","","NA"
"2018-08-20 22:00","2018","08","20","22:00","22.0","","16.3","","70","","12","","11","","","","100.72","","27","","","","NA"
"2018-08-20 23:00","2018","08","20","23:00","21.2","","16.9","","77","","11","","11","","","","100.67","","26","","","","NA"
"2018-08-21 00:00","2018","08","21","00:00","22.1","","17.2","","74","","14","","20","","","","100.61","","28","","","","NA"
"2018-08-21 01:00","2018","08","21","01:00","22.1","","17.7","","76","","14","","21","","","","100.58","","28","","","","NA"
"2018-08-21 02:00","2018","08","21","02:00","22.4","","18.0","","76","","16","","24","","","","100.56","","28","","","","NA"
"2018-08-21 03:00","2018","08","21","03:00","22.2","","18.4","","79","","17","","23","","","","100.53","","29","","","","NA"
"2018-08-21 04:00","2018","08","21","04:00","21.9","","18.2","","79","","15","","22","","","","100.48","","28","","","","NA"
"2018-08-21 05:00","2018","08","21","05:00","21.5","","18.1","","81","","15","","23","","","","100.46","","28","","","","NA"
"2018-08-21 06:00","2018","08","21","06:00","21.3","","17.7","","80","","14","","26","","","","100.45","","27","","","","NA"
"2018-08-21 07:00","2018","08","21","07:00","21.3","","17.9","","81","","14","","24","","","","100.42","","27","","","","NA"
"2018-08-21 08:00","2018","08","21","08:00","21.4","","18.2","","82","","14","","29","","","","100.36","","28","","","","NA"
"2018-08-21 09:00","2018","08","21","09:00","22.0","","18.9","","83","","15","","29","","","","100.32","","29","","","","NA"
"2018-08-21 10:00","2018","08","21","10:00","22.7","","18.9","","79","","16","","29","","","","100.27","","29","","","","NA"
"2018-08-21 11:00","2018","08","21","11:00","22.3","","18.5","","79","","15","","29","","","","100.20","","29","","","","NA"
"2018-08-21 12:00","2018","08","21","12:00","22.1","","19.3","","84","","15","","25","","","","100.11","","29","","","","NA"
"2018-08-21 13:00","2018","08","21","13:00","20.5","","20.0","","97","","16","","25","","","","100.05","","28","","","","NA"
"2018-08-21 14:00","2018","08","21","14:00","21.9","","20.1","","90","","15","","31","","","","99.95","","30","","","","NA"
"2018-08-21 15:00","2018","08","21","15:00","22.2","","20.1","","88","","15","","35","","","","99.84","","30","","","","NA"
"2018-08-21 16:00","2018","08","21","16:00","22.0","","19.7","","86","","15","","35","","","","99.75","","29","","","","NA"
"2018-08-21 17:00","2018","08","21","17:00","22.1","","19.6","","86","","15","","32","","","","99.70","","29","","","","NA"
"2018-08-21 18:00","2018","08","21","18:00","22.3","","19.6","","85","","15","","37","","","","99.61","","30","","","","NA"
"2018-08-21 19:00","2018","08","21","19:00","21.8","","20.0","","89","","16","","39","","","","99.54","","29","","","","NA"
"2018-08-21 20:00","2018","08","21","20:00","22.1","","20.0","","88","","16","","42","","","","99.47","","30","","","","NA"
"2018-08-21 21:00","2018","08","21","21:00","22.5","","20.0","","86","","16","","43","","","","99.41","","30","","","","NA"
"2018-08-21 22:00","2018","08","21","22:00","22.7","","20.1","","85","","16","","45","","","","99.29","","30","","","","NA"
"2018-08-21 23:00","2018","08","21","23:00","23.1","","20.4","","85","","17","","43","","","","99.19","","31","","","","NA"
"2018-08-22 00:00","2018","08","22","00:00","22.7","","20.9","","89","","18","","37","","","","99.17","","31","","","","NA"
"2018-08-22 01:00","2018","08","22","01:00","23.1","","20.9","","87","","19","","40","","","","99.10","","31","","","","NA"
"2018-08-22 02:00","2018","08","22","02:00","22.8","","21.0","","90","","19","","39","","","","99.00","","31","","","","NA"
"2018-08-22 03:00","2018","08","22","03:00","22.8","","20.3","","86","","20","","34","","","","98.92","","31","","","","NA"
"2018-08-22 04:00","2018","08","22","04:00","21.6","","20.3","","92","","21","","29","","","","98.89","","29","","","","NA"
"2018-08-22 05:00","2018","08","22","05:00","19.4","","17.5","","88","","27","","19","","","","99.07","","","","","","NA"
"2018-08-22 06:00","2018","08","22","06:00","18.8","","17.0","","90","","25","","17","","","","99.19","","","","","","NA"
"2018-08-22 07:00","2018","08","22","07:00","19.5","","16.9","","85","","27","","17","","","","99.32","","","","","","NA"
"2018-08-22 08:00","2018","08","22","08:00","19.6","","16.9","","84","","27","","19","","","","99.35","","","","","","NA"
"2018-08-22 09:00","2018","08","22","09:00","20.6","","17.0","","80","","28","","21","","","","99.40","","26","","","","NA"
"2018-08-22 10:00","2018","08","22","10:00","21.9","","16.9","","73","","29","","25","","","","99.42","","27","","","","NA"
"2018-08-22 11:00","2018","08","22","11:00","21.5","","16.7","","74","","27","","18","","","","99.46","","27","","","","NA"
"2018-08-22 12:00","2018","08","22","12:00","23.3","","16.2","","64","","32","","25","","","","99.46","","28","","","","NA"
"2018-08-22 13:00","2018","08","22","13:00","23.3","","15.8","","63","","30","","20","","","","99.53","","28","","","","NA"
"2018-08-22 14:00","2018","08","22","14:00","21.8","","14.8","","65","","31","","26","","","","99.59","","26","","","","NA"
"2018-08-22 15:00","2018","08","22","15:00","22.1","","14.8","","63","","32","","19","","","","99.60","","26","","","","NA"
"2018-08-22 16:00","2018","08","22","16:00","21.6","","13.4","","60","","32","","16","","","","99.65","","25","","","","NA"
"2018-08-22 17:00","2018","08","22","17:00","21.0","","13.5","","62","","33","","15","","","","99.75","","","","","","NA"
"2018-08-22 18:00","2018","08","22","18:00","19.9","","12.5","","62","","33","","18","","","","99.79","","","","","","NA"
"2018-08-22 19:00","2018","08","22","19:00","18.2","","11.1","","63","","33","","19","","","","99.93","","","","","","NA"
"2018-08-22 20:00","2018","08","22","20:00","16.4","","11.1","","71","","33","","15","","","","100.05","","","","","","NA"
"2018-08-22 21:00","2018","08","22","21:00","14.7","","10.8","","78","","32","","9","","","","100.11","","","","","","NA"
"2018-08-22 22:00","2018","08","22","22:00","14.4","","10.5","","78","","31","","7","","","","100.14","","","","","","NA"
"2018-08-22 23:00","2018","08","22","23:00","13.7","","10.3","","80","","31","","11","","","","100.16","","","","","","NA"
"2018-08-23 00:00","2018","08","23","00:00","13.6","","10.2","","80","","31","","11","","","","100.17","","","","","","NA"
"2018-08-23 01:00","2018","08","23","01:00","12.5","","9.7","","83","","32","","9","","","","100.14","","","","","","NA"
"2018-08-23 02:00","2018","08","23","02:00","12.1","","9.4","","84","","31","","9","","","","100.15","","","","","","NA"
"2018-08-23 03:00","2018","08","23","03:00","12.9","","9.9","","82","","26","","8","","","","100.17","","","","","","NA"
"2018-08-23 04:00","2018","08","23","04:00","12.6","","9.8","","83","","27","","11","","","","100.19","","","","","","NA"
"2018-08-23 05:00","2018","08","23","05:00","12.1","","9.5","","84","","28","","11","","","","100.22","","","","","","NA"
"2018-08-23 06:00","2018","08","23","06:00","12.0","","9.9","","87","","28","","9","","","","100.28","","","","","","NA"
"2018-08-23 07:00","2018","08","23","07:00","14.2","","11.1","","82","","29","","9","","","","100.31","","","","","","NA"
"2018-08-23 08:00","2018","08","23","08:00","16.7","","11.6","","72","","27","","8","","","","100.38","","","","","","NA"
"2018-08-23 09:00","2018","08","23","09:00","19.6","","13.0","","66","","28","","7","","","","100.40","","","","","","NA"
"2018-08-23 10:00","2018","08","23","10:00","21.2","","13.0","","60","","26","","6","","","","100.42","","","","","","NA"
"2018-08-23 11:00","2018","08","23","11:00","22.6","","14.7","","61","","22","","17","","","","100.43","","26","","","","NA"
"2018-08-23 12:00","2018","08","23","12:00","22.3","","12.8","","55","","22","","19","","","","100.40","","25","","","","NA"
"2018-08-23 13:00","2018","08","23","13:00","23.7","","12.9","","51","","23","","18","","","","100.37","","26","","","","NA"
"2018-08-23 14:00","2018","08","23","14:00","24.9","","13.2","","48","","25","","19","","","","100.35","","28","","","","NA"
"2018-08-23 15:00","2018","08","23","15:00","23.9","","14.7","","57","","23","","20","","","","100.31","","28","","","","NA"
"2018-08-23 16:00","2018","08","23","16:00","23.6","","16.3","","63","","23","","21","","","","100.30","","28","","","","NA"
"2018-08-23 17:00","2018","08","23","17:00","23.7","","15.1","","59","","23","","24","","","","100.30","","28","","","","NA"
"2018-08-23 18:00","2018","08","23","18:00","23.0","","14.6","","59","","24","","25","","","","100.33","","27","","","","NA"
"2018-08-23 19:00","2018","08","23","19:00","22.4","","14.5","","61","","25","","19","","","","100.37","","26","","","","NA"
"2018-08-23 20:00","2018","08","23","20:00","21.9","","15.2","","66","","25","","17","","","","100.45","","26","","","","NA"
"2018-08-23 21:00","2018","08","23","21:00","21.5","","16.5","","73","","24","","15","","","","100.49","","26","","","","NA"
"2018-08-23 22:00","2018","08","23","22:00","20.3","","16.2","","77","","24","","12","","","","100.53","","25","","","","NA"
"2018-08-23 23:00","2018","08","23","23:00","20.0","","14.9","","72","","26","","11","","","","100.57","","","","","","NA"
"2018-08-24 00:00","2018","08","24","00:00","19.5","","13.2","","67","","25","","11","","","","100.60","","","","","","NA"
"2018-08-24 01:00","2018","08","24","01:00","19.0","","13.3","","70","","25","","11","","","","100.61","","","","","","NA"
"2018-08-24 02:00","2018","08","24","02:00","19.0","","12.8","","67","","25","","13","","","","100.63","","","","","","NA"
"2018-08-24 03:00","2018","08","24","03:00","19.1","","12.7","","67","","25","","14","","","","100.66","","","","","","NA"
"2018-08-24 04:00","2018","08","24","04:00","18.8","","13.8","","73","","26","","12","","","","100.70","","","","","","NA"
"2018-08-24 05:00","2018","08","24","05:00","18.4","","14.8","","79","","26","","13","","","","100.77","","","","","","NA"
"2018-08-24 06:00","2018","08","24","06:00","17.8","","15.5","","86","","26","","10","","","","100.82","","","","","","NA"
"2018-08-24 07:00","2018","08","24","07:00","19.2","","16.3","","83","","28","","8","","","","100.87","","","","","","NA"
"2018-08-24 08:00","2018","08","24","08:00","21.7","","16.5","","72","","25","","7","","","","100.90","","27","","","","NA"
"2018-08-24 09:00","2018","08","24","09:00","23.4","","15.4","","61","","25","","11","","","","100.95","","28","","","","NA"
"2018-08-24 10:00","2018","08","24","10:00","24.2","","17.3","","65","","16","","13","","","","101.03","","30","","","","NA"
"2018-08-24 11:00","2018","08","24","11:00","24.6","","20.0","","75","","19","","16","","","","101.05","","32","","","","NA"
"2018-08-24 12:00","2018","08","24","12:00","24.1","","20.5","","80","","18","","21","","","","101.05","","32","","","","NA"
"2018-08-24 13:00","2018","08","24","13:00","24.8","","20.9","","79","","19","","20","","","","101.02","","33","","","","NA"
"2018-08-24 14:00","2018","08","24","14:00","24.4","","20.5","","79","","19","","23","","","","101.01","","32","","","","NA"
"2018-08-24 15:00","2018","08","24","15:00","23.5","","19.1","","76","","20","","21","","","","101.02","","30","","","","NA"
"2018-08-24 16:00","2018","08","24","16:00","24.5","","18.7","","70","","19","","16","","","","100.97","","31","","","","NA"
"2018-08-24 17:00","2018","08","24","17:00","23.5","","19.2","","77","","19","","14","","","","100.97","","30","","","","NA"
"2018-08-24 18:00","2018","08","24","18:00","22.4","","19.7","","85","","18","","12","","","","100.96","","30","","","","NA"
"2018-08-24 19:00","2018","08","24","19:00","21.4","","19.1","","87","","20","","6","","","","100.98","","28","","","","NA"
"2018-08-24 20:00","2018","08","24","20:00","21.6","","19.3","","87","","14","","9","","","","101.01","","29","","","","NA"
"2018-08-24 21:00","2018","08","24","21:00","20.5","","18.9","","91","","11","","5","","","","101.02","","27","","","","NA"
"2018-08-24 22:00","2018","08","24","22:00","19.0","","17.8","","93","","11","","5","","","","101.02","","","","","","NA"
"2018-08-24 23:00","2018","08","24","23:00","18.7","","16.9","","89","","8","","6","","","","101.01","","","","","","NA"
"2018-08-25 00:00","2018","08","25","00:00","22.2","","19.0","","82","","16","","17","","","","101.03","","29","","","","NA"
"2018-08-25 01:00","2018","08","25","01:00","22.5","","17.2","","72","","18","","19","","","","101.02","","28","","","","NA"
"2018-08-25 02:00","2018","08","25","02:00","21.8","","17.2","","75","","19","","22","","","","101.02","","27","","","","NA"
"2018-08-25 03:00","2018","08","25","03:00","21.3","","16.7","","75","","20","","23","","","","101.03","","26","","","","NA"
"2018-08-25 04:00","2018","08","25","04:00","21.2","","17.1","","78","","20","","19","","","","101.02","","27","","","","NA"
"2018-08-25 05:00","2018","08","25","05:00","21.5","","16.7","","74","","19","","23","","","","101.03","","27","","","","NA"
"2018-08-25 06:00","2018","08","25","06:00","21.2","","16.4","","74","","18","","22","","","","101.05","","26","","","","NA"
"2018-08-25 07:00","2018","08","25","07:00","21.6","","15.8","","69","","19","","21","","","","101.06","","26","","","","NA"
"2018-08-25 08:00","2018","08","25","08:00","21.4","","15.8","","71","","18","","22","","","","101.05","","26","","","","NA"
"2018-08-25 09:00","2018","08","25","09:00","22.3","","16.2","","68","","18","","19","","","","101.05","","27","","","","NA"
"2018-08-25 10:00","2018","08","25","10:00","22.5","","16.7","","70","","17","","21","","","","101.02","","28","","","","NA"
"2018-08-25 11:00","2018","08","25","11:00","23.0","","16.7","","68","","17","","22","","","","101.00","","28","","","","NA"
"2018-08-25 12:00","2018","08","25","12:00","23.6","","17.1","","67","","17","","19","","","","100.99","","29","","","","NA"
"2018-08-25 13:00","2018","08","25","13:00","24.5","","18.4","","69","","17","","20","","","","100.93","","31","","","","NA"
"2018-08-25 14:00","2018","08","25","14:00","24.4","","18.7","","70","","17","","19","","","","100.89","","31","","","","NA"
"2018-08-25 15:00","2018","08","25","15:00","25.0","","20.1","","74","","16","","18","","","","100.83","","33","","","","NA"
"2018-08-25 16:00","2018","08","25","16:00","23.8","","19.4","","76","","16","","17","","","","100.81","","31","","","","NA"
"2018-08-25 17:00","2018","08","25","17:00","24.1","","19.5","","75","","17","","15","","","","100.75","","31","","","","NA"
"2018-08-25 18:00","2018","08","25","18:00","24.2","","18.6","","71","","18","","23","","","","100.71","","31","","","","NA"
"2018-08-25 19:00","2018","08","25","19:00","23.9","","18.7","","73","","18","","23","","","","100.70","","30","","","","NA"
"2018-08-25 20:00","2018","08","25","20:00","23.7","","18.2","","71","","23","","17","","","","100.75","","30","","","","NA"
"2018-08-25 21:00","2018","08","25","21:00","22.9","","18.0","","74","","20","","22","","","","100.74","","29","","","","NA"
"2018-08-25 22:00","2018","08","25","22:00","22.1","","18.8","","81","","20","","22","","","","100.73","","29","","","","NA"
"2018-08-25 23:00","2018","08","25","23:00","21.6","","18.5","","82","","18","","19","","","","100.72","","28","","","","NA"
"2018-08-26 00:00","2018","08","26","00:00","22.2","","18.3","","79","","18","","26","","","","100.66","","28","","","","NA"
"2018-08-26 01:00","2018","08","26","01:00","22.2","","17.4","","74","","18","","33","","","","100.59","","28","","","","NA"
"2018-08-26 02:00","2018","08","26","02:00","22.2","","17.9","","77","","19","","28","","","","100.58","","28","","","","NA"
"2018-08-26 03:00","2018","08","26","03:00","22.1","","17.9","","77","","18","","29","","","","100.53","","28","","","","NA"
"2018-08-26 04:00","2018","08","26","04:00","22.0","","17.9","","78","","19","","28","","","","100.49","","28","","","","NA"
"2018-08-26 05:00","2018","08","26","05:00","20.5","","18.6","","89","","19","","22","","","","100.47","","27","","","","NA"
"2018-08-26 06:00","2018","08","26","06:00","21.2","","18.8","","86","","19","","25","","","","100.45","","28","","","","NA"
"2018-08-26 07:00","2018","08","26","07:00","21.5","","18.9","","85","","20","","22","","","","100.47","","28","","","","NA"
"2018-08-26 08:00","2018","08","26","08:00","22.0","","19.7","","87","","20","","21","","","","100.47","","29","","","","NA"
"2018-08-26 09:00","2018","08","26","09:00","22.8","","20.0","","84","","21","","16","","","","100.44","","30","","","","NA"
"2018-08-26 10:00","2018","08","26","10:00","24.2","","21.2","","83","","23","","18","","","","100.43","","33","","","","NA"
"2018-08-26 11:00","2018","08","26","11:00","25.5","","21.5","","79","","23","","21","","","","100.39","","34","","","","NA"
"2018-08-26 12:00","2018","08","26","12:00","24.7","","20.4","","77","","23","","18","","","","100.38","","33","","","","NA"
"2018-08-26 13:00","2018","08","26","13:00","23.6","","20.7","","84","","24","","21","","","","100.38","","32","","","","NA"
"2018-08-26 14:00","2018","08","26","14:00","25.2","","21.0","","78","","24","","15","","","","100.36","","34","","","","NA"
"2018-08-26 15:00","2018","08","26","15:00","26.0","","21.1","","74","","23","","21","","","","100.36","","35","","","","NA"
"2018-08-26 16:00","2018","08","26","16:00","26.2","","20.9","","73","","23","","20","","","","100.34","","35","","","","NA"
"2018-08-26 17:00","2018","08","26","17:00","26.2","","20.4","","70","","24","","18","","","","100.36","","34","","","","NA"
"2018-08-26 18:00","2018","08","26","18:00","25.9","","18.8","","65","","26","","10","","","","100.36","","33","","","","NA"
"2018-08-26 19:00","2018","08","26","19:00","24.0","","18.0","","69","","25","","6","","","","100.40","","30","","","","NA"
"2018-08-26 20:00","2018","08","26","20:00","23.2","","17.8","","72","","27","","11","","","","100.47","","29","","","","NA"
"2018-08-26 21:00","2018","08","26","21:00","22.1","","17.4","","75","","30","","8","","","","100.46","","28","","","","NA"
"2018-08-26 22:00","2018","08","26","22:00","19.3","","16.7","","85","","30","","4","","","","100.55","","","","","","NA"
"2018-08-26 23:00","2018","08","26","23:00","20.3","","17.6","","84","","27","","8","","","","100.54","","26","","","","NA"
"2018-08-27 00:00","2018","08","27","00:00","18.9","","17.0","","89","","26","","5","","","","100.57","","","","","","NA"
"2018-08-27 01:00","2018","08","27","01:00","19.4","","16.8","","85","","30","","8","","","","100.55","","","","","","NA"
"2018-08-27 02:00","2018","08","27","02:00","18.8","","16.6","","87","","26","","8","","","","100.56","","","","","","NA"
"2018-08-27 03:00","2018","08","27","03:00","16.8","","16.1","","95","","32","","8","","","","100.56","","","","","","NA"
"2018-08-27 04:00","2018","08","27","04:00","16.2","","15.5","","96","","34","","4","","","","100.56","","","","","","NA"
"2018-08-27 05:00","2018","08","27","05:00","16.9","","16.3","","96","","16","","4","","","","100.57","","","","","","NA"
"2018-08-27 06:00","2018","08","27","06:00","16.5","","16.1","","98","","34","","4","","","","100.59","","","","","","NA"
"2018-08-27 07:00","2018","08","27","07:00","19.2","","18.5","","96","","28","","3","","","","100.65","","","","","","NA"
"2018-08-27 08:00","2018","08","27","08:00","21.5","","18.1","","81","","24","","5","","","","100.71","","28","","","","NA"
"2018-08-27 09:00","2018","08","27","09:00","22.3","","18.6","","80","","16","","9","","","","100.68","","29","","","","NA"
"2018-08-27 10:00","2018","08","27","10:00","22.6","","19.7","","84","","18","","13","","","","100.68","","30","","","","NA"
"2018-08-27 11:00","2018","08","27","11:00","23.2","","20.0","","82","","16","","11","","","","100.68","","31","","","","NA"
"2018-08-27 12:00","2018","08","27","12:00","23.1","","21.6","","91","","15","","14","","","","100.54","","32","","","","NA"
"2018-08-27 13:00","2018","08","27","13:00","23.0","","21.4","","91","","16","","14","","","","100.52","","32","","","","NA"
"2018-08-27 14:00","2018","08","27","14:00","23.3","","21.3","","89","","19","","14","","","","100.54","","32","","","","NA"
"2018-08-27 15:00","2018","08","27","15:00","23.3","","21.8","","91","","15","","11","","","","100.46","","32","","","","NA"
"2018-08-27 16:00","2018","08","27","16:00","23.5","","21.9","","91","","20","","11","","","","100.44","","33","","","","NA"
"2018-08-27 17:00","2018","08","27","17:00","24.0","","22.1","","89","","17","","7","","","","100.37","","33","","","","NA"
"2018-08-27 18:00","2018","08","27","18:00","23.6","","22.1","","92","","17","","7","","","","100.30","","33","","","","NA"
"2018-08-27 19:00","2018","08","27","19:00","23.9","","22.4","","91","","17","","10","","","","100.23","","34","","","","NA"
"2018-08-27 20:00","2018","08","27","20:00","24.1","","22.4","","91","","19","","16","","","","100.23","","34","","","","NA"
"2018-08-27 21:00","2018","08","27","21:00","25.1","","22.5","","86","","20","","20","","","","100.27","","35","","","","NA"
"2018-08-27 22:00","2018","08","27","22:00","24.8","","22.3","","86","","23","","11","","","","100.26","","34","","","","NA"
"2018-08-27 23:00","2018","08","27","23:00","21.2","","19.8","","91","","30","","5","","","","100.34","","29","","","","NA"
"2018-08-28 00:00","2018","08","28","00:00","22.1","","20.8","","92","","17","","9","","","","100.24","","30","","","","NA"
"2018-08-28 01:00","2018","08","28","01:00","22.5","","21.4","","93","","26","","16","","","","100.27","","31","","","","NA"
"2018-08-28 02:00","2018","08","28","02:00","22.6","","21.7","","95","","21","","13","","","","100.19","","32","","","","NA"
"2018-08-28 03:00","2018","08","28","03:00","23.2","","21.8","","92","","20","","12","","","","100.20","","32","","","","NA"
"2018-08-28 04:00","2018","08","28","04:00","23.9","","22.2","","91","","21","","15","","","","100.18","","33","","","","NA"
"2018-08-28 05:00","2018","08","28","05:00","23.4","","22.2","","93","","20","","15","","","","100.18","","33","","","","NA"
"2018-08-28 06:00","2018","08","28","06:00","24.1","","22.3","","90","","21","","17","","","","100.22","","34","","","","NA"
"2018-08-28 07:00","2018","08","28","07:00","24.7","","22.6","","88","","22","","19","","","","100.20","","35","","","","NA"
"2018-08-28 08:00","2018","08","28","08:00","25.0","","22.6","","87","","21","","22","","","","100.19","","35","","","","NA"
"2018-08-28 09:00","2018","08","28","09:00","26.8","","22.9","","79","","22","","24","","","","100.16","","37","","","","NA"
"2018-08-28 10:00","2018","08","28","10:00","26.9","","23.4","","81","","21","","21","","","","100.09","","38","","","","NA"
"2018-08-28 11:00","2018","08","28","11:00","27.5","","22.8","","76","","22","","27","","","","100.03","","38","","","","NA"
"2018-08-28 12:00","2018","08","28","12:00","27.1","","21.9","","73","","24","","30","","","","100.09","","36","","","","NA"
"2018-08-28 13:00","2018","08","28","13:00","28.8","","22.4","","69","","23","","31","","","","100.08","","38","","","","NA"
"2018-08-28 14:00","2018","08","28","14:00","28.9","","22.3","","67","","24","","33","","","","100.10","","39","","","","NA"
"2018-08-28 15:00","2018","08","28","15:00","28.7","","22.4","","69","","24","","29","","","","100.11","","38","","","","NA"
"2018-08-28 16:00","2018","08","28","16:00","28.5","","22.6","","70","","24","","27","","","","100.10","","38","","","","NA"
"2018-08-28 17:00","2018","08","28","17:00","27.9","","22.3","","72","","24","","22","","","","100.12","","38","","","","NA"
"2018-08-28 18:00","2018","08","28","18:00","26.8","","22.3","","77","","24","","16","","","","100.15","","36","","","","NA"
"2018-08-28 19:00","2018","08","28","19:00","25.3","","21.9","","82","","24","","11","","","","100.19","","35","","","","NA"
"2018-08-28 20:00","2018","08","28","20:00","24.3","","21.8","","86","","25","","8","","","","100.28","","33","","","","NA"
"2018-08-28 21:00","2018","08","28","21:00","24.0","","22.2","","89","","25","","8","","","","100.30","","34","","","","NA"
"2018-08-28 22:00","2018","08","28","22:00","23.0","","21.8","","93","","19","","9","","","","100.27","","32","","","","NA"
"2018-08-28 23:00","2018","08","28","23:00","22.8","","21.8","","94","","20","","7","","","","100.20","","32","","","","NA"
"2018-08-29 00:00","2018","08","29","00:00","22.6","","21.9","","96","","19","","7","","","","100.23","","32","","","","NA"
"2018-08-29 01:00","2018","08","29","01:00","23.1","","22.2","","95","","20","","10","","","","100.17","","33","","","","NA"
"2018-08-29 02:00","2018","08","29","02:00","23.3","","22.0","","93","","21","","11","","","","100.18","","33","","","","NA"
"2018-08-29 03:00","2018","08","29","03:00","23.2","","22.1","","93","","20","","12","","","","100.15","","33","","","","NA"
"2018-08-29 04:00","2018","08","29","04:00","23.3","","22.0","","92","","21","","8","","","","100.12","","33","","","","NA"
"2018-08-29 05:00","2018","08","29","05:00","23.7","","21.9","","90","","20","","4","","","","100.04","","33","","","","NA"
"2018-08-29 06:00","2018","08","29","06:00","23.7","","22.2","","91","","19","","18","","","","100.02","","33","","","","NA"
"2018-08-29 07:00","2018","08","29","07:00","24.9","","22.3","","85","","22","","16","","","","100.04","","35","","","","NA"
"2018-08-29 08:00","2018","08","29","08:00","26.0","","22.2","","79","","21","","21","","","","100.00","","36","","","","NA"
"2018-08-29 09:00","2018","08","29","09:00","25.9","","22.9","","84","","19","","22","","","","99.98","","36","","","","NA"
"2018-08-29 10:00","2018","08","29","10:00","27.4","","22.5","","75","","22","","24","","","","100.00","","37","","","","NA"
"2018-08-29 11:00","2018","08","29","11:00","27.8","","23.5","","78","","19","","21","","","","99.97","","39","","","","NA"
"2018-08-29 12:00","2018","08","29","12:00","27.6","","22.3","","73","","25","","30","","","","99.94","","37","","","","NA"
"2018-08-29 13:00","2018","08","29","13:00","28.3","","21.7","","68","","25","","22","","","","99.92","","37","","","","NA"
"2018-08-29 14:00","2018","08","29","14:00","27.6","","21.5","","70","","27","","22","","","","99.93","","36","","","","NA"
"2018-08-29 15:00","2018","08","29","15:00","28.1","","20.8","","65","","27","","25","","","","99.91","","36","","","","NA"
"2018-08-29 16:00","2018","08","29","16:00","26.8","","20.4","","68","","29","","22","","","","99.91","","35","","","","NA"
"2018-08-29 17:00","2018","08","29","17:00","26.7","","20.2","","67","","28","","13","","","","99.92","","34","","","","NA"
"2018-08-29 18:00","2018","08","29","18:00","25.8","","20.4","","72","","26","","10","","","","99.96","","34","","","","NA"
"2018-08-29 19:00","2018","08","29","19:00","24.7","","20.9","","79","","25","","8","","","","100.01","","33","","","","NA"
"2018-08-29 20:00","2018","08","29","20:00","24.3","","21.5","","85","","24","","7","","","","100.09","","33","","","","NA"
"2018-08-29 21:00","2018","08","29","21:00","24.0","","21.4","","86","","24","","6","","","","100.12","","33","","","","NA"
"2018-08-29 22:00","2018","08","29","22:00","23.8","","21.0","","85","","29","","9","","","","100.21","","32","","","","NA"
"2018-08-29 23:00","2018","08","29","23:00","23.0","","19.2","","79","","32","","13","","","","100.25","","30","","","","NA"
"2018-08-30 00:00","2018","08","30","00:00","22.0","","18.4","","81","","32","","14","","","","100.29","","28","","","","NA"
"2018-08-30 01:00","2018","08","30","01:00","21.1","","18.5","","85","","31","","10","","","","100.39","","27","","","","NA"
"2018-08-30 02:00","2018","08","30","02:00","20.4","","18.0","","86","","2","","15","","","","100.41","","26","","","","NA"
"2018-08-30 03:00","2018","08","30","03:00","19.2","","16.5","","84","","1","","18","","","","100.55","","","","","","NA"
"2018-08-30 04:00","2018","08","30","04:00","17.3","","14.6","","84","","36","","25","","","","100.62","","","","","","NA"
"2018-08-30 05:00","2018","08","30","05:00","15.9","","12.3","","79","","2","","21","","","","100.74","","","","","","NA"
"2018-08-30 06:00","2018","08","30","06:00","15.3","","12.1","","81","","2","","21","","","","100.83","","","","","","NA"
"2018-08-30 07:00","2018","08","30","07:00","14.7","","11.2","","80","","2","","19","","","","100.91","","","","","","NA"
"2018-08-30 08:00","2018","08","30","08:00","15.6","","10.5","","72","","3","","20","","","","100.99","","","","","","NA"
"2018-08-30 09:00","2018","08","30","09:00","16.2","","11.1","","72","","3","","22","","","","101.07","","","","","","NA"
"2018-08-30 10:00","2018","08","30","10:00","16.7","","12.0","","74","","1","","21","","","","101.13","","","","","","NA"
"2018-08-30 11:00","2018","08","30","11:00","16.7","","12.0","","74","","2","","19","","","","101.16","","","","","","NA"
"2018-08-30 12:00","2018","08","30","12:00","18.1","","11.7","","66","","3","","16","","","","101.16","","","","","","NA"
"2018-08-30 13:00","2018","08","30","13:00","19.3","","12.8","","66","","4","","17","","","","101.16","","","","","","NA"
"2018-08-30 14:00","2018","08","30","14:00","19.2","","11.6","","62","","4","","15","","","","101.13","","","","","","NA"
"2018-08-30 15:00","2018","08","30","15:00","19.8","","11.2","","58","","4","","12","","","","101.13","","","","","","NA"
"2018-08-30 16:00","2018","08","30","16:00","20.1","","11.9","","59","","5","","14","","","","101.09","","","","","","NA"
"2018-08-30 17:00","2018","08","30","17:00","19.5","","11.6","","60","","6","","12","","","","101.10","","","","","","NA"
"2018-08-30 18:00","2018","08","30","18:00","19.4","","11.9","","62","","3","","6","","","","101.12","","","","","","NA"
"2018-08-30 19:00","2018","08","30","19:00","17.8","","11.6","","67","","3","","8","","","","101.15","","","","","","NA"
"2018-08-30 20:00","2018","08","30","20:00","16.5","","12.0","","75","","4","","6","","","","101.22","","","","","","NA"
"2018-08-30 21:00","2018","08","30","21:00","15.0","","11.3","","79","","2","","6","","","","101.25","","","","","","NA"
"2018-08-30 22:00","2018","08","30","22:00","13.2","","11.9","","92","","36","","7","","","","101.25","","","","","","NA"
"2018-08-30 23:00","2018","08","30","23:00","12.3","","11.1","","93","","36","","7","","","","101.25","","","","","","NA"
"2018-08-31 00:00","2018","08","31","00:00","13.4","","10.2","","81","","3","","10","","","","101.25","","","","","","NA"
"2018-08-31 01:00","2018","08","31","01:00","11.6","","10.0","","90","","2","","9","","","","101.26","","","","","","NA"
"2018-08-31 02:00","2018","08","31","02:00","12.7","","10.6","","87","","2","","11","","","","101.26","","","","","","NA"
"2018-08-31 03:00","2018","08","31","03:00","12.7","","10.9","","89","","2","","13","","","","101.23","","","","","","NA"
"2018-08-31 04:00","2018","08","31","04:00","12.5","","10.9","","90","","3","","11","","","","101.27","","","","","","NA"
"2018-08-31 05:00","2018","08","31","05:00","12.2","","10.8","","91","","5","","11","","","","101.30","","","","","","NA"
"2018-08-31 06:00","2018","08","31","06:00","12.6","","11.0","","90","","4","","16","","","","101.29","","","","","","NA"
"2018-08-31 07:00","2018","08","31","07:00","13.6","","11.7","","89","","4","","15","","","","101.33","","","","","","NA"
"2018-08-31 08:00","2018","08","31","08:00","16.3","","14.0","","86","","5","","11","","","","101.35","","","","","","NA"
"2018-08-31 09:00","2018","08","31","09:00","18.1","","14.2","","78","","8","","12","","","","101.33","","","","","","NA"
"2018-08-31 10:00","2018","08","31","10:00","19.6","","14.6","","73","","11","","15","","","","101.31","","","","","","NA"
"2018-08-31 11:00","2018","08","31","11:00","20.3","","14.3","","68","","14","","11","","","","101.24","","","","","","NA"
"2018-08-31 12:00","2018","08","31","12:00","21.3","","15.1","","68","","11","","9","","","","101.21","","25","","","","NA"
"2018-08-31 13:00","2018","08","31","13:00","22.6","","15.7","","65","","14","","10","","","","101.23","","27","","","","NA"
"2018-08-31 14:00","2018","08","31","14:00","23.1","","14.1","","57","","29","","4","","","","101.23","","27","","","","NA"
"2018-08-31 15:00","2018","08","31","15:00","22.2","","13.5","","58","","19","","4","","","","101.23","","25","","","","NA"
"2018-08-31 16:00","2018","08","31","16:00","22.4","","15.1","","64","","26","","3","","","","101.17","","26","","","","NA"
"2018-08-31 17:00","2018","08","31","17:00","22.2","","15.3","","65","","11","","9","","","","101.12","","26","","","","NA"
"2018-08-31 18:00","2018","08","31","18:00","21.9","","16.5","","71","","11","","9","","","","101.10","","27","","","","NA"
"2018-08-31 19:00","2018","08","31","19:00","20.8","","16.7","","77","","11","","9","","","","101.09","","26","","","","NA"
"2018-08-31 20:00","2018","08","31","20:00","20.9","","17.6","","81","","12","","8","","","","101.13","","27","","","","NA"
"2018-08-31 21:00","2018","08","31","21:00","21.7","","18.6","","83","","16","","16","","","","101.15","","28","","","","NA"
"2018-08-31 22:00","2018","08","31","22:00","21.5","","18.7","","84","","16","","22","","","","101.11","","28","","","","NA"
"2018-08-31 23:00","2018","08","31","23:00","21.6","","19.0","","85","","16","","26","","","","101.08","","28","","","","NA"
