"Station Name","KINGSTON CLIMATE"
"Province","ONTARIO"
"Current Station Operator","Environment and Climate Change Canada - Meteorological Service of Canada"
"Latitude","44.22"
"Longitude","-76.60"
"Elevation","93.00"
"Climate Identifier","6104142"
"WMO Identifier","71820"
"TC Identifier","TKG"
"All times are specified in Local Standard Time (LST). Add 1 hour to adjust for Daylight Saving Time where and when it is observed."

"Legend"
"E","Estimated"
"M","Missing"
"NA","Not Available"

"Date/Time","Year","Month","Day","Time","Temp (°C)","Temp Flag","Dew Point Temp (°C)","Dew Point Temp Flag","Rel Hum (%)","Rel Hum Flag","Wind Dir (10s deg)","Wind Dir Flag","Wind Spd (km/h)","Wind Spd Flag","Visibility (km)","Visibility Flag","Stn Press (kPa)","Stn Press Flag","Hmdx","Hmdx Flag","Wind Chill","Wind Chill Flag","Weather"
"2019-03-01 00:00","2019","03","01","00:00","-12.8","","-15.1","","83","","10","","2","","","","101.42","","","","-14","","NA"
"2019-03-01 01:00","2019","03","01","01:00","-13.8","","-16.0","","84","","4","","5","","","","101.40","","","","-17","","NA"
"2019-03-01 02:00","2019","03","01","02:00","-14.0","","-16.3","","83","","5","","3","","","","101.42","","","","-16","","NA"
"2019-03-01 03:00","2019","03","01","03:00","-14.0","","-16.3","","83","","5","","3","","","","101.41","","","","-16","","NA"
"2019-03-01 04:00","2019","03","01","04:00","-15.3","","-17.2","","85","","4","","5","","","","101.41","","","","-19","","NA"
"2019-03-01 05:00","2019","03","01","05:00","-16.0","","-18.2","","84","","2","","5","","","","101.41","","","","-20","","NA"
"2019-03-01 06:00","2019","03","01","06:00","-16.8","","-18.9","","84","","4","","6","","","","101.45","","","","-21","","NA"
"2019-03-01 07:00","2019","03","01","07:00","-17.3","","-19.7","","82","","3","","7","","","","101.44","","","","-23","","NA"
"2019-03-01 08:00","2019","03","01","08:00","-13.3","","-16.5","","77","","6","","7","","","","101.50","","","","-18","","NA"
"2019-03-01 09:00","2019","03","01","09:00","-9.2","","-14.9","","64","","7","","7","","","","101.52","","","","-13","","NA"
"2019-03-01 10:00","2019","03","01","10:00","-6.5","","-14.1","","55","","10","","6","","","","101.47","","","","-9","","NA"
"2019-03-01 11:00","2019","03","01","11:00","-5.6","","-14.0","","52","","8","","6","","","","101.44","","","","-8","","NA"
"2019-03-01 12:00","2019","03","01","12:00","-3.4","","-11.5","","54","","17","","2","","","","101.43","","","","-4","","NA"
"2019-03-01 13:00","2019","03","01","13:00","-4.5","","-12.1","","55","","16","","9","","","","101.40","","","","-8","","NA"
"2019-03-01 14:00","2019","03","01","14:00","-3.9","","-9.9","","63","","17","","7","","","","101.34","","","","-7","","NA"
"2019-03-01 15:00","2019","03","01","15:00","-3.6","","-8.7","","68","","16","","6","","","","101.30","","","","-6","","NA"
"2019-03-01 16:00","2019","03","01","16:00","-3.2","","-8.4","","67","","20","","3","","","","101.26","","","","-4","","NA"
"2019-03-01 17:00","2019","03","01","17:00","-3.7","","-8.9","","67","","","","0","","","","101.21","","","","","","NA"
"2019-03-01 18:00","2019","03","01","18:00","-5.0","","-8.8","","75","","","","0","","","","101.20","","","","","","NA"
"2019-03-01 19:00","2019","03","01","19:00","-5.5","","-8.8","","78","","34","","9","","","","101.25","","","","-10","","NA"
"2019-03-01 20:00","2019","03","01","20:00","-5.9","","-9.5","","76","","3","","5","","","","101.22","","","","-8","","NA"
"2019-03-01 21:00","2019","03","01","21:00","-6.5","","-9.1","","82","","3","","5","","","","101.19","","","","-9","","NA"
"2019-03-01 22:00","2019","03","01","22:00","-6.3","","-9.5","","78","","4","","8","","","","101.21","","","","-10","","NA"
"2019-03-01 23:00","2019","03","01","23:00","-7.9","","-10.6","","81","","2","","5","","","","101.17","","","","-11","","NA"
"2019-03-02 00:00","2019","03","02","00:00","-7.1","","-9.7","","82","","5","","4","","","","101.10","","","","-9","","NA"
"2019-03-02 01:00","2019","03","02","01:00","-9.1","","-11.2","","84","","35","","9","","","","101.09","","","","-14","","NA"
"2019-03-02 02:00","2019","03","02","02:00","-7.8","","-10.0","","84","","2","","8","","","","101.02","","","","-12","","NA"
"2019-03-02 03:00","2019","03","02","03:00","-6.0","","-10.4","","71","","3","","8","","","","100.93","","","","-10","","NA"
"2019-03-02 04:00","2019","03","02","04:00","-6.4","","-11.2","","69","","3","","11","","","","100.89","","","","-11","","NA"
"2019-03-02 05:00","2019","03","02","05:00","-7.0","","-11.5","","70","","3","","9","","","","100.87","","","","-11","","NA"
"2019-03-02 06:00","2019","03","02","06:00","-8.5","","-12.4","","73","","1","","12","","","","100.85","","","","-14","","NA"
"2019-03-02 07:00","2019","03","02","07:00","-7.4","","-11.7","","72","","3","","12","","","","100.82","","","","-13","","NA"
"2019-03-02 08:00","2019","03","02","08:00","-6.4","","-11.7","","66","","4","","18","","","","100.79","","","","-13","","NA"
"2019-03-02 09:00","2019","03","02","09:00","-4.8","","-10.9","","62","","3","","17","","","","100.76","","","","-11","","NA"
"2019-03-02 10:00","2019","03","02","10:00","-3.3","","-9.9","","60","","4","","12","","","","100.75","","","","-8","","NA"
"2019-03-02 11:00","2019","03","02","11:00","-2.0","","-8.9","","59","","3","","9","","","","100.68","","","","-5","","NA"
"2019-03-02 12:00","2019","03","02","12:00","-0.8","","-8.8","","55","","1","","6","","","","100.68","","","","-3","","NA"
"2019-03-02 13:00","2019","03","02","13:00","-0.7","","-9.3","","52","","34","","13","","","","100.64","","","","-5","","NA"
"2019-03-02 14:00","2019","03","02","14:00","-1.6","","-6.5","","69","","36","","10","","","","100.56","","","","-5","","NA"
"2019-03-02 15:00","2019","03","02","15:00","-2.0","","-4.4","","84","","34","","8","","","","100.60","","","","-5","","NA"
"2019-03-02 16:00","2019","03","02","16:00","-2.3","","-3.7","","91","","34","","7","","","","100.58","","","","-5","","NA"
"2019-03-02 17:00","2019","03","02","17:00","-2.4","","-3.8","","90","","1","","8","","","","100.59","","","","-6","","NA"
"2019-03-02 18:00","2019","03","02","18:00","-2.8","","-3.7","","93","","35","","5","","","","100.66","","","","-5","","NA"
"2019-03-02 19:00","2019","03","02","19:00","-3.0","","-4.0","","93","","2","","4","","","","100.72","","","","-5","","NA"
"2019-03-02 20:00","2019","03","02","20:00","-3.4","","-4.2","","94","","8","","3","","","","100.72","","","","-5","","NA"
"2019-03-02 21:00","2019","03","02","21:00","-4.1","","-5.0","","94","","14","","5","","","","100.75","","","","-6","","NA"
"2019-03-02 22:00","2019","03","02","22:00","-4.0","","-4.8","","95","","10","","2","","","","100.75","","","","-5","","NA"
"2019-03-02 23:00","2019","03","02","23:00","-4.0","","-4.9","","94","","19","","6","","","","100.75","","","","-7","","NA"
"2019-03-03 00:00","2019","03","03","00:00","-4.2","","-4.9","","94","","15","","5","","","","100.72","","","","-6","","NA"
"2019-03-03 01:00","2019","03","03","01:00","-4.2","","-5.1","","94","","29","","8","","","","100.72","","","","-8","","NA"
"2019-03-03 02:00","2019","03","03","02:00","-5.3","","-6.9","","89","","30","","14","","","","100.78","","","","-11","","NA"
"2019-03-03 03:00","2019","03","03","03:00","-7.5","","-8.7","","91","","25","","13","","","","100.78","","","","-13","","NA"
"2019-03-03 04:00","2019","03","03","04:00","-8.7","","-9.7","","92","","26","","13","","","","100.84","","","","-15","","NA"
"2019-03-03 05:00","2019","03","03","05:00","-8.6","","-9.8","","91","","31","","7","","","","100.86","","","","-12","","NA"
"2019-03-03 06:00","2019","03","03","06:00","-9.9","","-10.9","","92","","26","","12","","","","100.92","","","","-16","","NA"
"2019-03-03 07:00","2019","03","03","07:00","-8.2","","-9.5","","91","","27","","12","","","","100.98","","","","-14","","NA"
"2019-03-03 08:00","2019","03","03","08:00","-7.7","","-9.4","","88","","1","","3","","","","101.01","","","","-9","","NA"
"2019-03-03 09:00","2019","03","03","09:00","-5.1","","-8.9","","74","","35","","5","","","","100.99","","","","-7","","NA"
"2019-03-03 10:00","2019","03","03","10:00","-7.2","","-9.6","","83","","20","","13","","","","100.98","","","","-13","","NA"
"2019-03-03 11:00","2019","03","03","11:00","-5.6","","-8.4","","81","","18","","8","","","","100.89","","","","-9","","NA"
"2019-03-03 12:00","2019","03","03","12:00","-5.8","","-8.1","","84","","17","","14","","","","100.85","","","","-11","","NA"
"2019-03-03 13:00","2019","03","03","13:00","-5.0","","-8.0","","79","","17","","14","","","","100.72","","","","-10","","NA"
"2019-03-03 14:00","2019","03","03","14:00","-5.0","","-7.6","","82","","15","","11","","","","100.60","","","","-10","","NA"
"2019-03-03 15:00","2019","03","03","15:00","-4.3","","-6.9","","82","","14","","10","","","","100.57","","","","-8","","NA"
"2019-03-03 16:00","2019","03","03","16:00","-4.3","","-6.2","","87","","16","","13","","","","100.48","","","","-9","","NA"
"2019-03-03 17:00","2019","03","03","17:00","-4.3","","-6.4","","85","","18","","12","","","","100.47","","","","-9","","NA"
"2019-03-03 18:00","2019","03","03","18:00","-4.0","","-8.7","","70","","23","","8","","","","100.47","","","","-7","","NA"
"2019-03-03 19:00","2019","03","03","19:00","-4.5","","-8.1","","76","","23","","5","","","","100.42","","","","-7","","NA"
"2019-03-03 20:00","2019","03","03","20:00","-4.2","","-8.0","","75","","25","","7","","","","100.37","","","","-7","","NA"
"2019-03-03 21:00","2019","03","03","21:00","-4.6","","-7.0","","84","","26","","4","","","","100.34","","","","-6","","NA"
"2019-03-03 22:00","2019","03","03","22:00","-5.0","","-6.3","","91","","22","","4","","","","100.34","","","","-7","","NA"
"2019-03-03 23:00","2019","03","03","23:00","-5.2","","-6.1","","93","","24","","3","","","","100.28","","","","-7","","NA"
"2019-03-04 00:00","2019","03","04","00:00","-5.7","","-6.4","","95","","27","","3","","","","100.24","","","","-7","","NA"
"2019-03-04 01:00","2019","03","04","01:00","-5.8","","-6.6","","94","","19","","3","","","","100.23","","","","-7","","NA"
"2019-03-04 02:00","2019","03","04","02:00","-6.0","","-6.8","","94","","20","","5","","","","100.18","","","","-8","","NA"
"2019-03-04 03:00","2019","03","04","03:00","-7.1","","-8.0","","93","","24","","2","","","","100.11","","","","-8","","NA"
"2019-03-04 04:00","2019","03","04","04:00","-6.4","","-7.2","","94","","26","","6","","","","100.07","","","","-9","","NA"
"2019-03-04 05:00","2019","03","04","05:00","-6.5","","-7.6","","92","","29","","7","","","","100.09","","","","-10","","NA"
"2019-03-04 06:00","2019","03","04","06:00","-6.6","","-8.5","","86","","33","","16","","","","100.13","","","","-13","","NA"
"2019-03-04 07:00","2019","03","04","07:00","-7.3","","-10.7","","77","","34","","21","","","","100.16","","","","-15","","NA"
"2019-03-04 08:00","2019","03","04","08:00","-8.4","","-12.6","","72","","32","","18","","","","100.20","","","","-15","","NA"
"2019-03-04 09:00","2019","03","04","09:00","-9.0","","-14.5","","64","","32","","18","","","","100.22","","","","-16","","NA"
"2019-03-04 10:00","2019","03","04","10:00","-7.8","","-18.4","","43","","29","","19","","","","100.21","","","","-15","","NA"
"2019-03-04 11:00","2019","03","04","11:00","-7.1","","-19.3","","37","","27","","21","","","","100.19","","","","-14","","NA"
"2019-03-04 12:00","2019","03","04","12:00","-7.0","","-19.0","","38","","27","","25","","","","100.17","","","","-15","","NA"
"2019-03-04 13:00","2019","03","04","13:00","-6.6","","-18.0","","40","","25","","25","","","","100.12","","","","-14","","NA"
"2019-03-04 14:00","2019","03","04","14:00","-6.6","","-17.3","","42","","27","","25","","","","100.09","","","","-14","","NA"
"2019-03-04 15:00","2019","03","04","15:00","-6.6","","-17.3","","42","","27","","26","","","","100.11","","","","-15","","NA"
"2019-03-04 16:00","2019","03","04","16:00","-7.1","","-17.8","","42","","26","","25","","","","100.14","","","","-15","","NA"
"2019-03-04 17:00","2019","03","04","17:00","-7.6","","-17.9","","44","","28","","22","","","","100.15","","","","-15","","NA"
"2019-03-04 18:00","2019","03","04","18:00","-8.4","","-18.2","","45","","27","","16","","","","100.17","","","","-15","","NA"
"2019-03-04 19:00","2019","03","04","19:00","-9.1","","-18.5","","47","","27","","14","","","","100.26","","","","-15","","NA"
"2019-03-04 20:00","2019","03","04","20:00","-9.6","","-18.3","","49","","27","","15","","","","100.30","","","","-16","","NA"
"2019-03-04 21:00","2019","03","04","21:00","-10.5","","-17.8","","55","","26","","13","","","","100.37","","","","-17","","NA"
"2019-03-04 22:00","2019","03","04","22:00","-10.8","","-17.1","","60","","27","","16","","","","100.43","","","","-18","","NA"
"2019-03-04 23:00","2019","03","04","23:00","-12.0","","-17.7","","63","","31","","11","","","","100.38","","","","-18","","NA"
"2019-03-05 00:00","2019","03","05","00:00","-12.6","","-18.4","","62","","29","","8","","","","100.41","","","","-18","","NA"
"2019-03-05 01:00","2019","03","05","01:00","-13.5","","-19.0","","63","","27","","8","","","","100.41","","","","-19","","NA"
"2019-03-05 02:00","2019","03","05","02:00","-13.5","","-19.4","","61","","26","","8","","","","100.43","","","","-19","","NA"
"2019-03-05 03:00","2019","03","05","03:00","-13.7","","-19.1","","64","","27","","12","","","","100.41","","","","-20","","NA"
"2019-03-05 04:00","2019","03","05","04:00","-13.7","","-19.4","","62","","29","","16","","","","100.37","","","","-22","","NA"
"2019-03-05 05:00","2019","03","05","05:00","-14.2","","-19.6","","64","","28","","12","","","","100.38","","","","-21","","NA"
"2019-03-05 06:00","2019","03","05","06:00","-14.2","","-19.5","","64","","29","","13","","","","100.38","","","","-21","","NA"
"2019-03-05 07:00","2019","03","05","07:00","-13.6","","-18.9","","64","","20","","8","","","","100.42","","","","-19","","NA"
"2019-03-05 08:00","2019","03","05","08:00","-13.5","","-19.7","","60","","23","","8","","","","100.40","","","","-19","","NA"
"2019-03-05 09:00","2019","03","05","09:00","-12.8","","-19.4","","57","","23","","9","","","","100.40","","","","-18","","NA"
"2019-03-05 10:00","2019","03","05","10:00","-12.3","","-18.7","","59","","20","","12","","","","100.37","","","","-19","","NA"
"2019-03-05 11:00","2019","03","05","11:00","-11.1","","-15.6","","69","","21","","14","","","","100.31","","","","-18","","NA"
"2019-03-05 12:00","2019","03","05","12:00","-11.2","","-13.8","","81","","18","","11","","","","100.29","","","","-17","","NA"
"2019-03-05 13:00","2019","03","05","13:00","-10.5","","-12.8","","83","","15","","12","","","","100.19","","","","-17","","NA"
"2019-03-05 14:00","2019","03","05","14:00","-8.0","","-13.2","","66","","22","","30","","","","100.11","","","","-17","","NA"
"2019-03-05 15:00","2019","03","05","15:00","-8.3","","-12.2","","74","","23","","36","","","","100.12","","","","-18","","NA"
"2019-03-05 16:00","2019","03","05","16:00","-8.3","","-12.1","","74","","22","","34","","","","100.12","","","","-18","","NA"
"2019-03-05 17:00","2019","03","05","17:00","-8.7","","-11.4","","81","","22","","37","","","","100.12","","","","-19","","NA"
"2019-03-05 18:00","2019","03","05","18:00","-9.7","","-11.4","","87","","25","","13","","","","100.19","","","","-16","","NA"
"2019-03-05 19:00","2019","03","05","19:00","-10.9","","-13.1","","83","","24","","9","","","","100.26","","","","-16","","NA"
"2019-03-05 20:00","2019","03","05","20:00","-11.6","","-15.4","","74","","25","","10","","","","100.32","","","","-17","","NA"
"2019-03-05 21:00","2019","03","05","21:00","-12.9","","-16.3","","75","","25","","11","","","","100.36","","","","-19","","NA"
"2019-03-05 22:00","2019","03","05","22:00","-13.1","","-16.7","","74","","26","","13","","","","100.40","","","","-20","","NA"
"2019-03-05 23:00","2019","03","05","23:00","-12.9","","-17.2","","70","","27","","16","","","","100.43","","","","-21","","NA"
"2019-03-06 00:00","2019","03","06","00:00","-13.0","","-16.9","","72","","28","","18","","","","100.43","","","","-21","","NA"
"2019-03-06 01:00","2019","03","06","01:00","-13.5","","-16.9","","75","","27","","12","","","","100.46","","","","-20","","NA"
"2019-03-06 02:00","2019","03","06","02:00","-15.4","","-17.9","","81","","25","","7","","","","100.47","","","","-20","","NA"
"2019-03-06 03:00","2019","03","06","03:00","-15.8","","-17.8","","85","","27","","7","","","","100.46","","","","-21","","NA"
"2019-03-06 04:00","2019","03","06","04:00","-15.6","","-18.0","","82","","29","","8","","","","100.48","","","","-21","","NA"
"2019-03-06 05:00","2019","03","06","05:00","-17.2","","-19.0","","85","","25","","6","","","","100.52","","","","-22","","NA"
"2019-03-06 06:00","2019","03","06","06:00","-17.1","","-18.9","","86","","29","","6","","","","100.55","","","","-22","","NA"
"2019-03-06 07:00","2019","03","06","07:00","-17.5","","-19.6","","83","","30","","7","","","","100.59","","","","-23","","NA"
"2019-03-06 08:00","2019","03","06","08:00","-15.1","","-18.4","","75","","30","","15","","","","100.66","","","","-23","","NA"
"2019-03-06 09:00","2019","03","06","09:00","-13.5","","-18.1","","68","","28","","9","","","","100.73","","","","-19","","NA"
"2019-03-06 10:00","2019","03","06","10:00","-12.5","","-17.4","","66","","24","","18","","","","100.76","","","","-21","","NA"
"2019-03-06 11:00","2019","03","06","11:00","-9.8","","-19.6","","45","","28","","22","","","","100.78","","","","-18","","NA"
"2019-03-06 12:00","2019","03","06","12:00","-9.7","","-20.1","","42","","29","","25","","","","100.82","","","","-18","","NA"
"2019-03-06 13:00","2019","03","06","13:00","-9.2","","-19.7","","42","","29","","22","","","","100.80","","","","-17","","NA"
"2019-03-06 14:00","2019","03","06","14:00","-9.0","","-18.4","","46","","25","","22","","","","100.78","","","","-17","","NA"
"2019-03-06 15:00","2019","03","06","15:00","-9.0","","-17.6","","50","","27","","21","","","","100.82","","","","-17","","NA"
"2019-03-06 16:00","2019","03","06","16:00","-8.5","","-20.7","","37","","26","","27","","","","100.83","","","","-17","","NA"
"2019-03-06 17:00","2019","03","06","17:00","-8.9","","-20.4","","39","","26","","21","","","","100.88","","","","-17","","NA"
"2019-03-06 18:00","2019","03","06","18:00","-9.8","","-20.2","","43","","27","","21","","","","100.91","","","","-18","","NA"
"2019-03-06 19:00","2019","03","06","19:00","-10.4","","-19.5","","47","","27","","14","","","","100.96","","","","-17","","NA"
"2019-03-06 20:00","2019","03","06","20:00","-11.7","","-19.7","","52","","26","","11","","","","100.99","","","","-18","","NA"
"2019-03-06 21:00","2019","03","06","21:00","-11.7","","-19.3","","53","","27","","15","","","","101.02","","","","-19","","NA"
"2019-03-06 22:00","2019","03","06","22:00","-12.9","","-19.4","","58","","28","","12","","","","101.07","","","","-19","","NA"
"2019-03-06 23:00","2019","03","06","23:00","-13.0","","-18.4","","64","","27","","16","","","","101.08","","","","-21","","NA"
"2019-03-07 00:00","2019","03","07","00:00","-12.9","","-17.4","","69","","28","","14","","","","101.06","","","","-20","","NA"
"2019-03-07 01:00","2019","03","07","01:00","-13.3","","-17.0","","73","","26","","8","","","","101.05","","","","-18","","NA"
"2019-03-07 02:00","2019","03","07","02:00","-14.4","","-17.1","","80","","24","","8","","","","101.02","","","","-20","","NA"
"2019-03-07 03:00","2019","03","07","03:00","-14.7","","-17.5","","79","","29","","4","","","","101.00","","","","-18","","NA"
"2019-03-07 04:00","2019","03","07","04:00","-14.8","","-17.4","","81","","2","","6","","","","100.97","","","","-19","","NA"
"2019-03-07 05:00","2019","03","07","05:00","-14.3","","-16.9","","80","","36","","6","","","","100.97","","","","-18","","NA"
"2019-03-07 06:00","2019","03","07","06:00","-14.2","","-16.4","","84","","34","","4","","","","101.02","","","","-17","","NA"
"2019-03-07 07:00","2019","03","07","07:00","-12.9","","-14.9","","85","","19","","6","","","","101.07","","","","-17","","NA"
"2019-03-07 08:00","2019","03","07","08:00","-12.7","","-15.1","","82","","31","","2","","","","101.15","","","","-14","","NA"
"2019-03-07 09:00","2019","03","07","09:00","-11.5","","-15.6","","72","","1","","2","","","","101.19","","","","-13","","NA"
"2019-03-07 10:00","2019","03","07","10:00","-11.2","","-15.2","","72","","18","","5","","","","101.19","","","","-14","","NA"
"2019-03-07 11:00","2019","03","07","11:00","-10.8","","-14.9","","72","","18","","11","","","","101.22","","","","-17","","NA"
"2019-03-07 12:00","2019","03","07","12:00","-9.5","","-14.6","","67","","22","","22","","","","101.24","","","","-18","","NA"
"2019-03-07 13:00","2019","03","07","13:00","-8.2","","-18.5","","43","","28","","19","","","","101.24","","","","-15","","NA"
"2019-03-07 14:00","2019","03","07","14:00","-7.4","","-17.9","","43","","24","","24","","","","101.24","","","","-15","","NA"
"2019-03-07 15:00","2019","03","07","15:00","-6.9","","-17.9","","41","","26","","29","","","","101.28","","","","-15","","NA"
"2019-03-07 16:00","2019","03","07","16:00","-6.5","","-17.8","","40","","26","","28","","","","101.29","","","","-15","","NA"
"2019-03-07 17:00","2019","03","07","17:00","-6.7","","-17.5","","42","","26","","25","","","","101.29","","","","-15","","NA"
"2019-03-07 18:00","2019","03","07","18:00","-7.4","","-17.2","","45","","26","","15","","","","101.32","","","","-14","","NA"
"2019-03-07 19:00","2019","03","07","19:00","-9.2","","-16.8","","54","","26","","7","","","","101.35","","","","-13","","NA"
"2019-03-07 20:00","2019","03","07","20:00","-10.6","","-17.2","","58","","24","","8","","","","101.35","","","","-15","","NA"
"2019-03-07 21:00","2019","03","07","21:00","-9.7","","-16.0","","60","","26","","10","","","","101.38","","","","-15","","NA"
"2019-03-07 22:00","2019","03","07","22:00","-10.1","","-15.8","","63","","27","","15","","","","101.43","","","","-17","","NA"
"2019-03-07 23:00","2019","03","07","23:00","-10.5","","-16.3","","62","","27","","22","","","","101.48","","","","-19","","NA"
"2019-03-08 00:00","2019","03","08","00:00","-10.7","","-15.9","","66","","27","","16","","","","101.48","","","","-18","","NA"
"2019-03-08 01:00","2019","03","08","01:00","-11.7","","-16.2","","69","","24","","9","","","","101.53","","","","-17","","NA"
"2019-03-08 02:00","2019","03","08","02:00","-12.7","","-16.4","","74","","22","","11","","","","101.55","","","","-19","","NA"
"2019-03-08 03:00","2019","03","08","03:00","-12.8","","-16.4","","74","","23","","11","","","","101.53","","","","-19","","NA"
"2019-03-08 04:00","2019","03","08","04:00","-12.2","","-15.9","","74","","23","","12","","","","101.53","","","","-19","","NA"
"2019-03-08 05:00","2019","03","08","05:00","-12.2","","-15.8","","74","","23","","11","","","","101.57","","","","-18","","NA"
"2019-03-08 06:00","2019","03","08","06:00","-12.0","","-15.5","","75","","23","","11","","","","101.55","","","","-18","","NA"
"2019-03-08 07:00","2019","03","08","07:00","-10.9","","-15.0","","72","","26","","10","","","","101.54","","","","-16","","NA"
"2019-03-08 08:00","2019","03","08","08:00","-9.8","","-15.3","","64","","26","","9","","","","101.53","","","","-15","","NA"
"2019-03-08 09:00","2019","03","08","09:00","-8.9","","-14.6","","64","","23","","8","","","","101.57","","","","-13","","NA"
"2019-03-08 10:00","2019","03","08","10:00","-7.4","","-13.7","","61","","23","","13","","","","101.55","","","","-13","","NA"
"2019-03-08 11:00","2019","03","08","11:00","-6.1","","-10.4","","71","","23","","12","","","","101.50","","","","-11","","NA"
"2019-03-08 12:00","2019","03","08","12:00","-4.8","","-8.3","","77","","21","","27","","","","101.45","","","","-12","","NA"
"2019-03-08 13:00","2019","03","08","13:00","-4.5","","-8.5","","74","","20","","24","","","","101.33","","","","-12","","NA"
"2019-03-08 14:00","2019","03","08","14:00","-4.1","","-8.4","","72","","20","","21","","","","101.22","","","","-11","","NA"
"2019-03-08 15:00","2019","03","08","15:00","-4.0","","-8.8","","69","","21","","20","","","","101.16","","","","-10","","NA"
"2019-03-08 16:00","2019","03","08","16:00","-4.2","","-9.2","","68","","20","","20","","","","101.11","","","","-11","","NA"
"2019-03-08 17:00","2019","03","08","17:00","-4.6","","-9.6","","68","","20","","21","","","","101.05","","","","-11","","NA"
"2019-03-08 18:00","2019","03","08","18:00","-5.6","","-11.6","","63","","21","","16","","","","101.03","","","","-12","","NA"
"2019-03-08 19:00","2019","03","08","19:00","-6.8","","-12.1","","66","","23","","11","","","","101.05","","","","-12","","NA"
"2019-03-08 20:00","2019","03","08","20:00","-7.9","","-12.2","","71","","22","","11","","","","101.04","","","","-13","","NA"
"2019-03-08 21:00","2019","03","08","21:00","-7.8","","-12.0","","71","","23","","10","","","","101.04","","","","-13","","NA"
"2019-03-08 22:00","2019","03","08","22:00","-8.2","","-11.6","","77","","25","","6","","","","101.09","","","","-11","","NA"
"2019-03-08 23:00","2019","03","08","23:00","-8.0","","-11.4","","77","","25","","8","","","","101.09","","","","-12","","NA"
"2019-03-09 00:00","2019","03","09","00:00","-10.3","","-12.5","","84","","26","","4","","","","101.12","","","","-13","","NA"
"2019-03-09 01:00","2019","03","09","01:00","-11.7","","-13.2","","89","","28","","6","","","","101.16","","","","-15","","NA"
"2019-03-09 02:00","2019","03","09","02:00","-12.8","","-14.8","","85","","27","","6","","","","101.23","","","","-17","","NA"
"2019-03-09 03:00","2019","03","09","03:00","-9.4","","-11.5","","85","","25","","10","","","","101.23","","","","-15","","NA"
"2019-03-09 04:00","2019","03","09","04:00","-14.2","","-16.2","","85","","26","","9","","","","101.27","","","","-20","","NA"
"2019-03-09 05:00","2019","03","09","05:00","-13.3","","-14.9","","88","","29","","7","","","","101.35","","","","-18","","NA"
"2019-03-09 06:00","2019","03","09","06:00","-14.2","","-16.1","","86","","33","","9","","","","101.39","","","","-20","","NA"
"2019-03-09 07:00","2019","03","09","07:00","-14.2","","-15.8","","87","","33","","11","","","","101.50","","","","-21","","NA"
"2019-03-09 08:00","2019","03","09","08:00","-11.5","","-14.2","","81","","34","","13","","","","101.55","","","","-18","","NA"
"2019-03-09 09:00","2019","03","09","09:00","-7.1","","-11.8","","69","","32","","6","","","","101.65","","","","-10","","NA"
"2019-03-09 10:00","2019","03","09","10:00","-4.1","","-11.0","","59","","7","","16","","","","101.64","","","","-10","","NA"
"2019-03-09 11:00","2019","03","09","11:00","-3.3","","-11.2","","54","","10","","12","","","","101.67","","","","-8","","NA"
"2019-03-09 12:00","2019","03","09","12:00","-2.5","","-11.2","","51","","9","","9","","","","101.68","","","","-6","","NA"
"2019-03-09 13:00","2019","03","09","13:00","-1.7","","-9.9","","54","","15","","10","","","","101.64","","","","-5","","NA"
"2019-03-09 14:00","2019","03","09","14:00","-1.1","","-9.4","","53","","16","","11","","","","101.64","","","","-5","","NA"
"2019-03-09 15:00","2019","03","09","15:00","-0.8","","-10.2","","49","","15","","10","","","","101.52","","","","-4","","NA"
"2019-03-09 16:00","2019","03","09","16:00","0.6","","-10.3","","44","","10","","14","","","","101.50","","","","","","NA"
"2019-03-09 17:00","2019","03","09","17:00","0.6","","-11.5","","40","","6","","17","","","","101.50","","","","","","NA"
"2019-03-09 18:00","2019","03","09","18:00","-0.1","","-11.0","","44","","5","","16","","","","101.42","","","","-5","","NA"
"2019-03-09 19:00","2019","03","09","19:00","-0.9","","-10.7","","47","","6","","21","","","","101.28","","","","-7","","NA"
"2019-03-09 20:00","2019","03","09","20:00","-1.8","","-10.1","","53","","6","","20","","","","101.29","","","","-8","","NA"
"2019-03-09 21:00","2019","03","09","21:00","-2.2","","-10.5","","53","","6","","21","","","","101.25","","","","-8","","NA"
"2019-03-09 22:00","2019","03","09","22:00","-2.7","","-10.6","","55","","6","","24","","","","101.07","","","","-9","","NA"
"2019-03-09 23:00","2019","03","09","23:00","-3.3","","-10.3","","58","","6","","22","","","","100.94","","","","-10","","NA"
"2019-03-10 00:00","2019","03","10","00:00","-2.6","","-10.0","","57","","6","","21","","","","100.90","","","","-9","","NA"
"2019-03-10 01:00","2019","03","10","01:00","-2.3","","-9.5","","58","","6","","20","","","","100.73","","","","-8","","NA"
"2019-03-10 02:00","2019","03","10","02:00","-0.8","","-9.6","","51","","8","","25","","","","100.46","","","","-7","","NA"
"2019-03-10 03:00","2019","03","10","03:00","-0.9","","-7.6","","61","","8","","23","","","","100.29","","","","-7","","NA"
"2019-03-10 04:00","2019","03","10","04:00","1.1","","-3.0","","74","","14","","36","","","","100.24","","","","","","NA"
"2019-03-10 05:00","2019","03","10","05:00","0.4","","-1.3","","88","","14","","30","","","","100.20","","","","","","NA"
"2019-03-10 06:00","2019","03","10","06:00","0.4","","-1.4","","88","","14","","39","","","","100.10","","","","","","NA"
"2019-03-10 07:00","2019","03","10","07:00","0.6","","-1.1","","88","","14","","41","","","","99.99","","","","","","NA"
"2019-03-10 08:00","2019","03","10","08:00","0.7","","-0.8","","89","","15","","37","","","","99.93","","","","","","NA"
"2019-03-10 09:00","2019","03","10","09:00","0.7","","-0.6","","91","","15","","32","","","","99.81","","","","","","NA"
"2019-03-10 10:00","2019","03","10","10:00","1.3","","-0.9","","85","","16","","32","","","","99.71","","","","","","NA"
"2019-03-10 11:00","2019","03","10","11:00","1.1","","-0.3","","91","","16","","41","","","","99.58","","","","","","NA"
"2019-03-10 12:00","2019","03","10","12:00","1.6","","-0.4","","87","","17","","38","","","","99.55","","","","","","NA"
"2019-03-10 13:00","2019","03","10","13:00","1.4","","0.3","","92","","17","","43","","","","99.56","","","","","","NA"
"2019-03-10 14:00","2019","03","10","14:00","1.2","","0.7","","96","","18","","24","","","","99.57","","","","","","NA"
"2019-03-10 15:00","2019","03","10","15:00","1.8","","1.0","","94","","19","","34","","","","99.57","","","","","","NA"
"2019-03-10 16:00","2019","03","10","16:00","3.2","","0.6","","83","","21","","31","","","","99.60","","","","","","NA"
"2019-03-10 17:00","2019","03","10","17:00","3.3","","-0.2","","78","","23","","39","","","","99.62","","","","","","NA"
"2019-03-10 18:00","2019","03","10","18:00","2.6","","0.2","","84","","22","","33","","","","99.68","","","","","","NA"
"2019-03-10 19:00","2019","03","10","19:00","2.8","","-0.4","","79","","23","","36","","","","99.72","","","","","","NA"
"2019-03-10 20:00","2019","03","10","20:00","2.3","","0.0","","85","","23","","43","","","","99.79","","","","","","NA"
"2019-03-10 21:00","2019","03","10","21:00","2.1","","0.2","","87","","23","","43","","","","99.81","","","","","","NA"
"2019-03-10 22:00","2019","03","10","22:00","2.1","","0.1","","87","","23","","36","","","","99.86","","","","","","NA"
"2019-03-10 23:00","2019","03","10","23:00","1.7","","-0.1","","88","","24","","29","","","","99.91","","","","","","NA"
"2019-03-11 00:00","2019","03","11","00:00","2.0","","-0.1","","86","","23","","31","","","","99.93","","","","","","NA"
"2019-03-11 01:00","2019","03","11","01:00","2.1","","-1.0","","80","","24","","31","","","","99.97","","","","","","NA"
"2019-03-11 02:00","2019","03","11","02:00","2.3","","-1.5","","76","","23","","34","","","","99.98","","","","","","NA"
"2019-03-11 03:00","2019","03","11","03:00","1.9","","-0.8","","83","","23","","34","","","","99.95","","","","","","NA"
"2019-03-11 04:00","2019","03","11","04:00","1.9","","-0.8","","83","","23","","35","","","","99.93","","","","","","NA"
"2019-03-11 05:00","2019","03","11","05:00","2.1","","-1.2","","79","","24","","37","","","","99.99","","","","","","NA"
"2019-03-11 06:00","2019","03","11","06:00","1.9","","-1.2","","80","","24","","35","","","","100.01","","","","","","NA"
"2019-03-11 07:00","2019","03","11","07:00","2.1","","-2.1","","74","","25","","34","","","","100.05","","","","","","NA"
"2019-03-11 08:00","2019","03","11","08:00","2.1","","-2.4","","72","","24","","31","","","","100.14","","","","","","NA"
"2019-03-11 09:00","2019","03","11","09:00","2.4","","-3.4","","65","","25","","31","","","","100.19","","","","","","NA"
"2019-03-11 10:00","2019","03","11","10:00","2.4","","-3.5","","65","","25","","34","","","","100.24","","","","","","NA"
"2019-03-11 11:00","2019","03","11","11:00","2.1","","-3.4","","67","","25","","27","","","","100.29","","","","","","NA"
"2019-03-11 12:00","2019","03","11","12:00","2.2","","-4.1","","63","","26","","32","","","","100.37","","","","","","NA"
"2019-03-11 13:00","2019","03","11","13:00","2.0","","-3.7","","66","","26","","31","","","","100.37","","","","","","NA"
"2019-03-11 14:00","2019","03","11","14:00","2.3","","-4.3","","62","","26","","31","","","","100.36","","","","","","NA"
"2019-03-11 15:00","2019","03","11","15:00","2.0","","-4.2","","64","","26","","28","","","","100.37","","","","","","NA"
"2019-03-11 16:00","2019","03","11","16:00","1.7","","-5.0","","61","","26","","31","","","","100.40","","","","","","NA"
"2019-03-11 17:00","2019","03","11","17:00","1.4","","-4.9","","63","","27","","31","","","","100.48","","","","","","NA"
"2019-03-11 18:00","2019","03","11","18:00","1.0","","-4.9","","65","","27","","31","","","","100.54","","","","","","NA"
"2019-03-11 19:00","2019","03","11","19:00","0.5","","-4.6","","69","","27","","30","","","","100.64","","","","","","NA"
"2019-03-11 20:00","2019","03","11","20:00","0.0","","-4.8","","70","","27","","24","","","","100.70","","","","-6","","NA"
"2019-03-11 21:00","2019","03","11","21:00","-0.4","","-4.9","","72","","27","","23","","","","100.72","","","","-6","","NA"
"2019-03-11 22:00","2019","03","11","22:00","-0.6","","-5.1","","71","","27","","20","","","","100.75","","","","-6","","NA"
"2019-03-11 23:00","2019","03","11","23:00","-0.7","","-4.8","","74","","27","","18","","","","100.76","","","","-6","","NA"
"2019-03-12 00:00","2019","03","12","00:00","-0.8","","-5.8","","69","","28","","22","","","","100.80","","","","-7","","NA"
"2019-03-12 01:00","2019","03","12","01:00","-1.1","","-6.0","","70","","28","","16","","","","100.85","","","","-6","","NA"
"2019-03-12 02:00","2019","03","12","02:00","-1.4","","-6.6","","67","","28","","20","","","","100.91","","","","-7","","NA"
"2019-03-12 03:00","2019","03","12","03:00","-2.0","","-6.4","","71","","28","","13","","","","100.92","","","","-6","","NA"
"2019-03-12 04:00","2019","03","12","04:00","-2.5","","-6.5","","74","","28","","16","","","","100.95","","","","-8","","NA"
"2019-03-12 05:00","2019","03","12","05:00","-2.7","","-6.5","","75","","27","","16","","","","101.03","","","","-8","","NA"
"2019-03-12 06:00","2019","03","12","06:00","-2.9","","-6.6","","75","","27","","18","","","","101.10","","","","-9","","NA"
"2019-03-12 07:00","2019","03","12","07:00","-3.2","","-6.8","","76","","27","","17","","","","101.22","","","","-9","","NA"
"2019-03-12 08:00","2019","03","12","08:00","-3.1","","-9.5","","61","","30","","21","","","","101.30","","","","-9","","NA"
"2019-03-12 09:00","2019","03","12","09:00","-2.6","","-9.6","","59","","31","","22","","","","101.41","","","","-9","","NA"
"2019-03-12 10:00","2019","03","12","10:00","-2.3","","-10.8","","52","","32","","22","","","","101.41","","","","-8","","NA"
"2019-03-12 11:00","2019","03","12","11:00","-1.5","","-10.0","","52","","32","","22","","","","101.42","","","","-7","","NA"
"2019-03-12 12:00","2019","03","12","12:00","-0.4","","-9.5","","50","","31","","16","","","","101.40","","","","-5","","NA"
"2019-03-12 13:00","2019","03","12","13:00","0.3","","-9.0","","50","","28","","13","","","","101.35","","","","","","NA"
"2019-03-12 14:00","2019","03","12","14:00","0.4","","-7.6","","55","","22","","19","","","","101.31","","","","","","NA"
"2019-03-12 15:00","2019","03","12","15:00","0.6","","-6.9","","57","","22","","22","","","","101.30","","","","","","NA"
"2019-03-12 16:00","2019","03","12","16:00","0.8","","-6.5","","58","","23","","19","","","","101.31","","","","","","NA"
"2019-03-12 17:00","2019","03","12","17:00","0.9","","-6.4","","58","","24","","22","","","","101.34","","","","","","NA"
"2019-03-12 18:00","2019","03","12","18:00","0.5","","-6.5","","59","","25","","17","","","","101.37","","","","","","NA"
"2019-03-12 19:00","2019","03","12","19:00","-0.5","","-3.6","","79","","24","","19","","","","101.38","","","","-6","","NA"
"2019-03-12 20:00","2019","03","12","20:00","-0.9","","-3.7","","81","","23","","13","","","","101.37","","","","-5","","NA"
"2019-03-12 21:00","2019","03","12","21:00","-1.0","","-3.8","","81","","24","","9","","","","101.38","","","","-4","","NA"
"2019-03-12 22:00","2019","03","12","22:00","-1.1","","-3.8","","82","","22","","12","","","","101.41","","","","-5","","NA"
"2019-03-12 23:00","2019","03","12","23:00","-1.0","","-3.4","","84","","23","","15","","","","101.41","","","","-6","","NA"
"2019-03-13 00:00","2019","03","13","00:00","-1.4","","-3.8","","83","","24","","12","","","","101.42","","","","-5","","NA"
"2019-03-13 01:00","2019","03","13","01:00","-2.0","","-3.8","","88","","22","","7","","","","101.35","","","","-5","","NA"
"2019-03-13 02:00","2019","03","13","02:00","-2.2","","-3.7","","90","","21","","10","","","","101.35","","","","-6","","NA"
"2019-03-13 03:00","2019","03","13","03:00","-2.5","","-3.5","","93","","18","","9","","","","101.31","","","","-6","","NA"
"2019-03-13 04:00","2019","03","13","04:00","-2.3","","-3.5","","92","","22","","11","","","","101.29","","","","-6","","NA"
"2019-03-13 05:00","2019","03","13","05:00","-2.2","","-3.5","","91","","20","","9","","","","101.31","","","","-6","","NA"
"2019-03-13 06:00","2019","03","13","06:00","-2.5","","-3.9","","90","","17","","8","","","","101.36","","","","-6","","NA"
"2019-03-13 07:00","2019","03","13","07:00","-2.6","","-3.9","","91","","19","","9","","","","101.36","","","","-6","","NA"
"2019-03-13 08:00","2019","03","13","08:00","-1.9","","-3.2","","91","","17","","14","","","","101.39","","","","-7","","NA"
"2019-03-13 09:00","2019","03","13","09:00","-1.8","","-3.6","","88","","16","","16","","","","101.40","","","","-7","","NA"
"2019-03-13 10:00","2019","03","13","10:00","-1.6","","-3.7","","86","","16","","16","","","","101.30","","","","-7","","NA"
"2019-03-13 11:00","2019","03","13","11:00","-1.1","","-3.8","","82","","15","","12","","","","101.28","","","","-5","","NA"
"2019-03-13 12:00","2019","03","13","12:00","-0.5","","-3.8","","78","","13","","16","","","","101.11","","","","-5","","NA"
"2019-03-13 13:00","2019","03","13","13:00","0.2","","-3.7","","75","","11","","13","","","","101.01","","","","","","NA"
"2019-03-13 14:00","2019","03","13","14:00","1.1","","-4.3","","67","","16","","7","","","","100.99","","","","","","NA"
"2019-03-13 15:00","2019","03","13","15:00","1.2","","-4.9","","64","","0","","1","","","","100.98","","","","","","NA"
"2019-03-13 16:00","2019","03","13","16:00","1.9","","-3.6","","67","","6","","13","","","","101.00","","","","","","NA"
"2019-03-13 17:00","2019","03","13","17:00","1.5","","-3.7","","68","","3","","15","","","","101.05","","","","","","NA"
"2019-03-13 18:00","2019","03","13","18:00","1.4","","-3.8","","68","","4","","9","","","","101.05","","","","","","NA"
"2019-03-13 19:00","2019","03","13","19:00","0.5","","-1.7","","85","","4","","7","","","","101.04","","","","","","NA"
"2019-03-13 20:00","2019","03","13","20:00","0.4","","-1.3","","88","","6","","15","","","","101.02","","","","","","NA"
"2019-03-13 21:00","2019","03","13","21:00","0.8","","-1.1","","88","","6","","9","","","","100.97","","","","","","NA"
"2019-03-13 22:00","2019","03","13","22:00","0.8","","-1.1","","87","","6","","11","","","","100.95","","","","","","NA"
"2019-03-13 23:00","2019","03","13","23:00","0.9","","-0.9","","87","","4","","6","","","","100.93","","","","","","NA"
"2019-03-14 00:00","2019","03","14","00:00","1.1","","-0.9","","87","","4","","9","","","","100.84","","","","","","NA"
"2019-03-14 01:00","2019","03","14","01:00","1.3","","-0.7","","86","","4","","7","","","","100.80","","","","","","NA"
"2019-03-14 02:00","2019","03","14","02:00","1.4","","-0.7","","86","","4","","8","","","","100.80","","","","","","NA"
"2019-03-14 03:00","2019","03","14","03:00","1.6","","-0.7","","85","","2","","6","","","","100.76","","","","","","NA"
"2019-03-14 04:00","2019","03","14","04:00","1.2","","-0.7","","87","","36","","8","","","","100.82","","","","","","NA"
"2019-03-14 05:00","2019","03","14","05:00","1.8","","-1.0","","81","","6","","16","","","","100.78","","","","","","NA"
"2019-03-14 06:00","2019","03","14","06:00","1.8","","-0.9","","82","","6","","16","","","","100.67","","","","","","NA"
"2019-03-14 07:00","2019","03","14","07:00","2.2","","-1.0","","79","","3","","8","","","","100.72","","","","","","NA"
"2019-03-14 08:00","2019","03","14","08:00","3.5","","-0.8","","73","","4","","10","","","","100.70","","","","","","NA"
"2019-03-14 09:00","2019","03","14","09:00","3.7","","-0.3","","75","","7","","9","","","","100.62","","","","","","NA"
"2019-03-14 10:00","2019","03","14","10:00","6.3","","-0.8","","60","","8","","12","","","","100.49","","","","","","NA"
"2019-03-14 11:00","2019","03","14","11:00","6.5","","-0.5","","61","","9","","14","","","","100.37","","","","","","NA"
"2019-03-14 12:00","2019","03","14","12:00","7.6","","0.3","","60","","9","","10","","","","100.29","","","","","","NA"
"2019-03-14 13:00","2019","03","14","13:00","7.9","","0.2","","58","","9","","9","","","","100.15","","","","","","NA"
"2019-03-14 14:00","2019","03","14","14:00","9.1","","1.0","","57","","8","","7","","","","100.03","","","","","","NA"
"2019-03-14 15:00","2019","03","14","15:00","10.2","","0.3","","50","","13","","7","","","","99.93","","","","","","NA"
"2019-03-14 16:00","2019","03","14","16:00","9.2","","0.9","","56","","10","","11","","","","99.79","","","","","","NA"
"2019-03-14 17:00","2019","03","14","17:00","10.3","","1.3","","54","","35","","2","","","","99.81","","","","","","NA"
"2019-03-14 18:00","2019","03","14","18:00","8.7","","0.0","","54","","17","","13","","","","99.74","","","","","","NA"
"2019-03-14 19:00","2019","03","14","19:00","7.6","","0.4","","60","","13","","13","","","","99.65","","","","","","NA"
"2019-03-14 20:00","2019","03","14","20:00","4.3","","0.3","","76","","15","","18","","","","99.60","","","","","","NA"
"2019-03-14 21:00","2019","03","14","21:00","4.6","","0.0","","72","","15","","23","","","","99.48","","","","","","NA"
"2019-03-14 22:00","2019","03","14","22:00","6.5","","1.1","","68","","26","","12","","","","99.54","","","","","","NA"
"2019-03-14 23:00","2019","03","14","23:00","4.7","","1.6","","81","","15","","10","","","","99.39","","","","","","NA"
"2019-03-15 00:00","2019","03","15","00:00","6.5","","4.2","","85","","14","","38","","","","99.05","","","","","","NA"
"2019-03-15 01:00","2019","03","15","01:00","5.3","","2.5","","82","","15","","23","","","","99.01","","","","","","NA"
"2019-03-15 02:00","2019","03","15","02:00","6.3","","3.7","","83","","16","","43","","","","98.93","","","","","","NA"
"2019-03-15 03:00","2019","03","15","03:00","6.5","","4.6","","87","","16","","38","","","","98.89","","","","","","NA"
"2019-03-15 04:00","2019","03","15","04:00","4.9","","3.7","","92","","21","","15","","","","98.88","","","","","","NA"
"2019-03-15 05:00","2019","03","15","05:00","5.7","","4.2","","90","","20","","25","","","","99.02","","","","","","NA"
"2019-03-15 06:00","2019","03","15","06:00","7.2","","2.4","","72","","22","","30","","","","99.05","","","","","","NA"
"2019-03-15 07:00","2019","03","15","07:00","6.8","","1.9","","71","","22","","34","","","","99.15","","","","","","NA"
"2019-03-15 08:00","2019","03","15","08:00","6.3","","1.8","","73","","22","","29","","","","99.22","","","","","","NA"
"2019-03-15 09:00","2019","03","15","09:00","6.4","","1.9","","73","","23","","40","","","","99.28","","","","","","NA"
"2019-03-15 10:00","2019","03","15","10:00","6.0","","2.0","","76","","23","","36","","","","99.32","","","","","","NA"
"2019-03-15 11:00","2019","03","15","11:00","5.9","","1.9","","76","","23","","34","","","","99.37","","","","","","NA"
"2019-03-15 12:00","2019","03","15","12:00","6.6","","1.8","","71","","24","","31","","","","99.40","","","","","","NA"
"2019-03-15 13:00","2019","03","15","13:00","6.2","","2.0","","74","","24","","29","","","","99.39","","","","","","NA"
"2019-03-15 14:00","2019","03","15","14:00","6.1","","2.2","","76","","23","","41","","","","99.36","","","","","","NA"
"2019-03-15 15:00","2019","03","15","15:00","5.4","","1.8","","78","","23","","30","","","","99.41","","","","","","NA"
"2019-03-15 16:00","2019","03","15","16:00","5.0","","2.0","","81","","24","","29","","","","99.42","","","","","","NA"
"2019-03-15 17:00","2019","03","15","17:00","4.5","","2.4","","86","","24","","33","","","","99.45","","","","","","NA"
"2019-03-15 18:00","2019","03","15","18:00","3.8","","2.6","","92","","23","","27","","","","99.48","","","","","","NA"
"2019-03-15 19:00","2019","03","15","19:00","3.6","","1.9","","89","","24","","27","","","","99.47","","","","","","NA"
"2019-03-15 20:00","2019","03","15","20:00","3.9","","1.8","","86","","23","","29","","","","99.50","","","","","","NA"
"2019-03-15 21:00","2019","03","15","21:00","2.9","","1.1","","88","","23","","38","","","","99.50","","","","","","NA"
"2019-03-15 22:00","2019","03","15","22:00","2.5","","0.9","","90","","24","","33","","","","99.53","","","","","","NA"
"2019-03-15 23:00","2019","03","15","23:00","2.4","","0.7","","88","","23","","32","","","","99.55","","","","","","NA"
"2019-03-16 00:00","2019","03","16","00:00","1.8","","-0.9","","82","","25","","21","","","","99.59","","","","","","NA"
"2019-03-16 01:00","2019","03","16","01:00","1.5","","-0.5","","87","","25","","14","","","","99.64","","","","","","NA"
"2019-03-16 02:00","2019","03","16","02:00","1.4","","-2.2","","77","","26","","24","","","","99.68","","","","","","NA"
"2019-03-16 03:00","2019","03","16","03:00","0.3","","-2.8","","79","","25","","23","","","","99.72","","","","","","NA"
"2019-03-16 04:00","2019","03","16","04:00","0.5","","-5.9","","62","","27","","30","","","","99.79","","","","","","NA"
"2019-03-16 05:00","2019","03","16","05:00","-0.1","","-6.2","","63","","26","","32","","","","99.89","","","","-7","","NA"
"2019-03-16 06:00","2019","03","16","06:00","-0.8","","-6.1","","67","","26","","27","","","","99.99","","","","-7","","NA"
"2019-03-16 07:00","2019","03","16","07:00","-1.6","","-7.5","","64","","27","","40","","","","100.11","","","","-10","","NA"
"2019-03-16 08:00","2019","03","16","08:00","-1.6","","-7.2","","65","","28","","33","","","","100.20","","","","-9","","NA"
"2019-03-16 09:00","2019","03","16","09:00","-1.5","","-8.5","","59","","28","","22","","","","100.31","","","","-7","","NA"
"2019-03-16 10:00","2019","03","16","10:00","-1.1","","-8.0","","59","","28","","25","","","","100.36","","","","-7","","NA"
"2019-03-16 11:00","2019","03","16","11:00","0.2","","-8.1","","54","","27","","30","","","","100.40","","","","","","NA"
"2019-03-16 12:00","2019","03","16","12:00","0.4","","-7.5","","56","","26","","22","","","","100.42","","","","","","NA"
"2019-03-16 13:00","2019","03","16","13:00","0.5","","-7.4","","55","","25","","24","","","","100.42","","","","","","NA"
"2019-03-16 14:00","2019","03","16","14:00","0.5","","-7.2","","56","","24","","29","","","","100.43","","","","","","NA"
"2019-03-16 15:00","2019","03","16","15:00","0.8","","-7.2","","55","","27","","29","","","","100.47","","","","","","NA"
"2019-03-16 16:00","2019","03","16","16:00","0.4","","-7.2","","57","","25","","30","","","","100.48","","","","","","NA"
"2019-03-16 17:00","2019","03","16","17:00","-0.1","","-7.2","","59","","26","","28","","","","100.53","","","","-6","","NA"
"2019-03-16 18:00","2019","03","16","18:00","-0.7","","-8.1","","57","","27","","26","","","","100.61","","","","-7","","NA"
"2019-03-16 19:00","2019","03","16","19:00","-1.1","","-9.1","","55","","27","","24","","","","100.69","","","","-7","","NA"
"2019-03-16 20:00","2019","03","16","20:00","-1.9","","-10.3","","52","","29","","27","","","","100.77","","","","-9","","NA"
"2019-03-16 21:00","2019","03","16","21:00","-2.1","","-10.4","","53","","29","","22","","","","100.82","","","","-8","","NA"
"2019-03-16 22:00","2019","03","16","22:00","-2.2","","-9.9","","56","","28","","20","","","","100.82","","","","-8","","NA"
"2019-03-16 23:00","2019","03","16","23:00","-2.4","","-8.9","","61","","27","","17","","","","100.83","","","","-8","","NA"
"2019-03-17 00:00","2019","03","17","00:00","-2.4","","-10.9","","52","","30","","23","","","","100.80","","","","-9","","NA"
"2019-03-17 01:00","2019","03","17","01:00","-3.4","","-10.0","","60","","27","","18","","","","100.83","","","","-9","","NA"
"2019-03-17 02:00","2019","03","17","02:00","-3.8","","-11.8","","54","","28","","18","","","","100.84","","","","-10","","NA"
"2019-03-17 03:00","2019","03","17","03:00","-4.1","","-10.5","","61","","29","","17","","","","100.87","","","","-10","","NA"
"2019-03-17 04:00","2019","03","17","04:00","-5.4","","-9.3","","74","","31","","12","","","","100.96","","","","-10","","NA"
"2019-03-17 05:00","2019","03","17","05:00","-6.0","","-9.7","","75","","29","","11","","","","101.06","","","","-11","","NA"
"2019-03-17 06:00","2019","03","17","06:00","-5.9","","-9.8","","74","","28","","7","","","","101.12","","","","-9","","NA"
"2019-03-17 07:00","2019","03","17","07:00","-6.0","","-10.6","","70","","27","","12","","","","101.18","","","","-11","","NA"
"2019-03-17 08:00","2019","03","17","08:00","-5.8","","-13.2","","56","","31","","19","","","","101.22","","","","-12","","NA"
"2019-03-17 09:00","2019","03","17","09:00","-4.6","","-13.9","","48","","32","","21","","","","101.23","","","","-11","","NA"
"2019-03-17 10:00","2019","03","17","10:00","-3.4","","-13.3","","46","","30","","17","","","","101.20","","","","-9","","NA"
"2019-03-17 11:00","2019","03","17","11:00","-2.6","","-13.5","","43","","28","","19","","","","101.18","","","","-8","","NA"
"2019-03-17 12:00","2019","03","17","12:00","-2.4","","-12.4","","46","","25","","20","","","","101.17","","","","-8","","NA"
"2019-03-17 13:00","2019","03","17","13:00","-0.9","","-10.4","","49","","25","","23","","","","101.11","","","","-7","","NA"
"2019-03-17 14:00","2019","03","17","14:00","-1.0","","-12.2","","42","","26","","23","","","","101.03","","","","-7","","NA"
"2019-03-17 15:00","2019","03","17","15:00","-0.4","","-10.5","","46","","27","","19","","","","101.01","","","","-6","","NA"
"2019-03-17 16:00","2019","03","17","16:00","-0.4","","-11.1","","44","","27","","25","","","","100.96","","","","-6","","NA"
"2019-03-17 17:00","2019","03","17","17:00","-0.3","","-9.9","","48","","26","","21","","","","100.96","","","","-6","","NA"
"2019-03-17 18:00","2019","03","17","18:00","-0.4","","-9.0","","52","","26","","19","","","","100.98","","","","-6","","NA"
"2019-03-17 19:00","2019","03","17","19:00","-0.9","","-7.6","","60","","27","","13","","","","101.02","","","","-5","","NA"
"2019-03-17 20:00","2019","03","17","20:00","-2.1","","-5.3","","79","","29","","12","","","","101.06","","","","-6","","NA"
"2019-03-17 21:00","2019","03","17","21:00","-1.3","","-7.2","","64","","29","","17","","","","101.08","","","","-6","","NA"
"2019-03-17 22:00","2019","03","17","22:00","-2.0","","-9.2","","58","","28","","15","","","","101.10","","","","-7","","NA"
"2019-03-17 23:00","2019","03","17","23:00","-3.0","","-9.5","","61","","29","","12","","","","101.14","","","","-7","","NA"
"2019-03-18 00:00","2019","03","18","00:00","-3.8","","-9.5","","65","","32","","6","","","","101.17","","","","-6","","NA"
"2019-03-18 01:00","2019","03","18","01:00","-5.3","","-9.7","","71","","36","","5","","","","101.17","","","","-8","","NA"
"2019-03-18 02:00","2019","03","18","02:00","-6.8","","-10.3","","76","","29","","2","","","","101.18","","","","-8","","NA"
"2019-03-18 03:00","2019","03","18","03:00","-7.4","","-9.2","","88","","1","","2","","","","101.18","","","","-8","","NA"
"2019-03-18 04:00","2019","03","18","04:00","-7.5","","-8.8","","90","","0","","1","","","","101.16","","","","-8","","NA"
"2019-03-18 05:00","2019","03","18","05:00","-7.8","","-9.4","","88","","","","0","","","","101.18","","","","","","NA"
"2019-03-18 06:00","2019","03","18","06:00","-7.6","","-9.2","","88","","20","","2","","","","101.22","","","","-9","","NA"
"2019-03-18 07:00","2019","03","18","07:00","-6.9","","-8.3","","90","","24","","2","","","","101.26","","","","-8","","NA"
"2019-03-18 08:00","2019","03","18","08:00","-3.9","","-7.9","","74","","29","","4","","","","101.29","","","","-6","","NA"
"2019-03-18 09:00","2019","03","18","09:00","-2.4","","-7.1","","70","","36","","3","","","","101.33","","","","-4","","NA"
"2019-03-18 10:00","2019","03","18","10:00","-1.9","","-6.5","","71","","19","","9","","","","101.34","","","","-5","","NA"
"2019-03-18 11:00","2019","03","18","11:00","-1.3","","-5.7","","72","","19","","13","","","","101.36","","","","-6","","NA"
"2019-03-18 12:00","2019","03","18","12:00","-0.5","","-4.6","","74","","19","","15","","","","101.36","","","","-5","","NA"
"2019-03-18 13:00","2019","03","18","13:00","-0.1","","-7.1","","59","","18","","16","","","","101.32","","","","-5","","NA"
"2019-03-18 14:00","2019","03","18","14:00","-0.4","","-4.5","","74","","19","","22","","","","101.29","","","","-6","","NA"
"2019-03-18 15:00","2019","03","18","15:00","-0.2","","-1.4","","91","","21","","9","","","","101.29","","","","-3","","NA"
"2019-03-18 16:00","2019","03","18","16:00","0.1","","-2.2","","84","","19","","9","","","","101.27","","","","","","NA"
"2019-03-18 17:00","2019","03","18","17:00","-1.0","","-2.6","","89","","17","","12","","","","101.28","","","","-5","","NA"
"2019-03-18 18:00","2019","03","18","18:00","-0.7","","-2.7","","86","","20","","14","","","","101.30","","","","-5","","NA"
"2019-03-18 19:00","2019","03","18","19:00","-1.6","","-3.2","","89","","20","","9","","","","101.34","","","","-5","","NA"
"2019-03-18 20:00","2019","03","18","20:00","-1.7","","-3.7","","86","","22","","7","","","","101.40","","","","-4","","NA"
"2019-03-18 21:00","2019","03","18","21:00","-1.9","","-5.8","","75","","26","","14","","","","101.43","","","","-7","","NA"
"2019-03-18 22:00","2019","03","18","22:00","-2.3","","-8.7","","61","","28","","14","","","","101.46","","","","-7","","NA"
"2019-03-18 23:00","2019","03","18","23:00","-2.8","","-10.3","","56","","29","","16","","","","101.49","","","","-8","","NA"
"2019-03-19 00:00","2019","03","19","00:00","-4.6","","-9.1","","71","","34","","13","","","","101.55","","","","-10","","NA"
"2019-03-19 01:00","2019","03","19","01:00","-5.5","","-8.9","","77","","34","","10","","","","101.59","","","","-10","","NA"
"2019-03-19 02:00","2019","03","19","02:00","-6.0","","-9.3","","78","","32","","7","","","","101.64","","","","-9","","NA"
"2019-03-19 03:00","2019","03","19","03:00","-6.7","","-9.9","","78","","27","","3","","","","101.63","","","","-8","","NA"
"2019-03-19 04:00","2019","03","19","04:00","-8.5","","-10.6","","85","","33","","8","","","","101.66","","","","-13","","NA"
"2019-03-19 05:00","2019","03","19","05:00","-9.0","","-12.2","","77","","35","","10","","","","101.69","","","","-14","","NA"
"2019-03-19 06:00","2019","03","19","06:00","-9.5","","-11.9","","82","","34","","9","","","","101.72","","","","-14","","NA"
"2019-03-19 07:00","2019","03","19","07:00","-8.2","","-10.4","","84","","36","","5","","","","101.75","","","","-11","","NA"
"2019-03-19 08:00","2019","03","19","08:00","-3.1","","-8.7","","65","","","","0","","","","101.78","","","","","","NA"
"2019-03-19 09:00","2019","03","19","09:00","-2.6","","-10.5","","54","","14","","4","","","","101.83","","","","-4","","NA"
"2019-03-19 10:00","2019","03","19","10:00","-1.5","","-11.3","","47","","16","","8","","","","101.86","","","","-5","","NA"
"2019-03-19 11:00","2019","03","19","11:00","-1.4","","-6.9","","67","","16","","10","","","","101.87","","","","-5","","NA"
"2019-03-19 12:00","2019","03","19","12:00","0.1","","-4.7","","70","","19","","17","","","","101.87","","","","","","NA"
"2019-03-19 13:00","2019","03","19","13:00","1.0","","-3.9","","69","","19","","21","","","","101.84","","","","","","NA"
"2019-03-19 14:00","2019","03","19","14:00","1.1","","-1.9","","80","","18","","20","","","","101.79","","","","","","NA"
"2019-03-19 15:00","2019","03","19","15:00","0.9","","-1.7","","82","","18","","18","","","","101.77","","","","","","NA"
"2019-03-19 16:00","2019","03","19","16:00","0.7","","-1.5","","85","","18","","15","","","","101.72","","","","","","NA"
"2019-03-19 17:00","2019","03","19","17:00","-0.4","","-2.3","","87","","16","","13","","","","101.68","","","","-5","","NA"
"2019-03-19 18:00","2019","03","19","18:00","-0.9","","-2.3","","90","","17","","8","","","","101.67","","","","-4","","NA"
"2019-03-19 19:00","2019","03","19","19:00","-1.5","","-2.7","","91","","18","","9","","","","101.66","","","","-5","","NA"
"2019-03-19 20:00","2019","03","19","20:00","-1.9","","-2.9","","93","","19","","9","","","","101.66","","","","-5","","NA"
"2019-03-19 21:00","2019","03","19","21:00","-2.1","","-2.9","","94","","16","","8","","","","101.64","","","","-5","","NA"
"2019-03-19 22:00","2019","03","19","22:00","-2.7","","-3.5","","94","","15","","8","","","","101.61","","","","-6","","NA"
"2019-03-19 23:00","2019","03","19","23:00","-2.7","","-3.3","","95","","17","","9","","","","101.61","","","","-6","","NA"
"2019-03-20 00:00","2019","03","20","00:00","-2.7","","-3.9","","92","","15","","8","","","","101.59","","","","-6","","NA"
"2019-03-20 01:00","2019","03","20","01:00","-2.5","","-3.5","","93","","15","","8","","","","101.57","","","","-6","","NA"
"2019-03-20 02:00","2019","03","20","02:00","-2.7","","-3.7","","93","","15","","8","","","","101.53","","","","-6","","NA"
"2019-03-20 03:00","2019","03","20","03:00","-2.8","","-3.6","","94","","18","","10","","","","101.47","","","","-7","","NA"
"2019-03-20 04:00","2019","03","20","04:00","-2.7","","-3.4","","95","","16","","8","","","","101.44","","","","-6","","NA"
"2019-03-20 05:00","2019","03","20","05:00","-3.6","","-4.5","","94","","16","","8","","","","101.42","","","","-7","","NA"
"2019-03-20 06:00","2019","03","20","06:00","-3.2","","-4.1","","94","","15","","8","","","","101.39","","","","-6","","NA"
"2019-03-20 07:00","2019","03","20","07:00","-2.2","","-3.2","","93","","15","","14","","","","101.37","","","","-7","","NA"
"2019-03-20 08:00","2019","03","20","08:00","-0.8","","-2.1","","91","","18","","7","","","","101.39","","","","-3","","NA"
"2019-03-20 09:00","2019","03","20","09:00","0.2","","-1.3","","90","","16","","6","","","","101.40","","","","","","NA"
"2019-03-20 10:00","2019","03","20","10:00","2.0","","0.0","","86","","17","","10","","","","101.38","","","","","","NA"
"2019-03-20 11:00","2019","03","20","11:00","2.0","","-0.7","","82","","19","","17","","","","101.35","","","","","","NA"
"2019-03-20 12:00","2019","03","20","12:00","3.0","","-0.5","","78","","18","","17","","","","101.30","","","","","","NA"
"2019-03-20 13:00","2019","03","20","13:00","3.2","","-0.8","","75","","17","","14","","","","101.22","","","","","","NA"
"2019-03-20 14:00","2019","03","20","14:00","3.9","","-0.6","","73","","19","","14","","","","101.13","","","","","","NA"
"2019-03-20 15:00","2019","03","20","15:00","4.3","","-0.7","","70","","18","","14","","","","101.07","","","","","","NA"
"2019-03-20 16:00","2019","03","20","16:00","4.3","","-1.4","","66","","18","","11","","","","101.01","","","","","","NA"
"2019-03-20 17:00","2019","03","20","17:00","4.8","","-2.9","","57","","18","","7","","","","100.96","","","","","","NA"
"2019-03-20 18:00","2019","03","20","18:00","3.2","","-3.4","","62","","15","","6","","","","100.94","","","","","","NA"
"2019-03-20 19:00","2019","03","20","19:00","2.3","","-3.8","","64","","2","","4","","","","100.90","","","","","","NA"
"2019-03-20 20:00","2019","03","20","20:00","1.5","","-3.8","","68","","4","","4","","","","100.86","","","","","","NA"
"2019-03-20 21:00","2019","03","20","21:00","1.6","","-3.2","","70","","6","","5","","","","100.85","","","","","","NA"
"2019-03-20 22:00","2019","03","20","22:00","0.9","","-3.6","","72","","4","","5","","","","100.80","","","","","","NA"
"2019-03-20 23:00","2019","03","20","23:00","1.8","","-3.8","","66","","5","","7","","","","100.75","","","","","","NA"
"2019-03-21 00:00","2019","03","21","00:00","2.2","","-3.5","","66","","6","","6","","","","100.70","","","","","","NA"
"2019-03-21 01:00","2019","03","21","01:00","3.6","","-3.8","","58","","13","","14","","","","100.68","","","","","","NA"
"2019-03-21 02:00","2019","03","21","02:00","2.5","","-1.9","","72","","15","","15","","","","100.65","","","","","","NA"
"2019-03-21 03:00","2019","03","21","03:00","2.8","","-1.7","","72","","19","","6","","","","100.65","","","","","","NA"
"2019-03-21 04:00","2019","03","21","04:00","1.7","","-0.8","","83","","18","","10","","","","100.62","","","","","","NA"
"2019-03-21 05:00","2019","03","21","05:00","1.3","","-1.1","","84","","13","","6","","","","100.59","","","","","","NA"
"2019-03-21 06:00","2019","03","21","06:00","1.8","","-0.5","","85","","16","","10","","","","100.57","","","","","","NA"
"2019-03-21 07:00","2019","03","21","07:00","2.3","","-1.2","","78","","15","","20","","","","100.51","","","","","","NA"
"2019-03-21 08:00","2019","03","21","08:00","2.0","","-1.2","","79","","16","","15","","","","100.49","","","","","","NA"
"2019-03-21 09:00","2019","03","21","09:00","2.5","","-0.8","","78","","17","","12","","","","100.46","","","","","","NA"
"2019-03-21 10:00","2019","03","21","10:00","2.7","","-0.5","","80","","17","","9","","","","100.44","","","","","","NA"
"2019-03-21 11:00","2019","03","21","11:00","2.6","","0.3","","85","","16","","11","","","","100.38","","","","","","NA"
"2019-03-21 12:00","2019","03","21","12:00","3.1","","0.5","","83","","14","","14","","","","100.31","","","","","","NA"
"2019-03-21 13:00","2019","03","21","13:00","3.4","","0.4","","81","","14","","12","","","","100.18","","","","","","NA"
"2019-03-21 14:00","2019","03","21","14:00","3.7","","0.4","","79","","19","","9","","","","100.08","","","","","","NA"
"2019-03-21 15:00","2019","03","21","15:00","4.0","","0.3","","77","","15","","8","","","","99.97","","","","","","NA"
"2019-03-21 16:00","2019","03","21","16:00","5.2","","1.1","","75","","15","","6","","","","99.90","","","","","","NA"
"2019-03-21 17:00","2019","03","21","17:00","5.3","","1.4","","76","","13","","6","","","","99.84","","","","","","NA"
"2019-03-21 18:00","2019","03","21","18:00","2.8","","0.7","","86","","18","","11","","","","99.82","","","","","","NA"
"2019-03-21 19:00","2019","03","21","19:00","2.9","","1.9","","93","","15","","15","","","","99.80","","","","","","NA"
"2019-03-21 20:00","2019","03","21","20:00","2.5","","1.9","","96","","15","","13","","","","99.76","","","","","","NA"
"2019-03-21 21:00","2019","03","21","21:00","2.0","","1.5","","97","","15","","7","","","","99.69","","","","","","NA"
"2019-03-21 22:00","2019","03","21","22:00","2.1","","1.7","","97","","17","","8","","","","99.63","","","","","","NA"
"2019-03-21 23:00","2019","03","21","23:00","2.0","","1.3","","95","","17","","14","","","","99.54","","","","","","NA"
"2019-03-22 00:00","2019","03","22","00:00","1.7","","1.3","","97","","17","","9","","","","99.46","","","","","","NA"
"2019-03-22 01:00","2019","03","22","01:00","1.5","","1.1","","97","","20","","6","","","","99.36","","","","","","NA"
"2019-03-22 02:00","2019","03","22","02:00","1.6","","1.3","","98","","21","","9","","","","99.30","","","","","","NA"
"2019-03-22 03:00","2019","03","22","03:00","1.6","","1.3","","98","","21","","10","","","","99.17","","","","","","NA"
"2019-03-22 04:00","2019","03","22","04:00","1.5","","1.2","","98","","25","","3","","","","99.09","","","","","","NA"
"2019-03-22 05:00","2019","03","22","05:00","1.5","","1.2","","98","","27","","5","","","","99.03","","","","","","NA"
"2019-03-22 06:00","2019","03","22","06:00","1.2","","1.0","","98","","27","","6","","","","98.97","","","","","","NA"
"2019-03-22 07:00","2019","03","22","07:00","1.8","","1.5","","98","","29","","6","","","","98.99","","","","","","NA"
"2019-03-22 08:00","2019","03","22","08:00","2.0","","1.2","","95","","29","","10","","","","98.95","","","","","","NA"
"2019-03-22 09:00","2019","03","22","09:00","2.6","","1.3","","91","","31","","12","","","","98.91","","","","","","NA"
"2019-03-22 10:00","2019","03","22","10:00","3.1","","1.4","","89","","31","","15","","","","98.90","","","","","","NA"
"2019-03-22 11:00","2019","03","22","11:00","3.8","","1.0","","82","","33","","20","","","","98.86","","","","","","NA"
"2019-03-22 12:00","2019","03","22","12:00","4.1","","0.6","","78","","33","","23","","","","98.82","","","","","","NA"
"2019-03-22 13:00","2019","03","22","13:00","4.8","","0.2","","72","","33","","22","","","","98.78","","","","","","NA"
"2019-03-22 14:00","2019","03","22","14:00","5.4","","-0.5","","66","","33","","22","","","","98.71","","","","","","NA"
"2019-03-22 15:00","2019","03","22","15:00","4.1","","-0.6","","71","","32","","33","","","","98.75","","","","","","NA"
"2019-03-22 16:00","2019","03","22","16:00","2.4","","-3.1","","67","","33","","33","","","","98.82","","","","","","NA"
"2019-03-22 17:00","2019","03","22","17:00","-0.2","","-3.6","","77","","33","","39","","","","98.96","","","","-8","","NA"
"2019-03-22 18:00","2019","03","22","18:00","-1.1","","-3.7","","82","","32","","29","","","","99.10","","","","-8","","NA"
"2019-03-22 19:00","2019","03","22","19:00","-2.1","","-4.5","","83","","32","","30","","","","99.19","","","","-9","","NA"
"2019-03-22 20:00","2019","03","22","20:00","-2.7","","-5.2","","83","","32","","37","","","","99.27","","","","-11","","NA"
"2019-03-22 21:00","2019","03","22","21:00","-2.5","","-6.5","","74","","32","","39","","","","99.29","","","","-11","","NA"
"2019-03-22 22:00","2019","03","22","22:00","-2.6","","-7.2","","70","","33","","41","","","","99.34","","","","-11","","NA"
"2019-03-22 23:00","2019","03","22","23:00","-2.7","","-7.6","","69","","32","","36","","","","99.37","","","","-11","","NA"
"2019-03-23 00:00","2019","03","23","00:00","-2.9","","-8.8","","64","","32","","37","","","","99.42","","","","-11","","NA"
"2019-03-23 01:00","2019","03","23","01:00","-3.4","","-10.2","","59","","32","","39","","","","99.52","","","","-12","","NA"
"2019-03-23 02:00","2019","03","23","02:00","-3.9","","-10.5","","60","","32","","27","","","","99.61","","","","-11","","NA"
"2019-03-23 03:00","2019","03","23","03:00","-4.9","","-11.3","","61","","32","","28","","","","99.72","","","","-13","","NA"
"2019-03-23 04:00","2019","03","23","04:00","-5.3","","-11.7","","61","","31","","23","","","","99.85","","","","-12","","NA"
"2019-03-23 05:00","2019","03","23","05:00","-6.1","","-12.8","","59","","31","","24","","","","99.96","","","","-14","","NA"
"2019-03-23 06:00","2019","03","23","06:00","-6.9","","-14.1","","56","","31","","22","","","","100.10","","","","-14","","NA"
"2019-03-23 07:00","2019","03","23","07:00","-7.0","","-14.7","","54","","31","","23","","","","100.27","","","","-15","","NA"
"2019-03-23 08:00","2019","03","23","08:00","-5.8","","-15.3","","47","","33","","25","","","","100.37","","","","-13","","NA"
"2019-03-23 09:00","2019","03","23","09:00","-4.9","","-16.6","","40","","32","","24","","","","100.48","","","","-12","","NA"
"2019-03-23 10:00","2019","03","23","10:00","-3.3","","-15.2","","39","","30","","20","","","","100.55","","","","-9","","NA"
"2019-03-23 11:00","2019","03","23","11:00","-2.2","","-16.1","","34","","30","","18","","","","100.59","","","","-8","","NA"
"2019-03-23 12:00","2019","03","23","12:00","-0.6","","-13.9","","36","","28","","17","","","","100.61","","","","-6","","NA"
"2019-03-23 13:00","2019","03","23","13:00","1.7","","-11.7","","36","","30","","17","","","","100.61","","","","","","NA"
"2019-03-23 14:00","2019","03","23","14:00","2.4","","-13.6","","29","","27","","21","","","","100.63","","","","","","NA"
"2019-03-23 15:00","2019","03","23","15:00","3.5","","-11.4","","33","","27","","22","","","","100.62","","","","","","NA"
"2019-03-23 16:00","2019","03","23","16:00","3.5","","-11.4","","33","","26","","25","","","","100.62","","","","","","NA"
"2019-03-23 17:00","2019","03","23","17:00","2.1","","-8.7","","45","","24","","27","","","","100.67","","","","","","NA"
"2019-03-23 18:00","2019","03","23","18:00","1.8","","-11.2","","37","","25","","26","","","","100.68","","","","","","NA"
"2019-03-23 19:00","2019","03","23","19:00","0.4","","-9.9","","46","","25","","17","","","","100.73","","","","","","NA"
"2019-03-23 20:00","2019","03","23","20:00","-0.2","","-10.4","","46","","26","","21","","","","100.78","","","","-6","","NA"
"2019-03-23 21:00","2019","03","23","21:00","-0.5","","-11.0","","45","","25","","23","","","","100.75","","","","-6","","NA"
"2019-03-23 22:00","2019","03","23","22:00","-0.2","","-9.6","","49","","26","","20","","","","100.73","","","","-5","","NA"
"2019-03-23 23:00","2019","03","23","23:00","-0.5","","-8.9","","53","","26","","11","","","","100.77","","","","-4","","NA"
"2019-03-24 00:00","2019","03","24","00:00","-0.8","","-8.3","","57","","26","","11","","","","100.79","","","","-5","","NA"
"2019-03-24 01:00","2019","03","24","01:00","-0.5","","-7.6","","59","","25","","12","","","","100.77","","","","-4","","NA"
"2019-03-24 02:00","2019","03","24","02:00","-0.7","","-7.6","","59","","25","","13","","","","100.74","","","","-5","","NA"
"2019-03-24 03:00","2019","03","24","03:00","-1.5","","-6.7","","68","","24","","12","","","","100.70","","","","-6","","NA"
"2019-03-24 04:00","2019","03","24","04:00","-2.0","","-4.4","","84","","22","","13","","","","100.69","","","","-6","","NA"
"2019-03-24 05:00","2019","03","24","05:00","-1.5","","-3.1","","89","","23","","14","","","","100.68","","","","-6","","NA"
"2019-03-24 06:00","2019","03","24","06:00","-1.5","","-3.3","","87","","24","","14","","","","100.67","","","","-6","","NA"
"2019-03-24 07:00","2019","03","24","07:00","-0.9","","-3.1","","85","","23","","14","","","","100.71","","","","-5","","NA"
"2019-03-24 08:00","2019","03","24","08:00","1.2","","-2.8","","75","","25","","15","","","","100.71","","","","","","NA"
"2019-03-24 09:00","2019","03","24","09:00","3.3","","-1.7","","70","","23","","19","","","","100.68","","","","","","NA"
"2019-03-24 10:00","2019","03","24","10:00","5.0","","-1.0","","65","","23","","23","","","","100.63","","","","","","NA"
"2019-03-24 11:00","2019","03","24","11:00","6.1","","-0.8","","61","","24","","21","","","","100.57","","","","","","NA"
"2019-03-24 12:00","2019","03","24","12:00","6.2","","-0.7","","62","","24","","17","","","","100.52","","","","","","NA"
"2019-03-24 13:00","2019","03","24","13:00","6.5","","-0.8","","60","","23","","18","","","","100.45","","","","","","NA"
"2019-03-24 14:00","2019","03","24","14:00","7.2","","-0.1","","60","","23","","21","","","","100.39","","","","","","NA"
"2019-03-24 15:00","2019","03","24","15:00","6.4","","0.0","","64","","22","","16","","","","100.34","","","","","","NA"
"2019-03-24 16:00","2019","03","24","16:00","5.9","","-0.7","","62","","23","","21","","","","100.32","","","","","","NA"
"2019-03-24 17:00","2019","03","24","17:00","5.1","","-0.4","","68","","24","","17","","","","100.32","","","","","","NA"
"2019-03-24 18:00","2019","03","24","18:00","3.4","","-0.7","","74","","24","","18","","","","100.36","","","","","","NA"
"2019-03-24 19:00","2019","03","24","19:00","2.2","","-3.2","","67","","1","","17","","","","100.50","","","","","","NA"
"2019-03-24 20:00","2019","03","24","20:00","0.6","","-4.0","","71","","1","","26","","","","100.61","","","","","","NA"
"2019-03-24 21:00","2019","03","24","21:00","-0.3","","-4.2","","75","","36","","20","","","","100.70","","","","-6","","NA"
"2019-03-24 22:00","2019","03","24","22:00","-1.0","","-4.2","","79","","1","","14","","","","100.76","","","","-5","","NA"
"2019-03-24 23:00","2019","03","24","23:00","-1.5","","-6.1","","71","","1","","13","","","","100.83","","","","-6","","NA"
"2019-03-25 00:00","2019","03","25","00:00","-2.5","","-7.0","","71","","35","","16","","","","100.90","","","","-8","","NA"
"2019-03-25 01:00","2019","03","25","01:00","-4.2","","-9.2","","68","","35","","12","","","","100.96","","","","-9","","NA"
"2019-03-25 02:00","2019","03","25","02:00","-4.0","","-9.0","","68","","32","","9","","","","101.02","","","","-8","","NA"
"2019-03-25 03:00","2019","03","25","03:00","-5.3","","-10.1","","69","","32","","8","","","","101.03","","","","-9","","NA"
"2019-03-25 04:00","2019","03","25","04:00","-5.5","","-9.4","","74","","30","","6","","","","101.09","","","","-8","","NA"
"2019-03-25 05:00","2019","03","25","05:00","-7.0","","-10.4","","77","","33","","7","","","","101.13","","","","-11","","NA"
"2019-03-25 06:00","2019","03","25","06:00","-8.1","","-11.6","","76","","34","","11","","","","101.21","","","","-13","","NA"
"2019-03-25 07:00","2019","03","25","07:00","-5.8","","-12.2","","60","","36","","12","","","","101.30","","","","-11","","NA"
"2019-03-25 08:00","2019","03","25","08:00","-4.2","","-17.3","","35","","2","","14","","","","101.33","","","","-9","","NA"
"2019-03-25 09:00","2019","03","25","09:00","-3.0","","-16.6","","34","","2","","10","","","","101.34","","","","-7","","NA"
"2019-03-25 10:00","2019","03","25","10:00","-2.4","","-17.6","","30","","3","","7","","","","101.30","","","","-5","","NA"
"2019-03-25 11:00","2019","03","25","11:00","-2.3","","-14.1","","40","","17","","15","","","","101.26","","","","-7","","NA"
"2019-03-25 12:00","2019","03","25","12:00","-2.1","","-14.1","","39","","18","","18","","","","101.20","","","","-8","","NA"
"2019-03-25 13:00","2019","03","25","13:00","-1.0","","-11.0","","46","","18","","19","","","","101.13","","","","-6","","NA"
"2019-03-25 14:00","2019","03","25","14:00","-1.4","","-10.8","","49","","18","","22","","","","101.04","","","","-7","","NA"
"2019-03-25 15:00","2019","03","25","15:00","-1.2","","-9.8","","52","","19","","26","","","","100.99","","","","-8","","NA"
"2019-03-25 16:00","2019","03","25","16:00","-1.4","","-9.9","","52","","20","","31","","","","100.91","","","","-8","","NA"
"2019-03-25 17:00","2019","03","25","17:00","-0.7","","-7.6","","60","","20","","28","","","","100.89","","","","-7","","NA"
"2019-03-25 18:00","2019","03","25","18:00","-1.2","","-9.1","","55","","21","","25","","","","100.90","","","","-7","","NA"
"2019-03-25 19:00","2019","03","25","19:00","-1.9","","-8.9","","59","","23","","20","","","","100.91","","","","-8","","NA"
"2019-03-25 20:00","2019","03","25","20:00","-2.0","","-8.1","","63","","25","","17","","","","100.95","","","","-7","","NA"
"2019-03-25 21:00","2019","03","25","21:00","-2.1","","-10.3","","54","","27","","16","","","","101.05","","","","-7","","NA"
"2019-03-25 22:00","2019","03","25","22:00","-2.5","","-13.1","","44","","29","","17","","","","101.11","","","","-8","","NA"
"2019-03-25 23:00","2019","03","25","23:00","-3.3","","-13.2","","46","","29","","11","","","","101.19","","","","-8","","NA"
"2019-03-26 00:00","2019","03","26","00:00","-3.9","","-13.1","","49","","30","","12","","","","101.24","","","","-9","","NA"
"2019-03-26 01:00","2019","03","26","01:00","-4.5","","-13.2","","51","","31","","11","","","","101.28","","","","-9","","NA"
"2019-03-26 02:00","2019","03","26","02:00","-5.0","","-12.5","","56","","32","","14","","","","101.33","","","","-10","","NA"
"2019-03-26 03:00","2019","03","26","03:00","-5.5","","-12.3","","59","","34","","16","","","","101.35","","","","-11","","NA"
"2019-03-26 04:00","2019","03","26","04:00","-6.7","","-12.0","","66","","34","","13","","","","101.40","","","","-12","","NA"
"2019-03-26 05:00","2019","03","26","05:00","-7.7","","-12.3","","70","","35","","11","","","","101.49","","","","-13","","NA"
"2019-03-26 06:00","2019","03","26","06:00","-6.8","","-13.7","","58","","1","","8","","","","101.61","","","","-11","","NA"
"2019-03-26 07:00","2019","03","26","07:00","-5.3","","-12.0","","59","","35","","5","","","","101.72","","","","-8","","NA"
"2019-03-26 08:00","2019","03","26","08:00","-3.0","","-15.3","","38","","1","","15","","","","101.81","","","","-8","","NA"
"2019-03-26 09:00","2019","03","26","09:00","-2.3","","-17.1","","31","","2","","17","","","","101.88","","","","-8","","NA"
"2019-03-26 10:00","2019","03","26","10:00","-1.2","","-17.1","","29","","36","","15","","","","101.90","","","","-6","","NA"
"2019-03-26 11:00","2019","03","26","11:00","-0.3","","-16.7","","28","","34","","10","","","","101.90","","","","-4","","NA"
"2019-03-26 12:00","2019","03","26","12:00","0.0","","-18.5","","23","","30","","10","","","","101.87","","","","-3","","NA"
"2019-03-26 13:00","2019","03","26","13:00","0.0","","-10.3","","46","","19","","22","","","","101.85","","","","-6","","NA"
"2019-03-26 14:00","2019","03","26","14:00","-0.1","","-10.7","","45","","20","","24","","","","101.83","","","","-6","","NA"
"2019-03-26 15:00","2019","03","26","15:00","-0.2","","-9.4","","50","","19","","26","","","","101.82","","","","-6","","NA"
"2019-03-26 16:00","2019","03","26","16:00","0.0","","-9.6","","49","","19","","22","","","","101.80","","","","-6","","NA"
"2019-03-26 17:00","2019","03","26","17:00","0.1","","-7.9","","55","","19","","20","","","","101.79","","","","","","NA"
"2019-03-26 18:00","2019","03","26","18:00","-0.1","","-8.2","","54","","20","","15","","","","101.77","","","","-5","","NA"
"2019-03-26 19:00","2019","03","26","19:00","-1.0","","-9.8","","52","","23","","18","","","","101.80","","","","-6","","NA"
"2019-03-26 20:00","2019","03","26","20:00","-1.8","","-8.8","","59","","22","","11","","","","101.85","","","","-6","","NA"
"2019-03-26 21:00","2019","03","26","21:00","-2.4","","-8.5","","63","","24","","7","","","","101.86","","","","-5","","NA"
"2019-03-26 22:00","2019","03","26","22:00","-3.0","","-7.5","","71","","24","","9","","","","101.85","","","","-7","","NA"
"2019-03-26 23:00","2019","03","26","23:00","-2.8","","-7.8","","68","","26","","11","","","","101.85","","","","-7","","NA"
"2019-03-27 00:00","2019","03","27","00:00","-3.3","","-8.3","","68","","28","","8","","","","101.84","","","","-7","","NA"
"2019-03-27 01:00","2019","03","27","01:00","-5.2","","-8.1","","80","","27","","4","","","","101.87","","","","-7","","NA"
"2019-03-27 02:00","2019","03","27","02:00","-5.4","","-8.4","","79","","28","","3","","","","101.90","","","","-7","","NA"
"2019-03-27 03:00","2019","03","27","03:00","-6.1","","-8.8","","81","","12","","3","","","","101.93","","","","-8","","NA"
"2019-03-27 04:00","2019","03","27","04:00","-4.9","","-7.4","","83","","16","","8","","","","101.95","","","","-8","","NA"
"2019-03-27 05:00","2019","03","27","05:00","-7.3","","-9.7","","83","","25","","4","","","","102.01","","","","-9","","NA"
"2019-03-27 06:00","2019","03","27","06:00","-6.3","","-8.9","","82","","33","","4","","","","102.04","","","","-8","","NA"
"2019-03-27 07:00","2019","03","27","07:00","-4.1","","-7.8","","75","","15","","7","","","","102.09","","","","-7","","NA"
"2019-03-27 08:00","2019","03","27","08:00","-1.4","","-4.9","","77","","17","","6","","","","102.10","","","","-4","","NA"
"2019-03-27 09:00","2019","03","27","09:00","2.2","","-3.5","","66","","20","","16","","","","102.12","","","","","","NA"
"2019-03-27 10:00","2019","03","27","10:00","1.9","","-3.3","","68","","18","","19","","","","102.12","","","","","","NA"
"2019-03-27 11:00","2019","03","27","11:00","2.6","","-2.1","","71","","18","","20","","","","102.07","","","","","","NA"
"2019-03-27 12:00","2019","03","27","12:00","2.1","","-3.5","","66","","18","","21","","","","102.03","","","","","","NA"
"2019-03-27 13:00","2019","03","27","13:00","2.3","","-3.7","","65","","17","","21","","","","101.95","","","","","","NA"
"2019-03-27 14:00","2019","03","27","14:00","2.1","","-3.6","","66","","18","","18","","","","101.87","","","","","","NA"
"2019-03-27 15:00","2019","03","27","15:00","1.9","","-3.6","","67","","17","","12","","","","101.79","","","","","","NA"
"2019-03-27 16:00","2019","03","27","16:00","2.1","","-7.0","","51","","17","","7","","","","101.75","","","","","","NA"
"2019-03-27 17:00","2019","03","27","17:00","3.2","","-10.5","","36","","17","","5","","","","101.68","","","","","","NA"
"2019-03-27 18:00","2019","03","27","18:00","2.1","","-12.9","","32","","14","","6","","","","101.60","","","","","","NA"
"2019-03-27 19:00","2019","03","27","19:00","1.2","","-13.9","","31","","6","","2","","","","101.53","","","","","","NA"
"2019-03-27 20:00","2019","03","27","20:00","-0.5","","-12.5","","40","","7","","4","","","","101.46","","","","-2","","NA"
"2019-03-27 21:00","2019","03","27","21:00","-1.0","","-10.3","","49","","9","","6","","","","101.35","","","","-3","","NA"
"2019-03-27 22:00","2019","03","27","22:00","-0.2","","-9.8","","48","","11","","7","","","","101.23","","","","-3","","NA"
"2019-03-27 23:00","2019","03","27","23:00","0.6","","-4.9","","67","","17","","12","","","","101.15","","","","","","NA"
"2019-03-28 00:00","2019","03","28","00:00","1.7","","-4.4","","64","","17","","16","","","","101.11","","","","","","NA"
"2019-03-28 01:00","2019","03","28","01:00","1.4","","-3.2","","72","","18","","20","","","","101.09","","","","","","NA"
"2019-03-28 02:00","2019","03","28","02:00","0.8","","-2.5","","78","","18","","15","","","","101.09","","","","","","NA"
"2019-03-28 03:00","2019","03","28","03:00","1.3","","-1.9","","79","","17","","16","","","","101.07","","","","","","NA"
"2019-03-28 04:00","2019","03","28","04:00","0.9","","-2.3","","79","","17","","12","","","","101.04","","","","","","NA"
"2019-03-28 05:00","2019","03","28","05:00","1.7","","-2.7","","72","","18","","18","","","","100.99","","","","","","NA"
"2019-03-28 06:00","2019","03","28","06:00","2.1","","-2.7","","71","","18","","24","","","","100.95","","","","","","NA"
"2019-03-28 07:00","2019","03","28","07:00","2.2","","-2.7","","70","","17","","27","","","","100.91","","","","","","NA"
"2019-03-28 08:00","2019","03","28","08:00","2.3","","-2.7","","69","","18","","28","","","","100.87","","","","","","NA"
"2019-03-28 09:00","2019","03","28","09:00","3.3","","-2.8","","64","","18","","27","","","","100.82","","","","","","NA"
"2019-03-28 10:00","2019","03","28","10:00","2.9","","-2.0","","71","","19","","26","","","","100.82","","","","","","NA"
"2019-03-28 11:00","2019","03","28","11:00","3.8","","-1.0","","71","","19","","34","","","","100.74","","","","","","NA"
"2019-03-28 12:00","2019","03","28","12:00","3.5","","-1.0","","73","","18","","27","","","","100.63","","","","","","NA"
"2019-03-28 13:00","2019","03","28","13:00","3.6","","-0.2","","76","","18","","25","","","","100.58","","","","","","NA"
"2019-03-28 14:00","2019","03","28","14:00","4.1","","-0.3","","73","","19","","20","","","","100.47","","","","","","NA"
"2019-03-28 15:00","2019","03","28","15:00","4.8","","-0.3","","70","","21","","20","","","","100.46","","","","","","NA"
"2019-03-28 16:00","2019","03","28","16:00","7.4","","0.5","","62","","22","","23","","","","100.42","","","","","","NA"
"2019-03-28 17:00","2019","03","28","17:00","6.3","","1.6","","72","","23","","13","","","","100.40","","","","","","NA"
"2019-03-28 18:00","2019","03","28","18:00","5.2","","1.4","","76","","22","","8","","","","100.44","","","","","","NA"
"2019-03-28 19:00","2019","03","28","19:00","2.5","","0.4","","86","","17","","12","","","","100.50","","","","","","NA"
"2019-03-28 20:00","2019","03","28","20:00","3.6","","1.2","","84","","21","","9","","","","100.52","","","","","","NA"
"2019-03-28 21:00","2019","03","28","21:00","3.1","","1.1","","87","","19","","9","","","","100.55","","","","","","NA"
"2019-03-28 22:00","2019","03","28","22:00","4.4","","1.7","","83","","23","","7","","","","100.53","","","","","","NA"
"2019-03-28 23:00","2019","03","28","23:00","2.5","","1.2","","91","","19","","5","","","","100.51","","","","","","NA"
"2019-03-29 00:00","2019","03","29","00:00","2.7","","1.5","","92","","","","0","","","","100.46","","","","","","NA"
"2019-03-29 01:00","2019","03","29","01:00","2.7","","1.4","","91","","3","","5","","","","100.47","","","","","","NA"
"2019-03-29 02:00","2019","03","29","02:00","4.8","","2.5","","85","","29","","11","","","","100.51","","","","","","NA"
"2019-03-29 03:00","2019","03","29","03:00","3.8","","2.5","","91","","31","","9","","","","100.47","","","","","","NA"
"2019-03-29 04:00","2019","03","29","04:00","3.7","","2.5","","92","","28","","3","","","","100.46","","","","","","NA"
"2019-03-29 05:00","2019","03","29","05:00","3.0","","2.1","","94","","26","","6","","","","100.51","","","","","","NA"
"2019-03-29 06:00","2019","03","29","06:00","2.9","","1.9","","93","","27","","8","","","","100.53","","","","","","NA"
"2019-03-29 07:00","2019","03","29","07:00","2.9","","1.7","","92","","28","","8","","","","100.61","","","","","","NA"
"2019-03-29 08:00","2019","03","29","08:00","2.8","","1.9","","94","","27","","8","","","","100.64","","","","","","NA"
"2019-03-29 09:00","2019","03","29","09:00","4.3","","2.8","","90","","27","","8","","","","100.70","","","","","","NA"
"2019-03-29 10:00","2019","03","29","10:00","6.0","","0.6","","68","","31","","9","","","","100.73","","","","","","NA"
"2019-03-29 11:00","2019","03","29","11:00","7.2","","1.9","","69","","21","","11","","","","100.73","","","","","","NA"
"2019-03-29 12:00","2019","03","29","12:00","5.6","","2.2","","78","","16","","14","","","","100.71","","","","","","NA"
"2019-03-29 13:00","2019","03","29","13:00","5.2","","2.0","","80","","17","","16","","","","100.69","","","","","","NA"
"2019-03-29 14:00","2019","03","29","14:00","6.3","","1.9","","74","","19","","21","","","","100.65","","","","","","NA"
"2019-03-29 15:00","2019","03","29","15:00","4.4","","0.7","","76","","19","","18","","","","100.66","","","","","","NA"
"2019-03-29 16:00","2019","03","29","16:00","3.1","","0.2","","81","","16","","15","","","","100.68","","","","","","NA"
"2019-03-29 17:00","2019","03","29","17:00","3.2","","-0.4","","77","","16","","8","","","","100.71","","","","","","NA"
"2019-03-29 18:00","2019","03","29","18:00","2.5","","-1.2","","76","","13","","7","","","","100.75","","","","","","NA"
"2019-03-29 19:00","2019","03","29","19:00","1.1","","-1.8","","81","","10","","7","","","","100.78","","","","","","NA"
"2019-03-29 20:00","2019","03","29","20:00","0.4","","-2.0","","85","","8","","6","","","","100.85","","","","","","NA"
"2019-03-29 21:00","2019","03","29","21:00","0.5","","-2.3","","81","","6","","10","","","","100.87","","","","","","NA"
"2019-03-29 22:00","2019","03","29","22:00","1.2","","-2.4","","77","","9","","6","","","","100.86","","","","","","NA"
"2019-03-29 23:00","2019","03","29","23:00","0.7","","-3.6","","73","","5","","6","","","","100.82","","","","","","NA"
"2019-03-30 00:00","2019","03","30","00:00","0.1","","-3.6","","76","","6","","5","","","","100.78","","","","","","NA"
"2019-03-30 01:00","2019","03","30","01:00","-0.9","","-4.7","","75","","4","","6","","","","100.73","","","","-3","","NA"
"2019-03-30 02:00","2019","03","30","02:00","0.3","","-3.9","","74","","5","","5","","","","100.65","","","","","","NA"
"2019-03-30 03:00","2019","03","30","03:00","0.4","","-3.0","","78","","6","","4","","","","100.59","","","","","","NA"
"2019-03-30 04:00","2019","03","30","04:00","0.9","","-2.2","","80","","5","","8","","","","100.49","","","","","","NA"
"2019-03-30 05:00","2019","03","30","05:00","1.1","","-1.6","","82","","3","","9","","","","100.45","","","","","","NA"
"2019-03-30 06:00","2019","03","30","06:00","1.1","","-0.6","","88","","5","","14","","","","100.31","","","","","","NA"
"2019-03-30 07:00","2019","03","30","07:00","1.1","","0.1","","93","","5","","16","","","","100.21","","","","","","NA"
"2019-03-30 08:00","2019","03","30","08:00","1.7","","1.1","","95","","4","","16","","","","100.08","","","","","","NA"
"2019-03-30 09:00","2019","03","30","09:00","2.1","","1.6","","96","","6","","22","","","","99.96","","","","","","NA"
"2019-03-30 10:00","2019","03","30","10:00","2.7","","2.1","","96","","5","","12","","","","99.92","","","","","","NA"
"2019-03-30 11:00","2019","03","30","11:00","3.1","","2.6","","97","","6","","11","","","","99.79","","","","","","NA"
"2019-03-30 12:00","2019","03","30","12:00","4.6","","4.1","","97","","8","","11","","","","99.67","","","","","","NA"
"2019-03-30 13:00","2019","03","30","13:00","7.0","","6.3","","95","","14","","29","","","","99.46","","","","","","NA"
"2019-03-30 14:00","2019","03","30","14:00","6.2","","5.2","","94","","15","","27","","","","99.26","","","","","","NA"
"2019-03-30 15:00","2019","03","30","15:00","6.0","","4.4","","90","","15","","26","","","","99.19","","","","","","NA"
"2019-03-30 16:00","2019","03","30","16:00","6.9","","6.2","","95","","19","","26","","","","99.30","","","","","","NA"
"2019-03-30 17:00","2019","03","30","17:00","6.0","","5.5","","97","","20","","9","","","","99.31","","","","","","NA"
"2019-03-30 18:00","2019","03","30","18:00","4.9","","4.5","","97","","14","","9","","","","99.31","","","","","","NA"
"2019-03-30 19:00","2019","03","30","19:00","6.2","","5.9","","98","","5","","10","","","","99.40","","","","","","NA"
"2019-03-30 20:00","2019","03","30","20:00","1.9","","1.3","","96","","1","","19","","","","99.41","","","","","","NA"
"2019-03-30 21:00","2019","03","30","21:00","1.5","","0.9","","96","","2","","17","","","","99.35","","","","","","NA"
"2019-03-30 22:00","2019","03","30","22:00","1.5","","0.7","","95","","1","","25","","","","99.29","","","","","","NA"
"2019-03-30 23:00","2019","03","30","23:00","1.4","","0.6","","95","","2","","19","","","","99.28","","","","","","NA"
"2019-03-31 00:00","2019","03","31","00:00","1.2","","0.4","","94","","3","","23","","","","99.00","","","","","","NA"
"2019-03-31 01:00","2019","03","31","01:00","1.1","","0.2","","93","","36","","22","","","","99.09","","","","","","NA"
"2019-03-31 02:00","2019","03","31","02:00","1.1","","-0.1","","92","","2","","18","","","","99.02","","","","","","NA"
"2019-03-31 03:00","2019","03","31","03:00","0.9","","0.0","","94","","1","","14","","","","99.01","","","","","","NA"
"2019-03-31 04:00","2019","03","31","04:00","0.6","","0.0","","96","","32","","4","","","","99.00","","","","","","NA"
"2019-03-31 05:00","2019","03","31","05:00","0.5","","-0.1","","95","","28","","14","","","","99.16","","","","","","NA"
"2019-03-31 06:00","2019","03","31","06:00","0.3","","-0.6","","94","","31","","16","","","","99.25","","","","","","NA"
"2019-03-31 07:00","2019","03","31","07:00","0.1","","-0.9","","93","","30","","14","","","","99.43","","","","","","NA"
"2019-03-31 08:00","2019","03","31","08:00","0.1","","-0.9","","93","","28","","7","","","","99.53","","","","","","NA"
"2019-03-31 09:00","2019","03","31","09:00","0.3","","-1.0","","91","","29","","12","","","","99.65","","","","","","NA"
"2019-03-31 10:00","2019","03","31","10:00","0.7","","-0.8","","89","","28","","12","","","","99.75","","","","","","NA"
"2019-03-31 11:00","2019","03","31","11:00","1.1","","-0.6","","88","","28","","13","","","","99.79","","","","","","NA"
"2019-03-31 12:00","2019","03","31","12:00","1.0","","-0.7","","88","","28","","14","","","","99.83","","","","","","NA"
"2019-03-31 13:00","2019","03","31","13:00","1.7","","-0.3","","87","","28","","11","","","","99.86","","","","","","NA"
"2019-03-31 14:00","2019","03","31","14:00","2.0","","1.0","","93","","23","","13","","","","99.86","","","","","","NA"
"2019-03-31 15:00","2019","03","31","15:00","3.0","","1.1","","88","","28","","17","","","","99.89","","","","","","NA"
"2019-03-31 16:00","2019","03","31","16:00","1.4","","-0.4","","88","","28","","14","","","","99.93","","","","","","NA"
"2019-03-31 17:00","2019","03","31","17:00","1.2","","0.0","","92","","29","","7","","","","99.97","","","","","","NA"
"2019-03-31 18:00","2019","03","31","18:00","1.0","","-1.5","","84","","33","","15","","","","100.08","","","","","","NA"
"2019-03-31 19:00","2019","03","31","19:00","0.4","","-2.6","","80","","33","","17","","","","100.17","","","","","","NA"
"2019-03-31 20:00","2019","03","31","20:00","0.1","","-2.7","","81","","34","","15","","","","100.29","","","","","","NA"
"2019-03-31 21:00","2019","03","31","21:00","-0.1","","-4.3","","73","","32","","16","","","","100.36","","","","-5","","NA"
"2019-03-31 22:00","2019","03","31","22:00","-0.7","","-4.0","","78","","31","","9","","","","100.40","","","","-4","","NA"
"2019-03-31 23:00","2019","03","31","23:00","-0.7","","-4.9","","73","","31","","17","","","","100.45","","","","-6","","NA"
