"Station Name","KINGSTON CLIMATE"
"Province","ONTARIO"
"Latitude","44.22"
"Longitude","-76.60"
"Elevation","93.00"
"Climate Identifier","6104142"
"WMO Identifier","71820"
"TC Identifier","TKG"
"All times are specified in Local Standard Time (LST). Add 1 hour to adjust for Daylight Saving Time where and when it is observed."

"Legend"
"E","Estimated"
"M","Missing"
"NA","Not Available"

"Date/Time","Year","Month","Day","Time","Temp (°C)","Temp Flag","Dew Point Temp (°C)","Dew Point Temp Flag","Rel Hum (%)","Rel Hum Flag","Wind Dir (10s deg)","Wind Dir Flag","Wind Spd (km/h)","Wind Spd Flag","Visibility (km)","Visibility Flag","Stn Press (kPa)","Stn Press Flag","Hmdx","Hmdx Flag","Wind Chill","Wind Chill Flag","Weather"
"2017-07-01 00:00","2017","07","01","00:00","18.9","","17.6","","92","","17","","7","","","","99.99","","","","","","NA"
"2017-07-01 01:00","2017","07","01","01:00","19.0","","17.8","","92","","19","","9","","","","99.98","","","","","","NA"
"2017-07-01 02:00","2017","07","01","02:00","18.8","","17.6","","92","","17","","11","","","","99.92","","","","","","NA"
"2017-07-01 03:00","2017","07","01","03:00","18.7","","17.5","","93","","18","","7","","","","99.90","","","","","","NA"
"2017-07-01 04:00","2017","07","01","04:00","18.8","","17.8","","93","","17","","8","","","","99.91","","","","","","NA"
"2017-07-01 05:00","2017","07","01","05:00","18.8","","17.7","","94","","17","","10","","","","99.92","","","","","","NA"
"2017-07-01 06:00","2017","07","01","06:00","18.8","","17.9","","94","","20","","9","","","","99.95","","","","","","NA"
"2017-07-01 07:00","2017","07","01","07:00","19.1","","18.2","","94","","16","","9","","","","99.91","","","","","","NA"
"2017-07-01 08:00","2017","07","01","08:00","19.3","","18.2","","93","","18","","9","","","","99.94","","","","","","NA"
"2017-07-01 09:00","2017","07","01","09:00","19.8","","18.8","","94","","17","","2","","","","99.91","","","","","","NA"
"2017-07-01 10:00","2017","07","01","10:00","19.6","","18.7","","94","","19","","9","","","","99.89","","","","","","NA"
"2017-07-01 11:00","2017","07","01","11:00","19.6","","18.6","","94","","19","","10","","","","99.87","","","","","","NA"
"2017-07-01 12:00","2017","07","01","12:00","19.8","","18.5","","93","","19","","15","","","","99.83","","","","","","NA"
"2017-07-01 13:00","2017","07","01","13:00","21.2","","19.4","","90","","19","","16","","","","99.78","","28","","","","NA"
"2017-07-01 14:00","2017","07","01","14:00","21.2","","19.0","","87","","18","","18","","","","99.72","","28","","","","NA"
"2017-07-01 15:00","2017","07","01","15:00","21.9","","19.3","","85","","19","","19","","","","99.70","","29","","","","NA"
"2017-07-01 16:00","2017","07","01","16:00","24.3","","19.4","","75","","22","","17","","","","99.66","","31","","","","NA"
"2017-07-01 17:00","2017","07","01","17:00","21.1","","18.7","","87","","19","","21","","","","99.70","","28","","","","NA"
"2017-07-01 18:00","2017","07","01","18:00","20.0","","18.5","","91","","18","","18","","","","99.68","","26","","","","NA"
"2017-07-01 19:00","2017","07","01","19:00","20.5","","18.7","","90","","20","","16","","","","99.70","","27","","","","NA"
"2017-07-01 20:00","2017","07","01","20:00","20.5","","17.7","","84","","24","","22","","","","99.75","","26","","","","NA"
"2017-07-01 21:00","2017","07","01","21:00","19.5","","16.4","","82","","25","","14","","","","99.87","","","","","","NA"
"2017-07-01 22:00","2017","07","01","22:00","18.9","","16.5","","86","","26","","10","","","","99.93","","","","","","NA"
"2017-07-01 23:00","2017","07","01","23:00","18.4","","16.6","","89","","25","","12","","","","99.97","","","","","","NA"
"2017-07-02 00:00","2017","07","02","00:00","18.3","","16.1","","87","","24","","15","","","","99.97","","","","","","NA"
"2017-07-02 01:00","2017","07","02","01:00","17.9","","14.6","","81","","27","","15","","","","100.02","","","","","","NA"
"2017-07-02 02:00","2017","07","02","02:00","17.2","","13.4","","78","","26","","16","","","","100.03","","","","","","NA"
"2017-07-02 03:00","2017","07","02","03:00","16.6","","12.9","","79","","26","","15","","","","100.05","","","","","","NA"
"2017-07-02 04:00","2017","07","02","04:00","16.2","","13.0","","81","","25","","12","","","","100.11","","","","","","NA"
"2017-07-02 05:00","2017","07","02","05:00","15.7","","12.8","","83","","26","","8","","","","100.15","","","","","","NA"
"2017-07-02 06:00","2017","07","02","06:00","17.0","","14.0","","82","","23","","7","","","","100.21","","","","","","NA"
"2017-07-02 07:00","2017","07","02","07:00","17.6","","13.9","","79","","24","","9","","","","100.25","","","","","","NA"
"2017-07-02 08:00","2017","07","02","08:00","17.9","","14.2","","79","","23","","11","","","","100.30","","","","","","NA"
"2017-07-02 09:00","2017","07","02","09:00","18.8","","14.6","","77","","23","","12","","","","100.32","","","","","","NA"
"2017-07-02 10:00","2017","07","02","10:00","19.3","","15.0","","76","","25","","14","","","","100.33","","","","","","NA"
"2017-07-02 11:00","2017","07","02","11:00","20.2","","15.5","","74","","22","","13","","","","100.34","","","","","","NA"
"2017-07-02 12:00","2017","07","02","12:00","21.4","","16.3","","73","","18","","18","","","","100.31","","26","","","","NA"
"2017-07-02 13:00","2017","07","02","13:00","21.3","","16.3","","73","","18","","21","","","","100.29","","26","","","","NA"
"2017-07-02 14:00","2017","07","02","14:00","23.4","","16.5","","65","","23","","20","","","","100.23","","28","","","","NA"
"2017-07-02 15:00","2017","07","02","15:00","21.5","","16.1","","71","","19","","20","","","","100.21","","26","","","","NA"
"2017-07-02 16:00","2017","07","02","16:00","22.2","","15.4","","66","","21","","12","","","","100.15","","26","","","","NA"
"2017-07-02 17:00","2017","07","02","17:00","20.3","","16.8","","81","","19","","10","","","","100.14","","25","","","","NA"
"2017-07-02 18:00","2017","07","02","18:00","21.1","","16.9","","77","","24","","13","","","","100.14","","26","","","","NA"
"2017-07-02 19:00","2017","07","02","19:00","19.6","","17.1","","86","","20","","11","","","","100.10","","","","","","NA"
"2017-07-02 20:00","2017","07","02","20:00","18.3","","16.4","","89","","20","","14","","","","100.06","","","","","","NA"
"2017-07-02 21:00","2017","07","02","21:00","15.7","","13.6","","87","","30","","22","","","","100.25","","","","","","NA"
"2017-07-02 22:00","2017","07","02","22:00","16.0","","14.4","","91","","23","","11","","","","100.19","","","","","","NA"
"2017-07-02 23:00","2017","07","02","23:00","16.6","","15.1","","91","","23","","14","","","","100.18","","","","","","NA"
"2017-07-03 00:00","2017","07","03","00:00","16.4","","15.0","","91","","25","","8","","","","100.21","","","","","","NA"
"2017-07-03 01:00","2017","07","03","01:00","17.0","","15.5","","91","","25","","12","","","","100.21","","","","","","NA"
"2017-07-03 02:00","2017","07","03","02:00","16.2","","14.6","","91","","27","","11","","","","100.24","","","","","","NA"
"2017-07-03 03:00","2017","07","03","03:00","15.8","","14.2","","90","","27","","11","","","","100.26","","","","","","NA"
"2017-07-03 04:00","2017","07","03","04:00","14.6","","13.2","","91","","28","","8","","","","100.28","","","","","","NA"
"2017-07-03 05:00","2017","07","03","05:00","14.1","","12.7","","91","","29","","8","","","","100.33","","","","","","NA"
"2017-07-03 06:00","2017","07","03","06:00","15.2","","13.5","","90","","29","","8","","","","100.37","","","","","","NA"
"2017-07-03 07:00","2017","07","03","07:00","16.8","","14.0","","84","","31","","10","","","","100.43","","","","","","NA"
"2017-07-03 08:00","2017","07","03","08:00","18.8","","15.0","","78","","30","","11","","","","100.46","","","","","","NA"
"2017-07-03 09:00","2017","07","03","09:00","20.3","","14.8","","71","","28","","13","","","","100.48","","","","","","NA"
"2017-07-03 10:00","2017","07","03","10:00","21.2","","15.0","","68","","27","","15","","","","100.47","","25","","","","NA"
"2017-07-03 11:00","2017","07","03","11:00","22.1","","14.7","","63","","29","","16","","","","100.48","","26","","","","NA"
"2017-07-03 12:00","2017","07","03","12:00","22.2","","14.7","","63","","26","","12","","","","100.47","","26","","","","NA"
"2017-07-03 13:00","2017","07","03","13:00","22.2","","13.6","","58","","31","","14","","","","100.46","","25","","","","NA"
"2017-07-03 14:00","2017","07","03","14:00","23.7","","14.4","","56","","22","","17","","","","100.44","","27","","","","NA"
"2017-07-03 15:00","2017","07","03","15:00","22.5","","13.8","","58","","23","","13","","","","100.46","","26","","","","NA"
"2017-07-03 16:00","2017","07","03","16:00","21.3","","17.1","","77","","19","","18","","","","100.44","","27","","","","NA"
"2017-07-03 17:00","2017","07","03","17:00","21.4","","17.3","","78","","20","","22","","","","100.43","","27","","","","NA"
"2017-07-03 18:00","2017","07","03","18:00","20.9","","16.8","","77","","21","","14","","","","100.45","","26","","","","NA"
"2017-07-03 19:00","2017","07","03","19:00","20.7","","15.6","","72","","23","","15","","","","100.47","","25","","","","NA"
"2017-07-03 20:00","2017","07","03","20:00","18.8","","14.9","","78","","22","","7","","","","100.54","","","","","","NA"
"2017-07-03 21:00","2017","07","03","21:00","17.1","","15.6","","91","","31","","4","","","","100.60","","","","","","NA"
"2017-07-03 22:00","2017","07","03","22:00","16.5","","14.5","","89","","26","","4","","","","100.63","","","","","","NA"
"2017-07-03 23:00","2017","07","03","23:00","16.5","","14.2","","86","","28","","6","","","","100.63","","","","","","NA"
"2017-07-04 00:00","2017","07","04","00:00","15.6","","13.3","","86","","31","","8","","","","100.62","","","","","","NA"
"2017-07-04 01:00","2017","07","04","01:00","14.3","","13.0","","92","","32","","6","","","","100.62","","","","","","NA"
"2017-07-04 02:00","2017","07","04","02:00","14.1","","12.7","","92","","34","","12","","","","100.61","","","","","","NA"
"2017-07-04 03:00","2017","07","04","03:00","14.3","","13.0","","91","","34","","7","","","","100.63","","","","","","NA"
"2017-07-04 04:00","2017","07","04","04:00","13.2","","11.8","","91","","35","","10","","","","100.67","","","","","","NA"
"2017-07-04 05:00","2017","07","04","05:00","13.5","","11.9","","90","","35","","14","","","","100.72","","","","","","NA"
"2017-07-04 06:00","2017","07","04","06:00","16.1","","12.9","","82","","10","","3","","","","100.80","","","","","","NA"
"2017-07-04 07:00","2017","07","04","07:00","18.1","","13.5","","75","","0","","1","","","","100.86","","","","","","NA"
"2017-07-04 08:00","2017","07","04","08:00","19.0","","13.4","","70","","16","","5","","","","100.91","","","","","","NA"
"2017-07-04 09:00","2017","07","04","09:00","19.6","","13.9","","70","","17","","9","","","","100.93","","","","","","NA"
"2017-07-04 10:00","2017","07","04","10:00","20.7","","14.0","","66","","19","","7","","","","100.93","","","","","","NA"
"2017-07-04 11:00","2017","07","04","11:00","22.2","","13.1","","56","","17","","9","","","","100.92","","25","","","","NA"
"2017-07-04 12:00","2017","07","04","12:00","21.1","","13.9","","63","","19","","12","","","","100.89","","","","","","NA"
"2017-07-04 13:00","2017","07","04","13:00","23.1","","12.4","","51","","19","","15","","","","100.87","","26","","","","NA"
"2017-07-04 14:00","2017","07","04","14:00","23.6","","12.3","","49","","18","","14","","","","100.85","","26","","","","NA"
"2017-07-04 15:00","2017","07","04","15:00","24.2","","10.6","","42","","20","","14","","","","100.85","","26","","","","NA"
"2017-07-04 16:00","2017","07","04","16:00","23.6","","16.4","","64","","19","","15","","","","100.84","","28","","","","NA"
"2017-07-04 17:00","2017","07","04","17:00","23.2","","10.2","","44","","21","","14","","","","100.84","","25","","","","NA"
"2017-07-04 18:00","2017","07","04","18:00","22.2","","14.9","","63","","15","","9","","","","100.83","","26","","","","NA"
"2017-07-04 19:00","2017","07","04","19:00","22.0","","13.3","","58","","22","","5","","","","100.87","","25","","","","NA"
"2017-07-04 20:00","2017","07","04","20:00","18.8","","13.9","","73","","15","","4","","","","100.92","","","","","","NA"
"2017-07-04 21:00","2017","07","04","21:00","17.5","","13.3","","76","","","","0","","","","100.99","","","","","","NA"
"2017-07-04 22:00","2017","07","04","22:00","16.9","","13.1","","78","","30","","5","","","","101.01","","","","","","NA"
"2017-07-04 23:00","2017","07","04","23:00","14.9","","13.3","","90","","35","","7","","","","101.03","","","","","","NA"
"2017-07-05 00:00","2017","07","05","00:00","14.2","","12.6","","90","","34","","7","","","","101.02","","","","","","NA"
"2017-07-05 01:00","2017","07","05","01:00","12.9","","11.5","","92","","34","","8","","","","101.00","","","","","","NA"
"2017-07-05 02:00","2017","07","05","02:00","12.4","","10.8","","90","","34","","9","","","","100.99","","","","","","NA"
"2017-07-05 03:00","2017","07","05","03:00","12.0","","9.7","","86","","36","","7","","","","101.00","","","","","","NA"
"2017-07-05 04:00","2017","07","05","04:00","12.2","","10.6","","90","","2","","5","","","","101.07","","","","","","NA"
"2017-07-05 05:00","2017","07","05","05:00","12.1","","10.9","","92","","35","","4","","","","101.11","","","","","","NA"
"2017-07-05 06:00","2017","07","05","06:00","15.6","","13.7","","89","","3","","3","","","","101.18","","","","","","NA"
"2017-07-05 07:00","2017","07","05","07:00","19.7","","17.6","","88","","16","","6","","","","101.22","","","","","","NA"
"2017-07-05 08:00","2017","07","05","08:00","20.2","","18.0","","87","","15","","8","","","","101.24","","26","","","","NA"
"2017-07-05 09:00","2017","07","05","09:00","21.1","","16.7","","76","","16","","8","","","","101.22","","26","","","","NA"
"2017-07-05 10:00","2017","07","05","10:00","22.1","","14.5","","62","","16","","9","","","","101.18","","26","","","","NA"
"2017-07-05 11:00","2017","07","05","11:00","23.2","","13.9","","56","","17","","9","","","","101.14","","27","","","","NA"
"2017-07-05 12:00","2017","07","05","12:00","23.4","","11.5","","47","","17","","10","","","","101.08","","25","","","","NA"
"2017-07-05 13:00","2017","07","05","13:00","25.3","","10.9","","40","","19","","9","","","","101.04","","27","","","","NA"
"2017-07-05 14:00","2017","07","05","14:00","25.6","","7.5","","32","","21","","6","","","","101.02","","26","","","","NA"
"2017-07-05 15:00","2017","07","05","15:00","25.3","","7.7","","33","","17","","7","","","","100.95","","26","","","","NA"
"2017-07-05 16:00","2017","07","05","16:00","25.6","","7.7","","32","","18","","8","","","","100.89","","26","","","","NA"
"2017-07-05 17:00","2017","07","05","17:00","25.3","","7.4","","32","","18","","8","","","","100.83","","25","","","","NA"
"2017-07-05 18:00","2017","07","05","18:00","24.7","","9.2","","37","","19","","6","","","","100.78","","26","","","","NA"
"2017-07-05 19:00","2017","07","05","19:00","25.5","","11.6","","42","","0","","1","","","","100.77","","28","","","","NA"
"2017-07-05 20:00","2017","07","05","20:00","21.4","","11.2","","52","","15","","3","","","","100.73","","","","","","NA"
"2017-07-05 21:00","2017","07","05","21:00","19.8","","12.7","","64","","34","","6","","","","100.75","","","","","","NA"
"2017-07-05 22:00","2017","07","05","22:00","19.9","","14.5","","71","","7","","4","","","","100.70","","","","","","NA"
"2017-07-05 23:00","2017","07","05","23:00","20.6","","13.7","","64","","9","","5","","","","100.69","","","","","","NA"
"2017-07-06 00:00","2017","07","06","00:00","17.8","","14.5","","81","","2","","5","","","","100.65","","","","","","NA"
"2017-07-06 01:00","2017","07","06","01:00","16.7","","14.1","","85","","1","","3","","","","100.61","","","","","","NA"
"2017-07-06 02:00","2017","07","06","02:00","18.0","","13.8","","77","","16","","2","","","","100.56","","","","","","NA"
"2017-07-06 03:00","2017","07","06","03:00","20.1","","17.6","","85","","18","","9","","","","100.51","","26","","","","NA"
"2017-07-06 04:00","2017","07","06","04:00","20.3","","17.9","","86","","19","","11","","","","100.52","","26","","","","NA"
"2017-07-06 05:00","2017","07","06","05:00","20.3","","17.7","","85","","21","","10","","","","100.51","","26","","","","NA"
"2017-07-06 06:00","2017","07","06","06:00","21.1","","18.2","","84","","19","","13","","","","100.51","","27","","","","NA"
"2017-07-06 07:00","2017","07","06","07:00","21.5","","18.4","","82","","20","","16","","","","100.52","","28","","","","NA"
"2017-07-06 08:00","2017","07","06","08:00","22.8","","18.6","","77","","19","","16","","","","100.56","","29","","","","NA"
"2017-07-06 09:00","2017","07","06","09:00","22.9","","18.9","","78","","18","","18","","","","100.52","","30","","","","NA"
"2017-07-06 10:00","2017","07","06","10:00","22.4","","18.4","","78","","18","","21","","","","100.50","","29","","","","NA"
"2017-07-06 11:00","2017","07","06","11:00","22.5","","18.7","","79","","18","","21","","","","100.47","","29","","","","NA"
"2017-07-06 12:00","2017","07","06","12:00","23.4","","19.3","","78","","19","","18","","","","100.44","","30","","","","NA"
"2017-07-06 13:00","2017","07","06","13:00","23.1","","18.9","","77","","18","","19","","","","100.41","","30","","","","NA"
"2017-07-06 14:00","2017","07","06","14:00","23.8","","19.6","","77","","18","","22","","","","100.34","","31","","","","NA"
"2017-07-06 15:00","2017","07","06","15:00","23.0","","19.3","","80","","18","","16","","","","100.28","","30","","","","NA"
"2017-07-06 16:00","2017","07","06","16:00","24.4","","19.3","","74","","19","","18","","","","100.19","","31","","","","NA"
"2017-07-06 17:00","2017","07","06","17:00","23.3","","18.9","","76","","19","","16","","","","100.13","","30","","","","NA"
"2017-07-06 18:00","2017","07","06","18:00","23.9","","19.0","","74","","20","","11","","","","100.09","","31","","","","NA"
"2017-07-06 19:00","2017","07","06","19:00","23.5","","19.0","","76","","21","","8","","","","100.07","","30","","","","NA"
"2017-07-06 20:00","2017","07","06","20:00","22.0","","19.0","","83","","28","","4","","","","100.05","","29","","","","NA"
"2017-07-06 21:00","2017","07","06","21:00","21.8","","19.1","","85","","19","","8","","","","100.02","","29","","","","NA"
"2017-07-06 22:00","2017","07","06","22:00","21.8","","19.5","","87","","19","","8","","","","99.99","","29","","","","NA"
"2017-07-06 23:00","2017","07","06","23:00","21.7","","19.3","","86","","19","","18","","","","99.94","","29","","","","NA"
"2017-07-07 00:00","2017","07","07","00:00","21.5","","19.1","","86","","20","","20","","","","99.91","","28","","","","NA"
"2017-07-07 01:00","2017","07","07","01:00","21.2","","19.0","","88","","24","","12","","","","99.89","","28","","","","NA"
"2017-07-07 02:00","2017","07","07","02:00","21.2","","19.1","","88","","22","","13","","","","99.88","","28","","","","NA"
"2017-07-07 03:00","2017","07","07","03:00","20.9","","19.1","","89","","21","","12","","","","99.83","","28","","","","NA"
"2017-07-07 04:00","2017","07","07","04:00","20.1","","18.7","","92","","21","","8","","","","99.80","","27","","","","NA"
"2017-07-07 05:00","2017","07","07","05:00","20.3","","18.9","","92","","20","","7","","","","99.76","","27","","","","NA"
"2017-07-07 06:00","2017","07","07","06:00","20.9","","18.7","","87","","24","","7","","","","99.79","","27","","","","NA"
"2017-07-07 07:00","2017","07","07","07:00","21.0","","19.5","","91","","17","","11","","","","99.74","","28","","","","NA"
"2017-07-07 08:00","2017","07","07","08:00","21.5","","19.6","","89","","19","","9","","","","99.77","","29","","","","NA"
"2017-07-07 09:00","2017","07","07","09:00","21.9","","19.7","","87","","18","","12","","","","99.73","","29","","","","NA"
"2017-07-07 10:00","2017","07","07","10:00","23.1","","20.1","","83","","20","","13","","","","99.71","","31","","","","NA"
"2017-07-07 11:00","2017","07","07","11:00","22.4","","19.9","","86","","17","","16","","","","99.65","","30","","","","NA"
"2017-07-07 12:00","2017","07","07","12:00","23.3","","20.2","","83","","19","","18","","","","99.62","","31","","","","NA"
"2017-07-07 13:00","2017","07","07","13:00","23.0","","19.7","","81","","19","","17","","","","99.58","","30","","","","NA"
"2017-07-07 14:00","2017","07","07","14:00","22.9","","19.6","","82","","19","","17","","","","99.53","","30","","","","NA"
"2017-07-07 15:00","2017","07","07","15:00","24.4","","19.0","","72","","19","","13","","","","99.46","","31","","","","NA"
"2017-07-07 16:00","2017","07","07","16:00","24.2","","19.1","","73","","19","","17","","","","99.42","","31","","","","NA"
"2017-07-07 17:00","2017","07","07","17:00","24.1","","18.7","","72","","19","","16","","","","99.37","","31","","","","NA"
"2017-07-07 18:00","2017","07","07","18:00","23.0","","16.3","","66","","1","","21","","","","99.45","","28","","","","NA"
"2017-07-07 19:00","2017","07","07","19:00","21.8","","16.2","","71","","2","","13","","","","99.49","","27","","","","NA"
"2017-07-07 20:00","2017","07","07","20:00","19.7","","17.6","","87","","3","","10","","","","99.50","","","","","","NA"
"2017-07-07 21:00","2017","07","07","21:00","19.4","","17.7","","90","","2","","2","","","","99.53","","","","","","NA"
"2017-07-07 22:00","2017","07","07","22:00","19.0","","17.7","","93","","1","","3","","","","99.51","","","","","","NA"
"2017-07-07 23:00","2017","07","07","23:00","18.5","","17.3","","93","","4","","5","","","","99.37","","","","","","NA"
"2017-07-08 00:00","2017","07","08","00:00","18.8","","17.2","","91","","3","","5","","","","99.34","","","","","","NA"
"2017-07-08 01:00","2017","07","08","01:00","18.2","","17.0","","93","","6","","5","","","","99.29","","","","","","NA"
"2017-07-08 02:00","2017","07","08","02:00","18.4","","17.3","","93","","33","","9","","","","99.34","","","","","","NA"
"2017-07-08 03:00","2017","07","08","03:00","18.3","","17.3","","94","","3","","2","","","","99.28","","","","","","NA"
"2017-07-08 04:00","2017","07","08","04:00","18.4","","16.5","","89","","33","","11","","","","99.33","","","","","","NA"
"2017-07-08 05:00","2017","07","08","05:00","17.9","","16.3","","90","","30","","4","","","","99.36","","","","","","NA"
"2017-07-08 06:00","2017","07","08","06:00","17.8","","16.5","","92","","8","","2","","","","99.38","","","","","","NA"
"2017-07-08 07:00","2017","07","08","07:00","18.6","","17.0","","90","","3","","6","","","","99.42","","","","","","NA"
"2017-07-08 08:00","2017","07","08","08:00","19.6","","16.7","","83","","2","","8","","","","99.47","","","","","","NA"
"2017-07-08 09:00","2017","07","08","09:00","20.5","","16.0","","76","","33","","10","","","","99.52","","25","","","","NA"
"2017-07-08 10:00","2017","07","08","10:00","21.1","","16.6","","76","","32","","13","","","","99.55","","26","","","","NA"
"2017-07-08 11:00","2017","07","08","11:00","21.2","","16.0","","72","","32","","16","","","","99.59","","26","","","","NA"
"2017-07-08 12:00","2017","07","08","12:00","22.9","","15.5","","63","","32","","17","","","","99.59","","27","","","","NA"
"2017-07-08 13:00","2017","07","08","13:00","23.3","","15.5","","62","","26","","11","","","","99.57","","28","","","","NA"
"2017-07-08 14:00","2017","07","08","14:00","18.6","","16.2","","86","","27","","23","","","","99.61","","","","","","NA"
"2017-07-08 15:00","2017","07","08","15:00","22.5","","18.0","","76","","27","","8","","","","99.63","","29","","","","NA"
"2017-07-08 16:00","2017","07","08","16:00","22.3","","14.7","","62","","30","","16","","","","99.68","","26","","","","NA"
"2017-07-08 17:00","2017","07","08","17:00","22.5","","13.6","","57","","30","","10","","","","99.71","","26","","","","NA"
"2017-07-08 18:00","2017","07","08","18:00","23.1","","13.0","","53","","30","","17","","","","99.73","","26","","","","NA"
"2017-07-08 19:00","2017","07","08","19:00","21.4","","11.1","","52","","31","","11","","","","99.80","","","","","","NA"
"2017-07-08 20:00","2017","07","08","20:00","19.7","","10.9","","57","","27","","8","","","","99.83","","","","","","NA"
"2017-07-08 21:00","2017","07","08","21:00","18.4","","10.8","","61","","28","","9","","","","99.90","","","","","","NA"
"2017-07-08 22:00","2017","07","08","22:00","18.5","","10.7","","61","","27","","17","","","","99.98","","","","","","NA"
"2017-07-08 23:00","2017","07","08","23:00","17.1","","10.5","","65","","29","","14","","","","100.00","","","","","","NA"
"2017-07-09 00:00","2017","07","09","00:00","16.2","","10.2","","68","","28","","12","","","","100.02","","","","","","NA"
"2017-07-09 01:00","2017","07","09","01:00","16.0","","10.0","","67","","28","","13","","","","100.01","","","","","","NA"
"2017-07-09 02:00","2017","07","09","02:00","15.6","","9.7","","68","","28","","14","","","","100.01","","","","","","NA"
"2017-07-09 03:00","2017","07","09","03:00","15.3","","9.8","","69","","26","","12","","","","100.04","","","","","","NA"
"2017-07-09 04:00","2017","07","09","04:00","15.3","","9.9","","70","","27","","14","","","","100.06","","","","","","NA"
"2017-07-09 05:00","2017","07","09","05:00","15.5","","10.2","","71","","26","","11","","","","100.09","","","","","","NA"
"2017-07-09 06:00","2017","07","09","06:00","16.6","","12.1","","75","","25","","12","","","","100.14","","","","","","NA"
"2017-07-09 07:00","2017","07","09","07:00","18.4","","12.3","","68","","24","","18","","","","100.20","","","","","","NA"
"2017-07-09 08:00","2017","07","09","08:00","20.0","","13.1","","64","","27","","17","","","","100.24","","","","","","NA"
"2017-07-09 09:00","2017","07","09","09:00","20.5","","13.1","","63","","26","","13","","","","100.26","","","","","","NA"
"2017-07-09 10:00","2017","07","09","10:00","20.6","","13.9","","65","","24","","13","","","","100.29","","","","","","NA"
"2017-07-09 11:00","2017","07","09","11:00","22.3","","14.4","","61","","23","","20","","","","100.29","","26","","","","NA"
"2017-07-09 12:00","2017","07","09","12:00","22.7","","16.2","","67","","20","","21","","","","100.26","","27","","","","NA"
"2017-07-09 13:00","2017","07","09","13:00","22.6","","15.0","","63","","23","","22","","","","100.23","","27","","","","NA"
"2017-07-09 14:00","2017","07","09","14:00","24.0","","15.6","","59","","21","","23","","","","100.19","","28","","","","NA"
"2017-07-09 15:00","2017","07","09","15:00","22.6","","14.9","","62","","23","","30","","","","100.20","","27","","","","NA"
"2017-07-09 16:00","2017","07","09","16:00","22.9","","13.4","","55","","25","","32","","","","100.22","","26","","","","NA"
"2017-07-09 17:00","2017","07","09","17:00","21.9","","13.0","","57","","26","","21","","","","100.21","","25","","","","NA"
"2017-07-09 18:00","2017","07","09","18:00","21.3","","15.1","","68","","23","","18","","","","100.19","","25","","","","NA"
"2017-07-09 19:00","2017","07","09","19:00","21.0","","15.4","","70","","24","","13","","","","100.22","","25","","","","NA"
"2017-07-09 20:00","2017","07","09","20:00","20.5","","14.8","","70","","21","","12","","","","100.22","","","","","","NA"
"2017-07-09 21:00","2017","07","09","21:00","20.2","","16.0","","77","","22","","8","","","","100.24","","25","","","","NA"
"2017-07-09 22:00","2017","07","09","22:00","20.3","","15.7","","75","","23","","10","","","","100.23","","25","","","","NA"
"2017-07-09 23:00","2017","07","09","23:00","20.2","","14.4","","70","","23","","10","","","","100.23","","","","","","NA"
"2017-07-10 00:00","2017","07","10","00:00","21.1","","14.0","","64","","24","","13","","","","100.21","","","","","","NA"
"2017-07-10 01:00","2017","07","10","01:00","20.1","","14.8","","72","","25","","14","","","","100.25","","","","","","NA"
"2017-07-10 02:00","2017","07","10","02:00","20.0","","14.8","","72","","24","","12","","","","100.23","","","","","","NA"
"2017-07-10 03:00","2017","07","10","03:00","18.9","","15.5","","81","","22","","13","","","","100.23","","","","","","NA"
"2017-07-10 04:00","2017","07","10","04:00","18.7","","15.8","","84","","22","","10","","","","100.21","","","","","","NA"
"2017-07-10 05:00","2017","07","10","05:00","18.8","","16.0","","84","","21","","13","","","","100.22","","","","","","NA"
"2017-07-10 06:00","2017","07","10","06:00","19.4","","16.0","","81","","24","","11","","","","100.25","","","","","","NA"
"2017-07-10 07:00","2017","07","10","07:00","19.9","","16.5","","81","","23","","9","","","","100.25","","","","","","NA"
"2017-07-10 08:00","2017","07","10","08:00","21.1","","16.0","","72","","21","","13","","","","100.26","","26","","","","NA"
"2017-07-10 09:00","2017","07","10","09:00","22.0","","17.1","","74","","19","","17","","","","100.26","","27","","","","NA"
"2017-07-10 10:00","2017","07","10","10:00","21.5","","16.9","","75","","18","","18","","","","100.27","","27","","","","NA"
"2017-07-10 11:00","2017","07","10","11:00","21.6","","16.5","","73","","20","","21","","","","100.26","","27","","","","NA"
"2017-07-10 12:00","2017","07","10","12:00","22.3","","17.1","","72","","19","","22","","","","100.24","","28","","","","NA"
"2017-07-10 13:00","2017","07","10","13:00","23.3","","17.9","","72","","19","","19","","","","100.23","","29","","","","NA"
"2017-07-10 14:00","2017","07","10","14:00","23.4","","18.1","","72","","19","","20","","","","100.23","","29","","","","NA"
"2017-07-10 15:00","2017","07","10","15:00","23.9","","17.4","","67","","19","","20","","","","100.18","","29","","","","NA"
"2017-07-10 16:00","2017","07","10","16:00","23.2","","17.2","","69","","19","","19","","","","100.16","","29","","","","NA"
"2017-07-10 17:00","2017","07","10","17:00","22.6","","16.3","","68","","19","","13","","","","100.11","","27","","","","NA"
"2017-07-10 18:00","2017","07","10","18:00","21.8","","17.2","","75","","19","","11","","","","100.08","","27","","","","NA"
"2017-07-10 19:00","2017","07","10","19:00","21.9","","16.1","","70","","20","","11","","","","100.09","","27","","","","NA"
"2017-07-10 20:00","2017","07","10","20:00","21.8","","16.5","","72","","21","","11","","","","100.10","","27","","","","NA"
"2017-07-10 21:00","2017","07","10","21:00","21.0","","17.4","","80","","23","","15","","","","100.15","","27","","","","NA"
"2017-07-10 22:00","2017","07","10","22:00","20.6","","17.4","","82","","22","","13","","","","100.13","","26","","","","NA"
"2017-07-10 23:00","2017","07","10","23:00","20.1","","17.6","","86","","23","","9","","","","100.12","","26","","","","NA"
"2017-07-11 00:00","2017","07","11","00:00","19.6","","18.0","","90","","22","","8","","","","100.10","","","","","","NA"
"2017-07-11 01:00","2017","07","11","01:00","19.8","","18.3","","91","","21","","6","","","","100.09","","","","","","NA"
"2017-07-11 02:00","2017","07","11","02:00","20.2","","18.6","","90","","21","","9","","","","100.08","","27","","","","NA"
"2017-07-11 03:00","2017","07","11","03:00","20.2","","18.5","","90","","21","","7","","","","100.05","","27","","","","NA"
"2017-07-11 04:00","2017","07","11","04:00","20.2","","18.3","","89","","21","","8","","","","100.05","","26","","","","NA"
"2017-07-11 05:00","2017","07","11","05:00","20.1","","18.4","","90","","18","","12","","","","100.05","","26","","","","NA"
"2017-07-11 06:00","2017","07","11","06:00","20.3","","18.6","","90","","20","","14","","","","100.09","","27","","","","NA"
"2017-07-11 07:00","2017","07","11","07:00","21.0","","19.1","","89","","23","","11","","","","100.12","","28","","","","NA"
"2017-07-11 08:00","2017","07","11","08:00","20.9","","18.5","","86","","23","","10","","","","100.15","","27","","","","NA"
"2017-07-11 09:00","2017","07","11","09:00","22.2","","19.0","","82","","24","","14","","","","100.17","","29","","","","NA"
"2017-07-11 10:00","2017","07","11","10:00","23.4","","18.6","","75","","23","","12","","","","100.16","","30","","","","NA"
"2017-07-11 11:00","2017","07","11","11:00","23.9","","17.9","","69","","23","","13","","","","100.14","","30","","","","NA"
"2017-07-11 12:00","2017","07","11","12:00","23.0","","19.2","","79","","17","","18","","","","100.16","","30","","","","NA"
"2017-07-11 13:00","2017","07","11","13:00","22.8","","19.7","","83","","19","","27","","","","100.17","","30","","","","NA"
"2017-07-11 14:00","2017","07","11","14:00","22.7","","19.3","","82","","19","","24","","","","100.17","","30","","","","NA"
"2017-07-11 15:00","2017","07","11","15:00","22.9","","19.7","","82","","19","","20","","","","100.16","","30","","","","NA"
"2017-07-11 16:00","2017","07","11","16:00","22.5","","19.3","","82","","18","","18","","","","100.09","","30","","","","NA"
"2017-07-11 17:00","2017","07","11","17:00","22.6","","19.2","","81","","19","","16","","","","100.09","","30","","","","NA"
"2017-07-11 18:00","2017","07","11","18:00","22.6","","18.5","","78","","19","","17","","","","100.07","","29","","","","NA"
"2017-07-11 19:00","2017","07","11","19:00","21.3","","18.4","","84","","20","","11","","","","100.08","","28","","","","NA"
"2017-07-11 20:00","2017","07","11","20:00","20.6","","18.3","","86","","18","","5","","","","100.10","","27","","","","NA"
"2017-07-11 21:00","2017","07","11","21:00","20.1","","18.7","","92","","15","","7","","","","100.20","","27","","","","NA"
"2017-07-11 22:00","2017","07","11","22:00","19.7","","17.9","","89","","20","","8","","","","100.19","","","","","","NA"
"2017-07-11 23:00","2017","07","11","23:00","18.4","","17.2","","93","","5","","2","","","","100.19","","","","","","NA"
"2017-07-12 00:00","2017","07","12","00:00","18.6","","17.4","","93","","23","","6","","","","100.19","","","","","","NA"
"2017-07-12 01:00","2017","07","12","01:00","19.0","","17.8","","93","","25","","4","","","","100.21","","","","","","NA"
"2017-07-12 02:00","2017","07","12","02:00","18.8","","17.8","","94","","","","0","","","","100.23","","","","","","NA"
"2017-07-12 03:00","2017","07","12","03:00","18.9","","17.9","","94","","26","","6","","","","100.25","","","","","","NA"
"2017-07-12 04:00","2017","07","12","04:00","17.7","","16.5","","93","","31","","1","","","","100.27","","","","","","NA"
"2017-07-12 05:00","2017","07","12","05:00","17.4","","16.3","","93","","36","","7","","","","100.29","","","","","","NA"
"2017-07-12 06:00","2017","07","12","06:00","18.9","","17.6","","92","","0","","1","","","","100.35","","","","","","NA"
"2017-07-12 07:00","2017","07","12","07:00","21.2","","18.8","","86","","14","","8","","","","100.37","","28","","","","NA"
"2017-07-12 08:00","2017","07","12","08:00","22.4","","19.7","","85","","14","","8","","","","100.38","","30","","","","NA"
"2017-07-12 09:00","2017","07","12","09:00","23.4","","19.0","","76","","16","","3","","","","100.44","","30","","","","NA"
"2017-07-12 10:00","2017","07","12","10:00","23.2","","19.6","","80","","18","","13","","","","100.43","","30","","","","NA"
"2017-07-12 11:00","2017","07","12","11:00","24.5","","18.9","","71","","18","","5","","","","100.40","","31","","","","NA"
"2017-07-12 12:00","2017","07","12","12:00","21.0","","18.9","","87","","36","","16","","","","100.47","","28","","","","NA"
"2017-07-12 13:00","2017","07","12","13:00","21.8","","19.2","","85","","3","","18","","","","100.43","","29","","","","NA"
"2017-07-12 14:00","2017","07","12","14:00","22.5","","18.2","","76","","3","","21","","","","100.37","","29","","","","NA"
"2017-07-12 15:00","2017","07","12","15:00","22.0","","17.1","","74","","1","","22","","","","100.41","","27","","","","NA"
"2017-07-12 16:00","2017","07","12","16:00","21.4","","16.0","","72","","3","","19","","","","100.38","","26","","","","NA"
"2017-07-12 17:00","2017","07","12","17:00","21.3","","15.1","","68","","4","","18","","","","100.41","","25","","","","NA"
"2017-07-12 18:00","2017","07","12","18:00","20.0","","14.3","","70","","4","","19","","","","100.34","","","","","","NA"
"2017-07-12 19:00","2017","07","12","19:00","19.5","","12.4","","63","","4","","20","","","","100.35","","","","","","NA"
"2017-07-12 20:00","2017","07","12","20:00","18.0","","13.5","","75","","5","","18","","","","100.36","","","","","","NA"
"2017-07-12 21:00","2017","07","12","21:00","16.3","","12.7","","79","","5","","11","","","","100.46","","","","","","NA"
"2017-07-12 22:00","2017","07","12","22:00","15.7","","12.8","","83","","4","","16","","","","100.35","","","","","","NA"
"2017-07-12 23:00","2017","07","12","23:00","15.6","","12.9","","84","","3","","15","","","","100.35","","","","","","NA"
"2017-07-13 00:00","2017","07","13","00:00","15.6","","12.1","","80","","4","","17","","","","100.28","","","","","","NA"
"2017-07-13 01:00","2017","07","13","01:00","15.5","","10.6","","72","","4","","19","","","","100.22","","","","","","NA"
"2017-07-13 02:00","2017","07","13","02:00","16.1","","9.2","","64","","3","","15","","","","100.21","","","","","","NA"
"2017-07-13 03:00","2017","07","13","03:00","16.0","","9.9","","67","","36","","20","","","","100.28","","","","","","NA"
"2017-07-13 04:00","2017","07","13","04:00","14.9","","10.3","","74","","1","","20","","","","100.33","","","","","","NA"
"2017-07-13 05:00","2017","07","13","05:00","15.2","","9.7","","70","","2","","20","","","","100.39","","","","","","NA"
"2017-07-13 06:00","2017","07","13","06:00","15.4","","9.5","","68","","2","","22","","","","100.49","","","","","","NA"
"2017-07-13 07:00","2017","07","13","07:00","15.6","","10.4","","71","","3","","23","","","","100.51","","","","","","NA"
"2017-07-13 08:00","2017","07","13","08:00","15.8","","10.6","","71","","2","","16","","","","100.60","","","","","","NA"
"2017-07-13 09:00","2017","07","13","09:00","16.2","","11.3","","73","","3","","18","","","","100.58","","","","","","NA"
"2017-07-13 10:00","2017","07","13","10:00","15.4","","12.4","","83","","3","","20","","","","100.62","","","","","","NA"
"2017-07-13 11:00","2017","07","13","11:00","16.1","","12.2","","78","","4","","21","","","","100.65","","","","","","NA"
"2017-07-13 12:00","2017","07","13","12:00","16.8","","12.6","","77","","2","","19","","","","100.63","","","","","","NA"
"2017-07-13 13:00","2017","07","13","13:00","18.1","","13.0","","72","","3","","15","","","","100.66","","","","","","NA"
"2017-07-13 14:00","2017","07","13","14:00","19.3","","13.5","","69","","4","","17","","","","100.63","","","","","","NA"
"2017-07-13 15:00","2017","07","13","15:00","20.0","","13.8","","68","","3","","18","","","","100.61","","","","","","NA"
"2017-07-13 16:00","2017","07","13","16:00","21.5","","14.3","","64","","5","","22","","","","100.56","","25","","","","NA"
"2017-07-13 17:00","2017","07","13","17:00","20.8","","13.2","","62","","3","","18","","","","100.57","","","","","","NA"
"2017-07-13 18:00","2017","07","13","18:00","21.2","","13.1","","60","","5","","16","","","","100.56","","","","","","NA"
"2017-07-13 19:00","2017","07","13","19:00","20.0","","12.7","","63","","7","","13","","","","100.54","","","","","","NA"
"2017-07-13 20:00","2017","07","13","20:00","19.3","","12.6","","65","","7","","15","","","","100.52","","","","","","NA"
"2017-07-13 21:00","2017","07","13","21:00","18.8","","13.2","","70","","5","","12","","","","100.60","","","","","","NA"
"2017-07-13 22:00","2017","07","13","22:00","19.1","","13.7","","71","","6","","15","","","","100.55","","","","","","NA"
"2017-07-13 23:00","2017","07","13","23:00","18.5","","14.1","","75","","6","","10","","","","100.55","","","","","","NA"
"2017-07-14 00:00","2017","07","14","00:00","18.2","","14.2","","77","","4","","12","","","","100.49","","","","","","NA"
"2017-07-14 01:00","2017","07","14","01:00","18.0","","14.5","","80","","6","","12","","","","100.47","","","","","","NA"
"2017-07-14 02:00","2017","07","14","02:00","17.9","","14.6","","81","","5","","10","","","","100.46","","","","","","NA"
"2017-07-14 03:00","2017","07","14","03:00","17.7","","14.8","","83","","5","","12","","","","100.41","","","","","","NA"
"2017-07-14 04:00","2017","07","14","04:00","16.7","","15.2","","91","","5","","13","","","","100.39","","","","","","NA"
"2017-07-14 05:00","2017","07","14","05:00","16.7","","15.1","","91","","5","","15","","","","100.36","","","","","","NA"
"2017-07-14 06:00","2017","07","14","06:00","16.9","","15.3","","90","","4","","14","","","","100.36","","","","","","NA"
"2017-07-14 07:00","2017","07","14","07:00","17.2","","15.5","","90","","5","","14","","","","100.32","","","","","","NA"
"2017-07-14 08:00","2017","07","14","08:00","17.5","","15.9","","91","","35","","14","","","","100.31","","","","","","NA"
"2017-07-14 09:00","2017","07","14","09:00","18.1","","16.8","","92","","1","","10","","","","100.29","","","","","","NA"
"2017-07-14 10:00","2017","07","14","10:00","17.9","","16.5","","92","","2","","13","","","","100.29","","","","","","NA"
"2017-07-14 11:00","2017","07","14","11:00","19.3","","17.3","","88","","4","","12","","","","100.24","","","","","","NA"
"2017-07-14 12:00","2017","07","14","12:00","20.5","","18.1","","86","","4","","8","","","","100.22","","27","","","","NA"
"2017-07-14 13:00","2017","07","14","13:00","20.8","","18.4","","86","","3","","6","","","","100.21","","27","","","","NA"
"2017-07-14 14:00","2017","07","14","14:00","20.3","","18.1","","87","","1","","9","","","","100.20","","26","","","","NA"
"2017-07-14 15:00","2017","07","14","15:00","20.6","","18.1","","85","","1","","7","","","","100.17","","27","","","","NA"
"2017-07-14 16:00","2017","07","14","16:00","20.5","","18.2","","87","","33","","9","","","","100.19","","27","","","","NA"
"2017-07-14 17:00","2017","07","14","17:00","20.2","","17.9","","87","","32","","6","","","","100.20","","26","","","","NA"
"2017-07-14 18:00","2017","07","14","18:00","20.2","","18.2","","88","","31","","10","","","","100.20","","26","","","","NA"
"2017-07-14 19:00","2017","07","14","19:00","19.1","","17.4","","90","","32","","7","","","","100.19","","","","","","NA"
"2017-07-14 20:00","2017","07","14","20:00","19.5","","17.5","","88","","28","","7","","","","100.19","","","","","","NA"
"2017-07-14 21:00","2017","07","14","21:00","18.6","","17.1","","91","","","","0","","","","100.24","","","","","","NA"
"2017-07-14 22:00","2017","07","14","22:00","18.7","","17.3","","91","","23","","7","","","","100.25","","","","","","NA"
"2017-07-14 23:00","2017","07","14","23:00","18.1","","16.9","","93","","23","","6","","","","100.21","","","","","","NA"
"2017-07-15 00:00","2017","07","15","00:00","16.7","","15.7","","94","","24","","4","","","","100.19","","","","","","NA"
"2017-07-15 01:00","2017","07","15","01:00","19.0","","18.2","","95","","25","","10","","","","100.17","","","","","","NA"
"2017-07-15 02:00","2017","07","15","02:00","19.1","","18.2","","94","","30","","6","","","","100.15","","","","","","NA"
"2017-07-15 03:00","2017","07","15","03:00","18.6","","17.6","","94","","32","","6","","","","100.16","","","","","","NA"
"2017-07-15 04:00","2017","07","15","04:00","18.2","","16.8","","92","","34","","11","","","","100.14","","","","","","NA"
"2017-07-15 05:00","2017","07","15","05:00","17.9","","16.7","","93","","28","","8","","","","100.20","","","","","","NA"
"2017-07-15 06:00","2017","07","15","06:00","18.4","","17.1","","92","","32","","10","","","","100.25","","","","","","NA"
"2017-07-15 07:00","2017","07","15","07:00","19.1","","17.0","","88","","31","","11","","","","100.25","","","","","","NA"
"2017-07-15 08:00","2017","07","15","08:00","20.2","","17.6","","85","","29","","11","","","","100.31","","26","","","","NA"
"2017-07-15 09:00","2017","07","15","09:00","21.7","","18.2","","81","","29","","10","","","","100.27","","28","","","","NA"
"2017-07-15 10:00","2017","07","15","10:00","23.2","","19.0","","77","","24","","13","","","","100.27","","30","","","","NA"
"2017-07-15 11:00","2017","07","15","11:00","24.1","","15.7","","59","","28","","9","","","","100.21","","29","","","","NA"
"2017-07-15 12:00","2017","07","15","12:00","24.2","","17.0","","64","","22","","18","","","","100.21","","29","","","","NA"
"2017-07-15 13:00","2017","07","15","13:00","23.9","","18.6","","73","","21","","21","","","","100.22","","30","","","","NA"
"2017-07-15 14:00","2017","07","15","14:00","24.3","","19.1","","73","","21","","19","","","","100.21","","31","","","","NA"
"2017-07-15 15:00","2017","07","15","15:00","24.1","","18.9","","73","","23","","21","","","","100.19","","31","","","","NA"
"2017-07-15 16:00","2017","07","15","16:00","24.7","","17.7","","65","","23","","21","","","","100.16","","30","","","","NA"
"2017-07-15 17:00","2017","07","15","17:00","24.0","","17.6","","68","","23","","24","","","","100.12","","30","","","","NA"
"2017-07-15 18:00","2017","07","15","18:00","23.5","","17.2","","68","","23","","20","","","","100.09","","29","","","","NA"
"2017-07-15 19:00","2017","07","15","19:00","22.4","","17.0","","71","","24","","18","","","","100.11","","28","","","","NA"
"2017-07-15 20:00","2017","07","15","20:00","21.6","","15.9","","70","","25","","14","","","","100.12","","26","","","","NA"
"2017-07-15 21:00","2017","07","15","21:00","21.3","","15.5","","69","","26","","13","","","","100.15","","26","","","","NA"
"2017-07-15 22:00","2017","07","15","22:00","21.1","","15.3","","70","","26","","13","","","","100.14","","25","","","","NA"
"2017-07-15 23:00","2017","07","15","23:00","20.8","","15.3","","71","","28","","16","","","","100.12","","25","","","","NA"
"2017-07-16 00:00","2017","07","16","00:00","20.2","","14.6","","70","","25","","8","","","","100.15","","","","","","NA"
"2017-07-16 01:00","2017","07","16","01:00","18.8","","13.3","","70","","26","","8","","","","100.15","","","","","","NA"
"2017-07-16 02:00","2017","07","16","02:00","18.2","","12.2","","68","","26","","10","","","","100.17","","","","","","NA"
"2017-07-16 03:00","2017","07","16","03:00","18.2","","11.2","","64","","26","","9","","","","100.19","","","","","","NA"
"2017-07-16 04:00","2017","07","16","04:00","16.7","","11.0","","69","","27","","7","","","","100.21","","","","","","NA"
"2017-07-16 05:00","2017","07","16","05:00","16.1","","11.2","","73","","26","","7","","","","100.27","","","","","","NA"
"2017-07-16 06:00","2017","07","16","06:00","17.7","","11.6","","67","","27","","11","","","","100.28","","","","","","NA"
"2017-07-16 07:00","2017","07","16","07:00","19.1","","12.4","","65","","26","","8","","","","100.30","","","","","","NA"
"2017-07-16 08:00","2017","07","16","08:00","21.0","","13.9","","64","","23","","12","","","","100.31","","","","","","NA"
"2017-07-16 09:00","2017","07","16","09:00","22.5","","14.1","","59","","24","","9","","","","100.28","","26","","","","NA"
"2017-07-16 10:00","2017","07","16","10:00","21.9","","16.9","","73","","19","","13","","","","100.31","","27","","","","NA"
"2017-07-16 11:00","2017","07","16","11:00","22.6","","19.1","","81","","17","","12","","","","100.31","","29","","","","NA"
"2017-07-16 12:00","2017","07","16","12:00","23.1","","19.8","","82","","17","","16","","","","100.30","","31","","","","NA"
"2017-07-16 13:00","2017","07","16","13:00","22.8","","19.6","","82","","16","","19","","","","100.28","","30","","","","NA"
"2017-07-16 14:00","2017","07","16","14:00","22.1","","18.9","","82","","16","","14","","","","100.28","","29","","","","NA"
"2017-07-16 15:00","2017","07","16","15:00","22.0","","19.4","","85","","19","","13","","","","100.29","","29","","","","NA"
"2017-07-16 16:00","2017","07","16","16:00","23.0","","16.3","","66","","26","","9","","","","100.32","","28","","","","NA"
"2017-07-16 17:00","2017","07","16","17:00","21.3","","17.8","","81","","5","","9","","","","100.27","","27","","","","NA"
"2017-07-16 18:00","2017","07","16","18:00","20.4","","17.1","","81","","36","","11","","","","100.33","","26","","","","NA"
"2017-07-16 19:00","2017","07","16","19:00","20.0","","17.0","","83","","4","","9","","","","100.35","","25","","","","NA"
"2017-07-16 20:00","2017","07","16","20:00","19.8","","17.0","","84","","4","","6","","","","100.36","","","","","","NA"
"2017-07-16 21:00","2017","07","16","21:00","19.6","","17.1","","85","","1","","4","","","","100.42","","","","","","NA"
"2017-07-16 22:00","2017","07","16","22:00","18.7","","16.6","","88","","8","","9","","","","100.45","","","","","","NA"
"2017-07-16 23:00","2017","07","16","23:00","18.4","","16.7","","90","","5","","10","","","","100.43","","","","","","NA"
"2017-07-17 00:00","2017","07","17","00:00","18.5","","17.0","","91","","2","","5","","","","100.45","","","","","","NA"
"2017-07-17 01:00","2017","07","17","01:00","18.2","","17.0","","93","","3","","10","","","","100.44","","","","","","NA"
"2017-07-17 02:00","2017","07","17","02:00","18.1","","17.0","","93","","3","","8","","","","100.40","","","","","","NA"
"2017-07-17 03:00","2017","07","17","03:00","18.1","","16.9","","93","","36","","10","","","","100.43","","","","","","NA"
"2017-07-17 04:00","2017","07","17","04:00","18.1","","16.9","","92","","5","","12","","","","100.38","","","","","","NA"
"2017-07-17 05:00","2017","07","17","05:00","18.3","","17.0","","92","","9","","11","","","","100.43","","","","","","NA"
"2017-07-17 06:00","2017","07","17","06:00","18.7","","17.4","","92","","7","","13","","","","100.41","","","","","","NA"
"2017-07-17 07:00","2017","07","17","07:00","19.2","","17.2","","88","","3","","9","","","","100.48","","","","","","NA"
"2017-07-17 08:00","2017","07","17","08:00","20.4","","17.0","","81","","7","","15","","","","100.44","","26","","","","NA"
"2017-07-17 09:00","2017","07","17","09:00","22.1","","18.2","","78","","7","","9","","","","100.51","","28","","","","NA"
"2017-07-17 10:00","2017","07","17","10:00","22.0","","18.0","","78","","15","","9","","","","100.54","","28","","","","NA"
"2017-07-17 11:00","2017","07","17","11:00","22.4","","18.7","","80","","18","","12","","","","100.52","","29","","","","NA"
"2017-07-17 12:00","2017","07","17","12:00","23.2","","16.0","","64","","17","","10","","","","100.47","","28","","","","NA"
"2017-07-17 13:00","2017","07","17","13:00","23.4","","16.6","","66","","17","","12","","","","100.47","","28","","","","NA"
"2017-07-17 14:00","2017","07","17","14:00","23.8","","17.3","","67","","19","","9","","","","100.45","","29","","","","NA"
"2017-07-17 15:00","2017","07","17","15:00","23.8","","16.9","","65","","18","","10","","","","100.40","","29","","","","NA"
"2017-07-17 16:00","2017","07","17","16:00","23.9","","18.0","","70","","18","","12","","","","100.41","","30","","","","NA"
"2017-07-17 17:00","2017","07","17","17:00","24.1","","17.5","","67","","20","","11","","","","100.41","","30","","","","NA"
"2017-07-17 18:00","2017","07","17","18:00","23.9","","16.6","","64","","20","","9","","","","100.42","","29","","","","NA"
"2017-07-17 19:00","2017","07","17","19:00","23.3","","17.6","","70","","24","","7","","","","100.49","","29","","","","NA"
"2017-07-17 20:00","2017","07","17","20:00","21.5","","17.7","","79","","24","","10","","","","100.49","","27","","","","NA"
"2017-07-17 21:00","2017","07","17","21:00","21.3","","17.8","","80","","25","","10","","","","100.54","","27","","","","NA"
"2017-07-17 22:00","2017","07","17","22:00","20.4","","18.2","","87","","26","","9","","","","100.54","","27","","","","NA"
"2017-07-17 23:00","2017","07","17","23:00","20.2","","17.4","","84","","25","","6","","","","100.57","","26","","","","NA"
"2017-07-18 00:00","2017","07","18","00:00","18.3","","16.6","","90","","25","","3","","","","100.57","","","","","","NA"
"2017-07-18 01:00","2017","07","18","01:00","17.9","","16.3","","90","","19","","3","","","","100.58","","","","","","NA"
"2017-07-18 02:00","2017","07","18","02:00","18.5","","17.1","","92","","23","","5","","","","100.58","","","","","","NA"
"2017-07-18 03:00","2017","07","18","03:00","18.9","","17.9","","94","","19","","8","","","","100.58","","","","","","NA"
"2017-07-18 04:00","2017","07","18","04:00","19.2","","18.0","","93","","20","","6","","","","100.57","","","","","","NA"
"2017-07-18 05:00","2017","07","18","05:00","18.8","","17.5","","93","","21","","7","","","","100.65","","","","","","NA"
"2017-07-18 06:00","2017","07","18","06:00","20.7","","19.2","","91","","20","","5","","","","100.68","","28","","","","NA"
"2017-07-18 07:00","2017","07","18","07:00","21.9","","19.9","","88","","19","","6","","","","100.73","","29","","","","NA"
"2017-07-18 08:00","2017","07","18","08:00","22.3","","19.7","","85","","19","","13","","","","100.76","","30","","","","NA"
"2017-07-18 09:00","2017","07","18","09:00","23.0","","19.8","","82","","19","","15","","","","100.77","","30","","","","NA"
"2017-07-18 10:00","2017","07","18","10:00","23.0","","19.8","","82","","17","","16","","","","100.79","","30","","","","NA"
"2017-07-18 11:00","2017","07","18","11:00","23.3","","19.8","","81","","17","","16","","","","100.79","","31","","","","NA"
"2017-07-18 12:00","2017","07","18","12:00","23.2","","19.7","","81","","18","","17","","","","100.77","","31","","","","NA"
"2017-07-18 13:00","2017","07","18","13:00","23.3","","19.9","","81","","19","","18","","","","100.72","","31","","","","NA"
"2017-07-18 14:00","2017","07","18","14:00","23.0","","19.9","","83","","18","","19","","","","100.69","","30","","","","NA"
"2017-07-18 15:00","2017","07","18","15:00","23.0","","19.8","","82","","18","","17","","","","100.68","","30","","","","NA"
"2017-07-18 16:00","2017","07","18","16:00","22.8","","20.1","","85","","19","","18","","","","100.59","","30","","","","NA"
"2017-07-18 17:00","2017","07","18","17:00","22.7","","20.0","","85","","19","","16","","","","100.59","","30","","","","NA"
"2017-07-18 18:00","2017","07","18","18:00","22.4","","20.1","","87","","19","","15","","","","100.57","","30","","","","NA"
"2017-07-18 19:00","2017","07","18","19:00","21.9","","20.0","","89","","19","","14","","","","100.59","","29","","","","NA"
"2017-07-18 20:00","2017","07","18","20:00","21.7","","18.2","","81","","24","","10","","","","100.62","","28","","","","NA"
"2017-07-18 21:00","2017","07","18","21:00","21.0","","17.4","","80","","21","","7","","","","100.61","","27","","","","NA"
"2017-07-18 22:00","2017","07","18","22:00","20.5","","17.1","","81","","23","","10","","","","100.60","","26","","","","NA"
"2017-07-18 23:00","2017","07","18","23:00","19.8","","17.5","","86","","22","","9","","","","100.61","","","","","","NA"
"2017-07-19 00:00","2017","07","19","00:00","19.4","","16.9","","86","","24","","7","","","","100.58","","","","","","NA"
"2017-07-19 01:00","2017","07","19","01:00","19.5","","17.3","","87","","22","","8","","","","100.58","","","","","","NA"
"2017-07-19 02:00","2017","07","19","02:00","19.4","","16.9","","86","","22","","10","","","","100.55","","","","","","NA"
"2017-07-19 03:00","2017","07","19","03:00","19.3","","17.8","","91","","21","","8","","","","100.51","","","","","","NA"
"2017-07-19 04:00","2017","07","19","04:00","19.6","","17.8","","89","","21","","9","","","","100.49","","","","","","NA"
"2017-07-19 05:00","2017","07","19","05:00","19.8","","17.8","","88","","22","","9","","","","100.52","","","","","","NA"
"2017-07-19 06:00","2017","07","19","06:00","20.7","","18.2","","85","","22","","13","","","","100.53","","27","","","","NA"
"2017-07-19 07:00","2017","07","19","07:00","21.7","","18.6","","83","","23","","12","","","","100.55","","28","","","","NA"
"2017-07-19 08:00","2017","07","19","08:00","22.9","","19.3","","80","","22","","10","","","","100.54","","30","","","","NA"
"2017-07-19 09:00","2017","07","19","09:00","23.4","","19.8","","80","","19","","13","","","","100.51","","31","","","","NA"
"2017-07-19 10:00","2017","07","19","10:00","22.7","","19.5","","82","","18","","20","","","","100.50","","30","","","","NA"
"2017-07-19 11:00","2017","07","19","11:00","23.0","","19.3","","79","","19","","22","","","","100.48","","30","","","","NA"
"2017-07-19 12:00","2017","07","19","12:00","23.2","","19.5","","80","","18","","22","","","","100.45","","30","","","","NA"
"2017-07-19 13:00","2017","07","19","13:00","25.1","","20.7","","77","","19","","22","","","","100.41","","33","","","","NA"
"2017-07-19 14:00","2017","07","19","14:00","24.0","","19.8","","78","","19","","17","","","","100.37","","31","","","","NA"
"2017-07-19 15:00","2017","07","19","15:00","25.0","","20.1","","74","","18","","16","","","","100.32","","33","","","","NA"
"2017-07-19 16:00","2017","07","19","16:00","24.9","","20.3","","76","","19","","15","","","","100.29","","33","","","","NA"
"2017-07-19 17:00","2017","07","19","17:00","26.8","","19.2","","63","","21","","14","","","","100.30","","34","","","","NA"
"2017-07-19 18:00","2017","07","19","18:00","26.1","","19.9","","69","","20","","12","","","","100.28","","34","","","","NA"
"2017-07-19 19:00","2017","07","19","19:00","25.5","","20.1","","72","","22","","11","","","","100.28","","33","","","","NA"
"2017-07-19 20:00","2017","07","19","20:00","23.5","","20.0","","81","","24","","10","","","","100.33","","31","","","","NA"
"2017-07-19 21:00","2017","07","19","21:00","23.4","","19.8","","80","","23","","10","","","","100.36","","31","","","","NA"
"2017-07-19 22:00","2017","07","19","22:00","23.0","","19.3","","80","","26","","7","","","","100.36","","30","","","","NA"
"2017-07-19 23:00","2017","07","19","23:00","23.0","","18.4","","75","","29","","10","","","","100.37","","29","","","","NA"
"2017-07-20 00:00","2017","07","20","00:00","21.1","","17.5","","80","","30","","8","","","","100.36","","27","","","","NA"
"2017-07-20 01:00","2017","07","20","01:00","20.5","","17.3","","82","","26","","8","","","","100.35","","26","","","","NA"
"2017-07-20 02:00","2017","07","20","02:00","19.5","","17.2","","87","","27","","10","","","","100.32","","","","","","NA"
"2017-07-20 03:00","2017","07","20","03:00","18.9","","16.9","","89","","28","","13","","","","100.29","","","","","","NA"
"2017-07-20 04:00","2017","07","20","04:00","18.1","","16.6","","91","","28","","9","","","","100.28","","","","","","NA"
"2017-07-20 05:00","2017","07","20","05:00","17.8","","16.4","","91","","27","","10","","","","100.30","","","","","","NA"
"2017-07-20 06:00","2017","07","20","06:00","18.7","","16.7","","89","","27","","9","","","","100.31","","","","","","NA"
"2017-07-20 07:00","2017","07","20","07:00","19.8","","17.1","","84","","28","","10","","","","100.36","","","","","","NA"
"2017-07-20 08:00","2017","07","20","08:00","22.0","","18.1","","78","","28","","9","","","","100.38","","28","","","","NA"
"2017-07-20 09:00","2017","07","20","09:00","22.1","","17.4","","75","","21","","15","","","","100.32","","28","","","","NA"
"2017-07-20 10:00","2017","07","20","10:00","24.0","","16.5","","63","","22","","14","","","","100.28","","29","","","","NA"
"2017-07-20 11:00","2017","07","20","11:00","22.4","","18.2","","77","","22","","16","","","","100.35","","29","","","","NA"
"2017-07-20 12:00","2017","07","20","12:00","22.3","","17.7","","75","","25","","9","","","","100.38","","28","","","","NA"
"2017-07-20 13:00","2017","07","20","13:00","20.0","","16.5","","81","","20","","21","","","","100.24","","25","","","","NA"
"2017-07-20 14:00","2017","07","20","14:00","22.0","","15.7","","68","","26","","9","","","","100.17","","26","","","","NA"
"2017-07-20 15:00","2017","07","20","15:00","22.8","","15.1","","62","","19","","11","","","","100.12","","27","","","","NA"
"2017-07-20 16:00","2017","07","20","16:00","22.5","","14.1","","59","","18","","11","","","","100.12","","26","","","","NA"
"2017-07-20 17:00","2017","07","20","17:00","22.6","","15.9","","66","","20","","10","","","","100.07","","27","","","","NA"
"2017-07-20 18:00","2017","07","20","18:00","21.6","","16.3","","71","","18","","15","","","","100.03","","26","","","","NA"
"2017-07-20 19:00","2017","07","20","19:00","21.2","","15.0","","68","","21","","11","","","","100.05","","25","","","","NA"
"2017-07-20 20:00","2017","07","20","20:00","20.6","","16.0","","75","","20","","14","","","","100.08","","25","","","","NA"
"2017-07-20 21:00","2017","07","20","21:00","19.6","","16.2","","81","","22","","10","","","","100.10","","","","","","NA"
"2017-07-20 22:00","2017","07","20","22:00","19.4","","14.3","","73","","22","","12","","","","100.07","","","","","","NA"
"2017-07-20 23:00","2017","07","20","23:00","18.9","","16.1","","84","","23","","10","","","","100.06","","","","","","NA"
"2017-07-21 00:00","2017","07","21","00:00","18.7","","15.7","","83","","25","","11","","","","100.06","","","","","","NA"
"2017-07-21 01:00","2017","07","21","01:00","18.4","","16.5","","88","","23","","10","","","","100.03","","","","","","NA"
"2017-07-21 02:00","2017","07","21","02:00","18.7","","16.1","","85","","25","","10","","","","100.03","","","","","","NA"
"2017-07-21 03:00","2017","07","21","03:00","17.3","","15.4","","89","","28","","8","","","","100.04","","","","","","NA"
"2017-07-21 04:00","2017","07","21","04:00","17.7","","15.7","","88","","27","","6","","","","100.05","","","","","","NA"
"2017-07-21 05:00","2017","07","21","05:00","18.0","","16.4","","90","","25","","9","","","","100.02","","","","","","NA"
"2017-07-21 06:00","2017","07","21","06:00","19.3","","17.0","","87","","26","","11","","","","100.08","","","","","","NA"
"2017-07-21 07:00","2017","07","21","07:00","21.2","","18.7","","85","","24","","10","","","","100.11","","28","","","","NA"
"2017-07-21 08:00","2017","07","21","08:00","22.7","","18.6","","77","","24","","13","","","","100.08","","29","","","","NA"
"2017-07-21 09:00","2017","07","21","09:00","24.0","","18.5","","71","","25","","15","","","","100.08","","30","","","","NA"
"2017-07-21 10:00","2017","07","21","10:00","24.8","","18.9","","70","","23","","17","","","","100.07","","31","","","","NA"
"2017-07-21 11:00","2017","07","21","11:00","25.7","","19.1","","67","","23","","20","","","","100.02","","33","","","","NA"
"2017-07-21 12:00","2017","07","21","12:00","26.1","","18.2","","62","","23","","21","","","","100.02","","32","","","","NA"
"2017-07-21 13:00","2017","07","21","13:00","27.1","","17.4","","55","","23","","20","","","","99.98","","33","","","","NA"
"2017-07-21 14:00","2017","07","21","14:00","27.0","","17.4","","56","","23","","24","","","","99.96","","33","","","","NA"
"2017-07-21 15:00","2017","07","21","15:00","26.9","","18.0","","58","","23","","20","","","","99.93","","33","","","","NA"
"2017-07-21 16:00","2017","07","21","16:00","27.2","","18.1","","57","","23","","20","","","","99.93","","33","","","","NA"
"2017-07-21 17:00","2017","07","21","17:00","26.4","","18.8","","63","","22","","16","","","","99.93","","33","","","","NA"
"2017-07-21 18:00","2017","07","21","18:00","25.5","","18.5","","65","","23","","15","","","","99.94","","32","","","","NA"
"2017-07-21 19:00","2017","07","21","19:00","24.0","","18.6","","72","","24","","14","","","","99.95","","30","","","","NA"
"2017-07-21 20:00","2017","07","21","20:00","23.7","","17.9","","70","","25","","14","","","","100.00","","30","","","","NA"
"2017-07-21 21:00","2017","07","21","21:00","23.4","","15.6","","62","","27","","14","","","","99.99","","28","","","","NA"
"2017-07-21 22:00","2017","07","21","22:00","22.0","","15.4","","66","","25","","9","","","","100.02","","26","","","","NA"
"2017-07-21 23:00","2017","07","21","23:00","20.5","","15.4","","73","","25","","7","","","","100.05","","25","","","","NA"
"2017-07-22 00:00","2017","07","22","00:00","19.6","","15.0","","75","","28","","8","","","","100.07","","","","","","NA"
"2017-07-22 01:00","2017","07","22","01:00","18.9","","14.9","","78","","30","","13","","","","100.06","","","","","","NA"
"2017-07-22 02:00","2017","07","22","02:00","17.8","","14.4","","80","","29","","10","","","","100.03","","","","","","NA"
"2017-07-22 03:00","2017","07","22","03:00","17.5","","14.3","","81","","28","","10","","","","99.99","","","","","","NA"
"2017-07-22 04:00","2017","07","22","04:00","17.3","","14.2","","82","","30","","8","","","","100.03","","","","","","NA"
"2017-07-22 05:00","2017","07","22","05:00","17.3","","14.3","","83","","32","","7","","","","100.05","","","","","","NA"
"2017-07-22 06:00","2017","07","22","06:00","18.1","","15.4","","84","","","","0","","","","100.08","","","","","","NA"
"2017-07-22 07:00","2017","07","22","07:00","19.7","","15.3","","76","","16","","3","","","","100.07","","","","","","NA"
"2017-07-22 08:00","2017","07","22","08:00","21.2","","15.9","","72","","36","","2","","","","100.08","","26","","","","NA"
"2017-07-22 09:00","2017","07","22","09:00","22.6","","17.6","","73","","23","","6","","","","100.06","","28","","","","NA"
"2017-07-22 10:00","2017","07","22","10:00","22.3","","15.5","","66","","19","","4","","","","100.08","","27","","","","NA"
"2017-07-22 11:00","2017","07","22","11:00","22.7","","16.9","","70","","16","","7","","","","100.07","","28","","","","NA"
"2017-07-22 12:00","2017","07","22","12:00","22.7","","16.4","","68","","16","","6","","","","100.03","","28","","","","NA"
"2017-07-22 13:00","2017","07","22","13:00","23.0","","16.7","","67","","17","","12","","","","99.99","","28","","","","NA"
"2017-07-22 14:00","2017","07","22","14:00","21.7","","17.3","","76","","18","","11","","","","99.97","","27","","","","NA"
"2017-07-22 15:00","2017","07","22","15:00","22.0","","18.1","","79","","19","","9","","","","99.92","","28","","","","NA"
"2017-07-22 16:00","2017","07","22","16:00","22.1","","18.3","","79","","19","","9","","","","99.85","","28","","","","NA"
"2017-07-22 17:00","2017","07","22","17:00","22.6","","18.2","","76","","24","","3","","","","99.80","","29","","","","NA"
"2017-07-22 18:00","2017","07","22","18:00","22.0","","18.7","","82","","16","","8","","","","99.76","","29","","","","NA"
"2017-07-22 19:00","2017","07","22","19:00","21.4","","18.5","","84","","17","","6","","","","99.79","","28","","","","NA"
"2017-07-22 20:00","2017","07","22","20:00","20.9","","18.3","","85","","20","","6","","","","99.83","","27","","","","NA"
"2017-07-22 21:00","2017","07","22","21:00","19.9","","17.7","","87","","19","","2","","","","99.88","","","","","","NA"
"2017-07-22 22:00","2017","07","22","22:00","19.8","","18.0","","90","","34","","3","","","","99.87","","","","","","NA"
"2017-07-22 23:00","2017","07","22","23:00","19.3","","18.0","","92","","35","","4","","","","99.84","","","","","","NA"
"2017-07-23 00:00","2017","07","23","00:00","20.1","","18.1","","88","","2","","9","","","","99.82","","26","","","","NA"
"2017-07-23 01:00","2017","07","23","01:00","20.2","","18.0","","87","","3","","8","","","","99.80","","26","","","","NA"
"2017-07-23 02:00","2017","07","23","02:00","20.2","","17.8","","86","","4","","10","","","","99.77","","26","","","","NA"
"2017-07-23 03:00","2017","07","23","03:00","19.7","","16.4","","81","","2","","9","","","","99.78","","","","","","NA"
"2017-07-23 04:00","2017","07","23","04:00","19.9","","15.8","","77","","4","","14","","","","99.78","","","","","","NA"
"2017-07-23 05:00","2017","07","23","05:00","19.4","","15.5","","78","","5","","15","","","","99.79","","","","","","NA"
"2017-07-23 06:00","2017","07","23","06:00","18.6","","13.7","","73","","4","","10","","","","99.84","","","","","","NA"
"2017-07-23 07:00","2017","07","23","07:00","18.8","","13.3","","70","","5","","17","","","","99.87","","","","","","NA"
"2017-07-23 08:00","2017","07","23","08:00","19.1","","13.8","","71","","3","","15","","","","99.92","","","","","","NA"
"2017-07-23 09:00","2017","07","23","09:00","19.7","","13.9","","69","","3","","16","","","","99.96","","","","","","NA"
"2017-07-23 10:00","2017","07","23","10:00","20.7","","13.8","","64","","3","","22","","","","99.95","","","","","","NA"
"2017-07-23 11:00","2017","07","23","11:00","21.3","","13.0","","59","","4","","22","","","","99.94","","","","","","NA"
"2017-07-23 12:00","2017","07","23","12:00","22.8","","12.9","","53","","4","","20","","","","99.94","","26","","","","NA"
"2017-07-23 13:00","2017","07","23","13:00","23.5","","13.3","","53","","4","","26","","","","99.91","","26","","","","NA"
"2017-07-23 14:00","2017","07","23","14:00","22.9","","12.4","","51","","5","","25","","","","99.88","","25","","","","NA"
"2017-07-23 15:00","2017","07","23","15:00","23.9","","12.5","","49","","5","","28","","","","99.81","","26","","","","NA"
"2017-07-23 16:00","2017","07","23","16:00","23.5","","12.0","","48","","5","","27","","","","99.80","","26","","","","NA"
"2017-07-23 17:00","2017","07","23","17:00","22.7","","12.4","","52","","4","","20","","","","99.82","","25","","","","NA"
"2017-07-23 18:00","2017","07","23","18:00","22.1","","11.7","","52","","4","","21","","","","99.78","","","","","","NA"
"2017-07-23 19:00","2017","07","23","19:00","21.4","","11.5","","54","","4","","24","","","","99.79","","","","","","NA"
"2017-07-23 20:00","2017","07","23","20:00","20.5","","11.7","","57","","4","","23","","","","99.80","","","","","","NA"
"2017-07-23 21:00","2017","07","23","21:00","20.4","","10.7","","54","","5","","22","","","","99.84","","","","","","NA"
"2017-07-23 22:00","2017","07","23","22:00","19.7","","11.2","","58","","4","","23","","","","99.78","","","","","","NA"
"2017-07-23 23:00","2017","07","23","23:00","18.0","","12.9","","72","","6","","22","","","","99.72","","","","","","NA"
"2017-07-24 00:00","2017","07","24","00:00","16.9","","14.0","","83","","4","","21","","","","99.65","","","","","","NA"
"2017-07-24 01:00","2017","07","24","01:00","16.8","","15.2","","90","","4","","21","","","","99.61","","","","","","NA"
"2017-07-24 02:00","2017","07","24","02:00","17.1","","15.6","","91","","6","","23","","","","99.58","","","","","","NA"
"2017-07-24 03:00","2017","07","24","03:00","17.9","","16.3","","90","","6","","18","","","","99.51","","","","","","NA"
"2017-07-24 04:00","2017","07","24","04:00","17.4","","15.8","","91","","4","","20","","","","99.56","","","","","","NA"
"2017-07-24 05:00","2017","07","24","05:00","16.9","","15.6","","92","","5","","18","","","","99.57","","","","","","NA"
"2017-07-24 06:00","2017","07","24","06:00","16.8","","15.7","","93","","4","","20","","","","99.57","","","","","","NA"
"2017-07-24 07:00","2017","07","24","07:00","17.4","","16.4","","94","","7","","18","","","","99.51","","","","","","NA"
"2017-07-24 08:00","2017","07","24","08:00","16.9","","15.9","","94","","34","","22","","","","99.61","","","","","","NA"
"2017-07-24 09:00","2017","07","24","09:00","16.3","","15.4","","94","","3","","15","","","","99.59","","","","","","NA"
"2017-07-24 10:00","2017","07","24","10:00","19.4","","18.5","","95","","9","","11","","","","99.55","","","","","","NA"
"2017-07-24 11:00","2017","07","24","11:00","20.1","","18.4","","90","","16","","33","","","","99.49","","26","","","","NA"
"2017-07-24 12:00","2017","07","24","12:00","19.5","","17.9","","90","","19","","21","","","","99.51","","","","","","NA"
"2017-07-24 13:00","2017","07","24","13:00","19.6","","17.4","","88","","20","","23","","","","99.55","","","","","","NA"
"2017-07-24 14:00","2017","07","24","14:00","19.3","","17.2","","87","","22","","17","","","","99.62","","","","","","NA"
"2017-07-24 15:00","2017","07","24","15:00","20.4","","17.0","","81","","23","","19","","","","99.65","","26","","","","NA"
"2017-07-24 16:00","2017","07","24","16:00","19.4","","16.8","","85","","25","","13","","","","99.70","","","","","","NA"
"2017-07-24 17:00","2017","07","24","17:00","18.6","","16.3","","87","","27","","11","","","","99.77","","","","","","NA"
"2017-07-24 18:00","2017","07","24","18:00","17.0","","15.5","","91","","33","","12","","","","99.86","","","","","","NA"
"2017-07-24 19:00","2017","07","24","19:00","16.2","","14.0","","87","","36","","16","","","","99.90","","","","","","NA"
"2017-07-24 20:00","2017","07","24","20:00","15.8","","14.1","","90","","33","","12","","","","99.98","","","","","","NA"
"2017-07-24 21:00","2017","07","24","21:00","15.2","","14.0","","93","","33","","15","","","","100.05","","","","","","NA"
"2017-07-24 22:00","2017","07","24","22:00","14.9","","13.8","","93","","34","","14","","","","100.09","","","","","","NA"
"2017-07-24 23:00","2017","07","24","23:00","14.8","","13.7","","93","","34","","12","","","","100.14","","","","","","NA"
"2017-07-25 00:00","2017","07","25","00:00","14.7","","13.5","","93","","35","","14","","","","100.21","","","","","","NA"
"2017-07-25 01:00","2017","07","25","01:00","14.5","","13.4","","93","","34","","15","","","","100.27","","","","","","NA"
"2017-07-25 02:00","2017","07","25","02:00","14.3","","13.2","","93","","34","","18","","","","100.33","","","","","","NA"
"2017-07-25 03:00","2017","07","25","03:00","14.1","","12.6","","91","","36","","18","","","","100.37","","","","","","NA"
"2017-07-25 04:00","2017","07","25","04:00","14.1","","12.5","","90","","36","","20","","","","100.44","","","","","","NA"
"2017-07-25 05:00","2017","07","25","05:00","14.3","","12.5","","89","","36","","19","","","","100.53","","","","","","NA"
"2017-07-25 06:00","2017","07","25","06:00","14.5","","12.4","","87","","1","","19","","","","100.65","","","","","","NA"
"2017-07-25 07:00","2017","07","25","07:00","14.6","","12.3","","86","","2","","21","","","","100.72","","","","","","NA"
"2017-07-25 08:00","2017","07","25","08:00","15.2","","12.4","","84","","1","","23","","","","100.80","","","","","","NA"
"2017-07-25 09:00","2017","07","25","09:00","15.6","","12.2","","80","","2","","26","","","","100.88","","","","","","NA"
"2017-07-25 10:00","2017","07","25","10:00","15.9","","12.4","","80","","2","","21","","","","100.95","","","","","","NA"
"2017-07-25 11:00","2017","07","25","11:00","16.8","","12.5","","76","","2","","18","","","","100.97","","","","","","NA"
"2017-07-25 12:00","2017","07","25","12:00","17.3","","12.7","","75","","2","","24","","","","101.00","","","","","","NA"
"2017-07-25 13:00","2017","07","25","13:00","18.6","","12.8","","69","","3","","20","","","","101.04","","","","","","NA"
"2017-07-25 14:00","2017","07","25","14:00","19.1","","12.8","","67","","3","","23","","","","101.06","","","","","","NA"
"2017-07-25 15:00","2017","07","25","15:00","20.3","","12.9","","62","","3","","22","","","","101.10","","","","","","NA"
"2017-07-25 16:00","2017","07","25","16:00","20.8","","13.5","","63","","3","","16","","","","101.07","","","","","","NA"
"2017-07-25 17:00","2017","07","25","17:00","20.4","","13.5","","64","","5","","15","","","","101.08","","","","","","NA"
"2017-07-25 18:00","2017","07","25","18:00","20.6","","13.2","","62","","3","","10","","","","101.09","","","","","","NA"
"2017-07-25 19:00","2017","07","25","19:00","19.6","","13.1","","66","","3","","7","","","","101.16","","","","","","NA"
"2017-07-25 20:00","2017","07","25","20:00","17.9","","13.7","","77","","10","","7","","","","101.19","","","","","","NA"
"2017-07-25 21:00","2017","07","25","21:00","15.3","","13.0","","87","","6","","2","","","","101.24","","","","","","NA"
"2017-07-25 22:00","2017","07","25","22:00","14.4","","13.1","","92","","34","","7","","","","101.23","","","","","","NA"
"2017-07-25 23:00","2017","07","25","23:00","13.8","","12.7","","93","","34","","3","","","","101.23","","","","","","NA"
"2017-07-26 00:00","2017","07","26","00:00","12.1","","11.2","","94","","34","","9","","","","101.21","","","","","","NA"
"2017-07-26 01:00","2017","07","26","01:00","12.1","","11.2","","94","","35","","6","","","","101.16","","","","","","NA"
"2017-07-26 02:00","2017","07","26","02:00","13.9","","13.0","","94","","33","","7","","","","101.16","","","","","","NA"
"2017-07-26 03:00","2017","07","26","03:00","14.5","","13.3","","93","","34","","7","","","","101.17","","","","","","NA"
"2017-07-26 04:00","2017","07","26","04:00","15.1","","13.9","","92","","2","","3","","","","101.16","","","","","","NA"
"2017-07-26 05:00","2017","07","26","05:00","15.4","","14.1","","92","","33","","6","","","","101.22","","","","","","NA"
"2017-07-26 06:00","2017","07","26","06:00","16.3","","14.9","","91","","4","","2","","","","101.21","","","","","","NA"
"2017-07-26 07:00","2017","07","26","07:00","17.9","","15.5","","86","","24","","2","","","","101.19","","","","","","NA"
"2017-07-26 08:00","2017","07","26","08:00","19.1","","15.3","","79","","17","","6","","","","101.18","","","","","","NA"
"2017-07-26 09:00","2017","07","26","09:00","19.9","","15.1","","74","","15","","9","","","","101.08","","","","","","NA"
"2017-07-26 10:00","2017","07","26","10:00","20.5","","15.5","","73","","17","","12","","","","101.06","","25","","","","NA"
"2017-07-26 11:00","2017","07","26","11:00","20.8","","15.4","","71","","18","","16","","","","101.07","","25","","","","NA"
"2017-07-26 12:00","2017","07","26","12:00","21.1","","16.0","","73","","20","","19","","","","101.02","","26","","","","NA"
"2017-07-26 13:00","2017","07","26","13:00","20.9","","14.6","","67","","20","","20","","","","100.98","","25","","","","NA"
"2017-07-26 14:00","2017","07","26","14:00","20.6","","15.5","","73","","19","","17","","","","100.92","","25","","","","NA"
"2017-07-26 15:00","2017","07","26","15:00","20.1","","14.9","","72","","18","","17","","","","100.78","","","","","","NA"
"2017-07-26 16:00","2017","07","26","16:00","19.8","","15.4","","76","","22","","11","","","","100.81","","","","","","NA"
"2017-07-26 17:00","2017","07","26","17:00","20.1","","15.6","","76","","22","","7","","","","100.72","","","","","","NA"
"2017-07-26 18:00","2017","07","26","18:00","20.0","","15.9","","77","","25","","4","","","","100.70","","25","","","","NA"
"2017-07-26 19:00","2017","07","26","19:00","19.5","","15.4","","77","","25","","5","","","","100.68","","","","","","NA"
"2017-07-26 20:00","2017","07","26","20:00","18.8","","15.8","","82","","22","","5","","","","100.57","","","","","","NA"
"2017-07-26 21:00","2017","07","26","21:00","19.7","","17.3","","86","","17","","14","","","","100.44","","","","","","NA"
"2017-07-26 22:00","2017","07","26","22:00","19.1","","17.2","","89","","29","","8","","","","100.48","","","","","","NA"
"2017-07-26 23:00","2017","07","26","23:00","18.7","","17.1","","91","","22","","6","","","","100.39","","","","","","NA"
"2017-07-27 00:00","2017","07","27","00:00","19.9","","15.8","","77","","23","","11","","","","100.36","","","","","","NA"
"2017-07-27 01:00","2017","07","27","01:00","19.2","","16.0","","82","","23","","7","","","","100.30","","","","","","NA"
"2017-07-27 02:00","2017","07","27","02:00","19.8","","17.0","","84","","21","","6","","","","100.24","","","","","","NA"
"2017-07-27 03:00","2017","07","27","03:00","20.1","","17.7","","86","","20","","9","","","","100.19","","26","","","","NA"
"2017-07-27 04:00","2017","07","27","04:00","20.2","","17.8","","86","","21","","12","","","","100.17","","26","","","","NA"
"2017-07-27 05:00","2017","07","27","05:00","19.9","","17.7","","87","","22","","12","","","","100.19","","","","","","NA"
"2017-07-27 06:00","2017","07","27","06:00","19.5","","17.5","","89","","24","","15","","","","100.20","","","","","","NA"
"2017-07-27 07:00","2017","07","27","07:00","19.6","","17.5","","88","","25","","12","","","","100.17","","","","","","NA"
"2017-07-27 08:00","2017","07","27","08:00","20.5","","18.1","","86","","25","","9","","","","100.17","","27","","","","NA"
"2017-07-27 09:00","2017","07","27","09:00","22.7","","17.9","","74","","28","","14","","","","100.14","","29","","","","NA"
"2017-07-27 10:00","2017","07","27","10:00","23.1","","16.8","","68","","30","","15","","","","100.12","","28","","","","NA"
"2017-07-27 11:00","2017","07","27","11:00","23.0","","18.0","","73","","23","","12","","","","100.09","","29","","","","NA"
"2017-07-27 12:00","2017","07","27","12:00","24.8","","18.7","","69","","22","","17","","","","100.06","","31","","","","NA"
"2017-07-27 13:00","2017","07","27","13:00","24.3","","20.5","","79","","19","","25","","","","100.03","","32","","","","NA"
"2017-07-27 14:00","2017","07","27","14:00","24.1","","20.3","","79","","19","","22","","","","99.98","","32","","","","NA"
"2017-07-27 15:00","2017","07","27","15:00","23.7","","20.1","","80","","18","","20","","","","99.95","","31","","","","NA"
"2017-07-27 16:00","2017","07","27","16:00","23.5","","19.3","","77","","20","","21","","","","99.93","","31","","","","NA"
"2017-07-27 17:00","2017","07","27","17:00","23.9","","19.4","","76","","24","","20","","","","99.93","","31","","","","NA"
"2017-07-27 18:00","2017","07","27","18:00","23.6","","19.3","","77","","24","","15","","","","99.91","","31","","","","NA"
"2017-07-27 19:00","2017","07","27","19:00","22.7","","19.1","","80","","25","","11","","","","99.97","","30","","","","NA"
"2017-07-27 20:00","2017","07","27","20:00","21.7","","18.3","","81","","34","","9","","","","100.02","","28","","","","NA"
"2017-07-27 21:00","2017","07","27","21:00","21.5","","15.7","","70","","36","","12","","","","100.08","","26","","","","NA"
"2017-07-27 22:00","2017","07","27","22:00","21.1","","15.0","","68","","36","","13","","","","100.13","","25","","","","NA"
"2017-07-27 23:00","2017","07","27","23:00","18.8","","14.7","","77","","36","","11","","","","100.16","","","","","","NA"
"2017-07-28 00:00","2017","07","28","00:00","17.5","","14.4","","82","","36","","6","","","","100.17","","","","","","NA"
"2017-07-28 01:00","2017","07","28","01:00","16.9","","14.6","","87","","36","","4","","","","100.19","","","","","","NA"
"2017-07-28 02:00","2017","07","28","02:00","15.4","","13.7","","90","","34","","9","","","","100.19","","","","","","NA"
"2017-07-28 03:00","2017","07","28","03:00","15.6","","13.8","","89","","35","","9","","","","100.18","","","","","","NA"
"2017-07-28 04:00","2017","07","28","04:00","16.1","","13.6","","85","","36","","12","","","","100.22","","","","","","NA"
"2017-07-28 05:00","2017","07","28","05:00","16.0","","13.0","","82","","36","","15","","","","100.28","","","","","","NA"
"2017-07-28 06:00","2017","07","28","06:00","16.6","","12.8","","78","","36","","16","","","","100.31","","","","","","NA"
"2017-07-28 07:00","2017","07","28","07:00","16.8","","12.3","","75","","1","","15","","","","100.37","","","","","","NA"
"2017-07-28 08:00","2017","07","28","08:00","17.8","","11.4","","66","","2","","16","","","","100.40","","","","","","NA"
"2017-07-28 09:00","2017","07","28","09:00","19.7","","11.9","","61","","3","","17","","","","100.40","","","","","","NA"
"2017-07-28 10:00","2017","07","28","10:00","19.3","","11.3","","60","","36","","19","","","","100.40","","","","","","NA"
"2017-07-28 11:00","2017","07","28","11:00","20.4","","11.8","","58","","2","","17","","","","100.39","","","","","","NA"
"2017-07-28 12:00","2017","07","28","12:00","20.8","","10.3","","51","","36","","14","","","","100.35","","","","","","NA"
"2017-07-28 13:00","2017","07","28","13:00","20.8","","7.6","","42","","1","","14","","","","100.35","","","","","","NA"
"2017-07-28 14:00","2017","07","28","14:00","21.0","","7.9","","43","","36","","14","","","","100.34","","","","","","NA"
"2017-07-28 15:00","2017","07","28","15:00","22.2","","6.9","","37","","35","","22","","","","100.31","","","","","","NA"
"2017-07-28 16:00","2017","07","28","16:00","21.8","","6.7","","38","","35","","24","","","","100.29","","","","","","NA"
"2017-07-28 17:00","2017","07","28","17:00","20.7","","8.6","","46","","36","","19","","","","100.26","","","","","","NA"
"2017-07-28 18:00","2017","07","28","18:00","20.0","","8.6","","48","","2","","12","","","","100.28","","","","","","NA"
"2017-07-28 19:00","2017","07","28","19:00","19.0","","10.4","","57","","36","","4","","","","100.28","","","","","","NA"
"2017-07-28 20:00","2017","07","28","20:00","16.9","","11.6","","71","","35","","6","","","","100.27","","","","","","NA"
"2017-07-28 21:00","2017","07","28","21:00","15.6","","12.1","","80","","34","","7","","","","100.29","","","","","","NA"
"2017-07-28 22:00","2017","07","28","22:00","14.4","","11.8","","85","","34","","5","","","","100.29","","","","","","NA"
"2017-07-28 23:00","2017","07","28","23:00","12.7","","11.4","","92","","34","","8","","","","100.30","","","","","","NA"
"2017-07-29 00:00","2017","07","29","00:00","12.0","","10.8","","92","","34","","12","","","","100.30","","","","","","NA"
"2017-07-29 01:00","2017","07","29","01:00","12.4","","11.1","","92","","34","","13","","","","100.33","","","","","","NA"
"2017-07-29 02:00","2017","07","29","02:00","11.8","","10.6","","93","","34","","11","","","","100.28","","","","","","NA"
"2017-07-29 03:00","2017","07","29","03:00","11.9","","10.7","","92","","34","","12","","","","100.24","","","","","","NA"
"2017-07-29 04:00","2017","07","29","04:00","11.8","","10.3","","91","","35","","11","","","","100.25","","","","","","NA"
"2017-07-29 05:00","2017","07","29","05:00","11.5","","9.9","","90","","34","","12","","","","100.32","","","","","","NA"
"2017-07-29 06:00","2017","07","29","06:00","13.6","","10.9","","84","","35","","12","","","","100.34","","","","","","NA"
"2017-07-29 07:00","2017","07","29","07:00","16.8","","12.3","","75","","35","","11","","","","100.44","","","","","","NA"
"2017-07-29 08:00","2017","07","29","08:00","19.8","","11.3","","58","","1","","13","","","","100.47","","","","","","NA"
"2017-07-29 09:00","2017","07","29","09:00","21.7","","10.9","","50","","1","","13","","","","100.47","","","","","","NA"
"2017-07-29 10:00","2017","07","29","10:00","23.1","","9.3","","41","","2","","21","","","","100.50","","","","","","NA"
"2017-07-29 11:00","2017","07","29","11:00","23.3","","6.3","","33","","36","","19","","","","100.47","","","","","","NA"
"2017-07-29 12:00","2017","07","29","12:00","23.7","","5.3","","30","","36","","20","","","","100.43","","","","","","NA"
"2017-07-29 13:00","2017","07","29","13:00","24.3","","5.4","","30","","1","","19","","","","100.39","","","","","","NA"
"2017-07-29 14:00","2017","07","29","14:00","25.0","","7.0","","32","","1","","14","","","","100.37","","25","","","","NA"
"2017-07-29 15:00","2017","07","29","15:00","25.0","","7.4","","32","","1","","13","","","","100.34","","25","","","","NA"
"2017-07-29 16:00","2017","07","29","16:00","25.1","","6.0","","29","","36","","19","","","","100.37","","25","","","","NA"
"2017-07-29 17:00","2017","07","29","17:00","25.1","","6.1","","30","","1","","13","","","","100.38","","25","","","","NA"
"2017-07-29 18:00","2017","07","29","18:00","24.1","","6.1","","31","","3","","13","","","","100.39","","","","","","NA"
"2017-07-29 19:00","2017","07","29","19:00","22.4","","4.8","","32","","3","","6","","","","100.40","","","","","","NA"
"2017-07-29 20:00","2017","07","29","20:00","20.4","","6.4","","40","","6","","5","","","","100.42","","","","","","NA"
"2017-07-29 21:00","2017","07","29","21:00","15.9","","8.3","","61","","36","","5","","","","100.46","","","","","","NA"
"2017-07-29 22:00","2017","07","29","22:00","14.0","","10.5","","79","","34","","9","","","","100.44","","","","","","NA"
"2017-07-29 23:00","2017","07","29","23:00","13.9","","10.7","","81","","34","","9","","","","100.45","","","","","","NA"
"2017-07-30 00:00","2017","07","30","00:00","12.8","","10.5","","86","","34","","10","","","","100.47","","","","","","NA"
"2017-07-30 01:00","2017","07","30","01:00","12.6","","10.2","","86","","34","","10","","","","100.48","","","","","","NA"
"2017-07-30 02:00","2017","07","30","02:00","12.1","","9.9","","87","","34","","10","","","","100.48","","","","","","NA"
"2017-07-30 03:00","2017","07","30","03:00","12.1","","9.9","","87","","33","","12","","","","100.49","","","","","","NA"
"2017-07-30 04:00","2017","07","30","04:00","12.1","","10.2","","88","","33","","10","","","","100.52","","","","","","NA"
"2017-07-30 05:00","2017","07","30","05:00","12.1","","9.8","","86","","34","","10","","","","100.58","","","","","","NA"
"2017-07-30 06:00","2017","07","30","06:00","14.0","","11.5","","85","","34","","3","","","","100.60","","","","","","NA"
"2017-07-30 07:00","2017","07","30","07:00","18.4","","12.6","","69","","10","","2","","","","100.64","","","","","","NA"
"2017-07-30 08:00","2017","07","30","08:00","20.0","","11.8","","59","","15","","6","","","","100.67","","","","","","NA"
"2017-07-30 09:00","2017","07","30","09:00","20.7","","15.1","","70","","16","","8","","","","100.66","","25","","","","NA"
"2017-07-30 10:00","2017","07","30","10:00","21.9","","16.5","","71","","18","","12","","","","100.71","","27","","","","NA"
"2017-07-30 11:00","2017","07","30","11:00","22.5","","16.0","","67","","17","","14","","","","100.70","","27","","","","NA"
"2017-07-30 12:00","2017","07","30","12:00","23.0","","14.9","","60","","18","","15","","","","100.69","","27","","","","NA"
"2017-07-30 13:00","2017","07","30","13:00","23.4","","12.9","","52","","17","","16","","","","100.67","","26","","","","NA"
"2017-07-30 14:00","2017","07","30","14:00","23.3","","17.5","","70","","18","","20","","","","100.67","","29","","","","NA"
"2017-07-30 15:00","2017","07","30","15:00","23.6","","16.3","","64","","19","","18","","","","100.60","","28","","","","NA"
"2017-07-30 16:00","2017","07","30","16:00","22.9","","16.0","","65","","19","","17","","","","100.58","","28","","","","NA"
"2017-07-30 17:00","2017","07","30","17:00","21.9","","16.9","","73","","21","","11","","","","100.59","","27","","","","NA"
"2017-07-30 18:00","2017","07","30","18:00","22.7","","19.5","","83","","19","","13","","","","100.56","","30","","","","NA"
"2017-07-30 19:00","2017","07","30","19:00","22.3","","19.1","","82","","20","","8","","","","100.56","","29","","","","NA"
"2017-07-30 20:00","2017","07","30","20:00","21.6","","19.7","","89","","18","","10","","","","100.58","","29","","","","NA"
"2017-07-30 21:00","2017","07","30","21:00","21.3","","19.6","","90","","18","","11","","","","100.60","","29","","","","NA"
"2017-07-30 22:00","2017","07","30","22:00","21.2","","19.4","","89","","18","","5","","","","100.59","","28","","","","NA"
"2017-07-30 23:00","2017","07","30","23:00","20.2","","17.5","","85","","26","","8","","","","100.60","","26","","","","NA"
"2017-07-31 00:00","2017","07","31","00:00","19.1","","15.0","","77","","28","","9","","","","100.58","","","","","","NA"
"2017-07-31 01:00","2017","07","31","01:00","18.4","","14.0","","75","","28","","9","","","","100.58","","","","","","NA"
"2017-07-31 02:00","2017","07","31","02:00","17.5","","13.5","","77","","26","","10","","","","100.58","","","","","","NA"
"2017-07-31 03:00","2017","07","31","03:00","16.2","","13.1","","82","","28","","9","","","","100.56","","","","","","NA"
"2017-07-31 04:00","2017","07","31","04:00","15.5","","12.8","","84","","27","","6","","","","100.57","","","","","","NA"
"2017-07-31 05:00","2017","07","31","05:00","15.6","","13.2","","86","","26","","14","","","","100.64","","","","","","NA"
"2017-07-31 06:00","2017","07","31","06:00","16.7","","14.1","","85","","27","","10","","","","100.67","","","","","","NA"
"2017-07-31 07:00","2017","07","31","07:00","18.7","","15.5","","82","","28","","9","","","","100.67","","","","","","NA"
"2017-07-31 08:00","2017","07","31","08:00","20.3","","15.8","","76","","23","","7","","","","100.69","","25","","","","NA"
"2017-07-31 09:00","2017","07","31","09:00","21.2","","16.5","","75","","19","","9","","","","100.69","","26","","","","NA"
"2017-07-31 10:00","2017","07","31","10:00","22.6","","17.5","","73","","17","","10","","","","100.71","","28","","","","NA"
"2017-07-31 11:00","2017","07","31","11:00","22.4","","17.5","","74","","17","","13","","","","100.71","","28","","","","NA"
"2017-07-31 12:00","2017","07","31","12:00","23.4","","18.1","","72","","17","","15","","","","100.68","","29","","","","NA"
"2017-07-31 13:00","2017","07","31","13:00","23.4","","18.5","","74","","17","","16","","","","100.65","","30","","","","NA"
"2017-07-31 14:00","2017","07","31","14:00","24.0","","19.6","","77","","18","","17","","","","100.61","","31","","","","NA"
"2017-07-31 15:00","2017","07","31","15:00","20.4","","18.2","","87","","31","","6","","","","100.64","","27","","","","NA"
"2017-07-31 16:00","2017","07","31","16:00","21.5","","18.2","","81","","1","","4","","","","100.61","","28","","","","NA"
"2017-07-31 17:00","2017","07","31","17:00","23.4","","18.4","","74","","22","","7","","","","100.59","","30","","","","NA"
"2017-07-31 18:00","2017","07","31","18:00","23.2","","19.3","","79","","21","","5","","","","100.63","","30","","","","NA"
"2017-07-31 19:00","2017","07","31","19:00","21.5","","17.8","","79","","21","","8","","","","100.60","","27","","","","NA"
"2017-07-31 20:00","2017","07","31","20:00","20.7","","19.0","","90","","16","","6","","","","100.60","","27","","","","NA"
"2017-07-31 21:00","2017","07","31","21:00","19.3","","17.8","","91","","26","","5","","","","100.67","","","","","","NA"
"2017-07-31 22:00","2017","07","31","22:00","20.0","","18.8","","93","","23","","3","","","","100.66","","27","","","","NA"
"2017-07-31 23:00","2017","07","31","23:00","17.6","","16.5","","94","","34","","6","","","","100.62","","","","","","NA"
