"Station Name","KINGSTON CLIMATE"
"Province","ONTARIO"
"Latitude","44.22"
"Longitude","-76.60"
"Elevation","93.00"
"Climate Identifier","6104142"
"WMO Identifier","71820"
"TC Identifier","TKG"
"All times are specified in Local Standard Time (LST). Add 1 hour to adjust for Daylight Saving Time where and when it is observed."

"Legend"
"E","Estimated"
"M","Missing"
"NA","Not Available"

"Date/Time","Year","Month","Day","Time","Temp (°C)","Temp Flag","Dew Point Temp (°C)","Dew Point Temp Flag","Rel Hum (%)","Rel Hum Flag","Wind Dir (10s deg)","Wind Dir Flag","Wind Spd (km/h)","Wind Spd Flag","Visibility (km)","Visibility Flag","Stn Press (kPa)","Stn Press Flag","Hmdx","Hmdx Flag","Wind Chill","Wind Chill Flag","Weather"
"2017-01-01 00:00","2017","01","01","00:00","2.8","","1.2","","89","","22","","25","","","","99.23","","","","","","NA"
"2017-01-01 01:00","2017","01","01","01:00","2.1","","0.6","","90","","24","","16","","","","99.35","","","","","","NA"
"2017-01-01 02:00","2017","01","01","02:00","1.6","","-2.7","","73","","26","","33","","","","99.52","","","","","","NA"
"2017-01-01 03:00","2017","01","01","03:00","1.0","","-2.9","","75","","26","","25","","","","99.71","","","","","","NA"
"2017-01-01 04:00","2017","01","01","04:00","0.7","","-3.1","","76","","26","","25","","","","99.86","","","","","","NA"
"2017-01-01 05:00","2017","01","01","05:00","0.0","","-4.3","","73","","27","","25","","","","100.06","","","","-6","","NA"
"2017-01-01 06:00","2017","01","01","06:00","-0.8","","-5.3","","71","","26","","21","","","","100.23","","","","-6","","NA"
"2017-01-01 07:00","2017","01","01","07:00","-1.3","","-5.5","","73","","27","","18","","","","100.43","","","","-7","","NA"
"2017-01-01 08:00","2017","01","01","08:00","-1.6","","-5.7","","74","","27","","16","","","","100.62","","","","-7","","NA"
"2017-01-01 09:00","2017","01","01","09:00","-1.1","","-6.3","","68","","27","","12","","","","100.72","","","","-5","","NA"
"2017-01-01 10:00","2017","01","01","10:00","-0.4","","-5.5","","69","","26","","10","","","","100.87","","","","-4","","NA"
"2017-01-01 11:00","2017","01","01","11:00","-0.2","","-5.8","","66","","27","","10","","","","101.00","","","","-4","","NA"
"2017-01-01 12:00","2017","01","01","12:00","0.4","","-6.0","","62","","26","","6","","","","101.01","","","","","","NA"
"2017-01-01 13:00","2017","01","01","13:00","0.9","","-6.1","","59","","21","","7","","","","101.02","","","","","","NA"
"2017-01-01 14:00","2017","01","01","14:00","1.5","","-5.1","","62","","16","","6","","","","101.03","","","","","","NA"
"2017-01-01 15:00","2017","01","01","15:00","1.1","","-3.2","","73","","17","","11","","","","101.08","","","","","","NA"
"2017-01-01 16:00","2017","01","01","16:00","2.0","","-3.0","","70","","20","","14","","","","101.15","","","","","","NA"
"2017-01-01 17:00","2017","01","01","17:00","1.4","","-3.0","","73","","22","","17","","","","101.31","","","","","","NA"
"2017-01-01 18:00","2017","01","01","18:00","0.7","","-2.9","","77","","22","","12","","","","101.38","","","","","","NA"
"2017-01-01 19:00","2017","01","01","19:00","0.5","","-2.7","","79","","22","","13","","","","101.46","","","","","","NA"
"2017-01-01 20:00","2017","01","01","20:00","0.2","","-2.8","","80","","22","","10","","","","101.49","","","","","","NA"
"2017-01-01 21:00","2017","01","01","21:00","-0.7","","-3.1","","83","","21","","8","","","","101.52","","","","-4","","NA"
"2017-01-01 22:00","2017","01","01","22:00","-1.7","","-3.2","","90","","22","","4","","","","101.59","","","","-3","","NA"
"2017-01-01 23:00","2017","01","01","23:00","-4.9","","-5.9","","93","","33","","6","","","","101.64","","","","-8","","NA"
"2017-01-02 00:00","2017","01","02","00:00","-5.3","","-6.5","","92","","36","","4","","","","101.65","","","","-7","","NA"
"2017-01-02 01:00","2017","01","02","01:00","-4.5","","-5.5","","92","","4","","2","","","","101.67","","","","-5","","NA"
"2017-01-02 02:00","2017","01","02","02:00","-5.7","","-6.7","","93","","1","","2","","","","101.74","","","","-7","","NA"
"2017-01-02 03:00","2017","01","02","03:00","-6.3","","-7.4","","92","","34","","10","","","","101.84","","","","-11","","NA"
"2017-01-02 04:00","2017","01","02","04:00","-6.2","","-7.2","","93","","3","","5","","","","101.87","","","","-9","","NA"
"2017-01-02 05:00","2017","01","02","05:00","-3.9","","-4.8","","93","","3","","12","","","","101.84","","","","-9","","NA"
"2017-01-02 06:00","2017","01","02","06:00","-3.1","","-4.2","","93","","5","","9","","","","101.81","","","","-7","","NA"
"2017-01-02 07:00","2017","01","02","07:00","-3.8","","-5.0","","92","","5","","8","","","","101.83","","","","-7","","NA"
"2017-01-02 08:00","2017","01","02","08:00","-4.5","","-5.8","","91","","3","","8","","","","101.87","","","","-8","","NA"
"2017-01-02 09:00","2017","01","02","09:00","-2.5","","-4.3","","88","","5","","6","","","","101.88","","","","-5","","NA"
"2017-01-02 10:00","2017","01","02","10:00","-0.6","","-3.4","","81","","5","","7","","","","101.93","","","","-3","","NA"
"2017-01-02 11:00","2017","01","02","11:00","1.3","","-2.7","","74","","7","","11","","","","101.85","","","","","","NA"
"2017-01-02 12:00","2017","01","02","12:00","3.0","","-3.7","","61","","9","","9","","","","101.77","","","","","","NA"
"2017-01-02 13:00","2017","01","02","13:00","4.1","","-2.9","","61","","10","","10","","","","101.67","","","","","","NA"
"2017-01-02 14:00","2017","01","02","14:00","5.1","","-2.5","","58","","9","","10","","","","101.64","","","","","","NA"
"2017-01-02 15:00","2017","01","02","15:00","4.5","","-2.7","","59","","7","","8","","","","101.65","","","","","","NA"
"2017-01-02 16:00","2017","01","02","16:00","3.9","","-3.3","","59","","5","","8","","","","101.66","","","","","","NA"
"2017-01-02 17:00","2017","01","02","17:00","3.0","","-2.8","","66","","8","","7","","","","101.67","","","","","","NA"
"2017-01-02 18:00","2017","01","02","18:00","3.2","","-1.3","","72","","12","","13","","","","101.50","","","","","","NA"
"2017-01-02 19:00","2017","01","02","19:00","2.5","","0.7","","88","","12","","16","","","","101.49","","","","","","NA"
"2017-01-02 20:00","2017","01","02","20:00","2.4","","0.2","","86","","9","","13","","","","101.45","","","","","","NA"
"2017-01-02 21:00","2017","01","02","21:00","2.7","","-0.4","","80","","9","","14","","","","101.29","","","","","","NA"
"2017-01-02 22:00","2017","01","02","22:00","2.1","","-1.7","","76","","6","","13","","","","101.16","","","","","","NA"
"2017-01-02 23:00","2017","01","02","23:00","2.2","","-2.7","","70","","5","","12","","","","101.16","","","","","","NA"
"2017-01-03 00:00","2017","01","03","00:00","1.8","","-2.3","","74","","6","","14","","","","101.10","","","","","","NA"
"2017-01-03 01:00","2017","01","03","01:00","1.9","","-2.4","","73","","8","","14","","","","101.00","","","","","","NA"
"2017-01-03 02:00","2017","01","03","02:00","2.4","","-1.5","","75","","9","","14","","","","100.95","","","","","","NA"
"2017-01-03 03:00","2017","01","03","03:00","2.2","","-1.0","","79","","9","","13","","","","100.83","","","","","","NA"
"2017-01-03 04:00","2017","01","03","04:00","1.4","","-0.2","","89","","6","","11","","","","100.74","","","","","","NA"
"2017-01-03 05:00","2017","01","03","05:00","0.9","","0.1","","94","","4","","10","","","","100.67","","","","","","NA"
"2017-01-03 06:00","2017","01","03","06:00","0.9","","0.2","","95","","3","","12","","","","100.61","","","","","","NA"
"2017-01-03 07:00","2017","01","03","07:00","0.6","","0.1","","96","","9","","11","","","","100.42","","","","","","NA"
"2017-01-03 08:00","2017","01","03","08:00","0.8","","0.3","","96","","5","","9","","","","100.38","","","","","","NA"
"2017-01-03 09:00","2017","01","03","09:00","0.9","","0.4","","96","","5","","10","","","","100.27","","","","","","NA"
"2017-01-03 10:00","2017","01","03","10:00","1.1","","0.5","","96","","4","","8","","","","100.19","","","","","","NA"
"2017-01-03 11:00","2017","01","03","11:00","1.4","","0.9","","96","","5","","9","","","","100.07","","","","","","NA"
"2017-01-03 12:00","2017","01","03","12:00","1.9","","1.3","","96","","4","","9","","","","99.90","","","","","","NA"
"2017-01-03 13:00","2017","01","03","13:00","1.9","","1.3","","96","","4","","9","","","","99.78","","","","","","NA"
"2017-01-03 14:00","2017","01","03","14:00","2.0","","1.4","","96","","4","","11","","","","99.65","","","","","","NA"
"2017-01-03 15:00","2017","01","03","15:00","2.0","","1.4","","96","","4","","12","","","","99.56","","","","","","NA"
"2017-01-03 16:00","2017","01","03","16:00","1.8","","1.2","","96","","5","","12","","","","99.46","","","","","","NA"
"2017-01-03 17:00","2017","01","03","17:00","1.8","","1.2","","96","","6","","11","","","","99.34","","","","","","NA"
"2017-01-03 18:00","2017","01","03","18:00","2.0","","1.5","","96","","7","","10","","","","99.23","","","","","","NA"
"2017-01-03 19:00","2017","01","03","19:00","1.8","","1.3","","96","","7","","14","","","","99.14","","","","","","NA"
"2017-01-03 20:00","2017","01","03","20:00","1.6","","1.1","","96","","6","","11","","","","99.03","","","","","","NA"
"2017-01-03 21:00","2017","01","03","21:00","1.2","","0.7","","96","","5","","10","","","","98.90","","","","","","NA"
"2017-01-03 22:00","2017","01","03","22:00","1.0","","0.5","","96","","4","","13","","","","98.77","","","","","","NA"
"2017-01-03 23:00","2017","01","03","23:00","1.0","","0.5","","96","","3","","8","","","","98.69","","","","","","NA"
"2017-01-04 00:00","2017","01","04","00:00","1.0","","0.4","","96","","4","","9","","","","98.57","","","","","","NA"
"2017-01-04 01:00","2017","01","04","01:00","1.0","","0.5","","96","","5","","8","","","","98.46","","","","","","NA"
"2017-01-04 02:00","2017","01","04","02:00","1.0","","0.5","","97","","5","","7","","","","98.39","","","","","","NA"
"2017-01-04 03:00","2017","01","04","03:00","0.9","","0.4","","97","","6","","6","","","","98.34","","","","","","NA"
"2017-01-04 04:00","2017","01","04","04:00","0.9","","0.5","","97","","6","","6","","","","98.25","","","","","","NA"
"2017-01-04 05:00","2017","01","04","05:00","1.0","","0.6","","97","","3","","2","","","","98.21","","","","","","NA"
"2017-01-04 06:00","2017","01","04","06:00","2.0","","1.6","","97","","23","","10","","","","98.24","","","","","","NA"
"2017-01-04 07:00","2017","01","04","07:00","1.9","","1.5","","97","","25","","22","","","","98.26","","","","","","NA"
"2017-01-04 08:00","2017","01","04","08:00","2.5","","1.6","","94","","25","","21","","","","98.32","","","","","","NA"
"2017-01-04 09:00","2017","01","04","09:00","2.7","","0.9","","88","","25","","24","","","","98.34","","","","","","NA"
"2017-01-04 10:00","2017","01","04","10:00","3.0","","0.8","","85","","25","","26","","","","98.38","","","","","","NA"
"2017-01-04 11:00","2017","01","04","11:00","3.4","","0.7","","82","","25","","27","","","","98.37","","","","","","NA"
"2017-01-04 12:00","2017","01","04","12:00","3.7","","0.4","","79","","24","","31","","","","98.28","","","","","","NA"
"2017-01-04 13:00","2017","01","04","13:00","2.6","","-2.1","","71","","24","","44","","","","98.26","","","","","","NA"
"2017-01-04 14:00","2017","01","04","14:00","1.4","","-3.2","","72","","24","","52","","","","98.35","","","","","","NA"
"2017-01-04 15:00","2017","01","04","15:00","-0.4","","-4.4","","74","","25","","47","","","","98.51","","","","-8","","NA"
"2017-01-04 16:00","2017","01","04","16:00","-1.3","","-5.8","","72","","25","","49","","","","98.58","","","","-10","","NA"
"2017-01-04 17:00","2017","01","04","17:00","-2.6","","-7.9","","67","","24","","48","","","","98.67","","","","-12","","NA"
"2017-01-04 18:00","2017","01","04","18:00","-3.4","","-9.4","","63","","26","","30","","","","98.81","","","","-11","","NA"
"2017-01-04 19:00","2017","01","04","19:00","-4.2","","-10.9","","60","","26","","43","","","","98.88","","","","-13","","NA"
"2017-01-04 20:00","2017","01","04","20:00","-4.6","","-11.5","","58","","26","","40","","","","98.90","","","","-14","","NA"
"2017-01-04 21:00","2017","01","04","21:00","-5.2","","-12.5","","56","","25","","42","","","","98.95","","","","-15","","NA"
"2017-01-04 22:00","2017","01","04","22:00","-5.8","","-13.6","","54","","25","","36","","","","99.00","","","","-15","","NA"
"2017-01-04 23:00","2017","01","04","23:00","-6.3","","-12.6","","61","","26","","38","","","","99.08","","","","-16","","NA"
"2017-01-05 00:00","2017","01","05","00:00","-6.2","","-13.1","","58","","25","","35","","","","99.06","","","","-15","","NA"
"2017-01-05 01:00","2017","01","05","01:00","-5.6","","-12.0","","61","","25","","37","","","","99.05","","","","-15","","NA"
"2017-01-05 02:00","2017","01","05","02:00","-4.9","","-10.5","","65","","25","","38","","","","99.09","","","","-14","","NA"
"2017-01-05 03:00","2017","01","05","03:00","-4.9","","-10.7","","63","","25","","47","","","","99.13","","","","-15","","NA"
"2017-01-05 04:00","2017","01","05","04:00","-5.1","","-10.9","","64","","26","","37","","","","99.29","","","","-14","","NA"
"2017-01-05 05:00","2017","01","05","05:00","-5.3","","-11.0","","64","","26","","32","","","","99.37","","","","-14","","NA"
"2017-01-05 06:00","2017","01","05","06:00","-5.9","","-11.1","","67","","26","","31","","","","99.45","","","","-14","","NA"
"2017-01-05 07:00","2017","01","05","07:00","-6.0","","-11.1","","67","","26","","30","","","","99.52","","","","-14","","NA"
"2017-01-05 08:00","2017","01","05","08:00","-6.0","","-11.3","","67","","27","","29","","","","99.57","","","","-14","","NA"
"2017-01-05 09:00","2017","01","05","09:00","-5.5","","-11.4","","63","","27","","31","","","","99.66","","","","-14","","NA"
"2017-01-05 10:00","2017","01","05","10:00","-5.0","","-11.2","","62","","26","","27","","","","99.73","","","","-13","","NA"
"2017-01-05 11:00","2017","01","05","11:00","-4.4","","-11.8","","56","","27","","29","","","","99.77","","","","-12","","NA"
"2017-01-05 12:00","2017","01","05","12:00","-3.7","","-11.2","","56","","27","","27","","","","99.73","","","","-11","","NA"
"2017-01-05 13:00","2017","01","05","13:00","-4.0","","-12.8","","50","","25","","30","","","","99.69","","","","-12","","NA"
"2017-01-05 14:00","2017","01","05","14:00","-4.0","","-11.8","","55","","24","","29","","","","99.70","","","","-12","","NA"
"2017-01-05 15:00","2017","01","05","15:00","-4.3","","-11.5","","57","","25","","25","","","","99.73","","","","-11","","NA"
"2017-01-05 16:00","2017","01","05","16:00","-4.8","","-10.8","","63","","25","","28","","","","99.77","","","","-12","","NA"
"2017-01-05 17:00","2017","01","05","17:00","-4.9","","-10.5","","65","","25","","20","","","","99.81","","","","-11","","NA"
"2017-01-05 18:00","2017","01","05","18:00","-5.4","","-12.1","","59","","27","","17","","","","99.81","","","","-11","","NA"
"2017-01-05 19:00","2017","01","05","19:00","-5.8","","-12.4","","60","","28","","15","","","","99.86","","","","-12","","NA"
"2017-01-05 20:00","2017","01","05","20:00","-6.5","","-12.5","","62","","28","","15","","","","99.92","","","","-12","","NA"
"2017-01-05 21:00","2017","01","05","21:00","-7.1","","-12.9","","63","","28","","12","","","","99.98","","","","-12","","NA"
"2017-01-05 22:00","2017","01","05","22:00","-7.4","","-13.4","","62","","27","","10","","","","100.02","","","","-12","","NA"
"2017-01-05 23:00","2017","01","05","23:00","-7.8","","-14.0","","61","","26","","9","","","","100.05","","","","-12","","NA"
"2017-01-06 00:00","2017","01","06","00:00","-8.5","","-14.5","","62","","29","","10","","","","100.09","","","","-13","","NA"
"2017-01-06 01:00","2017","01","06","01:00","-9.3","","-15.0","","63","","27","","7","","","","100.13","","","","-13","","NA"
"2017-01-06 02:00","2017","01","06","02:00","-9.5","","-15.4","","62","","27","","9","","","","100.21","","","","-14","","NA"
"2017-01-06 03:00","2017","01","06","03:00","-9.9","","-15.5","","64","","28","","9","","","","100.23","","","","-15","","NA"
"2017-01-06 04:00","2017","01","06","04:00","-11.0","","-15.4","","70","","28","","7","","","","100.26","","","","-15","","NA"
"2017-01-06 05:00","2017","01","06","05:00","-11.1","","-15.4","","71","","28","","12","","","","100.27","","","","-17","","NA"
"2017-01-06 06:00","2017","01","06","06:00","-11.1","","-15.4","","70","","29","","17","","","","100.37","","","","-19","","NA"
"2017-01-06 07:00","2017","01","06","07:00","-11.4","","-15.4","","72","","29","","13","","","","100.40","","","","-18","","NA"
"2017-01-06 08:00","2017","01","06","08:00","-11.9","","-15.6","","74","","31","","14","","","","100.45","","","","-19","","NA"
"2017-01-06 09:00","2017","01","06","09:00","-10.6","","-15.4","","68","","17","","8","","","","100.57","","","","-15","","NA"
"2017-01-06 10:00","2017","01","06","10:00","-9.8","","-14.9","","66","","29","","4","","","","100.66","","","","-12","","NA"
"2017-01-06 11:00","2017","01","06","11:00","-8.2","","-14.0","","63","","21","","8","","","","100.69","","","","-12","","NA"
"2017-01-06 12:00","2017","01","06","12:00","-7.3","","-12.8","","65","","18","","7","","","","100.68","","","","-11","","NA"
"2017-01-06 13:00","2017","01","06","13:00","-6.6","","-12.6","","62","","17","","10","","","","100.70","","","","-11","","NA"
"2017-01-06 14:00","2017","01","06","14:00","-5.2","","-13.7","","52","","22","","8","","","","100.69","","","","-9","","NA"
"2017-01-06 15:00","2017","01","06","15:00","-5.3","","-16.3","","41","","23","","14","","","","100.73","","","","-11","","NA"
"2017-01-06 16:00","2017","01","06","16:00","-5.7","","-16.1","","44","","28","","12","","","","100.79","","","","-11","","NA"
"2017-01-06 17:00","2017","01","06","17:00","-7.0","","-16.3","","48","","26","","9","","","","100.87","","","","-11","","NA"
"2017-01-06 18:00","2017","01","06","18:00","-7.1","","-15.4","","51","","27","","10","","","","100.94","","","","-12","","NA"
"2017-01-06 19:00","2017","01","06","19:00","-7.0","","-14.5","","55","","28","","10","","","","101.05","","","","-12","","NA"
"2017-01-06 20:00","2017","01","06","20:00","-7.2","","-12.4","","66","","26","","11","","","","101.12","","","","-12","","NA"
"2017-01-06 21:00","2017","01","06","21:00","-8.2","","-12.8","","70","","28","","11","","","","101.15","","","","-13","","NA"
"2017-01-06 22:00","2017","01","06","22:00","-8.8","","-13.9","","67","","28","","8","","","","101.17","","","","-13","","NA"
"2017-01-06 23:00","2017","01","06","23:00","-9.3","","-14.5","","66","","30","","11","","","","101.24","","","","-15","","NA"
"2017-01-07 00:00","2017","01","07","00:00","-10.5","","-14.8","","71","","31","","11","","","","101.30","","","","-16","","NA"
"2017-01-07 01:00","2017","01","07","01:00","-11.3","","-14.9","","75","","29","","7","","","","101.34","","","","-16","","NA"
"2017-01-07 02:00","2017","01","07","02:00","-11.7","","-14.5","","79","","29","","11","","","","101.40","","","","-18","","NA"
"2017-01-07 03:00","2017","01","07","03:00","-12.2","","-14.8","","81","","29","","8","","","","101.48","","","","-17","","NA"
"2017-01-07 04:00","2017","01","07","04:00","-13.0","","-15.3","","83","","32","","15","","","","101.47","","","","-20","","NA"
"2017-01-07 05:00","2017","01","07","05:00","-14.1","","-16.0","","86","","35","","10","","","","101.51","","","","-20","","NA"
"2017-01-07 06:00","2017","01","07","06:00","-14.2","","-16.0","","86","","36","","10","","","","101.51","","","","-20","","NA"
"2017-01-07 07:00","2017","01","07","07:00","-15.1","","-16.8","","87","","35","","5","","","","101.59","","","","-19","","NA"
"2017-01-07 08:00","2017","01","07","08:00","-14.1","","-16.0","","86","","1","","8","","","","101.61","","","","-19","","NA"
"2017-01-07 09:00","2017","01","07","09:00","-12.5","","-14.6","","85","","3","","11","","","","101.65","","","","-19","","NA"
"2017-01-07 10:00","2017","01","07","10:00","-11.3","","-13.1","","86","","4","","16","","","","101.64","","","","-19","","NA"
"2017-01-07 11:00","2017","01","07","11:00","-10.2","","-11.9","","88","","5","","11","","","","101.65","","","","-16","","NA"
"2017-01-07 12:00","2017","01","07","12:00","-9.6","","-11.8","","84","","7","","10","","","","101.55","","","","-15","","NA"
"2017-01-07 13:00","2017","01","07","13:00","-8.8","","-11.3","","82","","5","","8","","","","101.46","","","","-13","","NA"
"2017-01-07 14:00","2017","01","07","14:00","-7.7","","-10.8","","78","","5","","9","","","","101.38","","","","-12","","NA"
"2017-01-07 15:00","2017","01","07","15:00","-7.4","","-11.5","","72","","6","","11","","","","101.32","","","","-12","","NA"
"2017-01-07 16:00","2017","01","07","16:00","-7.6","","-11.8","","72","","6","","8","","","","101.29","","","","-12","","NA"
"2017-01-07 17:00","2017","01","07","17:00","-8.4","","-11.8","","76","","4","","6","","","","101.31","","","","-12","","NA"
"2017-01-07 18:00","2017","01","07","18:00","-9.2","","-12.2","","79","","3","","7","","","","101.28","","","","-13","","NA"
"2017-01-07 19:00","2017","01","07","19:00","-8.5","","-11.9","","77","","4","","9","","","","101.26","","","","-13","","NA"
"2017-01-07 20:00","2017","01","07","20:00","-8.6","","-11.6","","79","","5","","13","","","","101.20","","","","-15","","NA"
"2017-01-07 21:00","2017","01","07","21:00","-8.6","","-11.4","","80","","6","","9","","","","101.14","","","","-13","","NA"
"2017-01-07 22:00","2017","01","07","22:00","-9.0","","-11.4","","83","","6","","13","","","","101.05","","","","-15","","NA"
"2017-01-07 23:00","2017","01","07","23:00","-9.2","","-11.3","","85","","3","","9","","","","101.02","","","","-14","","NA"
"2017-01-08 00:00","2017","01","08","00:00","-9.3","","-10.7","","90","","29","","10","","","","101.03","","","","-14","","NA"
"2017-01-08 01:00","2017","01","08","01:00","-10.9","","-13.4","","82","","29","","13","","","","100.98","","","","-17","","NA"
"2017-01-08 02:00","2017","01","08","02:00","-12.1","","-14.4","","83","","33","","8","","","","100.96","","","","-17","","NA"
"2017-01-08 03:00","2017","01","08","03:00","-12.4","","-16.0","","75","","32","","15","","","","100.95","","","","-20","","NA"
"2017-01-08 04:00","2017","01","08","04:00","-14.2","","-16.6","","82","","1","","6","","","","100.93","","","","-18","","NA"
"2017-01-08 05:00","2017","01","08","05:00","-14.4","","-16.7","","82","","33","","8","","","","100.92","","","","-20","","NA"
"2017-01-08 06:00","2017","01","08","06:00","-14.8","","-17.0","","83","","32","","10","","","","100.99","","","","-21","","NA"
"2017-01-08 07:00","2017","01","08","07:00","-15.0","","-17.9","","79","","30","","5","","","","101.05","","","","-19","","NA"
"2017-01-08 08:00","2017","01","08","08:00","-16.5","","-18.7","","83","","33","","12","","","","101.11","","","","-24","","NA"
"2017-01-08 09:00","2017","01","08","09:00","-14.7","","-17.1","","81","","31","","10","","","","101.24","","","","-21","","NA"
"2017-01-08 10:00","2017","01","08","10:00","-12.6","","-15.9","","76","","34","","14","","","","101.26","","","","-20","","NA"
"2017-01-08 11:00","2017","01","08","11:00","-10.8","","-15.0","","71","","32","","12","","","","101.36","","","","-17","","NA"
"2017-01-08 12:00","2017","01","08","12:00","-10.5","","-14.7","","72","","33","","16","","","","101.39","","","","-18","","NA"
"2017-01-08 13:00","2017","01","08","13:00","-10.8","","-15.5","","69","","33","","25","","","","101.49","","","","-20","","NA"
"2017-01-08 14:00","2017","01","08","14:00","-11.4","","-16.9","","64","","32","","24","","","","101.60","","","","-20","","NA"
"2017-01-08 15:00","2017","01","08","15:00","-11.4","","-17.2","","62","","32","","24","","","","101.72","","","","-20","","NA"
"2017-01-08 16:00","2017","01","08","16:00","-11.5","","-17.9","","59","","32","","23","","","","101.87","","","","-20","","NA"
"2017-01-08 17:00","2017","01","08","17:00","-12.8","","-18.4","","63","","33","","14","","","","101.97","","","","-20","","NA"
"2017-01-08 18:00","2017","01","08","18:00","-14.5","","-19.4","","66","","31","","5","","","","102.07","","","","-18","","NA"
"2017-01-08 19:00","2017","01","08","19:00","-14.5","","-19.4","","67","","31","","4","","","","102.18","","","","-17","","NA"
"2017-01-08 20:00","2017","01","08","20:00","-14.7","","-19.1","","69","","30","","8","","","","102.27","","","","-20","","NA"
"2017-01-08 21:00","2017","01","08","21:00","-14.9","","-18.6","","74","","29","","7","","","","102.34","","","","-20","","NA"
"2017-01-08 22:00","2017","01","08","22:00","-15.8","","-19.2","","75","","30","","9","","","","102.36","","","","-22","","NA"
"2017-01-08 23:00","2017","01","08","23:00","-15.4","","-19.0","","74","","28","","10","","","","102.40","","","","-22","","NA"
"2017-01-09 00:00","2017","01","09","00:00","-16.2","","-19.9","","73","","28","","9","","","","102.37","","","","-22","","NA"
"2017-01-09 01:00","2017","01","09","01:00","-16.9","","-20.6","","73","","33","","6","","","","102.36","","","","-21","","NA"
"2017-01-09 02:00","2017","01","09","02:00","-18.0","","-20.7","","79","","32","","4","","","","102.39","","","","-21","","NA"
"2017-01-09 03:00","2017","01","09","03:00","-19.7","","-21.8","","84","","35","","6","","","","102.40","","","","-25","","NA"
"2017-01-09 04:00","2017","01","09","04:00","-16.6","","-19.2","","80","","2","","3","","","","102.36","","","","-19","","NA"
"2017-01-09 05:00","2017","01","09","05:00","-14.8","","-17.7","","79","","4","","3","","","","102.30","","","","-17","","NA"
"2017-01-09 06:00","2017","01","09","06:00","-14.0","","-17.0","","78","","4","","10","","","","102.24","","","","-20","","NA"
"2017-01-09 07:00","2017","01","09","07:00","-11.2","","-13.5","","83","","11","","17","","","","102.27","","","","-19","","NA"
"2017-01-09 08:00","2017","01","09","08:00","-10.5","","-12.3","","87","","7","","13","","","","102.24","","","","-17","","NA"
"2017-01-09 09:00","2017","01","09","09:00","-6.1","","-8.3","","84","","18","","21","","","","102.14","","","","-13","","NA"
"2017-01-09 10:00","2017","01","09","10:00","-4.8","","-8.5","","75","","22","","23","","","","102.07","","","","-12","","NA"
"2017-01-09 11:00","2017","01","09","11:00","-4.9","","-8.9","","73","","22","","32","","","","102.02","","","","-13","","NA"
"2017-01-09 12:00","2017","01","09","12:00","-5.1","","-9.1","","73","","19","","41","","","","101.88","","","","-14","","NA"
"2017-01-09 13:00","2017","01","09","13:00","-5.1","","-9.0","","74","","18","","39","","","","101.80","","","","-14","","NA"
"2017-01-09 14:00","2017","01","09","14:00","-5.3","","-7.5","","84","","19","","39","","","","101.75","","","","-14","","NA"
"2017-01-09 15:00","2017","01","09","15:00","-4.7","","-7.0","","84","","19","","37","","","","101.71","","","","-13","","NA"
"2017-01-09 16:00","2017","01","09","16:00","-4.1","","-6.6","","82","","19","","36","","","","101.71","","","","-12","","NA"
"2017-01-09 17:00","2017","01","09","17:00","-3.4","","-7.5","","73","","21","","31","","","","101.73","","","","-11","","NA"
"2017-01-09 18:00","2017","01","09","18:00","-2.8","","-7.6","","69","","21","","31","","","","101.73","","","","-10","","NA"
"2017-01-09 19:00","2017","01","09","19:00","-2.5","","-8.0","","66","","22","","27","","","","101.79","","","","-9","","NA"
"2017-01-09 20:00","2017","01","09","20:00","-2.2","","-8.0","","64","","22","","24","","","","101.78","","","","-9","","NA"
"2017-01-09 21:00","2017","01","09","21:00","-2.2","","-7.4","","67","","22","","23","","","","101.79","","","","-8","","NA"
"2017-01-09 22:00","2017","01","09","22:00","-2.0","","-7.5","","66","","22","","23","","","","101.79","","","","-8","","NA"
"2017-01-09 23:00","2017","01","09","23:00","-1.8","","-7.5","","65","","20","","32","","","","101.80","","","","-9","","NA"
"2017-01-10 00:00","2017","01","10","00:00","-2.0","","-7.2","","67","","20","","29","","","","101.80","","","","-9","","NA"
"2017-01-10 01:00","2017","01","10","01:00","-2.1","","-8.0","","64","","20","","32","","","","101.78","","","","-9","","NA"
"2017-01-10 02:00","2017","01","10","02:00","-2.1","","-7.4","","67","","20","","29","","","","101.77","","","","-9","","NA"
"2017-01-10 03:00","2017","01","10","03:00","-2.8","","-7.7","","69","","17","","34","","","","101.80","","","","-11","","NA"
"2017-01-10 04:00","2017","01","10","04:00","-3.2","","-7.1","","75","","16","","37","","","","101.70","","","","-11","","NA"
"2017-01-10 05:00","2017","01","10","05:00","-3.8","","-7.9","","73","","16","","34","","","","101.70","","","","-12","","NA"
"2017-01-10 06:00","2017","01","10","06:00","-3.6","","-8.2","","70","","16","","31","","","","101.63","","","","-11","","NA"
"2017-01-10 07:00","2017","01","10","07:00","-3.4","","-8.1","","70","","17","","31","","","","101.65","","","","-11","","NA"
"2017-01-10 08:00","2017","01","10","08:00","-3.2","","-7.6","","72","","16","","33","","","","101.59","","","","-11","","NA"
"2017-01-10 09:00","2017","01","10","09:00","-3.2","","-7.6","","71","","16","","38","","","","101.57","","","","-11","","NA"
"2017-01-10 10:00","2017","01","10","10:00","-3.2","","-6.3","","79","","16","","39","","","","101.48","","","","-12","","NA"
"2017-01-10 11:00","2017","01","10","11:00","-2.9","","-4.2","","91","","16","","39","","","","101.38","","","","-11","","NA"
"2017-01-10 12:00","2017","01","10","12:00","-3.4","","-5.8","","84","","14","","37","","","","101.13","","","","-12","","NA"
"2017-01-10 13:00","2017","01","10","13:00","-2.4","","-3.8","","90","","16","","42","","","","100.99","","","","-11","","NA"
"2017-01-10 14:00","2017","01","10","14:00","-2.5","","-3.6","","92","","16","","45","","","","100.79","","","","-11","","NA"
"2017-01-10 15:00","2017","01","10","15:00","-2.3","","-3.3","","93","","15","","46","","","","100.64","","","","-11","","NA"
"2017-01-10 16:00","2017","01","10","16:00","-1.5","","-2.8","","91","","16","","48","","","","100.50","","","","-10","","NA"
"2017-01-10 17:00","2017","01","10","17:00","-1.0","","-2.3","","91","","16","","51","","","","100.32","","","","-10","","NA"
"2017-01-10 18:00","2017","01","10","18:00","-0.9","","-2.2","","91","","16","","51","","","","100.20","","","","-9","","NA"
"2017-01-10 19:00","2017","01","10","19:00","-0.3","","-1.3","","93","","16","","42","","","","100.07","","","","-8","","NA"
"2017-01-10 20:00","2017","01","10","20:00","0.1","","-1.0","","92","","16","","32","","","","99.90","","","","","","NA"
"2017-01-10 21:00","2017","01","10","21:00","0.2","","-0.7","","94","","17","","45","","","","99.72","","","","","","NA"
"2017-01-10 22:00","2017","01","10","22:00","0.2","","-0.5","","95","","16","","51","","","","99.55","","","","","","NA"
"2017-01-10 23:00","2017","01","10","23:00","0.6","","-0.4","","93","","16","","49","","","","99.41","","","","","","NA"
"2017-01-11 00:00","2017","01","11","00:00","1.5","","-0.4","","87","","17","","55","","","","99.25","","","","","","NA"
"2017-01-11 01:00","2017","01","11","01:00","1.9","","0.4","","90","","17","","49","","","","99.18","","","","","","NA"
"2017-01-11 02:00","2017","01","11","02:00","2.4","","-0.3","","83","","18","","54","","","","99.07","","","","","","NA"
"2017-01-11 03:00","2017","01","11","03:00","3.1","","0.6","","84","","18","","57","","","","99.09","","","","","","NA"
"2017-01-11 04:00","2017","01","11","04:00","4.1","","2.1","","87","","24","","48","","","","99.38","","","","","","NA"
"2017-01-11 05:00","2017","01","11","05:00","4.2","","-1.0","","69","","25","","45","","","","99.73","","","","","","NA"
"2017-01-11 06:00","2017","01","11","06:00","4.5","","-1.8","","64","","24","","48","","","","99.92","","","","","","NA"
"2017-01-11 07:00","2017","01","11","07:00","3.5","","-0.4","","76","","23","","39","","","","100.13","","","","","","NA"
"2017-01-11 08:00","2017","01","11","08:00","2.9","","-0.6","","77","","23","","39","","","","100.34","","","","","","NA"
"2017-01-11 09:00","2017","01","11","09:00","2.9","","-0.6","","78","","23","","34","","","","100.58","","","","","","NA"
"2017-01-11 10:00","2017","01","11","10:00","3.2","","-0.9","","75","","23","","32","","","","100.76","","","","","","NA"
"2017-01-11 11:00","2017","01","11","11:00","3.1","","-0.9","","75","","23","","31","","","","100.82","","","","","","NA"
"2017-01-11 12:00","2017","01","11","12:00","3.3","","-1.3","","72","","23","","30","","","","100.83","","","","","","NA"
"2017-01-11 13:00","2017","01","11","13:00","3.6","","-1.5","","69","","23","","20","","","","100.73","","","","","","NA"
"2017-01-11 14:00","2017","01","11","14:00","4.1","","-1.5","","67","","22","","22","","","","100.64","","","","","","NA"
"2017-01-11 15:00","2017","01","11","15:00","2.6","","0.1","","83","","19","","13","","","","100.69","","","","","","NA"
"2017-01-11 16:00","2017","01","11","16:00","2.5","","0.2","","84","","20","","7","","","","100.70","","","","","","NA"
"2017-01-11 17:00","2017","01","11","17:00","2.3","","0.5","","88","","10","","5","","","","100.54","","","","","","NA"
"2017-01-11 18:00","2017","01","11","18:00","4.1","","-0.7","","71","","14","","15","","","","100.46","","","","","","NA"
"2017-01-11 19:00","2017","01","11","19:00","3.9","","0.5","","78","","15","","18","","","","100.34","","","","","","NA"
"2017-01-11 20:00","2017","01","11","20:00","4.8","","0.6","","74","","17","","31","","","","100.30","","","","","","NA"
"2017-01-11 21:00","2017","01","11","21:00","5.3","","0.0","","69","","17","","34","","","","100.22","","","","","","NA"
"2017-01-11 22:00","2017","01","11","22:00","4.6","","0.3","","74","","16","","35","","","","100.11","","","","","","NA"
"2017-01-11 23:00","2017","01","11","23:00","4.3","","0.3","","75","","16","","24","","","","100.02","","","","","","NA"
"2017-01-12 00:00","2017","01","12","00:00","5.7","","1.6","","75","","17","","30","","","","99.91","","","","","","NA"
"2017-01-12 01:00","2017","01","12","01:00","4.4","","1.3","","80","","15","","15","","","","99.79","","","","","","NA"
"2017-01-12 02:00","2017","01","12","02:00","5.2","","3.1","","87","","17","","19","","","","99.66","","","","","","NA"
"2017-01-12 03:00","2017","01","12","03:00","4.8","","3.8","","93","","17","","23","","","","99.56","","","","","","NA"
"2017-01-12 04:00","2017","01","12","04:00","4.9","","4.1","","94","","21","","21","","","","99.47","","","","","","NA"
"2017-01-12 05:00","2017","01","12","05:00","4.5","","3.9","","96","","17","","22","","","","99.41","","","","","","NA"
"2017-01-12 06:00","2017","01","12","06:00","6.0","","5.1","","94","","21","","22","","","","99.43","","","","","","NA"
"2017-01-12 07:00","2017","01","12","07:00","6.8","","5.7","","93","","20","","26","","","","99.46","","","","","","NA"
"2017-01-12 08:00","2017","01","12","08:00","6.2","","5.2","","93","","25","","9","","","","99.56","","","","","","NA"
"2017-01-12 09:00","2017","01","12","09:00","6.9","","6.1","","94","","21","","18","","","","99.62","","","","","","NA"
"2017-01-12 10:00","2017","01","12","10:00","5.8","","5.1","","95","","21","","9","","","","99.71","","","","","","NA"
"2017-01-12 11:00","2017","01","12","11:00","6.9","","6.3","","96","","22","","8","","","","99.71","","","","","","NA"
"2017-01-12 12:00","2017","01","12","12:00","6.8","","6.2","","96","","23","","11","","","","99.71","","","","","","NA"
"2017-01-12 13:00","2017","01","12","13:00","6.8","","6.2","","96","","25","","7","","","","99.71","","","","","","NA"
"2017-01-12 14:00","2017","01","12","14:00","5.8","","5.2","","96","","27","","16","","","","99.90","","","","","","NA"
"2017-01-12 15:00","2017","01","12","15:00","4.8","","4.1","","96","","22","","7","","","","99.76","","","","","","NA"
"2017-01-12 16:00","2017","01","12","16:00","4.1","","3.5","","96","","23","","6","","","","99.85","","","","","","NA"
"2017-01-12 17:00","2017","01","12","17:00","3.7","","3.2","","97","","23","","8","","","","99.95","","","","","","NA"
"2017-01-12 18:00","2017","01","12","18:00","3.3","","2.8","","97","","25","","16","","","","100.11","","","","","","NA"
"2017-01-12 19:00","2017","01","12","19:00","3.2","","2.8","","97","","26","","12","","","","100.20","","","","","","NA"
"2017-01-12 20:00","2017","01","12","20:00","2.4","","2.0","","97","","26","","20","","","","100.39","","","","","","NA"
"2017-01-12 21:00","2017","01","12","21:00","1.8","","0.3","","90","","26","","17","","","","100.59","","","","","","NA"
"2017-01-12 22:00","2017","01","12","22:00","0.9","","-1.6","","83","","25","","22","","","","100.73","","","","","","NA"
"2017-01-12 23:00","2017","01","12","23:00","0.1","","-2.5","","83","","26","","20","","","","100.88","","","","","","NA"
"2017-01-13 00:00","2017","01","13","00:00","-0.6","","-3.9","","78","","27","","28","","","","101.00","","","","-7","","NA"
"2017-01-13 01:00","2017","01","13","01:00","-0.4","","-3.6","","79","","25","","20","","","","101.07","","","","-6","","NA"
"2017-01-13 02:00","2017","01","13","02:00","-0.3","","-4.1","","75","","27","","17","","","","101.13","","","","-5","","NA"
"2017-01-13 03:00","2017","01","13","03:00","-0.7","","-6.5","","65","","27","","31","","","","101.32","","","","-7","","NA"
"2017-01-13 04:00","2017","01","13","04:00","-1.1","","-6.7","","66","","25","","22","","","","101.41","","","","-7","","NA"
"2017-01-13 05:00","2017","01","13","05:00","-0.8","","-6.4","","65","","26","","23","","","","101.57","","","","-7","","NA"
"2017-01-13 06:00","2017","01","13","06:00","-1.6","","-8.8","","58","","27","","23","","","","101.70","","","","-8","","NA"
"2017-01-13 07:00","2017","01","13","07:00","-2.7","","-10.6","","55","","28","","24","","","","101.90","","","","-9","","NA"
"2017-01-13 08:00","2017","01","13","08:00","-3.9","","-11.0","","57","","28","","26","","","","102.09","","","","-11","","NA"
"2017-01-13 09:00","2017","01","13","09:00","-3.8","","-10.6","","59","","28","","24","","","","102.26","","","","-11","","NA"
"2017-01-13 10:00","2017","01","13","10:00","-3.8","","-11.5","","55","","28","","24","","","","102.39","","","","-11","","NA"
"2017-01-13 11:00","2017","01","13","11:00","-3.7","","-11.8","","54","","29","","24","","","","102.49","","","","-11","","NA"
"2017-01-13 12:00","2017","01","13","12:00","-3.1","","-12.1","","50","","30","","22","","","","102.52","","","","-9","","NA"
"2017-01-13 13:00","2017","01","13","13:00","-3.1","","-12.7","","47","","30","","27","","","","102.53","","","","-10","","NA"
"2017-01-13 14:00","2017","01","13","14:00","-2.9","","-14.2","","41","","29","","25","","","","102.55","","","","-10","","NA"
"2017-01-13 15:00","2017","01","13","15:00","-3.3","","-14.0","","43","","30","","20","","","","102.64","","","","-9","","NA"
"2017-01-13 16:00","2017","01","13","16:00","-4.3","","-15.0","","43","","30","","17","","","","102.72","","","","-10","","NA"
"2017-01-13 17:00","2017","01","13","17:00","-5.5","","-14.3","","50","","30","","10","","","","102.81","","","","-10","","NA"
"2017-01-13 18:00","2017","01","13","18:00","-6.4","","-14.8","","51","","30","","10","","","","102.89","","","","-11","","NA"
"2017-01-13 19:00","2017","01","13","19:00","-7.3","","-14.5","","57","","31","","10","","","","102.97","","","","-12","","NA"
"2017-01-13 20:00","2017","01","13","20:00","-8.4","","-15.1","","59","","33","","10","","","","103.04","","","","-13","","NA"
"2017-01-13 21:00","2017","01","13","21:00","-9.0","","-15.2","","61","","36","","9","","","","103.09","","","","-14","","NA"
"2017-01-13 22:00","2017","01","13","22:00","-9.7","","-15.3","","64","","4","","17","","","","103.10","","","","-17","","NA"
"2017-01-13 23:00","2017","01","13","23:00","-11.2","","-17.0","","62","","4","","16","","","","103.11","","","","-18","","NA"
"2017-01-14 00:00","2017","01","14","00:00","-12.3","","-17.6","","65","","4","","16","","","","103.08","","","","-20","","NA"
"2017-01-14 01:00","2017","01","14","01:00","-12.9","","-17.7","","67","","3","","13","","","","103.04","","","","-20","","NA"
"2017-01-14 02:00","2017","01","14","02:00","-13.3","","-17.6","","70","","4","","11","","","","103.02","","","","-20","","NA"
"2017-01-14 03:00","2017","01","14","03:00","-13.8","","-17.8","","72","","4","","9","","","","102.97","","","","-19","","NA"
"2017-01-14 04:00","2017","01","14","04:00","-14.1","","-18.1","","72","","3","","10","","","","102.94","","","","-20","","NA"
"2017-01-14 05:00","2017","01","14","05:00","-14.3","","-18.3","","71","","3","","9","","","","102.86","","","","-20","","NA"
"2017-01-14 06:00","2017","01","14","06:00","-14.1","","-17.7","","74","","3","","8","","","","102.84","","","","-19","","NA"
"2017-01-14 07:00","2017","01","14","07:00","-13.5","","-17.6","","71","","5","","7","","","","102.77","","","","-18","","NA"
"2017-01-14 08:00","2017","01","14","08:00","-12.8","","-16.6","","73","","3","","9","","","","102.72","","","","-18","","NA"
"2017-01-14 09:00","2017","01","14","09:00","-12.1","","-15.7","","75","","3","","8","","","","102.65","","","","-17","","NA"
"2017-01-14 10:00","2017","01","14","10:00","-11.1","","-14.9","","73","","5","","9","","","","102.56","","","","-16","","NA"
"2017-01-14 11:00","2017","01","14","11:00","-9.5","","-13.8","","71","","6","","9","","","","102.41","","","","-14","","NA"
"2017-01-14 12:00","2017","01","14","12:00","-7.8","","-13.1","","65","","6","","8","","","","102.25","","","","-12","","NA"
"2017-01-14 13:00","2017","01","14","13:00","-6.2","","-11.7","","65","","12","","9","","","","102.02","","","","-10","","NA"
"2017-01-14 14:00","2017","01","14","14:00","-5.5","","-10.4","","68","","14","","7","","","","101.90","","","","-9","","NA"
"2017-01-14 15:00","2017","01","14","15:00","-4.8","","-8.8","","74","","14","","5","","","","101.80","","","","-7","","NA"
"2017-01-14 16:00","2017","01","14","16:00","-4.7","","-8.5","","75","","35","","2","","","","101.73","","","","-6","","NA"
"2017-01-14 17:00","2017","01","14","17:00","-4.8","","-8.0","","78","","32","","3","","","","101.64","","","","-6","","NA"
"2017-01-14 18:00","2017","01","14","18:00","-5.1","","-8.0","","80","","31","","5","","","","101.61","","","","-7","","NA"
"2017-01-14 19:00","2017","01","14","19:00","-5.9","","-8.5","","82","","30","","4","","","","101.59","","","","-8","","NA"
"2017-01-14 20:00","2017","01","14","20:00","-4.9","","-7.4","","83","","25","","8","","","","101.53","","","","-8","","NA"
"2017-01-14 21:00","2017","01","14","21:00","-5.6","","-7.9","","84","","29","","8","","","","101.52","","","","-9","","NA"
"2017-01-14 22:00","2017","01","14","22:00","-6.0","","-8.2","","85","","26","","6","","","","101.51","","","","-9","","NA"
"2017-01-14 23:00","2017","01","14","23:00","-5.4","","-7.3","","87","","25","","10","","","","101.52","","","","-10","","NA"
"2017-01-15 00:00","2017","01","15","00:00","-3.7","","-7.0","","78","","25","","15","","","","101.47","","","","-9","","NA"
"2017-01-15 01:00","2017","01","15","01:00","-3.9","","-7.6","","75","","25","","17","","","","101.42","","","","-10","","NA"
"2017-01-15 02:00","2017","01","15","02:00","-3.3","","-7.0","","75","","26","","14","","","","101.40","","","","-8","","NA"
"2017-01-15 03:00","2017","01","15","03:00","-4.8","","-7.7","","80","","28","","10","","","","101.47","","","","-9","","NA"
"2017-01-15 04:00","2017","01","15","04:00","-5.3","","-7.9","","82","","29","","8","","","","101.49","","","","-9","","NA"
"2017-01-15 05:00","2017","01","15","05:00","-5.9","","-8.2","","84","","27","","10","","","","101.51","","","","-10","","NA"
"2017-01-15 06:00","2017","01","15","06:00","-6.0","","-8.2","","84","","28","","12","","","","101.59","","","","-11","","NA"
"2017-01-15 07:00","2017","01","15","07:00","-6.9","","-8.9","","85","","28","","8","","","","101.69","","","","-11","","NA"
"2017-01-15 08:00","2017","01","15","08:00","-8.3","","-9.9","","88","","33","","8","","","","101.77","","","","-12","","NA"
"2017-01-15 09:00","2017","01","15","09:00","-5.9","","-8.4","","82","","32","","9","","","","101.80","","","","-10","","NA"
"2017-01-15 10:00","2017","01","15","10:00","-4.0","","-8.2","","72","","33","","12","","","","101.84","","","","-9","","NA"
"2017-01-15 11:00","2017","01","15","11:00","-3.4","","-9.6","","63","","35","","10","","","","101.84","","","","-7","","NA"
"2017-01-15 12:00","2017","01","15","12:00","-3.1","","-10.4","","57","","34","","6","","","","101.78","","","","-6","","NA"
"2017-01-15 13:00","2017","01","15","13:00","-2.4","","-10.6","","53","","35","","4","","","","101.70","","","","-4","","NA"
"2017-01-15 14:00","2017","01","15","14:00","-2.2","","-9.8","","56","","21","","11","","","","101.68","","","","-6","","NA"
"2017-01-15 15:00","2017","01","15","15:00","-2.7","","-8.5","","64","","17","","13","","","","101.67","","","","-7","","NA"
"2017-01-15 16:00","2017","01","15","16:00","-2.8","","-8.0","","67","","17","","14","","","","101.69","","","","-8","","NA"
"2017-01-15 17:00","2017","01","15","17:00","-4.0","","-8.2","","73","","21","","10","","","","101.72","","","","-8","","NA"
"2017-01-15 18:00","2017","01","15","18:00","-4.5","","-8.2","","75","","21","","7","","","","101.74","","","","-8","","NA"
"2017-01-15 19:00","2017","01","15","19:00","-4.1","","-8.0","","74","","20","","10","","","","101.74","","","","-8","","NA"
"2017-01-15 20:00","2017","01","15","20:00","-3.4","","-7.9","","71","","20","","9","","","","101.70","","","","-7","","NA"
"2017-01-15 21:00","2017","01","15","21:00","-7.7","","-9.4","","88","","29","","6","","","","101.77","","","","-11","","NA"
"2017-01-15 22:00","2017","01","15","22:00","-4.2","","-8.0","","74","","24","","6","","","","101.70","","","","-7","","NA"
"2017-01-15 23:00","2017","01","15","23:00","-8.2","","-10.0","","87","","25","","3","","","","101.70","","","","-10","","NA"
"2017-01-16 00:00","2017","01","16","00:00","-6.9","","-8.7","","87","","24","","5","","","","101.70","","","","-9","","NA"
"2017-01-16 01:00","2017","01","16","01:00","-8.7","","-9.8","","92","","","","0","","","","101.66","","","","","","NA"
"2017-01-16 02:00","2017","01","16","02:00","-8.8","","-10.1","","90","","","","0","","","","101.65","","","","","","NA"
"2017-01-16 03:00","2017","01","16","03:00","-5.8","","-7.5","","88","","19","","6","","","","101.66","","","","-9","","NA"
"2017-01-16 04:00","2017","01","16","04:00","-1.4","","-4.3","","81","","22","","13","","","","101.60","","","","-6","","NA"
"2017-01-16 05:00","2017","01","16","05:00","-1.0","","-4.1","","80","","22","","18","","","","101.59","","","","-6","","NA"
"2017-01-16 06:00","2017","01","16","06:00","-1.1","","-4.5","","78","","22","","18","","","","101.58","","","","-6","","NA"
"2017-01-16 07:00","2017","01","16","07:00","-1.4","","-4.5","","79","","21","","17","","","","101.57","","","","-7","","NA"
"2017-01-16 08:00","2017","01","16","08:00","-1.2","","-4.2","","80","","20","","17","","","","101.58","","","","-6","","NA"
"2017-01-16 09:00","2017","01","16","09:00","-0.1","","-3.2","","80","","21","","22","","","","101.56","","","","-6","","NA"
"2017-01-16 10:00","2017","01","16","10:00","0.4","","-2.8","","79","","22","","27","","","","101.56","","","","","","NA"
"2017-01-16 11:00","2017","01","16","11:00","1.6","","-2.5","","74","","23","","26","","","","101.55","","","","","","NA"
"2017-01-16 12:00","2017","01","16","12:00","2.0","","-2.4","","73","","23","","24","","","","101.42","","","","","","NA"
"2017-01-16 13:00","2017","01","16","13:00","2.1","","-1.7","","76","","22","","19","","","","101.34","","","","","","NA"
"2017-01-16 14:00","2017","01","16","14:00","2.0","","-1.9","","75","","23","","20","","","","101.31","","","","","","NA"
"2017-01-16 15:00","2017","01","16","15:00","1.8","","-1.7","","78","","23","","19","","","","101.30","","","","","","NA"
"2017-01-16 16:00","2017","01","16","16:00","1.3","","-1.7","","80","","22","","20","","","","101.33","","","","","","NA"
"2017-01-16 17:00","2017","01","16","17:00","0.8","","-1.9","","82","","22","","21","","","","101.31","","","","","","NA"
"2017-01-16 18:00","2017","01","16","18:00","0.3","","-2.1","","84","","23","","14","","","","101.31","","","","","","NA"
"2017-01-16 19:00","2017","01","16","19:00","0.2","","-1.7","","87","","23","","13","","","","101.28","","","","","","NA"
"2017-01-16 20:00","2017","01","16","20:00","-0.5","","-2.2","","89","","23","","11","","","","101.29","","","","-4","","NA"
"2017-01-16 21:00","2017","01","16","21:00","-1.7","","-3.0","","91","","22","","9","","","","101.28","","","","-5","","NA"
"2017-01-16 22:00","2017","01","16","22:00","-2.6","","-3.2","","95","","","","0","","","","101.27","","","","","","NA"
"2017-01-16 23:00","2017","01","16","23:00","-2.8","","-3.2","","97","","21","","4","","","","101.23","","","","-4","","NA"
"2017-01-17 00:00","2017","01","17","00:00","-4.2","","-4.7","","96","","","","0","","","","101.23","","","","","","NA"
"2017-01-17 01:00","2017","01","17","01:00","-4.2","","-4.8","","96","","35","","3","","","","101.22","","","","-5","","NA"
"2017-01-17 02:00","2017","01","17","02:00","-5.2","","-5.8","","95","","34","","6","","","","101.19","","","","-8","","NA"
"2017-01-17 03:00","2017","01","17","03:00","-5.7","","-6.4","","94","","33","","3","","","","101.23","","","","-7","","NA"
"2017-01-17 04:00","2017","01","17","04:00","-6.2","","-7.0","","94","","3","","4","","","","101.17","","","","-8","","NA"
"2017-01-17 05:00","2017","01","17","05:00","-4.9","","-5.7","","95","","4","","8","","","","101.11","","","","-8","","NA"
"2017-01-17 06:00","2017","01","17","06:00","-4.6","","-5.3","","95","","3","","7","","","","101.10","","","","-8","","NA"
"2017-01-17 07:00","2017","01","17","07:00","-4.1","","-4.9","","94","","3","","9","","","","101.06","","","","-8","","NA"
"2017-01-17 08:00","2017","01","17","08:00","-3.3","","-4.6","","91","","5","","10","","","","101.01","","","","-7","","NA"
"2017-01-17 09:00","2017","01","17","09:00","-2.3","","-3.7","","90","","4","","14","","","","100.96","","","","-7","","NA"
"2017-01-17 10:00","2017","01","17","10:00","-1.2","","-3.2","","87","","6","","16","","","","100.89","","","","-6","","NA"
"2017-01-17 11:00","2017","01","17","11:00","-0.7","","-3.0","","85","","4","","16","","","","100.81","","","","-5","","NA"
"2017-01-17 12:00","2017","01","17","12:00","-0.3","","-3.5","","79","","4","","18","","","","100.66","","","","-5","","NA"
"2017-01-17 13:00","2017","01","17","13:00","-0.1","","-2.9","","81","","4","","19","","","","100.55","","","","-5","","NA"
"2017-01-17 14:00","2017","01","17","14:00","-0.1","","-2.9","","82","","5","","20","","","","100.47","","","","-5","","NA"
"2017-01-17 15:00","2017","01","17","15:00","0.5","","-2.3","","81","","6","","24","","","","100.32","","","","","","NA"
"2017-01-17 16:00","2017","01","17","16:00","0.6","","-1.7","","85","","6","","24","","","","100.22","","","","","","NA"
"2017-01-17 17:00","2017","01","17","17:00","1.0","","-1.4","","84","","7","","26","","","","100.15","","","","","","NA"
"2017-01-17 18:00","2017","01","17","18:00","0.6","","-1.1","","89","","6","","25","","","","100.09","","","","","","NA"
"2017-01-17 19:00","2017","01","17","19:00","0.4","","-0.7","","93","","6","","21","","","","100.07","","","","","","NA"
"2017-01-17 20:00","2017","01","17","20:00","0.1","","-0.6","","95","","5","","17","","","","100.03","","","","","","NA"
"2017-01-17 21:00","2017","01","17","21:00","0.3","","-0.4","","95","","6","","15","","","","99.97","","","","","","NA"
"2017-01-17 22:00","2017","01","17","22:00","0.4","","-0.2","","96","","5","","17","","","","99.91","","","","","","NA"
"2017-01-17 23:00","2017","01","17","23:00","0.5","","-0.1","","96","","5","","14","","","","99.87","","","","","","NA"
"2017-01-18 00:00","2017","01","18","00:00","0.4","","-0.1","","96","","5","","13","","","","99.84","","","","","","NA"
"2017-01-18 01:00","2017","01","18","01:00","0.4","","-0.2","","96","","5","","13","","","","99.81","","","","","","NA"
"2017-01-18 02:00","2017","01","18","02:00","0.5","","0.0","","96","","4","","13","","","","99.80","","","","","","NA"
"2017-01-18 03:00","2017","01","18","03:00","0.3","","-0.2","","96","","3","","12","","","","99.80","","","","","","NA"
"2017-01-18 04:00","2017","01","18","04:00","0.3","","-0.2","","96","","4","","13","","","","99.79","","","","","","NA"
"2017-01-18 05:00","2017","01","18","05:00","0.4","","-0.1","","97","","1","","13","","","","99.83","","","","","","NA"
"2017-01-18 06:00","2017","01","18","06:00","0.2","","-0.4","","96","","35","","14","","","","99.89","","","","","","NA"
"2017-01-18 07:00","2017","01","18","07:00","0.0","","-0.7","","96","","33","","13","","","","99.99","","","","-4","","NA"
"2017-01-18 08:00","2017","01","18","08:00","-0.2","","-1.0","","95","","32","","7","","","","100.01","","","","-3","","NA"
"2017-01-18 09:00","2017","01","18","09:00","-0.4","","-1.2","","95","","31","","9","","","","100.11","","","","-4","","NA"
"2017-01-18 10:00","2017","01","18","10:00","-0.4","","-1.0","","95","","30","","8","","","","100.20","","","","-3","","NA"
"2017-01-18 11:00","2017","01","18","11:00","-0.5","","-1.4","","94","","31","","11","","","","100.25","","","","-4","","NA"
"2017-01-18 12:00","2017","01","18","12:00","-0.1","","-1.1","","93","","26","","4","","","","100.16","","","","-1","","NA"
"2017-01-18 13:00","2017","01","18","13:00","0.1","","-0.9","","93","","24","","10","","","","100.18","","","","","","NA"
"2017-01-18 14:00","2017","01","18","14:00","0.4","","-0.7","","92","","26","","10","","","","100.22","","","","","","NA"
"2017-01-18 15:00","2017","01","18","15:00","0.6","","-0.7","","91","","26","","10","","","","100.29","","","","","","NA"
"2017-01-18 16:00","2017","01","18","16:00","0.7","","-0.6","","91","","24","","11","","","","100.34","","","","","","NA"
"2017-01-18 17:00","2017","01","18","17:00","0.9","","-0.1","","93","","23","","11","","","","100.40","","","","","","NA"
"2017-01-18 18:00","2017","01","18","18:00","1.0","","0.0","","93","","23","","10","","","","100.38","","","","","","NA"
"2017-01-18 19:00","2017","01","18","19:00","1.0","","0.1","","94","","21","","12","","","","100.33","","","","","","NA"
"2017-01-18 20:00","2017","01","18","20:00","1.2","","0.1","","92","","24","","13","","","","100.37","","","","","","NA"
"2017-01-18 21:00","2017","01","18","21:00","1.3","","0.1","","91","","23","","12","","","","100.32","","","","","","NA"
"2017-01-18 22:00","2017","01","18","22:00","1.5","","0.1","","91","","24","","9","","","","100.35","","","","","","NA"
"2017-01-18 23:00","2017","01","18","23:00","1.3","","0.3","","93","","23","","9","","","","100.37","","","","","","NA"
"2017-01-19 00:00","2017","01","19","00:00","1.5","","0.5","","93","","22","","11","","","","100.34","","","","","","NA"
"2017-01-19 01:00","2017","01","19","01:00","1.7","","0.8","","94","","21","","10","","","","100.34","","","","","","NA"
"2017-01-19 02:00","2017","01","19","02:00","2.2","","1.3","","94","","24","","16","","","","100.32","","","","","","NA"
"2017-01-19 03:00","2017","01","19","03:00","2.5","","1.3","","91","","27","","17","","","","100.37","","","","","","NA"
"2017-01-19 04:00","2017","01","19","04:00","2.4","","0.7","","89","","26","","15","","","","100.39","","","","","","NA"
"2017-01-19 05:00","2017","01","19","05:00","2.0","","0.7","","91","","26","","9","","","","100.43","","","","","","NA"
"2017-01-19 06:00","2017","01","19","06:00","1.5","","0.5","","94","","23","","13","","","","100.45","","","","","","NA"
"2017-01-19 07:00","2017","01","19","07:00","1.0","","0.1","","94","","25","","8","","","","100.50","","","","","","NA"
"2017-01-19 08:00","2017","01","19","08:00","1.0","","0.2","","95","","27","","4","","","","100.57","","","","","","NA"
"2017-01-19 09:00","2017","01","19","09:00","2.1","","0.6","","90","","26","","12","","","","100.63","","","","","","NA"
"2017-01-19 10:00","2017","01","19","10:00","2.8","","1.0","","88","","26","","11","","","","100.67","","","","","","NA"
"2017-01-19 11:00","2017","01","19","11:00","3.5","","1.6","","87","","26","","9","","","","100.65","","","","","","NA"
"2017-01-19 12:00","2017","01","19","12:00","3.4","","1.4","","86","","25","","11","","","","100.57","","","","","","NA"
"2017-01-19 13:00","2017","01","19","13:00","3.0","","1.2","","88","","24","","14","","","","100.53","","","","","","NA"
"2017-01-19 14:00","2017","01","19","14:00","3.4","","1.3","","86","","24","","10","","","","100.45","","","","","","NA"
"2017-01-19 15:00","2017","01","19","15:00","3.2","","1.0","","86","","25","","9","","","","100.45","","","","","","NA"
"2017-01-19 16:00","2017","01","19","16:00","2.5","","0.6","","87","","24","","9","","","","100.47","","","","","","NA"
"2017-01-19 17:00","2017","01","19","17:00","2.1","","0.6","","90","","28","","2","","","","100.50","","","","","","NA"
"2017-01-19 18:00","2017","01","19","18:00","1.6","","0.7","","94","","23","","8","","","","100.57","","","","","","NA"
"2017-01-19 19:00","2017","01","19","19:00","1.7","","0.9","","94","","25","","9","","","","100.67","","","","","","NA"
"2017-01-19 20:00","2017","01","19","20:00","1.4","","0.8","","95","","25","","5","","","","100.63","","","","","","NA"
"2017-01-19 21:00","2017","01","19","21:00","1.1","","0.5","","96","","","","0","","","","100.56","","","","","","NA"
"2017-01-19 22:00","2017","01","19","22:00","1.1","","0.6","","96","","9","","3","","","","100.53","","","","","","NA"
"2017-01-19 23:00","2017","01","19","23:00","1.2","","0.6","","96","","12","","4","","","","100.48","","","","","","NA"
"2017-01-20 00:00","2017","01","20","00:00","1.2","","0.7","","97","","18","","6","","","","100.47","","","","","","NA"
"2017-01-20 01:00","2017","01","20","01:00","0.9","","0.5","","97","","33","","1","","","","100.43","","","","","","NA"
"2017-01-20 02:00","2017","01","20","02:00","1.3","","0.8","","97","","14","","3","","","","100.42","","","","","","NA"
"2017-01-20 03:00","2017","01","20","03:00","1.4","","0.9","","97","","14","","6","","","","100.39","","","","","","NA"
"2017-01-20 04:00","2017","01","20","04:00","1.8","","0.3","","90","","15","","9","","","","100.33","","","","","","NA"
"2017-01-20 05:00","2017","01","20","05:00","2.0","","-0.3","","85","","21","","13","","","","100.27","","","","","","NA"
"2017-01-20 06:00","2017","01","20","06:00","1.6","","0.2","","90","","15","","7","","","","100.22","","","","","","NA"
"2017-01-20 07:00","2017","01","20","07:00","1.7","","-0.2","","87","","13","","14","","","","100.19","","","","","","NA"
"2017-01-20 08:00","2017","01","20","08:00","1.6","","-0.1","","88","","14","","19","","","","100.19","","","","","","NA"
"2017-01-20 09:00","2017","01","20","09:00","1.5","","-0.1","","89","","13","","17","","","","100.17","","","","","","NA"
"2017-01-20 10:00","2017","01","20","10:00","1.6","","0.2","","90","","13","","21","","","","100.16","","","","","","NA"
"2017-01-20 11:00","2017","01","20","11:00","1.8","","0.2","","89","","12","","17","","","","100.12","","","","","","NA"
"2017-01-20 12:00","2017","01","20","12:00","2.4","","0.6","","88","","10","","12","","","","100.00","","","","","","NA"
"2017-01-20 13:00","2017","01","20","13:00","2.5","","0.4","","86","","8","","13","","","","99.89","","","","","","NA"
"2017-01-20 14:00","2017","01","20","14:00","2.8","","0.4","","85","","7","","13","","","","99.84","","","","","","NA"
"2017-01-20 15:00","2017","01","20","15:00","2.9","","0.7","","85","","6","","13","","","","99.82","","","","","","NA"
"2017-01-20 16:00","2017","01","20","16:00","2.9","","0.4","","84","","6","","14","","","","99.80","","","","","","NA"
"2017-01-20 17:00","2017","01","20","17:00","2.7","","0.3","","84","","5","","13","","","","99.79","","","","","","NA"
"2017-01-20 18:00","2017","01","20","18:00","2.5","","0.3","","85","","5","","11","","","","99.79","","","","","","NA"
"2017-01-20 19:00","2017","01","20","19:00","2.5","","0.3","","85","","6","","12","","","","99.78","","","","","","NA"
"2017-01-20 20:00","2017","01","20","20:00","2.5","","0.4","","86","","5","","11","","","","99.75","","","","","","NA"
"2017-01-20 21:00","2017","01","20","21:00","2.6","","0.5","","87","","5","","5","","","","99.79","","","","","","NA"
"2017-01-20 22:00","2017","01","20","22:00","2.1","","0.5","","89","","6","","7","","","","99.77","","","","","","NA"
"2017-01-20 23:00","2017","01","20","23:00","2.0","","0.5","","89","","6","","6","","","","99.75","","","","","","NA"
"2017-01-21 00:00","2017","01","21","00:00","1.7","","0.4","","91","","6","","5","","","","99.74","","","","","","NA"
"2017-01-21 01:00","2017","01","21","01:00","2.1","","0.9","","92","","9","","7","","","","99.70","","","","","","NA"
"2017-01-21 02:00","2017","01","21","02:00","2.6","","2.0","","95","","13","","9","","","","99.72","","","","","","NA"
"2017-01-21 03:00","2017","01","21","03:00","2.6","","2.0","","96","","15","","11","","","","99.72","","","","","","NA"
"2017-01-21 04:00","2017","01","21","04:00","3.0","","2.5","","96","","17","","11","","","","99.69","","","","","","NA"
"2017-01-21 05:00","2017","01","21","05:00","3.8","","3.3","","97","","22","","8","","","","99.68","","","","","","NA"
"2017-01-21 06:00","2017","01","21","06:00","3.8","","3.3","","96","","23","","14","","","","99.70","","","","","","NA"
"2017-01-21 07:00","2017","01","21","07:00","3.0","","2.5","","97","","24","","16","","","","99.75","","","","","","NA"
"2017-01-21 08:00","2017","01","21","08:00","3.2","","2.7","","97","","23","","9","","","","99.79","","","","","","NA"
"2017-01-21 09:00","2017","01","21","09:00","2.7","","2.3","","97","","24","","8","","","","99.79","","","","","","NA"
"2017-01-21 10:00","2017","01","21","10:00","2.7","","2.2","","97","","25","","14","","","","99.80","","","","","","NA"
"2017-01-21 11:00","2017","01","21","11:00","3.0","","2.6","","97","","28","","7","","","","99.80","","","","","","NA"
"2017-01-21 12:00","2017","01","21","12:00","3.0","","2.6","","97","","23","","7","","","","99.70","","","","","","NA"
"2017-01-21 13:00","2017","01","21","13:00","3.1","","2.6","","97","","23","","8","","","","99.67","","","","","","NA"
"2017-01-21 14:00","2017","01","21","14:00","3.1","","2.7","","97","","23","","10","","","","99.66","","","","","","NA"
"2017-01-21 15:00","2017","01","21","15:00","3.5","","3.1","","97","","22","","6","","","","99.67","","","","","","NA"
"2017-01-21 16:00","2017","01","21","16:00","3.6","","3.1","","96","","28","","1","","","","99.67","","","","","","NA"
"2017-01-21 17:00","2017","01","21","17:00","2.6","","2.0","","96","","15","","8","","","","99.69","","","","","","NA"
"2017-01-21 18:00","2017","01","21","18:00","2.3","","1.8","","97","","10","","7","","","","99.68","","","","","","NA"
"2017-01-21 19:00","2017","01","21","19:00","2.6","","2.1","","97","","11","","5","","","","99.66","","","","","","NA"
"2017-01-21 20:00","2017","01","21","20:00","2.7","","2.3","","97","","4","","7","","","","99.67","","","","","","NA"
"2017-01-21 21:00","2017","01","21","21:00","2.7","","2.3","","97","","3","","9","","","","99.69","","","","","","NA"
"2017-01-21 22:00","2017","01","21","22:00","2.5","","2.1","","97","","4","","13","","","","99.63","","","","","","NA"
"2017-01-21 23:00","2017","01","21","23:00","2.5","","2.1","","97","","4","","15","","","","99.58","","","","","","NA"
"2017-01-22 00:00","2017","01","22","00:00","2.4","","2.0","","97","","4","","16","","","","99.55","","","","","","NA"
"2017-01-22 01:00","2017","01","22","01:00","2.4","","2.0","","97","","4","","15","","","","99.54","","","","","","NA"
"2017-01-22 02:00","2017","01","22","02:00","2.2","","1.8","","97","","4","","19","","","","99.52","","","","","","NA"
"2017-01-22 03:00","2017","01","22","03:00","2.4","","1.8","","96","","3","","18","","","","99.54","","","","","","NA"
"2017-01-22 04:00","2017","01","22","04:00","2.6","","2.0","","96","","3","","19","","","","99.52","","","","","","NA"
"2017-01-22 05:00","2017","01","22","05:00","3.4","","2.2","","92","","4","","20","","","","99.53","","","","","","NA"
"2017-01-22 06:00","2017","01","22","06:00","3.3","","2.0","","91","","5","","4","","","","99.55","","","","","","NA"
"2017-01-22 07:00","2017","01","22","07:00","3.2","","1.8","","91","","3","","14","","","","99.58","","","","","","NA"
"2017-01-22 08:00","2017","01","22","08:00","3.2","","1.7","","90","","3","","19","","","","99.60","","","","","","NA"
"2017-01-22 09:00","2017","01","22","09:00","3.5","","1.9","","89","","3","","18","","","","99.58","","","","","","NA"
"2017-01-22 10:00","2017","01","22","10:00","4.3","","2.2","","86","","4","","22","","","","99.67","","","","","","NA"
"2017-01-22 11:00","2017","01","22","11:00","3.9","","1.7","","85","","3","","29","","","","99.78","","","","","","NA"
"2017-01-22 12:00","2017","01","22","12:00","3.4","","1.2","","86","","3","","26","","","","99.75","","","","","","NA"
"2017-01-22 13:00","2017","01","22","13:00","3.1","","0.8","","85","","3","","24","","","","99.72","","","","","","NA"
"2017-01-22 14:00","2017","01","22","14:00","3.2","","0.3","","81","","4","","28","","","","99.65","","","","","","NA"
"2017-01-22 15:00","2017","01","22","15:00","3.4","","-0.2","","78","","4","","29","","","","99.65","","","","","","NA"
"2017-01-22 16:00","2017","01","22","16:00","3.5","","-0.5","","75","","3","","29","","","","99.68","","","","","","NA"
"2017-01-22 17:00","2017","01","22","17:00","1.7","","-1.5","","79","","3","","24","","","","99.78","","","","","","NA"
"2017-01-22 18:00","2017","01","22","18:00","1.2","","-1.9","","80","","4","","29","","","","99.82","","","","","","NA"
"2017-01-22 19:00","2017","01","22","19:00","0.8","","-2.2","","80","","4","","27","","","","99.83","","","","","","NA"
"2017-01-22 20:00","2017","01","22","20:00","0.8","","-2.0","","82","","4","","26","","","","99.88","","","","","","NA"
"2017-01-22 21:00","2017","01","22","21:00","0.9","","-1.7","","83","","4","","22","","","","99.95","","","","","","NA"
"2017-01-22 22:00","2017","01","22","22:00","1.0","","-1.4","","84","","4","","26","","","","99.93","","","","","","NA"
"2017-01-22 23:00","2017","01","22","23:00","1.1","","-1.3","","84","","4","","28","","","","99.89","","","","","","NA"
"2017-01-23 00:00","2017","01","23","00:00","1.0","","-1.3","","84","","4","","30","","","","99.90","","","","","","NA"
"2017-01-23 01:00","2017","01","23","01:00","0.8","","-1.4","","85","","4","","26","","","","99.91","","","","","","NA"
"2017-01-23 02:00","2017","01","23","02:00","0.5","","-1.5","","86","","4","","25","","","","99.93","","","","","","NA"
"2017-01-23 03:00","2017","01","23","03:00","0.0","","-1.4","","90","","4","","26","","","","100.01","","","","-6","","NA"
"2017-01-23 04:00","2017","01","23","04:00","-0.3","","-1.3","","93","","4","","24","","","","100.02","","","","-6","","NA"
"2017-01-23 05:00","2017","01","23","05:00","-0.6","","-1.5","","94","","4","","24","","","","99.99","","","","-7","","NA"
"2017-01-23 06:00","2017","01","23","06:00","-0.8","","-1.6","","94","","4","","23","","","","100.01","","","","-7","","NA"
"2017-01-23 07:00","2017","01","23","07:00","-0.7","","-1.5","","95","","4","","14","","","","100.06","","","","-5","","NA"
"2017-01-23 08:00","2017","01","23","08:00","-0.8","","-1.6","","94","","4","","12","","","","100.09","","","","-5","","NA"
"2017-01-23 09:00","2017","01","23","09:00","-0.6","","-1.6","","93","","4","","12","","","","100.11","","","","-5","","NA"
"2017-01-23 10:00","2017","01","23","10:00","-0.2","","-1.4","","91","","4","","11","","","","100.12","","","","-4","","NA"
"2017-01-23 11:00","2017","01","23","11:00","0.1","","-1.2","","91","","4","","11","","","","100.13","","","","","","NA"
"2017-01-23 12:00","2017","01","23","12:00","0.5","","-0.9","","90","","5","","11","","","","100.11","","","","","","NA"
"2017-01-23 13:00","2017","01","23","13:00","1.4","","-0.7","","86","","4","","24","","","","99.98","","","","","","NA"
"2017-01-23 14:00","2017","01","23","14:00","1.5","","-0.9","","84","","5","","18","","","","99.97","","","","","","NA"
"2017-01-23 15:00","2017","01","23","15:00","1.3","","-1.3","","83","","4","","27","","","","99.89","","","","","","NA"
"2017-01-23 16:00","2017","01","23","16:00","1.0","","-1.9","","81","","3","","26","","","","99.91","","","","","","NA"
"2017-01-23 17:00","2017","01","23","17:00","0.3","","-2.2","","83","","4","","25","","","","99.92","","","","","","NA"
"2017-01-23 18:00","2017","01","23","18:00","-0.2","","-2.6","","83","","4","","20","","","","99.95","","","","-5","","NA"
"2017-01-23 19:00","2017","01","23","19:00","-0.4","","-3.0","","82","","4","","22","","","","100.01","","","","-6","","NA"
"2017-01-23 20:00","2017","01","23","20:00","-0.6","","-3.4","","81","","4","","23","","","","100.00","","","","-6","","NA"
"2017-01-23 21:00","2017","01","23","21:00","-0.8","","-3.6","","81","","4","","21","","","","99.95","","","","-6","","NA"
"2017-01-23 22:00","2017","01","23","22:00","-0.9","","-3.7","","81","","4","","23","","","","99.90","","","","-7","","NA"
"2017-01-23 23:00","2017","01","23","23:00","-0.8","","-4.0","","79","","4","","19","","","","99.87","","","","-6","","NA"
"2017-01-24 00:00","2017","01","24","00:00","-0.9","","-4.2","","78","","4","","22","","","","99.80","","","","-7","","NA"
"2017-01-24 01:00","2017","01","24","01:00","-1.6","","-4.4","","81","","3","","19","","","","99.73","","","","-7","","NA"
"2017-01-24 02:00","2017","01","24","02:00","-2.1","","-3.9","","88","","2","","21","","","","99.66","","","","-8","","NA"
"2017-01-24 03:00","2017","01","24","03:00","-2.2","","-3.6","","90","","2","","18","","","","99.57","","","","-8","","NA"
"2017-01-24 04:00","2017","01","24","04:00","-2.2","","-3.6","","90","","2","","14","","","","99.50","","","","-7","","NA"
"2017-01-24 05:00","2017","01","24","05:00","-2.3","","-4.3","","86","","1","","17","","","","99.47","","","","-8","","NA"
"2017-01-24 06:00","2017","01","24","06:00","-2.5","","-4.3","","87","","1","","13","","","","99.46","","","","-7","","NA"
"2017-01-24 07:00","2017","01","24","07:00","-2.4","","-3.9","","90","","2","","10","","","","99.46","","","","-6","","NA"
"2017-01-24 08:00","2017","01","24","08:00","-2.6","","-3.9","","91","","2","","11","","","","99.42","","","","-7","","NA"
"2017-01-24 09:00","2017","01","24","09:00","-2.0","","-3.5","","90","","2","","8","","","","99.41","","","","-5","","NA"
"2017-01-24 10:00","2017","01","24","10:00","-1.8","","-3.0","","92","","2","","6","","","","99.37","","","","-4","","NA"
"2017-01-24 11:00","2017","01","24","11:00","-2.2","","-3.4","","92","","2","","6","","","","99.34","","","","-5","","NA"
"2017-01-24 12:00","2017","01","24","12:00","-2.2","","-3.6","","91","","3","","7","","","","99.25","","","","-5","","NA"
"2017-01-24 13:00","2017","01","24","13:00","-2.5","","-3.5","","92","","3","","6","","","","99.12","","","","-5","","NA"
"2017-01-24 14:00","2017","01","24","14:00","-2.4","","-3.7","","91","","2","","5","","","","99.08","","","","-4","","NA"
"2017-01-24 15:00","2017","01","24","15:00","-2.5","","-3.7","","91","","36","","5","","","","99.14","","","","-4","","NA"
"2017-01-24 16:00","2017","01","24","16:00","-2.7","","-3.9","","91","","36","","4","","","","99.16","","","","-4","","NA"
"2017-01-24 17:00","2017","01","24","17:00","-2.7","","-3.6","","93","","33","","4","","","","99.19","","","","-4","","NA"
"2017-01-24 18:00","2017","01","24","18:00","-2.6","","-3.8","","92","","33","","4","","","","99.24","","","","-4","","NA"
"2017-01-24 19:00","2017","01","24","19:00","-3.0","","-4.3","","91","","31","","3","","","","99.23","","","","-4","","NA"
"2017-01-24 20:00","2017","01","24","20:00","-3.2","","-4.5","","90","","33","","5","","","","99.23","","","","-5","","NA"
"2017-01-24 21:00","2017","01","24","21:00","-3.3","","-4.7","","90","","33","","4","","","","99.23","","","","-5","","NA"
"2017-01-24 22:00","2017","01","24","22:00","-3.3","","-4.7","","90","","31","","4","","","","99.25","","","","-5","","NA"
"2017-01-24 23:00","2017","01","24","23:00","-3.8","","-5.2","","91","","31","","3","","","","99.25","","","","-5","","NA"
"2017-01-25 00:00","2017","01","25","00:00","-3.9","","-5.2","","91","","28","","4","","","","99.23","","","","-6","","NA"
"2017-01-25 01:00","2017","01","25","01:00","-4.0","","-5.4","","90","","29","","5","","","","99.23","","","","-6","","NA"
"2017-01-25 02:00","2017","01","25","02:00","-4.3","","-5.5","","91","","31","","3","","","","99.23","","","","-6","","NA"
"2017-01-25 03:00","2017","01","25","03:00","-4.4","","-5.7","","91","","27","","1","","","","99.24","","","","-5","","NA"
"2017-01-25 04:00","2017","01","25","04:00","-3.4","","-4.7","","91","","25","","4","","","","99.25","","","","-5","","NA"
"2017-01-25 05:00","2017","01","25","05:00","-3.2","","-4.6","","90","","25","","4","","","","99.24","","","","-5","","NA"
"2017-01-25 06:00","2017","01","25","06:00","-3.3","","-4.7","","90","","26","","5","","","","99.24","","","","-5","","NA"
"2017-01-25 07:00","2017","01","25","07:00","-3.3","","-4.7","","90","","26","","4","","","","99.25","","","","-5","","NA"
"2017-01-25 08:00","2017","01","25","08:00","-2.4","","-4.0","","89","","26","","6","","","","99.29","","","","-5","","NA"
"2017-01-25 09:00","2017","01","25","09:00","-1.7","","-3.3","","89","","26","","6","","","","99.29","","","","-4","","NA"
"2017-01-25 10:00","2017","01","25","10:00","-1.0","","-3.0","","87","","26","","5","","","","99.25","","","","-3","","NA"
"2017-01-25 11:00","2017","01","25","11:00","-0.5","","-2.5","","87","","27","","5","","","","99.23","","","","-2","","NA"
"2017-01-25 12:00","2017","01","25","12:00","0.2","","-1.8","","86","","26","","13","","","","99.13","","","","","","NA"
"2017-01-25 13:00","2017","01","25","13:00","0.9","","-1.3","","85","","25","","10","","","","99.03","","","","","","NA"
"2017-01-25 14:00","2017","01","25","14:00","1.5","","-0.4","","87","","24","","13","","","","99.04","","","","","","NA"
"2017-01-25 15:00","2017","01","25","15:00","1.9","","-0.3","","85","","25","","13","","","","99.03","","","","","","NA"
"2017-01-25 16:00","2017","01","25","16:00","1.6","","-0.1","","89","","20","","7","","","","99.00","","","","","","NA"
"2017-01-25 17:00","2017","01","25","17:00","1.8","","0.1","","89","","22","","8","","","","98.93","","","","","","NA"
"2017-01-25 18:00","2017","01","25","18:00","1.5","","0.1","","91","","19","","12","","","","98.90","","","","","","NA"
"2017-01-25 19:00","2017","01","25","19:00","1.4","","0.4","","93","","19","","10","","","","98.80","","","","","","NA"
"2017-01-25 20:00","2017","01","25","20:00","1.1","","0.2","","94","","23","","9","","","","98.84","","","","","","NA"
"2017-01-25 21:00","2017","01","25","21:00","0.8","","0.2","","96","","24","","2","","","","98.76","","","","","","NA"
"2017-01-25 22:00","2017","01","25","22:00","0.8","","0.3","","96","","","","0","","","","98.68","","","","","","NA"
"2017-01-25 23:00","2017","01","25","23:00","1.0","","0.5","","96","","8","","5","","","","98.57","","","","","","NA"
"2017-01-26 00:00","2017","01","26","00:00","1.3","","0.8","","97","","9","","3","","","","98.45","","","","","","NA"
"2017-01-26 01:00","2017","01","26","01:00","0.9","","0.5","","97","","13","","2","","","","98.37","","","","","","NA"
"2017-01-26 02:00","2017","01","26","02:00","1.3","","0.8","","97","","10","","2","","","","98.30","","","","","","NA"
"2017-01-26 03:00","2017","01","26","03:00","1.1","","0.7","","97","","7","","6","","","","98.24","","","","","","NA"
"2017-01-26 04:00","2017","01","26","04:00","0.9","","0.5","","97","","23","","2","","","","98.21","","","","","","NA"
"2017-01-26 05:00","2017","01","26","05:00","1.7","","1.3","","97","","28","","6","","","","98.19","","","","","","NA"
"2017-01-26 06:00","2017","01","26","06:00","1.7","","1.3","","97","","26","","5","","","","98.18","","","","","","NA"
"2017-01-26 07:00","2017","01","26","07:00","1.4","","1.0","","97","","23","","9","","","","98.25","","","","","","NA"
"2017-01-26 08:00","2017","01","26","08:00","1.2","","0.8","","97","","","","0","","","","98.24","","","","","","NA"
"2017-01-26 09:00","2017","01","26","09:00","1.2","","0.9","","97","","","","0","","","","98.20","","","","","","NA"
"2017-01-26 10:00","2017","01","26","10:00","1.3","","0.9","","98","","","","0","","","","98.16","","","","","","NA"
"2017-01-26 11:00","2017","01","26","11:00","1.3","","1.0","","98","","26","","12","","","","98.15","","","","","","NA"
"2017-01-26 12:00","2017","01","26","12:00","1.0","","0.6","","98","","25","","10","","","","98.09","","","","","","NA"
"2017-01-26 13:00","2017","01","26","13:00","1.3","","0.9","","97","","28","","11","","","","98.05","","","","","","NA"
"2017-01-26 14:00","2017","01","26","14:00","1.5","","0.7","","95","","27","","12","","","","98.08","","","","","","NA"
"2017-01-26 15:00","2017","01","26","15:00","1.8","","0.4","","91","","28","","15","","","","98.19","","","","","","NA"
"2017-01-26 16:00","2017","01","26","16:00","2.1","","0.5","","89","","27","","13","","","","98.27","","","","","","NA"
"2017-01-26 17:00","2017","01","26","17:00","1.4","","-0.1","","90","","29","","16","","","","98.39","","","","","","NA"
"2017-01-26 18:00","2017","01","26","18:00","1.1","","-0.5","","89","","29","","14","","","","98.48","","","","","","NA"
"2017-01-26 19:00","2017","01","26","19:00","1.2","","-0.2","","91","","27","","12","","","","98.53","","","","","","NA"
"2017-01-26 20:00","2017","01","26","20:00","1.3","","-0.7","","87","","25","","16","","","","98.55","","","","","","NA"
"2017-01-26 21:00","2017","01","26","21:00","1.1","","-0.9","","86","","25","","20","","","","98.56","","","","","","NA"
"2017-01-26 22:00","2017","01","26","22:00","1.1","","-1.0","","86","","25","","23","","","","98.56","","","","","","NA"
"2017-01-26 23:00","2017","01","26","23:00","1.4","","-1.4","","81","","27","","30","","","","98.59","","","","","","NA"
"2017-01-27 00:00","2017","01","27","00:00","1.4","","-1.7","","80","","26","","27","","","","98.63","","","","","","NA"
"2017-01-27 01:00","2017","01","27","01:00","1.6","","-2.2","","76","","27","","29","","","","98.63","","","","","","NA"
"2017-01-27 02:00","2017","01","27","02:00","1.2","","-3.6","","70","","26","","30","","","","98.64","","","","","","NA"
"2017-01-27 03:00","2017","01","27","03:00","0.8","","-4.4","","68","","26","","30","","","","98.69","","","","","","NA"
"2017-01-27 04:00","2017","01","27","04:00","0.4","","-3.5","","75","","26","","26","","","","98.71","","","","","","NA"
"2017-01-27 05:00","2017","01","27","05:00","0.1","","-3.4","","78","","26","","25","","","","98.70","","","","","","NA"
"2017-01-27 06:00","2017","01","27","06:00","0.1","","-4.2","","72","","27","","28","","","","98.73","","","","","","NA"
"2017-01-27 07:00","2017","01","27","07:00","0.2","","-4.2","","72","","25","","29","","","","98.76","","","","","","NA"
"2017-01-27 08:00","2017","01","27","08:00","0.1","","-3.6","","76","","25","","31","","","","98.81","","","","","","NA"
"2017-01-27 09:00","2017","01","27","09:00","0.2","","-3.7","","75","","25","","32","","","","98.83","","","","","","NA"
"2017-01-27 10:00","2017","01","27","10:00","0.5","","-4.0","","72","","25","","28","","","","98.83","","","","","","NA"
"2017-01-27 11:00","2017","01","27","11:00","0.2","","-3.3","","78","","25","","27","","","","98.83","","","","","","NA"
"2017-01-27 12:00","2017","01","27","12:00","0.5","","-3.1","","77","","25","","28","","","","98.76","","","","","","NA"
"2017-01-27 13:00","2017","01","27","13:00","1.2","","-3.7","","70","","25","","27","","","","98.67","","","","","","NA"
"2017-01-27 14:00","2017","01","27","14:00","1.8","","-4.2","","64","","26","","28","","","","98.61","","","","","","NA"
"2017-01-27 15:00","2017","01","27","15:00","1.7","","-3.4","","69","","26","","25","","","","98.62","","","","","","NA"
"2017-01-27 16:00","2017","01","27","16:00","1.3","","-3.4","","71","","26","","20","","","","98.65","","","","","","NA"
"2017-01-27 17:00","2017","01","27","17:00","1.2","","-3.9","","69","","26","","25","","","","98.68","","","","","","NA"
"2017-01-27 18:00","2017","01","27","18:00","0.6","","-3.6","","73","","26","","30","","","","98.72","","","","","","NA"
"2017-01-27 19:00","2017","01","27","19:00","0.2","","-3.4","","77","","26","","27","","","","98.77","","","","","","NA"
"2017-01-27 20:00","2017","01","27","20:00","-0.7","","-2.6","","87","","26","","19","","","","98.83","","","","-6","","NA"
"2017-01-27 21:00","2017","01","27","21:00","-1.0","","-2.3","","91","","27","","19","","","","98.87","","","","-6","","NA"
"2017-01-27 22:00","2017","01","27","22:00","-0.8","","-2.6","","88","","27","","15","","","","98.86","","","","-5","","NA"
"2017-01-27 23:00","2017","01","27","23:00","-1.0","","-2.6","","89","","27","","16","","","","98.87","","","","-6","","NA"
"2017-01-28 00:00","2017","01","28","00:00","-0.5","","-3.8","","78","","25","","11","","","","98.86","","","","-4","","NA"
"2017-01-28 01:00","2017","01","28","01:00","-0.6","","-3.5","","81","","26","","15","","","","98.84","","","","-5","","NA"
"2017-01-28 02:00","2017","01","28","02:00","-0.7","","-3.5","","81","","26","","15","","","","98.84","","","","-5","","NA"
"2017-01-28 03:00","2017","01","28","03:00","-0.7","","-3.2","","83","","26","","18","","","","98.86","","","","-6","","NA"
"2017-01-28 04:00","2017","01","28","04:00","-0.6","","-3.5","","81","","27","","18","","","","98.87","","","","-6","","NA"
"2017-01-28 05:00","2017","01","28","05:00","-0.9","","-4.2","","78","","26","","17","","","","98.87","","","","-6","","NA"
"2017-01-28 06:00","2017","01","28","06:00","-1.0","","-3.7","","82","","25","","11","","","","98.87","","","","-5","","NA"
"2017-01-28 07:00","2017","01","28","07:00","-1.2","","-3.8","","82","","25","","11","","","","98.91","","","","-5","","NA"
"2017-01-28 08:00","2017","01","28","08:00","-0.9","","-4.0","","79","","26","","16","","","","98.93","","","","-6","","NA"
"2017-01-28 09:00","2017","01","28","09:00","-0.5","","-4.2","","76","","25","","19","","","","98.95","","","","-6","","NA"
"2017-01-28 10:00","2017","01","28","10:00","-0.2","","-4.3","","74","","25","","22","","","","98.98","","","","-6","","NA"
"2017-01-28 11:00","2017","01","28","11:00","0.0","","-4.5","","72","","24","","22","","","","98.99","","","","-6","","NA"
"2017-01-28 12:00","2017","01","28","12:00","0.3","","-4.5","","70","","24","","21","","","","98.93","","","","","","NA"
"2017-01-28 13:00","2017","01","28","13:00","0.0","","-3.3","","78","","24","","29","","","","98.87","","","","-6","","NA"
"2017-01-28 14:00","2017","01","28","14:00","0.1","","-2.9","","80","","25","","21","","","","98.86","","","","","","NA"
"2017-01-28 15:00","2017","01","28","15:00","0.0","","-2.5","","84","","23","","24","","","","98.87","","","","-6","","NA"
"2017-01-28 16:00","2017","01","28","16:00","0.1","","-3.1","","79","","24","","27","","","","98.88","","","","","","NA"
"2017-01-28 17:00","2017","01","28","17:00","-0.3","","-2.2","","87","","24","","24","","","","98.90","","","","-6","","NA"
"2017-01-28 18:00","2017","01","28","18:00","-0.4","","-2.0","","90","","23","","22","","","","98.93","","","","-6","","NA"
"2017-01-28 19:00","2017","01","28","19:00","-0.6","","-2.0","","90","","23","","22","","","","98.92","","","","-6","","NA"
"2017-01-28 20:00","2017","01","28","20:00","-0.3","","-2.2","","87","","22","","21","","","","98.92","","","","-6","","NA"
"2017-01-28 21:00","2017","01","28","21:00","0.0","","-2.1","","86","","23","","21","","","","98.91","","","","-5","","NA"
"2017-01-28 22:00","2017","01","28","22:00","-0.6","","-1.7","","92","","24","","27","","","","98.91","","","","-7","","NA"
"2017-01-28 23:00","2017","01","28","23:00","-1.0","","-1.8","","94","","23","","26","","","","98.89","","","","-7","","NA"
"2017-01-29 00:00","2017","01","29","00:00","-0.6","","-1.9","","91","","23","","23","","","","98.83","","","","-6","","NA"
"2017-01-29 01:00","2017","01","29","01:00","-0.3","","-2.0","","88","","23","","23","","","","98.77","","","","-6","","NA"
"2017-01-29 02:00","2017","01","29","02:00","-1.1","","-2.7","","89","","25","","13","","","","98.79","","","","-5","","NA"
"2017-01-29 03:00","2017","01","29","03:00","-1.2","","-3.3","","85","","25","","17","","","","98.83","","","","-6","","NA"
"2017-01-29 04:00","2017","01","29","04:00","-2.4","","-5.1","","81","","26","","17","","","","98.87","","","","-8","","NA"
"2017-01-29 05:00","2017","01","29","05:00","-2.9","","-5.3","","84","","26","","11","","","","98.92","","","","-7","","NA"
"2017-01-29 06:00","2017","01","29","06:00","-2.9","","-5.0","","85","","26","","13","","","","98.96","","","","-8","","NA"
"2017-01-29 07:00","2017","01","29","07:00","-2.6","","-5.2","","82","","25","","13","","","","99.00","","","","-7","","NA"
"2017-01-29 08:00","2017","01","29","08:00","-3.1","","-6.0","","80","","27","","12","","","","99.02","","","","-8","","NA"
"2017-01-29 09:00","2017","01","29","09:00","-2.7","","-6.4","","76","","26","","16","","","","99.09","","","","-8","","NA"
"2017-01-29 10:00","2017","01","29","10:00","-2.3","","-6.9","","71","","25","","18","","","","99.13","","","","-8","","NA"
"2017-01-29 11:00","2017","01","29","11:00","-2.1","","-7.4","","67","","25","","23","","","","99.18","","","","-8","","NA"
"2017-01-29 12:00","2017","01","29","12:00","-2.1","","-8.7","","60","","25","","25","","","","99.16","","","","-9","","NA"
"2017-01-29 13:00","2017","01","29","13:00","-2.0","","-8.3","","62","","24","","22","","","","99.14","","","","-8","","NA"
"2017-01-29 14:00","2017","01","29","14:00","-1.9","","-8.6","","60","","26","","21","","","","99.17","","","","-8","","NA"
"2017-01-29 15:00","2017","01","29","15:00","-2.3","","-11.2","","50","","26","","23","","","","99.23","","","","-9","","NA"
"2017-01-29 16:00","2017","01","29","16:00","-2.7","","-11.1","","53","","28","","24","","","","99.33","","","","-9","","NA"
"2017-01-29 17:00","2017","01","29","17:00","-3.6","","-11.6","","54","","27","","19","","","","99.41","","","","-10","","NA"
"2017-01-29 18:00","2017","01","29","18:00","-4.2","","-11.5","","57","","27","","10","","","","99.46","","","","-8","","NA"
"2017-01-29 19:00","2017","01","29","19:00","-5.1","","-12.1","","58","","28","","16","","","","99.53","","","","-11","","NA"
"2017-01-29 20:00","2017","01","29","20:00","-6.2","","-12.6","","60","","29","","18","","","","99.53","","","","-13","","NA"
"2017-01-29 21:00","2017","01","29","21:00","-7.3","","-12.9","","64","","28","","11","","","","99.60","","","","-12","","NA"
"2017-01-29 22:00","2017","01","29","22:00","-8.4","","-12.9","","70","","27","","7","","","","99.60","","","","-12","","NA"
"2017-01-29 23:00","2017","01","29","23:00","-9.2","","-13.0","","74","","31","","10","","","","99.62","","","","-14","","NA"
"2017-01-30 00:00","2017","01","30","00:00","-10.0","","-13.4","","76","","30","","10","","","","99.66","","","","-15","","NA"
"2017-01-30 01:00","2017","01","30","01:00","-12.4","","-15.3","","79","","32","","11","","","","99.64","","","","-18","","NA"
"2017-01-30 02:00","2017","01","30","02:00","-13.5","","-15.5","","85","","35","","13","","","","99.66","","","","-20","","NA"
"2017-01-30 03:00","2017","01","30","03:00","-13.4","","-15.6","","83","","35","","12","","","","99.70","","","","-20","","NA"
"2017-01-30 04:00","2017","01","30","04:00","-13.6","","-15.6","","85","","34","","12","","","","99.74","","","","-20","","NA"
"2017-01-30 05:00","2017","01","30","05:00","-12.9","","-15.5","","81","","1","","8","","","","99.76","","","","-18","","NA"
"2017-01-30 06:00","2017","01","30","06:00","-15.0","","-17.1","","84","","34","","12","","","","99.81","","","","-22","","NA"
"2017-01-30 07:00","2017","01","30","07:00","-14.3","","-16.5","","83","","31","","10","","","","99.88","","","","-20","","NA"
"2017-01-30 08:00","2017","01","30","08:00","-15.2","","-17.7","","81","","34","","8","","","","99.93","","","","-21","","NA"
"2017-01-30 09:00","2017","01","30","09:00","-13.3","","-16.9","","74","","33","","17","","","","99.98","","","","-21","","NA"
"2017-01-30 10:00","2017","01","30","10:00","-11.9","","-16.6","","68","","34","","13","","","","100.04","","","","-19","","NA"
"2017-01-30 11:00","2017","01","30","11:00","-11.2","","-17.2","","61","","32","","11","","","","100.06","","","","-17","","NA"
"2017-01-30 12:00","2017","01","30","12:00","-10.4","","-17.8","","54","","29","","14","","","","100.03","","","","-17","","NA"
"2017-01-30 13:00","2017","01","30","13:00","-9.8","","-17.3","","54","","30","","10","","","","100.01","","","","-15","","NA"
"2017-01-30 14:00","2017","01","30","14:00","-9.3","","-17.3","","52","","31","","14","","","","99.98","","","","-16","","NA"
"2017-01-30 15:00","2017","01","30","15:00","-8.5","","-16.8","","51","","26","","12","","","","100.02","","","","-14","","NA"
"2017-01-30 16:00","2017","01","30","16:00","-8.2","","-16.7","","51","","27","","13","","","","100.05","","","","-14","","NA"
"2017-01-30 17:00","2017","01","30","17:00","-8.7","","-16.8","","52","","28","","12","","","","100.12","","","","-14","","NA"
"2017-01-30 18:00","2017","01","30","18:00","-9.6","","-16.5","","57","","28","","6","","","","100.19","","","","-13","","NA"
"2017-01-30 19:00","2017","01","30","19:00","-9.9","","-16.4","","59","","27","","10","","","","100.23","","","","-15","","NA"
"2017-01-30 20:00","2017","01","30","20:00","-10.4","","-16.5","","61","","27","","12","","","","100.24","","","","-16","","NA"
"2017-01-30 21:00","2017","01","30","21:00","-10.8","","-16.6","","62","","27","","10","","","","100.24","","","","-16","","NA"
"2017-01-30 22:00","2017","01","30","22:00","-12.5","","-17.2","","68","","32","","9","","","","100.21","","","","-18","","NA"
"2017-01-30 23:00","2017","01","30","23:00","-14.2","","-18.0","","73","","34","","11","","","","100.21","","","","-21","","NA"
"2017-01-31 00:00","2017","01","31","00:00","-14.1","","-17.5","","76","","33","","10","","","","100.22","","","","-20","","NA"
"2017-01-31 01:00","2017","01","31","01:00","-13.9","","-17.1","","77","","36","","5","","","","100.21","","","","-17","","NA"
"2017-01-31 02:00","2017","01","31","02:00","-14.7","","-17.0","","83","","36","","5","","","","100.22","","","","-18","","NA"
"2017-01-31 03:00","2017","01","31","03:00","-13.5","","-16.3","","80","","4","","6","","","","100.13","","","","-18","","NA"
"2017-01-31 04:00","2017","01","31","04:00","-11.6","","-15.1","","75","","5","","6","","","","100.07","","","","-15","","NA"
"2017-01-31 05:00","2017","01","31","05:00","-12.3","","-14.9","","81","","4","","5","","","","100.02","","","","-16","","NA"
"2017-01-31 06:00","2017","01","31","06:00","-12.1","","-14.7","","81","","6","","9","","","","99.96","","","","-17","","NA"
"2017-01-31 07:00","2017","01","31","07:00","-12.2","","-14.8","","81","","4","","11","","","","99.90","","","","-18","","NA"
"2017-01-31 08:00","2017","01","31","08:00","-11.4","","-13.7","","83","","5","","10","","","","99.91","","","","-17","","NA"
"2017-01-31 09:00","2017","01","31","09:00","-10.0","","-12.8","","80","","6","","10","","","","99.92","","","","-15","","NA"
"2017-01-31 10:00","2017","01","31","10:00","-8.2","","-11.2","","79","","6","","13","","","","99.88","","","","-14","","NA"
"2017-01-31 11:00","2017","01","31","11:00","-6.0","","-10.4","","71","","8","","17","","","","99.77","","","","-12","","NA"
"2017-01-31 12:00","2017","01","31","12:00","-5.0","","-10.4","","66","","8","","18","","","","99.65","","","","-11","","NA"
"2017-01-31 13:00","2017","01","31","13:00","-4.0","","-10.5","","61","","7","","19","","","","99.52","","","","-10","","NA"
"2017-01-31 14:00","2017","01","31","14:00","-3.8","","-10.5","","60","","7","","22","","","","99.48","","","","-10","","NA"
"2017-01-31 15:00","2017","01","31","15:00","-3.7","","-9.6","","64","","7","","24","","","","99.49","","","","-11","","NA"
"2017-01-31 16:00","2017","01","31","16:00","-3.7","","-7.9","","73","","7","","19","","","","99.53","","","","-10","","NA"
"2017-01-31 17:00","2017","01","31","17:00","-3.7","","-7.3","","76","","7","","15","","","","99.59","","","","-9","","NA"
"2017-01-31 18:00","2017","01","31","18:00","-3.7","","-8.4","","70","","4","","12","","","","99.64","","","","-8","","NA"
"2017-01-31 19:00","2017","01","31","19:00","-4.1","","-10.0","","64","","5","","18","","","","99.66","","","","-10","","NA"
"2017-01-31 20:00","2017","01","31","20:00","-5.1","","-10.3","","67","","5","","22","","","","99.64","","","","-12","","NA"
"2017-01-31 21:00","2017","01","31","21:00","-5.6","","-10.3","","70","","5","","20","","","","99.62","","","","-12","","NA"
"2017-01-31 22:00","2017","01","31","22:00","-6.2","","-9.7","","76","","4","","18","","","","99.57","","","","-13","","NA"
"2017-01-31 23:00","2017","01","31","23:00","-6.7","","-8.9","","84","","4","","16","","","","99.54","","","","-13","","NA"
