"Station Name","KINGSTON CLIMATE"
"Province","ONTARIO"
"Current Station Operator","Environment and Climate Change Canada - Meteorological Service of Canada"
"Latitude","44.22"
"Longitude","-76.60"
"Elevation","93.00"
"Climate Identifier","6104142"
"WMO Identifier","71820"
"TC Identifier","TKG"
"All times are specified in Local Standard Time (LST). Add 1 hour to adjust for Daylight Saving Time where and when it is observed."

"Legend"
"E","Estimated"
"M","Missing"
"NA","Not Available"

"Date/Time","Year","Month","Day","Time","Temp (°C)","Temp Flag","Dew Point Temp (°C)","Dew Point Temp Flag","Rel Hum (%)","Rel Hum Flag","Wind Dir (10s deg)","Wind Dir Flag","Wind Spd (km/h)","Wind Spd Flag","Visibility (km)","Visibility Flag","Stn Press (kPa)","Stn Press Flag","Hmdx","Hmdx Flag","Wind Chill","Wind Chill Flag","Weather"
"2018-10-01 00:00","2018","10","01","00:00","9.4","","8.6","","95","","3","","15","","","","101.43","","","","","","NA"
"2018-10-01 01:00","2018","10","01","01:00","9.4","","8.8","","96","","4","","11","","","","101.43","","","","","","NA"
"2018-10-01 02:00","2018","10","01","02:00","9.1","","8.3","","94","","5","","16","","","","101.41","","","","","","NA"
"2018-10-01 03:00","2018","10","01","03:00","7.7","","6.1","","89","","3","","16","","","","101.49","","","","","","NA"
"2018-10-01 04:00","2018","10","01","04:00","6.8","","5.1","","89","","4","","15","","","","101.56","","","","","","NA"
"2018-10-01 05:00","2018","10","01","05:00","6.7","","5.8","","93","","3","","10","","","","101.65","","","","","","NA"
"2018-10-01 06:00","2018","10","01","06:00","7.0","","5.9","","93","","6","","8","","","","101.65","","","","","","NA"
"2018-10-01 07:00","2018","10","01","07:00","7.0","","5.4","","90","","3","","12","","","","101.68","","","","","","NA"
"2018-10-01 08:00","2018","10","01","08:00","7.4","","5.6","","88","","2","","14","","","","101.76","","","","","","NA"
"2018-10-01 09:00","2018","10","01","09:00","7.7","","5.4","","86","","2","","13","","","","101.77","","","","","","NA"
"2018-10-01 10:00","2018","10","01","10:00","7.9","","5.2","","83","","3","","14","","","","101.76","","","","","","NA"
"2018-10-01 11:00","2018","10","01","11:00","9.1","","6.4","","83","","2","","11","","","","101.79","","","","","","NA"
"2018-10-01 12:00","2018","10","01","12:00","9.9","","4.5","","69","","4","","12","","","","101.76","","","","","","NA"
"2018-10-01 13:00","2018","10","01","13:00","10.2","","4.6","","68","","4","","16","","","","101.71","","","","","","NA"
"2018-10-01 14:00","2018","10","01","14:00","10.4","","4.4","","66","","4","","15","","","","101.72","","","","","","NA"
"2018-10-01 15:00","2018","10","01","15:00","10.4","","3.9","","64","","4","","17","","","","101.67","","","","","","NA"
"2018-10-01 16:00","2018","10","01","16:00","10.4","","5.4","","71","","4","","14","","","","101.63","","","","","","NA"
"2018-10-01 17:00","2018","10","01","17:00","10.4","","6.0","","75","","5","","16","","","","101.55","","","","","","NA"
"2018-10-01 18:00","2018","10","01","18:00","10.1","","6.4","","78","","6","","16","","","","101.48","","","","","","NA"
"2018-10-01 19:00","2018","10","01","19:00","10.1","","6.2","","76","","4","","12","","","","101.53","","","","","","NA"
"2018-10-01 20:00","2018","10","01","20:00","10.1","","6.3","","78","","6","","15","","","","101.45","","","","","","NA"
"2018-10-01 21:00","2018","10","01","21:00","10.1","","6.4","","78","","6","","17","","","","101.40","","","","","","NA"
"2018-10-01 22:00","2018","10","01","22:00","10.1","","7.3","","83","","5","","17","","","","101.33","","","","","","NA"
"2018-10-01 23:00","2018","10","01","23:00","9.5","","8.1","","91","","5","","17","","","","101.30","","","","","","NA"
"2018-10-02 00:00","2018","10","02","00:00","9.5","","8.4","","93","","4","","17","","","","101.23","","","","","","NA"
"2018-10-02 01:00","2018","10","02","01:00","9.2","","8.1","","93","","4","","19","","","","101.16","","","","","","NA"
"2018-10-02 02:00","2018","10","02","02:00","8.6","","6.1","","84","","4","","23","","","","101.09","","","","","","NA"
"2018-10-02 03:00","2018","10","02","03:00","8.6","","6.6","","87","","4","","23","","","","101.01","","","","","","NA"
"2018-10-02 04:00","2018","10","02","04:00","8.9","","7.4","","90","","5","","22","","","","100.89","","","","","","NA"
"2018-10-02 05:00","2018","10","02","05:00","8.8","","8.1","","95","","2","","20","","","","100.95","","","","","","NA"
"2018-10-02 06:00","2018","10","02","06:00","8.9","","8.2","","95","","4","","20","","","","100.83","","","","","","NA"
"2018-10-02 07:00","2018","10","02","07:00","9.1","","8.5","","96","","6","","19","","","","100.72","","","","","","NA"
"2018-10-02 08:00","2018","10","02","08:00","9.3","","8.7","","96","","5","","19","","","","100.71","","","","","","NA"
"2018-10-02 09:00","2018","10","02","09:00","9.1","","8.5","","96","","2","","16","","","","100.70","","","","","","NA"
"2018-10-02 10:00","2018","10","02","10:00","9.3","","8.5","","95","","2","","17","","","","100.70","","","","","","NA"
"2018-10-02 11:00","2018","10","02","11:00","9.6","","8.8","","95","","4","","17","","","","100.59","","","","","","NA"
"2018-10-02 12:00","2018","10","02","12:00","9.8","","8.8","","93","","3","","17","","","","100.57","","","","","","NA"
"2018-10-02 13:00","2018","10","02","13:00","10.5","","9.2","","91","","3","","19","","","","100.51","","","","","","NA"
"2018-10-02 14:00","2018","10","02","14:00","10.7","","9.4","","92","","3","","15","","","","100.47","","","","","","NA"
"2018-10-02 15:00","2018","10","02","15:00","10.6","","9.4","","92","","4","","14","","","","100.40","","","","","","NA"
"2018-10-02 16:00","2018","10","02","16:00","10.5","","9.3","","93","","3","","16","","","","100.39","","","","","","NA"
"2018-10-02 17:00","2018","10","02","17:00","9.9","","9.0","","94","","4","","22","","","","100.34","","","","","","NA"
"2018-10-02 18:00","2018","10","02","18:00","9.6","","9.0","","96","","4","","19","","","","100.28","","","","","","NA"
"2018-10-02 19:00","2018","10","02","19:00","9.7","","9.1","","96","","1","","11","","","","100.38","","","","","","NA"
"2018-10-02 20:00","2018","10","02","20:00","9.8","","9.1","","95","","1","","14","","","","100.40","","","","","","NA"
"2018-10-02 21:00","2018","10","02","21:00","9.9","","9.0","","94","","2","","15","","","","100.37","","","","","","NA"
"2018-10-02 22:00","2018","10","02","22:00","10.2","","9.2","","94","","1","","15","","","","100.45","","","","","","NA"
"2018-10-02 23:00","2018","10","02","23:00","10.0","","9.4","","96","","36","","12","","","","100.50","","","","","","NA"
"2018-10-03 00:00","2018","10","03","00:00","9.9","","9.2","","96","","35","","11","","","","100.58","","","","","","NA"
"2018-10-03 01:00","2018","10","03","01:00","10.0","","9.2","","95","","34","","10","","","","100.65","","","","","","NA"
"2018-10-03 02:00","2018","10","03","02:00","10.1","","9.3","","95","","35","","4","","","","100.65","","","","","","NA"
"2018-10-03 03:00","2018","10","03","03:00","10.2","","9.5","","96","","29","","5","","","","100.69","","","","","","NA"
"2018-10-03 04:00","2018","10","03","04:00","10.2","","9.6","","96","","2","","5","","","","100.73","","","","","","NA"
"2018-10-03 05:00","2018","10","03","05:00","10.2","","9.6","","96","","35","","6","","","","100.72","","","","","","NA"
"2018-10-03 06:00","2018","10","03","06:00","10.3","","9.7","","96","","31","","5","","","","100.81","","","","","","NA"
"2018-10-03 07:00","2018","10","03","07:00","10.5","","9.8","","96","","35","","5","","","","100.86","","","","","","NA"
"2018-10-03 08:00","2018","10","03","08:00","11.1","","10.1","","94","","1","","5","","","","100.87","","","","","","NA"
"2018-10-03 09:00","2018","10","03","09:00","11.3","","9.8","","90","","1","","2","","","","100.90","","","","","","NA"
"2018-10-03 10:00","2018","10","03","10:00","12.1","","10.4","","89","","21","","2","","","","100.88","","","","","","NA"
"2018-10-03 11:00","2018","10","03","11:00","12.6","","10.4","","87","","25","","5","","","","100.92","","","","","","NA"
"2018-10-03 12:00","2018","10","03","12:00","13.2","","10.9","","86","","23","","8","","","","100.91","","","","","","NA"
"2018-10-03 13:00","2018","10","03","13:00","13.3","","11.0","","86","","19","","7","","","","100.85","","","","","","NA"
"2018-10-03 14:00","2018","10","03","14:00","13.1","","11.3","","89","","21","","12","","","","100.85","","","","","","NA"
"2018-10-03 15:00","2018","10","03","15:00","13.6","","11.4","","87","","18","","11","","","","100.78","","","","","","NA"
"2018-10-03 16:00","2018","10","03","16:00","13.7","","11.5","","86","","18","","14","","","","100.74","","","","","","NA"
"2018-10-03 17:00","2018","10","03","17:00","13.8","","11.5","","86","","18","","18","","","","100.65","","","","","","NA"
"2018-10-03 18:00","2018","10","03","18:00","13.8","","11.4","","86","","17","","19","","","","100.58","","","","","","NA"
"2018-10-03 19:00","2018","10","03","19:00","13.8","","11.7","","87","","17","","19","","","","100.54","","","","","","NA"
"2018-10-03 20:00","2018","10","03","20:00","14.5","","12.6","","88","","17","","25","","","","100.47","","","","","","NA"
"2018-10-03 21:00","2018","10","03","21:00","14.7","","13.0","","90","","17","","26","","","","100.41","","","","","","NA"
"2018-10-03 22:00","2018","10","03","22:00","15.0","","13.0","","88","","16","","30","","","","100.33","","","","","","NA"
"2018-10-03 23:00","2018","10","03","23:00","15.2","","13.2","","88","","16","","26","","","","100.23","","","","","","NA"
"2018-10-04 00:00","2018","10","04","00:00","15.6","","13.6","","88","","17","","23","","","","100.18","","","","","","NA"
"2018-10-04 01:00","2018","10","04","01:00","15.8","","13.7","","87","","18","","21","","","","100.11","","","","","","NA"
"2018-10-04 02:00","2018","10","04","02:00","15.9","","13.8","","88","","17","","20","","","","99.96","","","","","","NA"
"2018-10-04 03:00","2018","10","04","03:00","16.2","","14.3","","89","","18","","22","","","","99.82","","","","","","NA"
"2018-10-04 04:00","2018","10","04","04:00","16.3","","14.4","","89","","18","","33","","","","99.67","","","","","","NA"
"2018-10-04 05:00","2018","10","04","05:00","17.2","","15.3","","89","","18","","30","","","","99.64","","","","","","NA"
"2018-10-04 06:00","2018","10","04","06:00","17.7","","15.9","","89","","18","","28","","","","99.62","","","","","","NA"
"2018-10-04 07:00","2018","10","04","07:00","17.2","","16.2","","94","","19","","26","","","","99.69","","","","","","NA"
"2018-10-04 08:00","2018","10","04","08:00","17.7","","17.1","","96","","19","","29","","","","99.69","","","","","","NA"
"2018-10-04 09:00","2018","10","04","09:00","17.9","","17.3","","96","","21","","19","","","","99.70","","","","","","NA"
"2018-10-04 10:00","2018","10","04","10:00","18.1","","17.4","","96","","20","","21","","","","99.73","","","","","","NA"
"2018-10-04 11:00","2018","10","04","11:00","21.5","","19.9","","91","","24","","18","","","","99.76","","29","","","","NA"
"2018-10-04 12:00","2018","10","04","12:00","23.5","","12.9","","52","","29","","23","","","","99.80","","26","","","","NA"
"2018-10-04 13:00","2018","10","04","13:00","23.2","","11.7","","48","","30","","26","","","","99.87","","25","","","","NA"
"2018-10-04 14:00","2018","10","04","14:00","22.7","","10.0","","44","","32","","27","","","","100.00","","","","","","NA"
"2018-10-04 15:00","2018","10","04","15:00","22.0","","10.1","","47","","31","","24","","","","100.11","","","","","","NA"
"2018-10-04 16:00","2018","10","04","16:00","21.2","","10.2","","50","","31","","25","","","","100.23","","","","","","NA"
"2018-10-04 17:00","2018","10","04","17:00","19.4","","10.6","","57","","31","","15","","","","100.34","","","","","","NA"
"2018-10-04 18:00","2018","10","04","18:00","15.7","","9.0","","64","","34","","16","","","","100.50","","","","","","NA"
"2018-10-04 19:00","2018","10","04","19:00","14.1","","6.7","","61","","35","","14","","","","100.66","","","","","","NA"
"2018-10-04 20:00","2018","10","04","20:00","13.1","","5.5","","60","","2","","21","","","","100.83","","","","","","NA"
"2018-10-04 21:00","2018","10","04","21:00","11.2","","2.8","","56","","1","","20","","","","100.98","","","","","","NA"
"2018-10-04 22:00","2018","10","04","22:00","9.9","","2.0","","58","","1","","13","","","","101.10","","","","","","NA"
"2018-10-04 23:00","2018","10","04","23:00","8.3","","1.5","","62","","3","","9","","","","101.19","","","","","","NA"
"2018-10-05 00:00","2018","10","05","00:00","7.8","","1.0","","62","","2","","16","","","","101.20","","","","","","NA"
"2018-10-05 01:00","2018","10","05","01:00","6.7","","1.1","","68","","2","","14","","","","101.23","","","","","","NA"
"2018-10-05 02:00","2018","10","05","02:00","5.7","","1.2","","73","","1","","12","","","","101.26","","","","","","NA"
"2018-10-05 03:00","2018","10","05","03:00","5.1","","1.2","","76","","1","","11","","","","101.28","","","","","","NA"
"2018-10-05 04:00","2018","10","05","04:00","4.4","","1.2","","79","","2","","10","","","","101.28","","","","","","NA"
"2018-10-05 05:00","2018","10","05","05:00","4.0","","1.1","","82","","3","","8","","","","101.35","","","","","","NA"
"2018-10-05 06:00","2018","10","05","06:00","3.6","","-0.4","","75","","3","","11","","","","101.43","","","","","","NA"
"2018-10-05 07:00","2018","10","05","07:00","4.7","","-1.1","","66","","2","","12","","","","101.50","","","","","","NA"
"2018-10-05 08:00","2018","10","05","08:00","6.0","","-1.9","","57","","4","","23","","","","101.48","","","","","","NA"
"2018-10-05 09:00","2018","10","05","09:00","7.3","","-0.9","","56","","5","","18","","","","101.48","","","","","","NA"
"2018-10-05 10:00","2018","10","05","10:00","8.4","","0.9","","59","","4","","16","","","","101.47","","","","","","NA"
"2018-10-05 11:00","2018","10","05","11:00","9.7","","1.8","","58","","5","","14","","","","101.44","","","","","","NA"
"2018-10-05 12:00","2018","10","05","12:00","10.7","","2.6","","58","","2","","16","","","","101.35","","","","","","NA"
"2018-10-05 13:00","2018","10","05","13:00","10.2","","1.8","","56","","3","","18","","","","101.22","","","","","","NA"
"2018-10-05 14:00","2018","10","05","14:00","10.8","","1.6","","53","","3","","14","","","","101.22","","","","","","NA"
"2018-10-05 15:00","2018","10","05","15:00","10.9","","1.0","","50","","3","","18","","","","101.18","","","","","","NA"
"2018-10-05 16:00","2018","10","05","16:00","10.5","","0.9","","52","","5","","19","","","","101.10","","","","","","NA"
"2018-10-05 17:00","2018","10","05","17:00","10.5","","1.1","","52","","6","","14","","","","101.08","","","","","","NA"
"2018-10-05 18:00","2018","10","05","18:00","10.2","","1.7","","55","","5","","16","","","","101.06","","","","","","NA"
"2018-10-05 19:00","2018","10","05","19:00","10.0","","1.8","","57","","5","","17","","","","101.10","","","","","","NA"
"2018-10-05 20:00","2018","10","05","20:00","9.7","","2.3","","60","","6","","18","","","","101.09","","","","","","NA"
"2018-10-05 21:00","2018","10","05","21:00","9.4","","2.2","","61","","5","","17","","","","101.13","","","","","","NA"
"2018-10-05 22:00","2018","10","05","22:00","9.1","","1.9","","61","","6","","20","","","","101.04","","","","","","NA"
"2018-10-05 23:00","2018","10","05","23:00","9.0","","2.0","","62","","5","","16","","","","100.99","","","","","","NA"
"2018-10-06 00:00","2018","10","06","00:00","8.8","","2.6","","65","","6","","15","","","","100.94","","","","","","NA"
"2018-10-06 01:00","2018","10","06","01:00","8.8","","3.0","","67","","5","","13","","","","100.94","","","","","","NA"
"2018-10-06 02:00","2018","10","06","02:00","8.5","","3.4","","70","","4","","15","","","","100.85","","","","","","NA"
"2018-10-06 03:00","2018","10","06","03:00","8.4","","3.5","","71","","4","","15","","","","100.81","","","","","","NA"
"2018-10-06 04:00","2018","10","06","04:00","8.3","","3.6","","72","","4","","13","","","","100.81","","","","","","NA"
"2018-10-06 05:00","2018","10","06","05:00","8.4","","4.3","","76","","4","","16","","","","100.80","","","","","","NA"
"2018-10-06 06:00","2018","10","06","06:00","8.4","","4.3","","75","","5","","14","","","","100.84","","","","","","NA"
"2018-10-06 07:00","2018","10","06","07:00","8.2","","4.7","","78","","5","","14","","","","100.78","","","","","","NA"
"2018-10-06 08:00","2018","10","06","08:00","8.6","","4.8","","77","","5","","14","","","","100.79","","","","","","NA"
"2018-10-06 09:00","2018","10","06","09:00","7.9","","6.1","","88","","1","","10","","","","100.82","","","","","","NA"
"2018-10-06 10:00","2018","10","06","10:00","8.3","","7.5","","95","","4","","12","","","","100.72","","","","","","NA"
"2018-10-06 11:00","2018","10","06","11:00","9.2","","8.3","","94","","2","","10","","","","100.65","","","","","","NA"
"2018-10-06 12:00","2018","10","06","12:00","10.5","","9.6","","94","","36","","6","","","","100.61","","","","","","NA"
"2018-10-06 13:00","2018","10","06","13:00","10.8","","9.6","","92","","6","","7","","","","100.54","","","","","","NA"
"2018-10-06 14:00","2018","10","06","14:00","11.8","","11.3","","96","","10","","5","","","","100.49","","","","","","NA"
"2018-10-06 15:00","2018","10","06","15:00","13.7","","13.2","","97","","14","","5","","","","100.39","","","","","","NA"
"2018-10-06 16:00","2018","10","06","16:00","14.1","","13.4","","96","","35","","10","","","","100.41","","","","","","NA"
"2018-10-06 17:00","2018","10","06","17:00","13.9","","13.2","","96","","1","","8","","","","100.42","","","","","","NA"
"2018-10-06 18:00","2018","10","06","18:00","13.6","","12.9","","96","","35","","12","","","","100.49","","","","","","NA"
"2018-10-06 19:00","2018","10","06","19:00","13.0","","12.6","","97","","1","","9","","","","100.54","","","","","","NA"
"2018-10-06 20:00","2018","10","06","20:00","12.8","","12.4","","98","","9","","6","","","","100.56","","","","","","NA"
"2018-10-06 21:00","2018","10","06","21:00","13.2","","12.7","","97","","1","","4","","","","100.59","","","","","","NA"
"2018-10-06 22:00","2018","10","06","22:00","13.3","","12.7","","97","","31","","5","","","","100.63","","","","","","NA"
"2018-10-06 23:00","2018","10","06","23:00","13.1","","12.5","","97","","4","","2","","","","100.64","","","","","","NA"
"2018-10-07 00:00","2018","10","07","00:00","13.0","","12.5","","97","","35","","5","","","","100.68","","","","","","NA"
"2018-10-07 01:00","2018","10","07","01:00","13.3","","12.7","","96","","1","","7","","","","100.77","","","","","","NA"
"2018-10-07 02:00","2018","10","07","02:00","12.9","","12.1","","95","","1","","9","","","","100.80","","","","","","NA"
"2018-10-07 03:00","2018","10","07","03:00","12.2","","11.0","","93","","2","","12","","","","100.84","","","","","","NA"
"2018-10-07 04:00","2018","10","07","04:00","11.3","","10.0","","92","","3","","16","","","","100.89","","","","","","NA"
"2018-10-07 05:00","2018","10","07","05:00","10.8","","9.1","","89","","3","","15","","","","100.97","","","","","","NA"
"2018-10-07 06:00","2018","10","07","06:00","10.4","","8.5","","88","","1","","16","","","","101.10","","","","","","NA"
"2018-10-07 07:00","2018","10","07","07:00","10.0","","8.5","","90","","2","","12","","","","101.20","","","","","","NA"
"2018-10-07 08:00","2018","10","07","08:00","10.6","","8.5","","87","","3","","15","","","","101.25","","","","","","NA"
"2018-10-07 09:00","2018","10","07","09:00","11.2","","8.3","","83","","2","","19","","","","101.34","","","","","","NA"
"2018-10-07 10:00","2018","10","07","10:00","11.0","","7.8","","81","","2","","21","","","","101.40","","","","","","NA"
"2018-10-07 11:00","2018","10","07","11:00","11.5","","8.0","","79","","3","","19","","","","101.43","","","","","","NA"
"2018-10-07 12:00","2018","10","07","12:00","12.1","","8.5","","79","","1","","19","","","","101.44","","","","","","NA"
"2018-10-07 13:00","2018","10","07","13:00","12.3","","8.0","","75","","3","","16","","","","101.42","","","","","","NA"
"2018-10-07 14:00","2018","10","07","14:00","11.4","","7.9","","79","","3","","21","","","","101.45","","","","","","NA"
"2018-10-07 15:00","2018","10","07","15:00","10.8","","7.6","","81","","4","","17","","","","101.48","","","","","","NA"
"2018-10-07 16:00","2018","10","07","16:00","10.5","","7.7","","83","","2","","17","","","","101.56","","","","","","NA"
"2018-10-07 17:00","2018","10","07","17:00","10.5","","7.7","","83","","2","","14","","","","101.64","","","","","","NA"
"2018-10-07 18:00","2018","10","07","18:00","10.3","","7.5","","83","","3","","13","","","","101.68","","","","","","NA"
"2018-10-07 19:00","2018","10","07","19:00","10.2","","7.3","","82","","5","","15","","","","101.68","","","","","","NA"
"2018-10-07 20:00","2018","10","07","20:00","10.2","","7.1","","81","","5","","17","","","","101.70","","","","","","NA"
"2018-10-07 21:00","2018","10","07","21:00","10.0","","7.3","","83","","4","","19","","","","101.73","","","","","","NA"
"2018-10-07 22:00","2018","10","07","22:00","9.8","","7.0","","82","","4","","18","","","","101.74","","","","","","NA"
"2018-10-07 23:00","2018","10","07","23:00","9.6","","6.8","","83","","4","","17","","","","101.77","","","","","","NA"
"2018-10-08 00:00","2018","10","08","00:00","9.3","","6.5","","83","","4","","15","","","","101.77","","","","","","NA"
"2018-10-08 01:00","2018","10","08","01:00","9.2","","6.0","","81","","4","","16","","","","101.79","","","","","","NA"
"2018-10-08 02:00","2018","10","08","02:00","8.7","","5.6","","81","","5","","19","","","","101.73","","","","","","NA"
"2018-10-08 03:00","2018","10","08","03:00","8.5","","5.1","","79","","4","","16","","","","101.75","","","","","","NA"
"2018-10-08 04:00","2018","10","08","04:00","8.6","","4.9","","77","","4","","19","","","","101.77","","","","","","NA"
"2018-10-08 05:00","2018","10","08","05:00","8.5","","5.2","","80","","5","","20","","","","101.74","","","","","","NA"
"2018-10-08 06:00","2018","10","08","06:00","8.3","","5.3","","82","","4","","17","","","","101.77","","","","","","NA"
"2018-10-08 07:00","2018","10","08","07:00","8.3","","5.7","","84","","5","","15","","","","101.77","","","","","","NA"
"2018-10-08 08:00","2018","10","08","08:00","8.5","","5.9","","84","","5","","17","","","","101.76","","","","","","NA"
"2018-10-08 09:00","2018","10","08","09:00","8.8","","6.1","","83","","5","","20","","","","101.75","","","","","","NA"
"2018-10-08 10:00","2018","10","08","10:00","8.9","","6.2","","83","","4","","18","","","","101.72","","","","","","NA"
"2018-10-08 11:00","2018","10","08","11:00","10.1","","7.5","","84","","4","","15","","","","101.63","","","","","","NA"
"2018-10-08 12:00","2018","10","08","12:00","11.0","","7.7","","80","","6","","20","","","","101.54","","","","","","NA"
"2018-10-08 13:00","2018","10","08","13:00","11.7","","8.3","","80","","5","","14","","","","101.42","","","","","","NA"
"2018-10-08 14:00","2018","10","08","14:00","12.3","","9.2","","81","","6","","14","","","","101.34","","","","","","NA"
"2018-10-08 15:00","2018","10","08","15:00","12.5","","9.3","","81","","3","","10","","","","101.28","","","","","","NA"
"2018-10-08 16:00","2018","10","08","16:00","13.7","","10.7","","82","","4","","11","","","","101.21","","","","","","NA"
"2018-10-08 17:00","2018","10","08","17:00","13.1","","10.6","","84","","2","","12","","","","101.25","","","","","","NA"
"2018-10-08 18:00","2018","10","08","18:00","12.2","","10.2","","88","","2","","11","","","","101.24","","","","","","NA"
"2018-10-08 19:00","2018","10","08","19:00","11.7","","9.9","","89","","5","","11","","","","101.22","","","","","","NA"
"2018-10-08 20:00","2018","10","08","20:00","11.3","","9.7","","90","","6","","13","","","","101.17","","","","","","NA"
"2018-10-08 21:00","2018","10","08","21:00","11.4","","9.8","","90","","4","","8","","","","101.13","","","","","","NA"
"2018-10-08 22:00","2018","10","08","22:00","11.5","","11.0","","97","","15","","1","","","","101.13","","","","","","NA"
"2018-10-08 23:00","2018","10","08","23:00","15.5","","15.0","","97","","22","","3","","","","101.10","","","","","","NA"
"2018-10-09 00:00","2018","10","09","00:00","18.1","","17.1","","94","","17","","21","","","","101.03","","","","","","NA"
"2018-10-09 01:00","2018","10","09","01:00","17.4","","16.4","","94","","18","","13","","","","101.05","","","","","","NA"
"2018-10-09 02:00","2018","10","09","02:00","17.4","","16.4","","94","","19","","15","","","","101.02","","","","","","NA"
"2018-10-09 03:00","2018","10","09","03:00","17.2","","16.3","","95","","19","","13","","","","100.98","","","","","","NA"
"2018-10-09 04:00","2018","10","09","04:00","16.8","","16.0","","95","","19","","9","","","","101.01","","","","","","NA"
"2018-10-09 05:00","2018","10","09","05:00","16.6","","16.0","","96","","19","","10","","","","101.01","","","","","","NA"
"2018-10-09 06:00","2018","10","09","06:00","16.6","","16.1","","97","","20","","9","","","","101.05","","","","","","NA"
"2018-10-09 07:00","2018","10","09","07:00","17.1","","16.5","","96","","19","","7","","","","101.06","","","","","","NA"
"2018-10-09 08:00","2018","10","09","08:00","17.6","","16.7","","95","","20","","10","","","","101.07","","","","","","NA"
"2018-10-09 09:00","2018","10","09","09:00","19.0","","17.4","","91","","19","","17","","","","101.05","","","","","","NA"
"2018-10-09 10:00","2018","10","09","10:00","20.3","","18.1","","87","","19","","19","","","","101.04","","26","","","","NA"
"2018-10-09 11:00","2018","10","09","11:00","20.9","","18.0","","84","","19","","17","","","","100.99","","27","","","","NA"
"2018-10-09 12:00","2018","10","09","12:00","20.9","","17.9","","83","","18","","19","","","","100.93","","27","","","","NA"
"2018-10-09 13:00","2018","10","09","13:00","19.7","","17.0","","84","","17","","19","","","","100.86","","","","","","NA"
"2018-10-09 14:00","2018","10","09","14:00","20.2","","17.4","","84","","18","","15","","","","100.83","","26","","","","NA"
"2018-10-09 15:00","2018","10","09","15:00","19.8","","17.1","","85","","18","","10","","","","100.82","","","","","","NA"
"2018-10-09 16:00","2018","10","09","16:00","19.5","","17.0","","85","","18","","9","","","","100.78","","","","","","NA"
"2018-10-09 17:00","2018","10","09","17:00","19.2","","17.2","","88","","18","","9","","","","100.74","","","","","","NA"
"2018-10-09 18:00","2018","10","09","18:00","17.8","","16.3","","91","","15","","3","","","","100.74","","","","","","NA"
"2018-10-09 19:00","2018","10","09","19:00","17.7","","16.7","","94","","16","","3","","","","100.74","","","","","","NA"
"2018-10-09 20:00","2018","10","09","20:00","16.5","","15.9","","96","","30","","4","","","","100.73","","","","","","NA"
"2018-10-09 21:00","2018","10","09","21:00","17.3","","16.4","","94","","16","","9","","","","100.72","","","","","","NA"
"2018-10-09 22:00","2018","10","09","22:00","17.8","","16.9","","95","","18","","7","","","","100.70","","","","","","NA"
"2018-10-09 23:00","2018","10","09","23:00","18.6","","17.1","","91","","20","","14","","","","100.67","","","","","","NA"
"2018-10-10 00:00","2018","10","10","00:00","17.4","","16.5","","94","","17","","12","","","","100.64","","","","","","NA"
"2018-10-10 01:00","2018","10","10","01:00","17.1","","16.3","","95","","18","","11","","","","100.64","","","","","","NA"
"2018-10-10 02:00","2018","10","10","02:00","16.6","","16.0","","96","","16","","11","","","","100.59","","","","","","NA"
"2018-10-10 03:00","2018","10","10","03:00","16.6","","16.2","","97","","18","","5","","","","100.57","","","","","","NA"
"2018-10-10 04:00","2018","10","10","04:00","16.1","","15.7","","98","","15","","8","","","","100.57","","","","","","NA"
"2018-10-10 05:00","2018","10","10","05:00","16.0","","15.5","","97","","15","","7","","","","100.58","","","","","","NA"
"2018-10-10 06:00","2018","10","10","06:00","16.5","","15.8","","96","","16","","9","","","","100.59","","","","","","NA"
"2018-10-10 07:00","2018","10","10","07:00","16.7","","16.0","","96","","17","","8","","","","100.59","","","","","","NA"
"2018-10-10 08:00","2018","10","10","08:00","17.3","","16.2","","94","","19","","8","","","","100.58","","","","","","NA"
"2018-10-10 09:00","2018","10","10","09:00","18.5","","16.8","","90","","19","","9","","","","100.52","","","","","","NA"
"2018-10-10 10:00","2018","10","10","10:00","19.2","","17.4","","89","","19","","14","","","","100.46","","","","","","NA"
"2018-10-10 11:00","2018","10","10","11:00","19.5","","17.1","","86","","17","","9","","","","100.37","","","","","","NA"
"2018-10-10 12:00","2018","10","10","12:00","20.1","","17.4","","85","","19","","12","","","","100.29","","26","","","","NA"
"2018-10-10 13:00","2018","10","10","13:00","21.3","","18.4","","84","","18","","8","","","","100.18","","28","","","","NA"
"2018-10-10 14:00","2018","10","10","14:00","22.3","","18.4","","78","","20","","9","","","","100.10","","29","","","","NA"
"2018-10-10 15:00","2018","10","10","15:00","22.0","","18.0","","78","","19","","6","","","","100.03","","28","","","","NA"
"2018-10-10 16:00","2018","10","10","16:00","20.5","","17.9","","85","","18","","10","","","","99.97","","26","","","","NA"
"2018-10-10 17:00","2018","10","10","17:00","20.9","","18.4","","86","","15","","2","","","","99.92","","27","","","","NA"
"2018-10-10 18:00","2018","10","10","18:00","20.5","","18.4","","88","","7","","2","","","","99.87","","27","","","","NA"
"2018-10-10 19:00","2018","10","10","19:00","20.1","","17.0","","83","","18","","5","","","","99.78","","25","","","","NA"
"2018-10-10 20:00","2018","10","10","20:00","19.7","","16.8","","83","","16","","18","","","","99.72","","","","","","NA"
"2018-10-10 21:00","2018","10","10","21:00","19.1","","16.6","","86","","16","","18","","","","99.65","","","","","","NA"
"2018-10-10 22:00","2018","10","10","22:00","18.9","","16.4","","86","","17","","15","","","","99.62","","","","","","NA"
"2018-10-10 23:00","2018","10","10","23:00","18.6","","16.4","","87","","17","","16","","","","99.59","","","","","","NA"
"2018-10-11 00:00","2018","10","11","00:00","18.2","","16.5","","90","","18","","11","","","","99.51","","","","","","NA"
"2018-10-11 01:00","2018","10","11","01:00","18.1","","17.6","","97","","20","","25","","","","99.46","","","","","","NA"
"2018-10-11 02:00","2018","10","11","02:00","18.0","","17.7","","98","","16","","21","","","","99.33","","","","","","NA"
"2018-10-11 03:00","2018","10","11","03:00","17.9","","17.6","","98","","16","","20","","","","99.21","","","","","","NA"
"2018-10-11 04:00","2018","10","11","04:00","17.8","","17.5","","98","","19","","15","","","","99.20","","","","","","NA"
"2018-10-11 05:00","2018","10","11","05:00","18.6","","17.8","","95","","19","","28","","","","99.16","","","","","","NA"
"2018-10-11 06:00","2018","10","11","06:00","19.1","","18.1","","94","","20","","25","","","","99.15","","","","","","NA"
"2018-10-11 07:00","2018","10","11","07:00","19.4","","18.5","","95","","20","","20","","","","99.14","","","","","","NA"
"2018-10-11 08:00","2018","10","11","08:00","18.7","","18.3","","98","","22","","14","","","","99.11","","","","","","NA"
"2018-10-11 09:00","2018","10","11","09:00","18.4","","17.9","","97","","20","","21","","","","99.07","","","","","","NA"
"2018-10-11 10:00","2018","10","11","10:00","20.2","","19.1","","94","","21","","16","","","","99.05","","27","","","","NA"
"2018-10-11 11:00","2018","10","11","11:00","20.9","","19.4","","91","","21","","21","","","","99.00","","28","","","","NA"
"2018-10-11 12:00","2018","10","11","12:00","21.7","","19.0","","84","","23","","23","","","","98.95","","28","","","","NA"
"2018-10-11 13:00","2018","10","11","13:00","21.5","","18.4","","82","","24","","19","","","","98.89","","28","","","","NA"
"2018-10-11 14:00","2018","10","11","14:00","21.9","","15.9","","69","","24","","28","","","","98.85","","26","","","","NA"
"2018-10-11 15:00","2018","10","11","15:00","21.1","","14.5","","66","","24","","28","","","","98.85","","25","","","","NA"
"2018-10-11 16:00","2018","10","11","16:00","19.9","","14.4","","71","","24","","25","","","","98.89","","","","","","NA"
"2018-10-11 17:00","2018","10","11","17:00","19.0","","13.3","","70","","27","","17","","","","98.95","","","","","","NA"
"2018-10-11 18:00","2018","10","11","18:00","16.3","","10.3","","68","","27","","23","","","","99.10","","","","","","NA"
"2018-10-11 19:00","2018","10","11","19:00","14.5","","8.7","","68","","28","","17","","","","99.18","","","","","","NA"
"2018-10-11 20:00","2018","10","11","20:00","14.1","","8.2","","68","","27","","17","","","","99.26","","","","","","NA"
"2018-10-11 21:00","2018","10","11","21:00","13.8","","7.3","","65","","28","","20","","","","99.29","","","","","","NA"
"2018-10-11 22:00","2018","10","11","22:00","12.9","","6.7","","66","","27","","18","","","","99.40","","","","","","NA"
"2018-10-11 23:00","2018","10","11","23:00","12.7","","6.2","","65","","26","","13","","","","99.37","","","","","","NA"
"2018-10-12 00:00","2018","10","12","00:00","12.3","","6.2","","66","","28","","16","","","","99.35","","","","","","NA"
"2018-10-12 01:00","2018","10","12","01:00","11.9","","5.9","","67","","28","","15","","","","99.40","","","","","","NA"
"2018-10-12 02:00","2018","10","12","02:00","11.0","","5.8","","70","","28","","17","","","","99.38","","","","","","NA"
"2018-10-12 03:00","2018","10","12","03:00","10.5","","4.0","","64","","28","","24","","","","99.39","","","","","","NA"
"2018-10-12 04:00","2018","10","12","04:00","9.5","","3.9","","68","","28","","15","","","","99.45","","","","","","NA"
"2018-10-12 05:00","2018","10","12","05:00","8.7","","3.4","","69","","28","","17","","","","99.52","","","","","","NA"
"2018-10-12 06:00","2018","10","12","06:00","7.3","","3.9","","79","","31","","25","","","","99.60","","","","","","NA"
"2018-10-12 07:00","2018","10","12","07:00","6.5","","3.5","","81","","29","","15","","","","99.67","","","","","","NA"
"2018-10-12 08:00","2018","10","12","08:00","8.1","","2.7","","69","","30","","19","","","","99.69","","","","","","NA"
"2018-10-12 09:00","2018","10","12","09:00","8.6","","1.5","","61","","29","","24","","","","99.66","","","","","","NA"
"2018-10-12 10:00","2018","10","12","10:00","8.9","","1.5","","60","","29","","19","","","","99.65","","","","","","NA"
"2018-10-12 11:00","2018","10","12","11:00","10.7","","3.1","","60","","26","","22","","","","99.61","","","","","","NA"
"2018-10-12 12:00","2018","10","12","12:00","9.3","","3.4","","67","","26","","21","","","","99.59","","","","","","NA"
"2018-10-12 13:00","2018","10","12","13:00","11.2","","3.5","","59","","26","","21","","","","99.53","","","","","","NA"
"2018-10-12 14:00","2018","10","12","14:00","10.2","","3.4","","63","","27","","16","","","","99.51","","","","","","NA"
"2018-10-12 15:00","2018","10","12","15:00","10.2","","3.0","","61","","26","","15","","","","99.48","","","","","","NA"
"2018-10-12 16:00","2018","10","12","16:00","9.8","","3.1","","63","","26","","24","","","","99.47","","","","","","NA"
"2018-10-12 17:00","2018","10","12","17:00","9.5","","2.4","","61","","26","","26","","","","99.49","","","","","","NA"
"2018-10-12 18:00","2018","10","12","18:00","8.5","","2.0","","64","","26","","17","","","","99.53","","","","","","NA"
"2018-10-12 19:00","2018","10","12","19:00","8.1","","2.0","","66","","27","","17","","","","99.58","","","","","","NA"
"2018-10-12 20:00","2018","10","12","20:00","7.4","","2.3","","70","","28","","16","","","","99.63","","","","","","NA"
"2018-10-12 21:00","2018","10","12","21:00","7.3","","2.2","","70","","30","","19","","","","99.65","","","","","","NA"
"2018-10-12 22:00","2018","10","12","22:00","7.1","","2.0","","70","","29","","19","","","","99.68","","","","","","NA"
"2018-10-12 23:00","2018","10","12","23:00","6.0","","3.1","","82","","29","","13","","","","99.69","","","","","","NA"
"2018-10-13 00:00","2018","10","13","00:00","6.1","","3.2","","82","","26","","10","","","","99.66","","","","","","NA"
"2018-10-13 01:00","2018","10","13","01:00","6.4","","2.9","","79","","27","","12","","","","99.67","","","","","","NA"
"2018-10-13 02:00","2018","10","13","02:00","6.2","","3.0","","80","","26","","10","","","","99.66","","","","","","NA"
"2018-10-13 03:00","2018","10","13","03:00","6.1","","2.4","","77","","27","","11","","","","99.65","","","","","","NA"
"2018-10-13 04:00","2018","10","13","04:00","6.0","","2.7","","80","","26","","12","","","","99.66","","","","","","NA"
"2018-10-13 05:00","2018","10","13","05:00","6.1","","2.3","","77","","25","","12","","","","99.72","","","","","","NA"
"2018-10-13 06:00","2018","10","13","06:00","5.8","","1.4","","73","","27","","12","","","","99.77","","","","","","NA"
"2018-10-13 07:00","2018","10","13","07:00","5.6","","2.9","","83","","28","","13","","","","99.87","","","","","","NA"
"2018-10-13 08:00","2018","10","13","08:00","5.3","","1.4","","76","","32","","17","","","","99.93","","","","","","NA"
"2018-10-13 09:00","2018","10","13","09:00","6.9","","0.6","","64","","31","","10","","","","99.96","","","","","","NA"
"2018-10-13 10:00","2018","10","13","10:00","8.0","","0.2","","58","","29","","14","","","","99.99","","","","","","NA"
"2018-10-13 11:00","2018","10","13","11:00","9.1","","1.1","","57","","28","","13","","","","100.03","","","","","","NA"
"2018-10-13 12:00","2018","10","13","12:00","9.7","","-0.1","","50","","25","","21","","","","100.02","","","","","","NA"
"2018-10-13 13:00","2018","10","13","13:00","9.1","","-0.5","","51","","27","","21","","","","100.06","","","","","","NA"
"2018-10-13 14:00","2018","10","13","14:00","9.2","","0.1","","53","","26","","23","","","","100.10","","","","","","NA"
"2018-10-13 15:00","2018","10","13","15:00","9.6","","0.3","","52","","28","","17","","","","100.12","","","","","","NA"
"2018-10-13 16:00","2018","10","13","16:00","8.9","","-0.4","","52","","27","","22","","","","100.19","","","","","","NA"
"2018-10-13 17:00","2018","10","13","17:00","8.4","","0.7","","58","","27","","16","","","","100.25","","","","","","NA"
"2018-10-13 18:00","2018","10","13","18:00","8.1","","1.1","","62","","27","","19","","","","100.32","","","","","","NA"
"2018-10-13 19:00","2018","10","13","19:00","7.1","","0.9","","64","","26","","12","","","","100.42","","","","","","NA"
"2018-10-13 20:00","2018","10","13","20:00","6.3","","1.1","","70","","27","","12","","","","100.49","","","","","","NA"
"2018-10-13 21:00","2018","10","13","21:00","5.7","","1.1","","72","","28","","11","","","","100.54","","","","","","NA"
"2018-10-13 22:00","2018","10","13","22:00","5.4","","1.3","","75","","30","","13","","","","100.57","","","","","","NA"
"2018-10-13 23:00","2018","10","13","23:00","4.8","","1.0","","76","","29","","10","","","","100.65","","","","","","NA"
"2018-10-14 00:00","2018","10","14","00:00","3.9","","0.7","","80","","30","","9","","","","100.70","","","","","","NA"
"2018-10-14 01:00","2018","10","14","01:00","3.6","","1.2","","85","","24","","4","","","","100.74","","","","","","NA"
"2018-10-14 02:00","2018","10","14","02:00","3.7","","1.6","","86","","28","","5","","","","100.79","","","","","","NA"
"2018-10-14 03:00","2018","10","14","03:00","3.1","","1.1","","87","","30","","6","","","","100.82","","","","","","NA"
"2018-10-14 04:00","2018","10","14","04:00","3.3","","1.3","","86","","30","","7","","","","100.87","","","","","","NA"
"2018-10-14 05:00","2018","10","14","05:00","3.3","","0.4","","81","","28","","8","","","","100.91","","","","","","NA"
"2018-10-14 06:00","2018","10","14","06:00","1.3","","-0.2","","90","","1","","5","","","","100.88","","","","","","NA"
"2018-10-14 07:00","2018","10","14","07:00","1.0","","0.0","","93","","2","","2","","","","100.94","","","","","","NA"
"2018-10-14 08:00","2018","10","14","08:00","4.4","","3.1","","91","","36","","2","","","","101.00","","","","","","NA"
"2018-10-14 09:00","2018","10","14","09:00","9.9","","3.2","","63","","17","","11","","","","101.00","","","","","","NA"
"2018-10-14 10:00","2018","10","14","10:00","11.0","","3.5","","60","","18","","17","","","","101.05","","","","","","NA"
"2018-10-14 11:00","2018","10","14","11:00","11.7","","4.5","","61","","19","","22","","","","101.05","","","","","","NA"
"2018-10-14 12:00","2018","10","14","12:00","11.7","","5.2","","64","","20","","23","","","","100.98","","","","","","NA"
"2018-10-14 13:00","2018","10","14","13:00","11.9","","5.0","","63","","19","","24","","","","100.93","","","","","","NA"
"2018-10-14 14:00","2018","10","14","14:00","12.4","","5.6","","63","","20","","26","","","","100.91","","","","","","NA"
"2018-10-14 15:00","2018","10","14","15:00","12.0","","5.8","","66","","19","","24","","","","100.89","","","","","","NA"
"2018-10-14 16:00","2018","10","14","16:00","12.2","","6.7","","69","","20","","21","","","","100.86","","","","","","NA"
"2018-10-14 17:00","2018","10","14","17:00","11.4","","7.0","","75","","20","","14","","","","100.84","","","","","","NA"
"2018-10-14 18:00","2018","10","14","18:00","10.6","","7.0","","78","","21","","11","","","","100.85","","","","","","NA"
"2018-10-14 19:00","2018","10","14","19:00","10.2","","6.4","","77","","22","","9","","","","100.87","","","","","","NA"
"2018-10-14 20:00","2018","10","14","20:00","8.2","","5.8","","85","","24","","2","","","","100.86","","","","","","NA"
"2018-10-14 21:00","2018","10","14","21:00","7.1","","6.2","","94","","","","0","","","","100.85","","","","","","NA"
"2018-10-14 22:00","2018","10","14","22:00","6.0","","5.5","","97","","5","","4","","","","100.83","","","","","","NA"
"2018-10-14 23:00","2018","10","14","23:00","5.5","","4.4","","93","","11","","9","","","","100.78","","","","","","NA"
"2018-10-15 00:00","2018","10","15","00:00","12.2","","8.2","","76","","17","","25","","","","100.70","","","","","","NA"
"2018-10-15 01:00","2018","10","15","01:00","11.6","","7.8","","78","","17","","24","","","","100.64","","","","","","NA"
"2018-10-15 02:00","2018","10","15","02:00","11.5","","8.2","","80","","18","","23","","","","100.60","","","","","","NA"
"2018-10-15 03:00","2018","10","15","03:00","11.1","","8.2","","83","","17","","23","","","","100.53","","","","","","NA"
"2018-10-15 04:00","2018","10","15","04:00","10.8","","8.1","","83","","17","","26","","","","100.48","","","","","","NA"
"2018-10-15 05:00","2018","10","15","05:00","10.8","","8.3","","85","","16","","24","","","","100.36","","","","","","NA"
"2018-10-15 06:00","2018","10","15","06:00","10.8","","7.8","","82","","16","","24","","","","100.31","","","","","","NA"
"2018-10-15 07:00","2018","10","15","07:00","10.6","","8.2","","85","","17","","23","","","","100.25","","","","","","NA"
"2018-10-15 08:00","2018","10","15","08:00","10.7","","8.4","","86","","17","","23","","","","100.18","","","","","","NA"
"2018-10-15 09:00","2018","10","15","09:00","11.0","","9.0","","88","","17","","26","","","","100.03","","","","","","NA"
"2018-10-15 10:00","2018","10","15","10:00","11.1","","10.3","","95","","18","","26","","","","99.92","","","","","","NA"
"2018-10-15 11:00","2018","10","15","11:00","11.6","","10.8","","95","","18","","27","","","","99.77","","","","","","NA"
"2018-10-15 12:00","2018","10","15","12:00","12.3","","11.6","","96","","20","","28","","","","99.64","","","","","","NA"
"2018-10-15 13:00","2018","10","15","13:00","13.1","","12.4","","96","","20","","31","","","","99.49","","","","","","NA"
"2018-10-15 14:00","2018","10","15","14:00","13.8","","12.9","","95","","20","","31","","","","99.41","","","","","","NA"
"2018-10-15 15:00","2018","10","15","15:00","13.6","","11.1","","85","","24","","35","","","","99.41","","","","","","NA"
"2018-10-15 16:00","2018","10","15","16:00","13.0","","10.8","","86","","25","","31","","","","99.45","","","","","","NA"
"2018-10-15 17:00","2018","10","15","17:00","13.1","","9.0","","76","","25","","36","","","","99.48","","","","","","NA"
"2018-10-15 18:00","2018","10","15","18:00","10.4","","7.4","","82","","27","","29","","","","99.69","","","","","","NA"
"2018-10-15 19:00","2018","10","15","19:00","9.2","","3.6","","68","","27","","32","","","","99.84","","","","","","NA"
"2018-10-15 20:00","2018","10","15","20:00","8.5","","1.7","","62","","26","","33","","","","99.95","","","","","","NA"
"2018-10-15 21:00","2018","10","15","21:00","6.3","","1.2","","70","","26","","33","","","","100.17","","","","","","NA"
"2018-10-15 22:00","2018","10","15","22:00","5.1","","0.4","","72","","27","","28","","","","100.33","","","","","","NA"
"2018-10-15 23:00","2018","10","15","23:00","4.3","","-0.7","","70","","26","","28","","","","100.44","","","","","","NA"
"2018-10-16 00:00","2018","10","16","00:00","4.0","","-0.2","","74","","27","","26","","","","100.47","","","","","","NA"
"2018-10-16 01:00","2018","10","16","01:00","4.6","","-1.0","","67","","27","","26","","","","100.49","","","","","","NA"
"2018-10-16 02:00","2018","10","16","02:00","4.3","","-0.6","","71","","26","","25","","","","100.51","","","","","","NA"
"2018-10-16 03:00","2018","10","16","03:00","4.3","","-0.1","","73","","26","","23","","","","100.56","","","","","","NA"
"2018-10-16 04:00","2018","10","16","04:00","4.0","","0.2","","76","","26","","18","","","","100.64","","","","","","NA"
"2018-10-16 05:00","2018","10","16","05:00","3.7","","0.5","","79","","26","","17","","","","100.70","","","","","","NA"
"2018-10-16 06:00","2018","10","16","06:00","4.0","","1.1","","81","","26","","17","","","","100.75","","","","","","NA"
"2018-10-16 07:00","2018","10","16","07:00","4.1","","1.3","","82","","26","","17","","","","100.78","","","","","","NA"
"2018-10-16 08:00","2018","10","16","08:00","5.4","","1.6","","76","","26","","17","","","","100.83","","","","","","NA"
"2018-10-16 09:00","2018","10","16","09:00","6.5","","1.5","","70","","26","","17","","","","100.82","","","","","","NA"
"2018-10-16 10:00","2018","10","16","10:00","7.2","","0.3","","62","","26","","24","","","","100.81","","","","","","NA"
"2018-10-16 11:00","2018","10","16","11:00","8.1","","-0.9","","53","","24","","25","","","","100.65","","","","","","NA"
"2018-10-16 12:00","2018","10","16","12:00","8.3","","0.5","","58","","23","","32","","","","100.57","","","","","","NA"
"2018-10-16 13:00","2018","10","16","13:00","8.5","","1.0","","59","","23","","37","","","","100.49","","","","","","NA"
"2018-10-16 14:00","2018","10","16","14:00","8.6","","1.9","","63","","23","","36","","","","100.42","","","","","","NA"
"2018-10-16 15:00","2018","10","16","15:00","8.3","","1.2","","61","","23","","33","","","","100.37","","","","","","NA"
"2018-10-16 16:00","2018","10","16","16:00","8.7","","1.2","","59","","23","","30","","","","100.31","","","","","","NA"
"2018-10-16 17:00","2018","10","16","17:00","8.4","","1.8","","63","","23","","23","","","","100.30","","","","","","NA"
"2018-10-16 18:00","2018","10","16","18:00","8.2","","2.5","","67","","21","","17","","","","100.24","","","","","","NA"
"2018-10-16 19:00","2018","10","16","19:00","8.5","","4.1","","74","","22","","14","","","","100.20","","","","","","NA"
"2018-10-16 20:00","2018","10","16","20:00","9.0","","4.8","","75","","21","","16","","","","100.13","","","","","","NA"
"2018-10-16 21:00","2018","10","16","21:00","9.9","","4.9","","71","","23","","26","","","","100.11","","","","","","NA"
"2018-10-16 22:00","2018","10","16","22:00","10.8","","5.1","","68","","24","","27","","","","100.07","","","","","","NA"
"2018-10-16 23:00","2018","10","16","23:00","10.7","","5.6","","70","","23","","21","","","","100.01","","","","","","NA"
"2018-10-17 00:00","2018","10","17","00:00","10.5","","5.2","","70","","22","","24","","","","99.94","","","","","","NA"
"2018-10-17 01:00","2018","10","17","01:00","10.5","","4.8","","68","","22","","27","","","","99.88","","","","","","NA"
"2018-10-17 02:00","2018","10","17","02:00","10.9","","4.4","","64","","23","","27","","","","99.81","","","","","","NA"
"2018-10-17 03:00","2018","10","17","03:00","11.1","","3.0","","57","","24","","34","","","","99.77","","","","","","NA"
"2018-10-17 04:00","2018","10","17","04:00","9.9","","1.9","","58","","25","","27","","","","99.75","","","","","","NA"
"2018-10-17 05:00","2018","10","17","05:00","8.8","","2.2","","63","","25","","21","","","","99.75","","","","","","NA"
"2018-10-17 06:00","2018","10","17","06:00","7.8","","2.2","","67","","27","","14","","","","99.78","","","","","","NA"
"2018-10-17 07:00","2018","10","17","07:00","7.4","","2.5","","71","","29","","20","","","","99.82","","","","","","NA"
"2018-10-17 08:00","2018","10","17","08:00","7.1","","2.8","","74","","28","","17","","","","99.87","","","","","","NA"
"2018-10-17 09:00","2018","10","17","09:00","8.0","","2.8","","69","","29","","19","","","","99.86","","","","","","NA"
"2018-10-17 10:00","2018","10","17","10:00","8.3","","2.6","","67","","30","","23","","","","99.88","","","","","","NA"
"2018-10-17 11:00","2018","10","17","11:00","8.3","","0.5","","58","","30","","17","","","","99.91","","","","","","NA"
"2018-10-17 12:00","2018","10","17","12:00","9.1","","0.1","","53","","29","","21","","","","99.92","","","","","","NA"
"2018-10-17 13:00","2018","10","17","13:00","8.6","","-0.9","","51","","28","","21","","","","99.92","","","","","","NA"
"2018-10-17 14:00","2018","10","17","14:00","8.4","","-1.4","","50","","29","","22","","","","99.97","","","","","","NA"
"2018-10-17 15:00","2018","10","17","15:00","8.2","","-3.6","","43","","27","","30","","","","100.04","","","","","","NA"
"2018-10-17 16:00","2018","10","17","16:00","8.4","","-3.6","","42","","30","","28","","","","100.13","","","","","","NA"
"2018-10-17 17:00","2018","10","17","17:00","6.7","","-6.6","","38","","28","","26","","","","100.23","","","","","","NA"
"2018-10-17 18:00","2018","10","17","18:00","6.0","","-7.3","","38","","28","","29","","","","100.39","","","","","","NA"
"2018-10-17 19:00","2018","10","17","19:00","5.2","","-5.5","","46","","29","","19","","","","100.55","","","","","","NA"
"2018-10-17 20:00","2018","10","17","20:00","2.8","","-3.5","","63","","31","","12","","","","100.70","","","","","","NA"
"2018-10-17 21:00","2018","10","17","21:00","2.3","","-4.5","","60","","32","","18","","","","100.84","","","","","","NA"
"2018-10-17 22:00","2018","10","17","22:00","1.8","","-5.6","","58","","31","","15","","","","100.91","","","","","","NA"
"2018-10-17 23:00","2018","10","17","23:00","1.2","","-6.6","","56","","30","","14","","","","100.99","","","","","","NA"
"2018-10-18 00:00","2018","10","18","00:00","0.6","","-6.6","","58","","29","","13","","","","101.09","","","","","","NA"
"2018-10-18 01:00","2018","10","18","01:00","0.0","","-6.5","","62","","28","","14","","","","101.18","","","","-4","","NA"
"2018-10-18 02:00","2018","10","18","02:00","-0.6","","-6.6","","64","","28","","15","","","","101.28","","","","-5","","NA"
"2018-10-18 03:00","2018","10","18","03:00","-0.9","","-6.6","","66","","29","","13","","","","101.38","","","","-5","","NA"
"2018-10-18 04:00","2018","10","18","04:00","-1.3","","-6.7","","67","","29","","14","","","","101.46","","","","-6","","NA"
"2018-10-18 05:00","2018","10","18","05:00","-1.5","","-6.9","","67","","30","","14","","","","101.56","","","","-6","","NA"
"2018-10-18 06:00","2018","10","18","06:00","-2.3","","-6.7","","72","","28","","13","","","","101.66","","","","-7","","NA"
"2018-10-18 07:00","2018","10","18","07:00","-2.0","","-6.8","","69","","28","","16","","","","101.75","","","","-7","","NA"
"2018-10-18 08:00","2018","10","18","08:00","-0.5","","-6.7","","63","","28","","18","","","","101.78","","","","-6","","NA"
"2018-10-18 09:00","2018","10","18","09:00","1.1","","-7.3","","54","","29","","20","","","","101.81","","","","","","NA"
"2018-10-18 10:00","2018","10","18","10:00","2.5","","-6.6","","51","","29","","17","","","","101.82","","","","","","NA"
"2018-10-18 11:00","2018","10","18","11:00","3.9","","-6.3","","47","","28","","15","","","","101.77","","","","","","NA"
"2018-10-18 12:00","2018","10","18","12:00","4.5","","-7.6","","41","","26","","17","","","","101.69","","","","","","NA"
"2018-10-18 13:00","2018","10","18","13:00","5.1","","-7.5","","40","","26","","21","","","","101.62","","","","","","NA"
"2018-10-18 14:00","2018","10","18","14:00","5.8","","-6.4","","41","","26","","23","","","","101.52","","","","","","NA"
"2018-10-18 15:00","2018","10","18","15:00","5.4","","-6.1","","43","","26","","28","","","","101.52","","","","","","NA"
"2018-10-18 16:00","2018","10","18","16:00","5.0","","-5.3","","47","","26","","24","","","","101.49","","","","","","NA"
"2018-10-18 17:00","2018","10","18","17:00","4.2","","-3.0","","59","","25","","24","","","","101.47","","","","","","NA"
"2018-10-18 18:00","2018","10","18","18:00","4.2","","-1.8","","65","","25","","23","","","","101.45","","","","","","NA"
"2018-10-18 19:00","2018","10","18","19:00","4.9","","-1.7","","62","","24","","22","","","","101.38","","","","","","NA"
"2018-10-18 20:00","2018","10","18","20:00","5.4","","-1.5","","61","","26","","22","","","","101.28","","","","","","NA"
"2018-10-18 21:00","2018","10","18","21:00","5.6","","0.3","","69","","21","","24","","","","101.18","","","","","","NA"
"2018-10-18 22:00","2018","10","18","22:00","6.7","","2.0","","72","","23","","26","","","","101.13","","","","","","NA"
"2018-10-18 23:00","2018","10","18","23:00","6.7","","0.7","","66","","25","","24","","","","101.12","","","","","","NA"
"2018-10-19 00:00","2018","10","19","00:00","7.0","","0.9","","65","","24","","28","","","","101.05","","","","","","NA"
"2018-10-19 01:00","2018","10","19","01:00","6.8","","0.6","","65","","25","","23","","","","101.02","","","","","","NA"
"2018-10-19 02:00","2018","10","19","02:00","7.5","","1.4","","65","","25","","30","","","","100.97","","","","","","NA"
"2018-10-19 03:00","2018","10","19","03:00","7.6","","1.6","","66","","24","","26","","","","100.91","","","","","","NA"
"2018-10-19 04:00","2018","10","19","04:00","7.9","","1.1","","62","","25","","29","","","","100.83","","","","","","NA"
"2018-10-19 05:00","2018","10","19","05:00","8.2","","1.7","","64","","24","","26","","","","100.80","","","","","","NA"
"2018-10-19 06:00","2018","10","19","06:00","8.4","","2.0","","64","","24","","32","","","","100.74","","","","","","NA"
"2018-10-19 07:00","2018","10","19","07:00","8.8","","3.1","","67","","24","","27","","","","100.70","","","","","","NA"
"2018-10-19 08:00","2018","10","19","08:00","9.9","","3.0","","62","","24","","32","","","","100.66","","","","","","NA"
"2018-10-19 09:00","2018","10","19","09:00","11.3","","3.7","","59","","24","","33","","","","100.60","","","","","","NA"
"2018-10-19 10:00","2018","10","19","10:00","12.0","","5.0","","62","","23","","33","","","","100.51","","","","","","NA"
"2018-10-19 11:00","2018","10","19","11:00","12.9","","6.6","","66","","23","","31","","","","100.42","","","","","","NA"
"2018-10-19 12:00","2018","10","19","12:00","13.8","","6.8","","62","","22","","36","","","","100.30","","","","","","NA"
"2018-10-19 13:00","2018","10","19","13:00","14.1","","7.2","","63","","23","","33","","","","100.22","","","","","","NA"
"2018-10-19 14:00","2018","10","19","14:00","13.9","","7.8","","67","","21","","26","","","","100.14","","","","","","NA"
"2018-10-19 15:00","2018","10","19","15:00","13.5","","7.4","","67","","23","","29","","","","100.02","","","","","","NA"
"2018-10-19 16:00","2018","10","19","16:00","13.2","","7.8","","70","","22","","29","","","","99.95","","","","","","NA"
"2018-10-19 17:00","2018","10","19","17:00","12.8","","6.3","","65","","22","","28","","","","99.87","","","","","","NA"
"2018-10-19 18:00","2018","10","19","18:00","12.7","","3.5","","53","","22","","27","","","","99.77","","","","","","NA"
"2018-10-19 19:00","2018","10","19","19:00","12.6","","3.7","","55","","23","","24","","","","99.65","","","","","","NA"
"2018-10-19 20:00","2018","10","19","20:00","13.2","","4.0","","54","","23","","26","","","","99.52","","","","","","NA"
"2018-10-19 21:00","2018","10","19","21:00","12.7","","4.7","","58","","22","","30","","","","99.42","","","","","","NA"
"2018-10-19 22:00","2018","10","19","22:00","12.0","","5.2","","63","","24","","33","","","","99.34","","","","","","NA"
"2018-10-19 23:00","2018","10","19","23:00","10.9","","5.5","","69","","22","","30","","","","99.23","","","","","","NA"
"2018-10-20 00:00","2018","10","20","00:00","12.1","","4.4","","59","","22","","38","","","","99.09","","","","","","NA"
"2018-10-20 01:00","2018","10","20","01:00","11.1","","5.8","","70","","22","","36","","","","98.99","","","","","","NA"
"2018-10-20 02:00","2018","10","20","02:00","9.9","","8.0","","88","","23","","29","","","","98.90","","","","","","NA"
"2018-10-20 03:00","2018","10","20","03:00","9.5","","8.6","","94","","22","","34","","","","98.82","","","","","","NA"
"2018-10-20 04:00","2018","10","20","04:00","10.4","","9.1","","91","","23","","36","","","","98.76","","","","","","NA"
"2018-10-20 05:00","2018","10","20","05:00","10.5","","8.4","","87","","24","","39","","","","98.76","","","","","","NA"
"2018-10-20 06:00","2018","10","20","06:00","9.7","","6.7","","81","","24","","35","","","","98.84","","","","","","NA"
"2018-10-20 07:00","2018","10","20","07:00","8.6","","6.1","","84","","25","","23","","","","98.90","","","","","","NA"
"2018-10-20 08:00","2018","10","20","08:00","9.5","","5.3","","75","","25","","27","","","","98.98","","","","","","NA"
"2018-10-20 09:00","2018","10","20","09:00","10.1","","4.6","","68","","25","","26","","","","99.03","","","","","","NA"
"2018-10-20 10:00","2018","10","20","10:00","11.2","","4.3","","63","","25","","26","","","","99.04","","","","","","NA"
"2018-10-20 11:00","2018","10","20","11:00","12.2","","3.9","","57","","24","","30","","","","99.06","","","","","","NA"
"2018-10-20 12:00","2018","10","20","12:00","12.3","","2.0","","49","","26","","29","","","","99.05","","","","","","NA"
"2018-10-20 13:00","2018","10","20","13:00","13.0","","-0.1","","40","","27","","27","","","","99.02","","","","","","NA"
"2018-10-20 14:00","2018","10","20","14:00","12.9","","-1.1","","38","","26","","26","","","","98.97","","","","","","NA"
"2018-10-20 15:00","2018","10","20","15:00","11.6","","-2.3","","38","","27","","19","","","","99.00","","","","","","NA"
"2018-10-20 16:00","2018","10","20","16:00","10.7","","-2.6","","39","","26","","16","","","","99.05","","","","","","NA"
"2018-10-20 17:00","2018","10","20","17:00","9.5","","-1.7","","45","","26","","10","","","","99.10","","","","","","NA"
"2018-10-20 18:00","2018","10","20","18:00","8.8","","-1.5","","48","","27","","11","","","","99.16","","","","","","NA"
"2018-10-20 19:00","2018","10","20","19:00","8.0","","-1.4","","51","","29","","12","","","","99.25","","","","","","NA"
"2018-10-20 20:00","2018","10","20","20:00","5.9","","-1.3","","60","","34","","15","","","","99.31","","","","","","NA"
"2018-10-20 21:00","2018","10","20","21:00","4.7","","-0.8","","67","","35","","15","","","","99.42","","","","","","NA"
"2018-10-20 22:00","2018","10","20","22:00","4.6","","-1.9","","63","","1","","14","","","","99.54","","","","","","NA"
"2018-10-20 23:00","2018","10","20","23:00","2.4","","-2.3","","71","","35","","13","","","","99.64","","","","","","NA"
"2018-10-21 00:00","2018","10","21","00:00","1.0","","-2.8","","76","","36","","11","","","","99.73","","","","","","NA"
"2018-10-21 01:00","2018","10","21","01:00","1.6","","-3.3","","70","","35","","17","","","","99.85","","","","","","NA"
"2018-10-21 02:00","2018","10","21","02:00","2.2","","-4.1","","63","","33","","22","","","","99.99","","","","","","NA"
"2018-10-21 03:00","2018","10","21","03:00","2.3","","-4.4","","61","","33","","20","","","","100.07","","","","","","NA"
"2018-10-21 04:00","2018","10","21","04:00","1.7","","-5.5","","59","","32","","23","","","","100.19","","","","","","NA"
"2018-10-21 05:00","2018","10","21","05:00","0.9","","-5.6","","62","","32","","20","","","","100.30","","","","","","NA"
"2018-10-21 06:00","2018","10","21","06:00","0.3","","-6.0","","62","","32","","18","","","","100.43","","","","","","NA"
"2018-10-21 07:00","2018","10","21","07:00","0.3","","-6.5","","61","","33","","22","","","","100.57","","","","","","NA"
"2018-10-21 08:00","2018","10","21","08:00","1.9","","-6.6","","53","","33","","21","","","","100.66","","","","","","NA"
"2018-10-21 09:00","2018","10","21","09:00","1.9","","-6.9","","52","","30","","25","","","","100.73","","","","","","NA"
"2018-10-21 10:00","2018","10","21","10:00","3.1","","-7.3","","47","","31","","23","","","","100.77","","","","","","NA"
"2018-10-21 11:00","2018","10","21","11:00","3.4","","-6.7","","48","","30","","23","","","","100.75","","","","","","NA"
"2018-10-21 12:00","2018","10","21","12:00","4.5","","-6.2","","46","","28","","20","","","","100.74","","","","","","NA"
"2018-10-21 13:00","2018","10","21","13:00","4.1","","-7.4","","43","","30","","19","","","","100.70","","","","","","NA"
"2018-10-21 14:00","2018","10","21","14:00","4.6","","-6.7","","44","","31","","20","","","","100.68","","","","","","NA"
"2018-10-21 15:00","2018","10","21","15:00","4.5","","-6.8","","44","","27","","16","","","","100.66","","","","","","NA"
"2018-10-21 16:00","2018","10","21","16:00","4.2","","-7.0","","44","","30","","17","","","","100.70","","","","","","NA"
"2018-10-21 17:00","2018","10","21","17:00","3.9","","-6.6","","46","","30","","13","","","","100.71","","","","","","NA"
"2018-10-21 18:00","2018","10","21","18:00","2.5","","-5.9","","54","","28","","9","","","","100.76","","","","","","NA"
"2018-10-21 19:00","2018","10","21","19:00","1.8","","-5.8","","57","","29","","8","","","","100.77","","","","","","NA"
"2018-10-21 20:00","2018","10","21","20:00","1.8","","-5.3","","59","","27","","10","","","","100.79","","","","","","NA"
"2018-10-21 21:00","2018","10","21","21:00","1.7","","-4.8","","62","","27","","10","","","","100.84","","","","","","NA"
"2018-10-21 22:00","2018","10","21","22:00","2.1","","-4.2","","63","","28","","10","","","","100.88","","","","","","NA"
"2018-10-21 23:00","2018","10","21","23:00","2.1","","-3.6","","66","","27","","9","","","","100.88","","","","","","NA"
"2018-10-22 00:00","2018","10","22","00:00","2.4","","-2.7","","69","","27","","10","","","","100.89","","","","","","NA"
"2018-10-22 01:00","2018","10","22","01:00","2.6","","-2.2","","71","","27","","10","","","","100.88","","","","","","NA"
"2018-10-22 02:00","2018","10","22","02:00","2.8","","-1.9","","71","","27","","11","","","","100.86","","","","","","NA"
"2018-10-22 03:00","2018","10","22","03:00","2.9","","-0.7","","77","","27","","12","","","","100.86","","","","","","NA"
"2018-10-22 04:00","2018","10","22","04:00","2.3","","-0.4","","82","","30","","6","","","","100.84","","","","","","NA"
"2018-10-22 05:00","2018","10","22","05:00","2.0","","-0.5","","84","","0","","1","","","","100.83","","","","","","NA"
"2018-10-22 06:00","2018","10","22","06:00","2.4","","0.0","","85","","31","","3","","","","100.83","","","","","","NA"
"2018-10-22 07:00","2018","10","22","07:00","2.3","","-0.1","","84","","33","","4","","","","100.83","","","","","","NA"
"2018-10-22 08:00","2018","10","22","08:00","3.8","","0.9","","81","","1","","4","","","","100.84","","","","","","NA"
"2018-10-22 09:00","2018","10","22","09:00","5.8","","0.1","","67","","7","","3","","","","100.80","","","","","","NA"
"2018-10-22 10:00","2018","10","22","10:00","6.8","","0.9","","66","","14","","8","","","","100.79","","","","","","NA"
"2018-10-22 11:00","2018","10","22","11:00","7.1","","1.5","","67","","17","","7","","","","100.78","","","","","","NA"
"2018-10-22 12:00","2018","10","22","12:00","7.5","","1.5","","66","","15","","8","","","","100.70","","","","","","NA"
"2018-10-22 13:00","2018","10","22","13:00","7.5","","2.4","","70","","14","","6","","","","100.66","","","","","","NA"
"2018-10-22 14:00","2018","10","22","14:00","7.7","","3.3","","74","","12","","3","","","","100.61","","","","","","NA"
"2018-10-22 15:00","2018","10","22","15:00","7.9","","4.1","","77","","21","","16","","","","100.58","","","","","","NA"
"2018-10-22 16:00","2018","10","22","16:00","8.2","","4.2","","76","","24","","15","","","","100.60","","","","","","NA"
"2018-10-22 17:00","2018","10","22","17:00","6.6","","4.2","","85","","36","","3","","","","100.61","","","","","","NA"
"2018-10-22 18:00","2018","10","22","18:00","6.2","","5.1","","93","","5","","7","","","","100.63","","","","","","NA"
"2018-10-22 19:00","2018","10","22","19:00","5.7","","4.7","","93","","8","","7","","","","100.66","","","","","","NA"
"2018-10-22 20:00","2018","10","22","20:00","5.7","","4.7","","93","","6","","8","","","","100.70","","","","","","NA"
"2018-10-22 21:00","2018","10","22","21:00","5.5","","4.7","","95","","5","","7","","","","100.68","","","","","","NA"
"2018-10-22 22:00","2018","10","22","22:00","4.7","","4.0","","95","","2","","5","","","","100.66","","","","","","NA"
"2018-10-22 23:00","2018","10","22","23:00","4.0","","3.5","","97","","4","","8","","","","100.61","","","","","","NA"
"2018-10-23 00:00","2018","10","23","00:00","3.4","","2.8","","96","","6","","9","","","","100.57","","","","","","NA"
"2018-10-23 01:00","2018","10","23","01:00","5.9","","4.9","","93","","5","","10","","","","100.52","","","","","","NA"
"2018-10-23 02:00","2018","10","23","02:00","6.6","","5.1","","91","","8","","11","","","","100.48","","","","","","NA"
"2018-10-23 03:00","2018","10","23","03:00","6.3","","4.6","","89","","6","","9","","","","100.46","","","","","","NA"
"2018-10-23 04:00","2018","10","23","04:00","5.5","","4.0","","90","","6","","9","","","","100.45","","","","","","NA"
"2018-10-23 05:00","2018","10","23","05:00","4.1","","3.1","","93","","6","","12","","","","100.42","","","","","","NA"
"2018-10-23 06:00","2018","10","23","06:00","4.1","","3.2","","94","","5","","11","","","","100.37","","","","","","NA"
"2018-10-23 07:00","2018","10","23","07:00","4.3","","3.1","","92","","5","","12","","","","100.40","","","","","","NA"
"2018-10-23 08:00","2018","10","23","08:00","4.1","","3.0","","93","","6","","11","","","","100.35","","","","","","NA"
"2018-10-23 09:00","2018","10","23","09:00","6.0","","3.8","","86","","4","","14","","","","100.29","","","","","","NA"
"2018-10-23 10:00","2018","10","23","10:00","7.4","","3.8","","78","","6","","6","","","","100.30","","","","","","NA"
"2018-10-23 11:00","2018","10","23","11:00","8.4","","3.8","","73","","5","","10","","","","100.27","","","","","","NA"
"2018-10-23 12:00","2018","10","23","12:00","8.8","","3.4","","69","","8","","6","","","","100.23","","","","","","NA"
"2018-10-23 13:00","2018","10","23","13:00","9.3","","3.7","","68","","6","","5","","","","100.19","","","","","","NA"
"2018-10-23 14:00","2018","10","23","14:00","9.7","","2.6","","61","","31","","4","","","","100.20","","","","","","NA"
"2018-10-23 15:00","2018","10","23","15:00","9.8","","2.8","","62","","25","","5","","","","100.22","","","","","","NA"
"2018-10-23 16:00","2018","10","23","16:00","9.7","","3.6","","65","","26","","7","","","","100.26","","","","","","NA"
"2018-10-23 17:00","2018","10","23","17:00","8.5","","4.5","","76","","27","","10","","","","100.31","","","","","","NA"
"2018-10-23 18:00","2018","10","23","18:00","7.5","","4.2","","79","","30","","11","","","","100.35","","","","","","NA"
"2018-10-23 19:00","2018","10","23","19:00","7.1","","4.3","","82","","33","","12","","","","100.40","","","","","","NA"
"2018-10-23 20:00","2018","10","23","20:00","6.7","","4.1","","84","","33","","10","","","","100.44","","","","","","NA"
"2018-10-23 21:00","2018","10","23","21:00","6.9","","3.5","","79","","3","","11","","","","100.46","","","","","","NA"
"2018-10-23 22:00","2018","10","23","22:00","6.1","","3.2","","82","","5","","11","","","","100.48","","","","","","NA"
"2018-10-23 23:00","2018","10","23","23:00","5.8","","3.3","","84","","4","","8","","","","100.50","","","","","","NA"
"2018-10-24 00:00","2018","10","24","00:00","5.1","","2.7","","85","","36","","8","","","","100.51","","","","","","NA"
"2018-10-24 01:00","2018","10","24","01:00","5.1","","2.8","","85","","35","","9","","","","100.56","","","","","","NA"
"2018-10-24 02:00","2018","10","24","02:00","4.4","","1.0","","79","","1","","10","","","","100.62","","","","","","NA"
"2018-10-24 03:00","2018","10","24","03:00","3.3","","-0.7","","75","","2","","9","","","","100.69","","","","","","NA"
"2018-10-24 04:00","2018","10","24","04:00","1.9","","-0.1","","87","","35","","13","","","","100.77","","","","","","NA"
"2018-10-24 05:00","2018","10","24","05:00","3.0","","0.0","","81","","35","","11","","","","100.84","","","","","","NA"
"2018-10-24 06:00","2018","10","24","06:00","2.9","","0.0","","81","","33","","9","","","","100.89","","","","","","NA"
"2018-10-24 07:00","2018","10","24","07:00","3.6","","1.3","","85","","35","","8","","","","100.98","","","","","","NA"
"2018-10-24 08:00","2018","10","24","08:00","4.6","","2.1","","84","","31","","13","","","","101.01","","","","","","NA"
"2018-10-24 09:00","2018","10","24","09:00","5.4","","2.4","","81","","34","","17","","","","101.09","","","","","","NA"
"2018-10-24 10:00","2018","10","24","10:00","6.1","","1.9","","75","","33","","20","","","","101.14","","","","","","NA"
"2018-10-24 11:00","2018","10","24","11:00","6.8","","2.1","","72","","33","","18","","","","101.15","","","","","","NA"
"2018-10-24 12:00","2018","10","24","12:00","7.5","","1.6","","66","","33","","16","","","","101.15","","","","","","NA"
"2018-10-24 13:00","2018","10","24","13:00","7.9","","1.8","","65","","32","","15","","","","101.13","","","","","","NA"
"2018-10-24 14:00","2018","10","24","14:00","8.0","","1.7","","64","","32","","15","","","","101.11","","","","","","NA"
"2018-10-24 15:00","2018","10","24","15:00","7.1","","1.2","","66","","31","","19","","","","101.14","","","","","","NA"
"2018-10-24 16:00","2018","10","24","16:00","6.6","","0.5","","65","","32","","20","","","","101.14","","","","","","NA"
"2018-10-24 17:00","2018","10","24","17:00","5.7","","0.0","","67","","34","","17","","","","101.17","","","","","","NA"
"2018-10-24 18:00","2018","10","24","18:00","5.5","","-0.1","","67","","31","","10","","","","101.20","","","","","","NA"
"2018-10-24 19:00","2018","10","24","19:00","5.2","","-1.1","","64","","32","","13","","","","101.20","","","","","","NA"
"2018-10-24 20:00","2018","10","24","20:00","4.6","","-1.7","","63","","34","","22","","","","101.23","","","","","","NA"
"2018-10-24 21:00","2018","10","24","21:00","4.0","","-1.9","","66","","34","","18","","","","101.27","","","","","","NA"
"2018-10-24 22:00","2018","10","24","22:00","3.3","","-2.7","","65","","34","","16","","","","101.29","","","","","","NA"
"2018-10-24 23:00","2018","10","24","23:00","2.8","","-3.2","","65","","31","","14","","","","101.27","","","","","","NA"
"2018-10-25 00:00","2018","10","25","00:00","2.1","","-3.8","","65","","32","","17","","","","101.28","","","","","","NA"
"2018-10-25 01:00","2018","10","25","01:00","1.4","","-4.0","","67","","32","","15","","","","101.22","","","","","","NA"
"2018-10-25 02:00","2018","10","25","02:00","1.1","","-4.4","","67","","30","","14","","","","101.20","","","","","","NA"
"2018-10-25 03:00","2018","10","25","03:00","0.9","","-4.3","","68","","32","","10","","","","101.15","","","","","","NA"
"2018-10-25 04:00","2018","10","25","04:00","0.8","","-3.9","","71","","33","","8","","","","101.17","","","","","","NA"
"2018-10-25 05:00","2018","10","25","05:00","0.9","","-3.8","","71","","33","","6","","","","101.14","","","","","","NA"
"2018-10-25 06:00","2018","10","25","06:00","0.8","","-3.6","","73","","33","","7","","","","101.15","","","","","","NA"
"2018-10-25 07:00","2018","10","25","07:00","0.8","","-3.5","","73","","33","","7","","","","101.16","","","","","","NA"
"2018-10-25 08:00","2018","10","25","08:00","1.2","","-3.4","","72","","32","","6","","","","101.16","","","","","","NA"
"2018-10-25 09:00","2018","10","25","09:00","1.7","","-4.2","","65","","35","","18","","","","101.17","","","","","","NA"
"2018-10-25 10:00","2018","10","25","10:00","2.6","","-4.3","","60","","33","","19","","","","101.15","","","","","","NA"
"2018-10-25 11:00","2018","10","25","11:00","3.6","","-4.1","","57","","32","","17","","","","101.12","","","","","","NA"
"2018-10-25 12:00","2018","10","25","12:00","5.3","","-3.4","","54","","31","","16","","","","101.02","","","","","","NA"
"2018-10-25 13:00","2018","10","25","13:00","5.0","","-5.2","","48","","32","","16","","","","100.93","","","","","","NA"
"2018-10-25 14:00","2018","10","25","14:00","5.3","","-5.1","","47","","32","","15","","","","100.88","","","","","","NA"
"2018-10-25 15:00","2018","10","25","15:00","6.0","","-4.7","","46","","31","","15","","","","100.86","","","","","","NA"
"2018-10-25 16:00","2018","10","25","16:00","5.4","","-4.4","","49","","33","","14","","","","100.84","","","","","","NA"
"2018-10-25 17:00","2018","10","25","17:00","4.2","","-4.1","","55","","29","","8","","","","100.86","","","","","","NA"
"2018-10-25 18:00","2018","10","25","18:00","4.3","","-3.7","","56","","29","","6","","","","100.89","","","","","","NA"
"2018-10-25 19:00","2018","10","25","19:00","3.5","","-3.2","","61","","2","","7","","","","100.87","","","","","","NA"
"2018-10-25 20:00","2018","10","25","20:00","2.3","","-4.4","","61","","4","","7","","","","100.88","","","","","","NA"
"2018-10-25 21:00","2018","10","25","21:00","0.8","","-4.4","","68","","0","","1","","","","100.91","","","","","","NA"
"2018-10-25 22:00","2018","10","25","22:00","-0.1","","-2.5","","84","","3","","4","","","","100.90","","","","-1","","NA"
"2018-10-25 23:00","2018","10","25","23:00","-0.1","","-2.3","","85","","5","","6","","","","100.87","","","","-2","","NA"
"2018-10-26 00:00","2018","10","26","00:00","0.2","","-2.5","","82","","3","","6","","","","100.88","","","","","","NA"
"2018-10-26 01:00","2018","10","26","01:00","0.2","","-1.5","","88","","1","","4","","","","100.89","","","","","","NA"
"2018-10-26 02:00","2018","10","26","02:00","1.3","","-2.2","","78","","7","","6","","","","100.86","","","","","","NA"
"2018-10-26 03:00","2018","10","26","03:00","1.4","","-2.6","","75","","5","","11","","","","100.84","","","","","","NA"
"2018-10-26 04:00","2018","10","26","04:00","1.3","","-3.1","","73","","5","","10","","","","100.84","","","","","","NA"
"2018-10-26 05:00","2018","10","26","05:00","0.0","","-3.5","","77","","5","","8","","","","100.87","","","","-3","","NA"
"2018-10-26 06:00","2018","10","26","06:00","0.0","","-3.0","","80","","5","","10","","","","100.88","","","","-3","","NA"
"2018-10-26 07:00","2018","10","26","07:00","0.7","","-3.6","","73","","6","","11","","","","100.88","","","","","","NA"
"2018-10-26 08:00","2018","10","26","08:00","1.4","","-3.9","","68","","6","","11","","","","100.93","","","","","","NA"
"2018-10-26 09:00","2018","10","26","09:00","2.0","","-4.8","","60","","7","","16","","","","100.96","","","","","","NA"
"2018-10-26 10:00","2018","10","26","10:00","3.1","","-4.3","","59","","7","","10","","","","100.98","","","","","","NA"
"2018-10-26 11:00","2018","10","26","11:00","3.3","","-3.9","","59","","9","","12","","","","100.96","","","","","","NA"
"2018-10-26 12:00","2018","10","26","12:00","3.6","","-4.3","","56","","12","","9","","","","100.93","","","","","","NA"
"2018-10-26 13:00","2018","10","26","13:00","3.8","","-4.6","","54","","10","","9","","","","100.87","","","","","","NA"
"2018-10-26 14:00","2018","10","26","14:00","4.4","","-4.1","","54","","6","","8","","","","100.81","","","","","","NA"
"2018-10-26 15:00","2018","10","26","15:00","4.2","","-3.9","","56","","7","","7","","","","100.77","","","","","","NA"
"2018-10-26 16:00","2018","10","26","16:00","4.2","","-3.0","","59","","8","","9","","","","100.73","","","","","","NA"
"2018-10-26 17:00","2018","10","26","17:00","4.0","","-2.4","","63","","6","","11","","","","100.72","","","","","","NA"
"2018-10-26 18:00","2018","10","26","18:00","4.0","","-3.2","","59","","5","","11","","","","100.72","","","","","","NA"
"2018-10-26 19:00","2018","10","26","19:00","3.2","","-2.6","","66","","5","","11","","","","100.72","","","","","","NA"
"2018-10-26 20:00","2018","10","26","20:00","3.3","","-2.8","","64","","5","","14","","","","100.68","","","","","","NA"
"2018-10-26 21:00","2018","10","26","21:00","3.2","","-3.0","","64","","5","","12","","","","100.69","","","","","","NA"
"2018-10-26 22:00","2018","10","26","22:00","3.0","","-3.2","","63","","5","","16","","","","100.65","","","","","","NA"
"2018-10-26 23:00","2018","10","26","23:00","2.9","","-3.7","","62","","6","","18","","","","100.64","","","","","","NA"
"2018-10-27 00:00","2018","10","27","00:00","2.7","","-4.8","","58","","5","","17","","","","100.64","","","","","","NA"
"2018-10-27 01:00","2018","10","27","01:00","2.8","","-5.7","","54","","4","","21","","","","100.60","","","","","","NA"
"2018-10-27 02:00","2018","10","27","02:00","2.8","","-5.9","","53","","5","","20","","","","100.55","","","","","","NA"
"2018-10-27 03:00","2018","10","27","03:00","2.7","","-5.7","","54","","4","","23","","","","100.45","","","","","","NA"
"2018-10-27 04:00","2018","10","27","04:00","2.4","","-5.5","","56","","5","","21","","","","100.42","","","","","","NA"
"2018-10-27 05:00","2018","10","27","05:00","2.6","","-5.0","","57","","5","","21","","","","100.47","","","","","","NA"
"2018-10-27 06:00","2018","10","27","06:00","2.3","","-4.7","","60","","4","","22","","","","100.40","","","","","","NA"
"2018-10-27 07:00","2018","10","27","07:00","2.4","","-4.6","","60","","4","","20","","","","100.37","","","","","","NA"
"2018-10-27 08:00","2018","10","27","08:00","2.9","","-4.5","","58","","4","","20","","","","100.36","","","","","","NA"
"2018-10-27 09:00","2018","10","27","09:00","3.6","","-5.1","","53","","5","","23","","","","100.37","","","","","","NA"
"2018-10-27 10:00","2018","10","27","10:00","4.2","","-5.4","","50","","4","","23","","","","100.37","","","","","","NA"
"2018-10-27 11:00","2018","10","27","11:00","4.5","","-4.7","","51","","4","","24","","","","100.32","","","","","","NA"
"2018-10-27 12:00","2018","10","27","12:00","4.8","","-3.9","","53","","4","","27","","","","100.21","","","","","","NA"
"2018-10-27 13:00","2018","10","27","13:00","4.2","","-4.0","","55","","3","","27","","","","100.13","","","","","","NA"
"2018-10-27 14:00","2018","10","27","14:00","3.3","","-1.1","","73","","4","","17","","","","100.11","","","","","","NA"
"2018-10-27 15:00","2018","10","27","15:00","2.5","","-0.1","","83","","3","","21","","","","100.07","","","","","","NA"
"2018-10-27 16:00","2018","10","27","16:00","2.2","","0.4","","88","","3","","23","","","","100.01","","","","","","NA"
"2018-10-27 17:00","2018","10","27","17:00","1.7","","0.4","","91","","3","","23","","","","99.99","","","","","","NA"
"2018-10-27 18:00","2018","10","27","18:00","1.3","","0.2","","92","","4","","29","","","","99.93","","","","","","NA"
"2018-10-27 19:00","2018","10","27","19:00","1.5","","0.3","","92","","4","","27","","","","99.92","","","","","","NA"
"2018-10-27 20:00","2018","10","27","20:00","1.4","","0.3","","92","","3","","24","","","","99.89","","","","","","NA"
"2018-10-27 21:00","2018","10","27","21:00","1.3","","0.1","","92","","3","","27","","","","99.79","","","","","","NA"
"2018-10-27 22:00","2018","10","27","22:00","1.2","","0.0","","92","","3","","24","","","","99.76","","","","","","NA"
"2018-10-27 23:00","2018","10","27","23:00","1.1","","0.1","","93","","3","","21","","","","99.67","","","","","","NA"
"2018-10-28 00:00","2018","10","28","00:00","1.3","","0.1","","92","","3","","21","","","","99.64","","","","","","NA"
"2018-10-28 01:00","2018","10","28","01:00","1.1","","0.2","","93","","3","","21","","","","99.56","","","","","","NA"
"2018-10-28 02:00","2018","10","28","02:00","1.1","","0.2","","94","","4","","17","","","","99.53","","","","","","NA"
"2018-10-28 03:00","2018","10","28","03:00","0.8","","0.1","","95","","3","","13","","","","99.49","","","","","","NA"
"2018-10-28 04:00","2018","10","28","04:00","0.7","","0.1","","96","","3","","12","","","","99.44","","","","","","NA"
"2018-10-28 05:00","2018","10","28","05:00","0.9","","0.1","","95","","2","","10","","","","99.45","","","","","","NA"
"2018-10-28 06:00","2018","10","28","06:00","0.3","","-0.2","","96","","34","","8","","","","99.47","","","","","","NA"
"2018-10-28 07:00","2018","10","28","07:00","0.3","","-0.1","","97","","35","","11","","","","99.46","","","","","","NA"
"2018-10-28 08:00","2018","10","28","08:00","1.2","","0.6","","96","","34","","8","","","","99.49","","","","","","NA"
"2018-10-28 09:00","2018","10","28","09:00","1.5","","0.7","","94","","32","","7","","","","99.50","","","","","","NA"
"2018-10-28 10:00","2018","10","28","10:00","2.0","","0.7","","91","","29","","8","","","","99.48","","","","","","NA"
"2018-10-28 11:00","2018","10","28","11:00","3.1","","1.2","","87","","26","","9","","","","99.47","","","","","","NA"
"2018-10-28 12:00","2018","10","28","12:00","4.0","","1.2","","82","","25","","13","","","","99.46","","","","","","NA"
"2018-10-28 13:00","2018","10","28","13:00","3.4","","1.3","","86","","26","","15","","","","99.44","","","","","","NA"
"2018-10-28 14:00","2018","10","28","14:00","4.4","","1.8","","84","","26","","14","","","","99.38","","","","","","NA"
"2018-10-28 15:00","2018","10","28","15:00","4.2","","2.1","","87","","26","","11","","","","99.36","","","","","","NA"
"2018-10-28 16:00","2018","10","28","16:00","4.2","","2.3","","88","","28","","4","","","","99.36","","","","","","NA"
"2018-10-28 17:00","2018","10","28","17:00","3.9","","2.6","","91","","32","","3","","","","99.36","","","","","","NA"
"2018-10-28 18:00","2018","10","28","18:00","3.7","","2.9","","94","","32","","4","","","","99.39","","","","","","NA"
"2018-10-28 19:00","2018","10","28","19:00","3.6","","2.7","","94","","34","","4","","","","99.38","","","","","","NA"
"2018-10-28 20:00","2018","10","28","20:00","3.7","","2.9","","95","","34","","4","","","","99.36","","","","","","NA"
"2018-10-28 21:00","2018","10","28","21:00","3.5","","2.7","","95","","34","","5","","","","99.36","","","","","","NA"
"2018-10-28 22:00","2018","10","28","22:00","3.7","","3.0","","95","","3","","4","","","","99.35","","","","","","NA"
"2018-10-28 23:00","2018","10","28","23:00","3.4","","2.9","","96","","4","","4","","","","99.30","","","","","","NA"
"2018-10-29 00:00","2018","10","29","00:00","3.6","","2.9","","95","","4","","3","","","","99.28","","","","","","NA"
"2018-10-29 01:00","2018","10","29","01:00","3.8","","3.0","","95","","4","","4","","","","99.26","","","","","","NA"
"2018-10-29 02:00","2018","10","29","02:00","3.8","","3.0","","94","","2","","4","","","","99.27","","","","","","NA"
"2018-10-29 03:00","2018","10","29","03:00","3.9","","3.1","","95","","6","","5","","","","99.26","","","","","","NA"
"2018-10-29 04:00","2018","10","29","04:00","3.8","","3.2","","96","","34","","6","","","","99.29","","","","","","NA"
"2018-10-29 05:00","2018","10","29","05:00","3.7","","3.2","","97","","33","","6","","","","99.35","","","","","","NA"
"2018-10-29 06:00","2018","10","29","06:00","4.0","","3.2","","94","","31","","9","","","","99.39","","","","","","NA"
"2018-10-29 07:00","2018","10","29","07:00","4.1","","3.1","","93","","31","","7","","","","99.43","","","","","","NA"
"2018-10-29 08:00","2018","10","29","08:00","4.3","","3.2","","93","","26","","9","","","","99.51","","","","","","NA"
"2018-10-29 09:00","2018","10","29","09:00","4.9","","3.3","","90","","26","","10","","","","99.54","","","","","","NA"
"2018-10-29 10:00","2018","10","29","10:00","5.3","","3.2","","86","","27","","14","","","","99.57","","","","","","NA"
"2018-10-29 11:00","2018","10","29","11:00","6.2","","3.4","","82","","27","","16","","","","99.58","","","","","","NA"
"2018-10-29 12:00","2018","10","29","12:00","5.4","","3.1","","86","","29","","17","","","","99.59","","","","","","NA"
"2018-10-29 13:00","2018","10","29","13:00","6.1","","2.1","","76","","26","","16","","","","99.59","","","","","","NA"
"2018-10-29 14:00","2018","10","29","14:00","6.5","","2.2","","74","","28","","19","","","","99.62","","","","","","NA"
"2018-10-29 15:00","2018","10","29","15:00","5.1","","2.1","","81","","28","","21","","","","99.68","","","","","","NA"
"2018-10-29 16:00","2018","10","29","16:00","4.5","","1.4","","80","","28","","20","","","","99.77","","","","","","NA"
"2018-10-29 17:00","2018","10","29","17:00","3.4","","0.4","","81","","28","","19","","","","99.88","","","","","","NA"
"2018-10-29 18:00","2018","10","29","18:00","3.0","","-0.2","","79","","28","","16","","","","99.98","","","","","","NA"
"2018-10-29 19:00","2018","10","29","19:00","3.0","","-0.4","","79","","27","","15","","","","100.07","","","","","","NA"
"2018-10-29 20:00","2018","10","29","20:00","3.0","","-0.8","","76","","28","","14","","","","100.14","","","","","","NA"
"2018-10-29 21:00","2018","10","29","21:00","1.9","","-1.2","","80","","30","","10","","","","100.17","","","","","","NA"
"2018-10-29 22:00","2018","10","29","22:00","0.9","","-1.7","","83","","29","","9","","","","100.21","","","","","","NA"
"2018-10-29 23:00","2018","10","29","23:00","0.6","","-1.9","","84","","28","","11","","","","100.25","","","","","","NA"
"2018-10-30 00:00","2018","10","30","00:00","0.3","","-1.9","","85","","26","","12","","","","100.30","","","","","","NA"
"2018-10-30 01:00","2018","10","30","01:00","-0.1","","-1.9","","88","","27","","11","","","","100.33","","","","-4","","NA"
"2018-10-30 02:00","2018","10","30","02:00","-0.2","","-2.3","","85","","28","","13","","","","100.40","","","","-4","","NA"
"2018-10-30 03:00","2018","10","30","03:00","-0.3","","-2.3","","87","","27","","11","","","","100.42","","","","-4","","NA"
"2018-10-30 04:00","2018","10","30","04:00","-0.1","","-2.1","","86","","27","","14","","","","100.47","","","","-4","","NA"
"2018-10-30 05:00","2018","10","30","05:00","-0.3","","-2.3","","87","","28","","14","","","","100.53","","","","-5","","NA"
"2018-10-30 06:00","2018","10","30","06:00","-1.1","","-2.7","","89","","28","","10","","","","100.59","","","","-5","","NA"
"2018-10-30 07:00","2018","10","30","07:00","-0.9","","-2.2","","91","","29","","10","","","","100.66","","","","-4","","NA"
"2018-10-30 08:00","2018","10","30","08:00","0.2","","-1.8","","86","","29","","12","","","","100.70","","","","","","NA"
"2018-10-30 09:00","2018","10","30","09:00","1.8","","-1.5","","79","","29","","12","","","","100.74","","","","","","NA"
"2018-10-30 10:00","2018","10","30","10:00","2.7","","-2.2","","70","","30","","7","","","","100.75","","","","","","NA"
"2018-10-30 11:00","2018","10","30","11:00","3.4","","-2.0","","68","","31","","6","","","","100.76","","","","","","NA"
"2018-10-30 12:00","2018","10","30","12:00","5.0","","-0.2","","69","","22","","12","","","","100.74","","","","","","NA"
"2018-10-30 13:00","2018","10","30","13:00","5.7","","-1.0","","62","","27","","13","","","","100.73","","","","","","NA"
"2018-10-30 14:00","2018","10","30","14:00","6.6","","-1.4","","56","","24","","10","","","","100.72","","","","","","NA"
"2018-10-30 15:00","2018","10","30","15:00","7.3","","-1.1","","55","","22","","15","","","","100.76","","","","","","NA"
"2018-10-30 16:00","2018","10","30","16:00","7.8","","-1.8","","50","","24","","9","","","","100.74","","","","","","NA"
"2018-10-30 17:00","2018","10","30","17:00","6.2","","-0.9","","60","","20","","12","","","","100.73","","","","","","NA"
"2018-10-30 18:00","2018","10","30","18:00","5.9","","-0.4","","64","","21","","9","","","","100.76","","","","","","NA"
"2018-10-30 19:00","2018","10","30","19:00","5.3","","1.8","","78","","22","","11","","","","100.77","","","","","","NA"
"2018-10-30 20:00","2018","10","30","20:00","3.4","","1.5","","88","","23","","3","","","","100.73","","","","","","NA"
"2018-10-30 21:00","2018","10","30","21:00","0.9","","-0.5","","90","","0","","1","","","","100.69","","","","","","NA"
"2018-10-30 22:00","2018","10","30","22:00","0.1","","-1.0","","93","","7","","5","","","","100.67","","","","","","NA"
"2018-10-30 23:00","2018","10","30","23:00","0.1","","-0.7","","94","","14","","1","","","","100.65","","","","","","NA"
"2018-10-31 00:00","2018","10","31","00:00","8.1","","2.7","","69","","17","","13","","","","100.59","","","","","","NA"
"2018-10-31 01:00","2018","10","31","01:00","8.1","","4.4","","77","","18","","21","","","","100.58","","","","","","NA"
"2018-10-31 02:00","2018","10","31","02:00","8.2","","3.4","","72","","15","","23","","","","100.50","","","","","","NA"
"2018-10-31 03:00","2018","10","31","03:00","8.0","","4.1","","76","","15","","21","","","","100.47","","","","","","NA"
"2018-10-31 04:00","2018","10","31","04:00","8.0","","4.1","","76","","12","","14","","","","100.36","","","","","","NA"
"2018-10-31 05:00","2018","10","31","05:00","6.3","","2.5","","77","","8","","13","","","","100.24","","","","","","NA"
"2018-10-31 06:00","2018","10","31","06:00","5.8","","2.0","","77","","9","","11","","","","100.18","","","","","","NA"
"2018-10-31 07:00","2018","10","31","07:00","5.8","","3.8","","87","","12","","10","","","","100.07","","","","","","NA"
"2018-10-31 08:00","2018","10","31","08:00","8.3","","5.7","","84","","16","","32","","","","99.98","","","","","","NA"
"2018-10-31 09:00","2018","10","31","09:00","8.6","","7.0","","89","","17","","27","","","","99.86","","","","","","NA"
"2018-10-31 10:00","2018","10","31","10:00","9.3","","7.0","","86","","17","","26","","","","99.78","","","","","","NA"
"2018-10-31 11:00","2018","10","31","11:00","10.1","","7.2","","82","","17","","25","","","","99.68","","","","","","NA"
"2018-10-31 12:00","2018","10","31","12:00","10.5","","8.6","","89","","18","","24","","","","99.54","","","","","","NA"
"2018-10-31 13:00","2018","10","31","13:00","11.4","","9.6","","89","","20","","21","","","","99.51","","","","","","NA"
"2018-10-31 14:00","2018","10","31","14:00","11.1","","9.9","","93","","20","","18","","","","99.52","","","","","","NA"
"2018-10-31 15:00","2018","10","31","15:00","11.3","","10.8","","97","","20","","20","","","","99.55","","","","","","NA"
"2018-10-31 16:00","2018","10","31","16:00","11.9","","11.4","","97","","22","","14","","","","99.57","","","","","","NA"
"2018-10-31 17:00","2018","10","31","17:00","11.8","","11.3","","97","","25","","11","","","","99.65","","","","","","NA"
"2018-10-31 18:00","2018","10","31","18:00","11.6","","11.0","","96","","27","","9","","","","99.76","","","","","","NA"
"2018-10-31 19:00","2018","10","31","19:00","11.3","","10.7","","96","","24","","8","","","","99.80","","","","","","NA"
"2018-10-31 20:00","2018","10","31","20:00","11.2","","10.4","","95","","27","","9","","","","99.84","","","","","","NA"
"2018-10-31 21:00","2018","10","31","21:00","10.4","","9.3","","93","","26","","12","","","","99.96","","","","","","NA"
"2018-10-31 22:00","2018","10","31","22:00","9.2","","8.1","","93","","28","","12","","","","99.98","","","","","","NA"
"2018-10-31 23:00","2018","10","31","23:00","8.8","","7.5","","91","","27","","12","","","","99.99","","","","","","NA"
