"Station Name","KINGSTON CLIMATE"
"Province","ONTARIO"
"Latitude","44.22"
"Longitude","-76.60"
"Elevation","93.00"
"Climate Identifier","6104142"
"WMO Identifier","71820"
"TC Identifier","TKG"
"All times are specified in Local Standard Time (LST). Add 1 hour to adjust for Daylight Saving Time where and when it is observed."

"Legend"
"E","Estimated"
"M","Missing"
"NA","Not Available"

"Date/Time","Year","Month","Day","Time","Temp (°C)","Temp Flag","Dew Point Temp (°C)","Dew Point Temp Flag","Rel Hum (%)","Rel Hum Flag","Wind Dir (10s deg)","Wind Dir Flag","Wind Spd (km/h)","Wind Spd Flag","Visibility (km)","Visibility Flag","Stn Press (kPa)","Stn Press Flag","Hmdx","Hmdx Flag","Wind Chill","Wind Chill Flag","Weather"
"2016-06-01 00:00","2016","06","01","00:00","12.0","","5.2","","63","","1","","14","","","","100.87","","","","","","NA"
"2016-06-01 01:00","2016","06","01","01:00","11.5","","5.4","","66","","1","","13","","","","100.88","","","","","","NA"
"2016-06-01 02:00","2016","06","01","02:00","10.6","","5.7","","72","","1","","11","","","","100.88","","","","","","NA"
"2016-06-01 03:00","2016","06","01","03:00","10.2","","6.1","","76","","36","","12","","","","100.86","","","","","","NA"
"2016-06-01 04:00","2016","06","01","04:00","8.3","","5.8","","84","","36","","10","","","","100.92","","","","","","NA"
"2016-06-01 05:00","2016","06","01","05:00","9.8","","6.8","","81","","36","","9","","","","100.99","","","","","","NA"
"2016-06-01 06:00","2016","06","01","06:00","12.5","","7.9","","74","","3","","13","","","","101.02","","","","","","NA"
"2016-06-01 07:00","2016","06","01","07:00","14.6","","8.4","","66","","3","","15","","","","101.04","","","","","","NA"
"2016-06-01 08:00","2016","06","01","08:00","15.9","","8.9","","63","","6","","18","","","","101.02","","","","","","NA"
"2016-06-01 09:00","2016","06","01","09:00","16.5","","9.3","","62","","4","","11","","","","101.02","","","","","","NA"
"2016-06-01 10:00","2016","06","01","10:00","18.3","","9.9","","58","","2","","11","","","","100.97","","","","","","NA"
"2016-06-01 11:00","2016","06","01","11:00","18.6","","10.7","","60","","13","","15","","","","100.95","","","","","","NA"
"2016-06-01 12:00","2016","06","01","12:00","20.1","","11.2","","57","","13","","17","","","","100.91","","","","","","NA"
"2016-06-01 13:00","2016","06","01","13:00","20.2","","11.1","","56","","15","","16","","","","100.86","","","","","","NA"
"2016-06-01 14:00","2016","06","01","14:00","20.3","","11.6","","57","","18","","11","","","","100.81","","","","","","NA"
"2016-06-01 15:00","2016","06","01","15:00","21.1","","10.8","","52","","17","","9","","","","100.77","","","","","","NA"
"2016-06-01 16:00","2016","06","01","16:00","21.3","","11.7","","54","","18","","6","","","","100.72","","","","","","NA"
"2016-06-01 17:00","2016","06","01","17:00","21.4","","10.7","","51","","13","","4","","","","100.66","","","","","","NA"
"2016-06-01 18:00","2016","06","01","18:00","21.0","","11.0","","53","","22","","3","","","","100.63","","","","","","NA"
"2016-06-01 19:00","2016","06","01","19:00","19.4","","12.1","","62","","31","","1","","","","100.62","","","","","","NA"
"2016-06-01 20:00","2016","06","01","20:00","18.2","","11.1","","63","","5","","2","","","","100.56","","","","","","NA"
"2016-06-01 21:00","2016","06","01","21:00","16.5","","12.5","","77","","2","","4","","","","100.58","","","","","","NA"
"2016-06-01 22:00","2016","06","01","22:00","16.4","","11.0","","70","","4","","8","","","","100.54","","","","","","NA"
"2016-06-01 23:00","2016","06","01","23:00","17.0","","12.0","","72","","4","","8","","","","100.47","","","","","","NA"
"2016-06-02 00:00","2016","06","02","00:00","17.1","","12.5","","75","","4","","7","","","","100.40","","","","","","NA"
"2016-06-02 01:00","2016","06","02","01:00","16.4","","12.7","","79","","5","","8","","","","100.35","","","","","","NA"
"2016-06-02 02:00","2016","06","02","02:00","19.0","","14.0","","73","","13","","10","","","","100.31","","","","","","NA"
"2016-06-02 03:00","2016","06","02","03:00","18.8","","13.9","","73","","17","","25","","","","100.30","","","","","","NA"
"2016-06-02 04:00","2016","06","02","04:00","17.7","","13.7","","78","","18","","17","","","","100.32","","","","","","NA"
"2016-06-02 05:00","2016","06","02","05:00","18.5","","13.9","","75","","15","","26","","","","100.32","","","","","","NA"
"2016-06-02 06:00","2016","06","02","06:00","16.7","","14.0","","84","","15","","18","","","","100.39","","","","","","NA"
"2016-06-02 07:00","2016","06","02","07:00","16.8","","14.4","","86","","15","","17","","","","100.43","","","","","","NA"
"2016-06-02 08:00","2016","06","02","08:00","17.1","","13.8","","81","","16","","16","","","","100.45","","","","","","NA"
"2016-06-02 09:00","2016","06","02","09:00","16.3","","14.3","","88","","16","","16","","","","100.44","","","","","","NA"
"2016-06-02 10:00","2016","06","02","10:00","16.3","","14.4","","89","","18","","27","","","","100.45","","","","","","NA"
"2016-06-02 11:00","2016","06","02","11:00","15.2","","14.1","","93","","17","","15","","","","100.47","","","","","","NA"
"2016-06-02 12:00","2016","06","02","12:00","16.2","","15.0","","93","","16","","21","","","","100.43","","","","","","NA"
"2016-06-02 13:00","2016","06","02","13:00","16.2","","14.5","","90","","16","","15","","","","100.42","","","","","","NA"
"2016-06-02 14:00","2016","06","02","14:00","16.4","","14.3","","87","","16","","19","","","","100.36","","","","","","NA"
"2016-06-02 15:00","2016","06","02","15:00","17.1","","14.6","","85","","16","","21","","","","100.31","","","","","","NA"
"2016-06-02 16:00","2016","06","02","16:00","17.1","","14.5","","85","","17","","18","","","","100.25","","","","","","NA"
"2016-06-02 17:00","2016","06","02","17:00","16.9","","14.2","","84","","18","","19","","","","100.22","","","","","","NA"
"2016-06-02 18:00","2016","06","02","18:00","16.6","","14.3","","86","","17","","14","","","","100.18","","","","","","NA"
"2016-06-02 19:00","2016","06","02","19:00","16.0","","13.9","","87","","17","","11","","","","100.18","","","","","","NA"
"2016-06-02 20:00","2016","06","02","20:00","16.0","","14.3","","89","","23","","7","","","","100.22","","","","","","NA"
"2016-06-02 21:00","2016","06","02","21:00","17.2","","15.4","","90","","21","","8","","","","100.30","","","","","","NA"
"2016-06-02 22:00","2016","06","02","22:00","16.0","","14.4","","90","","20","","7","","","","100.31","","","","","","NA"
"2016-06-02 23:00","2016","06","02","23:00","14.3","","13.0","","92","","11","","2","","","","100.38","","","","","","NA"
"2016-06-03 00:00","2016","06","03","00:00","16.0","","14.8","","93","","28","","6","","","","100.40","","","","","","NA"
"2016-06-03 01:00","2016","06","03","01:00","17.0","","12.2","","73","","29","","10","","","","100.42","","","","","","NA"
"2016-06-03 02:00","2016","06","03","02:00","14.9","","11.1","","78","","31","","4","","","","100.41","","","","","","NA"
"2016-06-03 03:00","2016","06","03","03:00","12.8","","10.5","","86","","25","","5","","","","100.41","","","","","","NA"
"2016-06-03 04:00","2016","06","03","04:00","11.4","","9.8","","90","","30","","7","","","","100.42","","","","","","NA"
"2016-06-03 05:00","2016","06","03","05:00","13.7","","10.7","","83","","27","","8","","","","100.49","","","","","","NA"
"2016-06-03 06:00","2016","06","03","06:00","15.6","","11.2","","75","","27","","6","","","","100.51","","","","","","NA"
"2016-06-03 07:00","2016","06","03","07:00","17.2","","11.8","","71","","26","","8","","","","100.52","","","","","","NA"
"2016-06-03 08:00","2016","06","03","08:00","18.2","","12.0","","67","","23","","9","","","","100.53","","","","","","NA"
"2016-06-03 09:00","2016","06","03","09:00","19.6","","12.6","","64","","22","","11","","","","100.55","","","","","","NA"
"2016-06-03 10:00","2016","06","03","10:00","19.3","","12.8","","66","","18","","14","","","","100.56","","","","","","NA"
"2016-06-03 11:00","2016","06","03","11:00","20.0","","13.0","","64","","19","","22","","","","100.56","","","","","","NA"
"2016-06-03 12:00","2016","06","03","12:00","19.7","","12.4","","63","","19","","23","","","","100.53","","","","","","NA"
"2016-06-03 13:00","2016","06","03","13:00","20.7","","12.5","","59","","20","","26","","","","100.49","","","","","","NA"
"2016-06-03 14:00","2016","06","03","14:00","20.3","","11.8","","58","","19","","21","","","","100.46","","","","","","NA"
"2016-06-03 15:00","2016","06","03","15:00","19.8","","11.3","","58","","19","","20","","","","100.44","","","","","","NA"
"2016-06-03 16:00","2016","06","03","16:00","19.8","","11.9","","60","","19","","19","","","","100.40","","","","","","NA"
"2016-06-03 17:00","2016","06","03","17:00","22.2","","11.8","","52","","20","","18","","","","100.39","","","","","","NA"
"2016-06-03 18:00","2016","06","03","18:00","23.0","","11.0","","47","","22","","16","","","","100.40","","25","","","","NA"
"2016-06-03 19:00","2016","06","03","19:00","21.4","","11.8","","54","","23","","10","","","","100.42","","","","","","NA"
"2016-06-03 20:00","2016","06","03","20:00","18.5","","11.7","","65","","24","","10","","","","100.43","","","","","","NA"
"2016-06-03 21:00","2016","06","03","21:00","18.1","","11.3","","65","","24","","13","","","","100.48","","","","","","NA"
"2016-06-03 22:00","2016","06","03","22:00","16.7","","12.1","","74","","25","","9","","","","100.52","","","","","","NA"
"2016-06-03 23:00","2016","06","03","23:00","16.0","","12.4","","79","","25","","10","","","","100.52","","","","","","NA"
"2016-06-04 00:00","2016","06","04","00:00","15.3","","11.2","","77","","30","","6","","","","100.51","","","","","","NA"
"2016-06-04 01:00","2016","06","04","01:00","13.0","","9.8","","81","","34","","11","","","","100.49","","","","","","NA"
"2016-06-04 02:00","2016","06","04","02:00","12.3","","9.7","","84","","34","","12","","","","100.51","","","","","","NA"
"2016-06-04 03:00","2016","06","04","03:00","12.7","","10.3","","85","","34","","12","","","","100.49","","","","","","NA"
"2016-06-04 04:00","2016","06","04","04:00","12.2","","10.0","","86","","34","","10","","","","100.51","","","","","","NA"
"2016-06-04 05:00","2016","06","04","05:00","12.5","","10.4","","87","","34","","2","","","","100.53","","","","","","NA"
"2016-06-04 06:00","2016","06","04","06:00","14.9","","12.4","","85","","4","","3","","","","100.55","","","","","","NA"
"2016-06-04 07:00","2016","06","04","07:00","17.9","","12.7","","71","","5","","11","","","","100.57","","","","","","NA"
"2016-06-04 08:00","2016","06","04","08:00","19.9","","12.6","","63","","6","","15","","","","100.57","","","","","","NA"
"2016-06-04 09:00","2016","06","04","09:00","20.5","","13.4","","64","","13","","10","","","","100.56","","","","","","NA"
"2016-06-04 10:00","2016","06","04","10:00","21.1","","13.0","","60","","13","","14","","","","100.54","","","","","","NA"
"2016-06-04 11:00","2016","06","04","11:00","20.7","","13.1","","62","","16","","15","","","","100.53","","","","","","NA"
"2016-06-04 12:00","2016","06","04","12:00","20.8","","14.3","","67","","16","","11","","","","100.48","","","","","","NA"
"2016-06-04 13:00","2016","06","04","13:00","21.0","","14.1","","64","","17","","11","","","","100.43","","","","","","NA"
"2016-06-04 14:00","2016","06","04","14:00","21.8","","14.3","","62","","16","","9","","","","100.36","","25","","","","NA"
"2016-06-04 15:00","2016","06","04","15:00","21.6","","12.5","","56","","18","","10","","","","100.31","","","","","","NA"
"2016-06-04 16:00","2016","06","04","16:00","21.7","","11.5","","52","","17","","10","","","","100.24","","","","","","NA"
"2016-06-04 17:00","2016","06","04","17:00","22.6","","9.4","","43","","18","","9","","","","100.20","","","","","","NA"
"2016-06-04 18:00","2016","06","04","18:00","22.9","","5.9","","33","","17","","7","","","","100.16","","","","","","NA"
"2016-06-04 19:00","2016","06","04","19:00","22.2","","9.8","","45","","","","0","","","","100.16","","","","","","NA"
"2016-06-04 20:00","2016","06","04","20:00","19.2","","8.6","","50","","6","","2","","","","100.11","","","","","","NA"
"2016-06-04 21:00","2016","06","04","21:00","18.7","","10.2","","58","","6","","7","","","","100.10","","","","","","NA"
"2016-06-04 22:00","2016","06","04","22:00","18.4","","10.5","","60","","5","","9","","","","100.03","","","","","","NA"
"2016-06-04 23:00","2016","06","04","23:00","18.6","","11.1","","62","","6","","14","","","","100.00","","","","","","NA"
"2016-06-05 00:00","2016","06","05","00:00","19.9","","10.6","","55","","6","","15","","","","99.91","","","","","","NA"
"2016-06-05 01:00","2016","06","05","01:00","19.7","","11.0","","57","","6","","16","","","","99.79","","","","","","NA"
"2016-06-05 02:00","2016","06","05","02:00","19.2","","11.1","","59","","5","","16","","","","99.68","","","","","","NA"
"2016-06-05 03:00","2016","06","05","03:00","18.1","","12.4","","69","","8","","9","","","","99.61","","","","","","NA"
"2016-06-05 04:00","2016","06","05","04:00","16.7","","13.4","","81","","6","","8","","","","99.53","","","","","","NA"
"2016-06-05 05:00","2016","06","05","05:00","16.9","","14.1","","83","","11","","12","","","","99.45","","","","","","NA"
"2016-06-05 06:00","2016","06","05","06:00","17.6","","16.0","","90","","10","","17","","","","99.36","","","","","","NA"
"2016-06-05 07:00","2016","06","05","07:00","18.1","","16.8","","92","","9","","19","","","","99.19","","","","","","NA"
"2016-06-05 08:00","2016","06","05","08:00","18.4","","16.9","","91","","12","","18","","","","99.09","","","","","","NA"
"2016-06-05 09:00","2016","06","05","09:00","18.4","","16.5","","89","","15","","23","","","","98.98","","","","","","NA"
"2016-06-05 10:00","2016","06","05","10:00","18.0","","16.6","","92","","19","","28","","","","99.01","","","","","","NA"
"2016-06-05 11:00","2016","06","05","11:00","20.3","","18.0","","86","","22","","22","","","","98.97","","26","","","","NA"
"2016-06-05 12:00","2016","06","05","12:00","20.7","","16.5","","77","","23","","28","","","","98.93","","26","","","","NA"
"2016-06-05 13:00","2016","06","05","13:00","19.3","","16.0","","81","","24","","20","","","","98.91","","","","","","NA"
"2016-06-05 14:00","2016","06","05","14:00","19.2","","16.9","","87","","22","","16","","","","98.86","","","","","","NA"
"2016-06-05 15:00","2016","06","05","15:00","16.2","","14.5","","90","","18","","16","","","","98.83","","","","","","NA"
"2016-06-05 16:00","2016","06","05","16:00","16.4","","14.6","","90","","18","","17","","","","98.80","","","","","","NA"
"2016-06-05 17:00","2016","06","05","17:00","16.2","","14.6","","90","","18","","10","","","","98.82","","","","","","NA"
"2016-06-05 18:00","2016","06","05","18:00","16.8","","15.4","","92","","16","","15","","","","98.78","","","","","","NA"
"2016-06-05 19:00","2016","06","05","19:00","17.1","","15.6","","91","","16","","23","","","","98.70","","","","","","NA"
"2016-06-05 20:00","2016","06","05","20:00","16.4","","15.1","","92","","19","","17","","","","98.69","","","","","","NA"
"2016-06-05 21:00","2016","06","05","21:00","16.7","","15.5","","92","","23","","8","","","","98.68","","","","","","NA"
"2016-06-05 22:00","2016","06","05","22:00","17.1","","15.3","","89","","22","","15","","","","98.68","","","","","","NA"
"2016-06-05 23:00","2016","06","05","23:00","17.1","","13.9","","82","","23","","25","","","","98.71","","","","","","NA"
"2016-06-06 00:00","2016","06","06","00:00","16.9","","14.5","","85","","23","","22","","","","98.72","","","","","","NA"
"2016-06-06 01:00","2016","06","06","01:00","16.8","","14.4","","86","","23","","23","","","","98.73","","","","","","NA"
"2016-06-06 02:00","2016","06","06","02:00","16.4","","13.8","","84","","23","","16","","","","98.73","","","","","","NA"
"2016-06-06 03:00","2016","06","06","03:00","15.8","","12.9","","83","","22","","23","","","","98.73","","","","","","NA"
"2016-06-06 04:00","2016","06","06","04:00","16.0","","12.6","","80","","24","","25","","","","98.78","","","","","","NA"
"2016-06-06 05:00","2016","06","06","05:00","15.6","","12.4","","82","","22","","21","","","","98.86","","","","","","NA"
"2016-06-06 06:00","2016","06","06","06:00","16.2","","12.1","","77","","23","","23","","","","98.91","","","","","","NA"
"2016-06-06 07:00","2016","06","06","07:00","17.2","","12.6","","74","","22","","17","","","","98.89","","","","","","NA"
"2016-06-06 08:00","2016","06","06","08:00","16.5","","12.9","","79","","19","","19","","","","98.91","","","","","","NA"
"2016-06-06 09:00","2016","06","06","09:00","16.4","","12.7","","79","","20","","26","","","","98.90","","","","","","NA"
"2016-06-06 10:00","2016","06","06","10:00","19.3","","13.8","","70","","21","","28","","","","98.90","","","","","","NA"
"2016-06-06 11:00","2016","06","06","11:00","20.0","","13.8","","67","","23","","27","","","","98.94","","","","","","NA"
"2016-06-06 12:00","2016","06","06","12:00","20.2","","13.8","","67","","24","","28","","","","98.96","","","","","","NA"
"2016-06-06 13:00","2016","06","06","13:00","20.5","","12.6","","61","","23","","34","","","","98.97","","","","","","NA"
"2016-06-06 14:00","2016","06","06","14:00","21.0","","12.5","","58","","23","","29","","","","98.98","","","","","","NA"
"2016-06-06 15:00","2016","06","06","15:00","21.4","","11.5","","53","","23","","33","","","","99.01","","","","","","NA"
"2016-06-06 16:00","2016","06","06","16:00","21.9","","11.2","","51","","23","","28","","","","98.98","","","","","","NA"
"2016-06-06 17:00","2016","06","06","17:00","22.1","","10.3","","47","","23","","29","","","","98.94","","","","","","NA"
"2016-06-06 18:00","2016","06","06","18:00","17.3","","12.1","","72","","19","","21","","","","98.95","","","","","","NA"
"2016-06-06 19:00","2016","06","06","19:00","15.8","","12.2","","79","","19","","20","","","","98.94","","","","","","NA"
"2016-06-06 20:00","2016","06","06","20:00","16.3","","12.4","","78","","19","","12","","","","98.95","","","","","","NA"
"2016-06-06 21:00","2016","06","06","21:00","16.0","","12.5","","80","","27","","23","","","","99.11","","","","","","NA"
"2016-06-06 22:00","2016","06","06","22:00","14.5","","11.7","","83","","29","","6","","","","98.98","","","","","","NA"
"2016-06-06 23:00","2016","06","06","23:00","15.7","","11.5","","76","","24","","9","","","","98.90","","","","","","NA"
"2016-06-07 00:00","2016","06","07","00:00","14.7","","11.8","","83","","17","","14","","","","98.83","","","","","","NA"
"2016-06-07 01:00","2016","06","07","01:00","14.2","","11.4","","83","","21","","8","","","","98.86","","","","","","NA"
"2016-06-07 02:00","2016","06","07","02:00","14.6","","12.2","","85","","23","","14","","","","98.86","","","","","","NA"
"2016-06-07 03:00","2016","06","07","03:00","14.6","","12.1","","85","","22","","15","","","","98.89","","","","","","NA"
"2016-06-07 04:00","2016","06","07","04:00","13.8","","12.3","","91","","21","","6","","","","98.84","","","","","","NA"
"2016-06-07 05:00","2016","06","07","05:00","14.0","","12.5","","91","","20","","7","","","","98.86","","","","","","NA"
"2016-06-07 06:00","2016","06","07","06:00","14.2","","12.7","","91","","21","","11","","","","98.86","","","","","","NA"
"2016-06-07 07:00","2016","06","07","07:00","14.3","","12.7","","90","","23","","10","","","","98.87","","","","","","NA"
"2016-06-07 08:00","2016","06","07","08:00","15.3","","13.2","","87","","22","","12","","","","98.87","","","","","","NA"
"2016-06-07 09:00","2016","06","07","09:00","15.6","","13.5","","88","","18","","12","","","","98.85","","","","","","NA"
"2016-06-07 10:00","2016","06","07","10:00","17.0","","14.6","","85","","18","","16","","","","98.82","","","","","","NA"
"2016-06-07 11:00","2016","06","07","11:00","17.3","","14.4","","83","","19","","17","","","","98.79","","","","","","NA"
"2016-06-07 12:00","2016","06","07","12:00","17.2","","14.0","","81","","19","","21","","","","98.77","","","","","","NA"
"2016-06-07 13:00","2016","06","07","13:00","18.1","","14.5","","79","","19","","16","","","","98.72","","","","","","NA"
"2016-06-07 14:00","2016","06","07","14:00","17.3","","13.3","","78","","22","","16","","","","98.72","","","","","","NA"
"2016-06-07 15:00","2016","06","07","15:00","18.5","","12.0","","66","","23","","27","","","","98.71","","","","","","NA"
"2016-06-07 16:00","2016","06","07","16:00","18.2","","10.2","","59","","25","","23","","","","98.71","","","","","","NA"
"2016-06-07 17:00","2016","06","07","17:00","16.3","","12.8","","79","","27","","9","","","","98.75","","","","","","NA"
"2016-06-07 18:00","2016","06","07","18:00","16.1","","11.0","","72","","28","","21","","","","98.81","","","","","","NA"
"2016-06-07 19:00","2016","06","07","19:00","16.2","","9.9","","66","","29","","19","","","","98.88","","","","","","NA"
"2016-06-07 20:00","2016","06","07","20:00","15.8","","10.0","","68","","29","","13","","","","98.93","","","","","","NA"
"2016-06-07 21:00","2016","06","07","21:00","15.0","","10.4","","74","","26","","10","","","","98.99","","","","","","NA"
"2016-06-07 22:00","2016","06","07","22:00","14.6","","9.7","","73","","27","","14","","","","99.05","","","","","","NA"
"2016-06-07 23:00","2016","06","07","23:00","13.7","","9.5","","76","","27","","14","","","","99.06","","","","","","NA"
"2016-06-08 00:00","2016","06","08","00:00","12.6","","9.1","","79","","26","","14","","","","99.07","","","","","","NA"
"2016-06-08 01:00","2016","06","08","01:00","12.3","","9.1","","81","","26","","13","","","","99.04","","","","","","NA"
"2016-06-08 02:00","2016","06","08","02:00","11.7","","8.7","","82","","26","","14","","","","99.04","","","","","","NA"
"2016-06-08 03:00","2016","06","08","03:00","11.5","","8.6","","82","","26","","12","","","","99.05","","","","","","NA"
"2016-06-08 04:00","2016","06","08","04:00","11.2","","8.3","","83","","27","","12","","","","99.09","","","","","","NA"
"2016-06-08 05:00","2016","06","08","05:00","11.3","","8.4","","83","","27","","9","","","","99.12","","","","","","NA"
"2016-06-08 06:00","2016","06","08","06:00","11.4","","8.6","","83","","34","","13","","","","99.14","","","","","","NA"
"2016-06-08 07:00","2016","06","08","07:00","11.5","","7.7","","77","","35","","16","","","","99.17","","","","","","NA"
"2016-06-08 08:00","2016","06","08","08:00","10.6","","8.0","","84","","36","","11","","","","99.20","","","","","","NA"
"2016-06-08 09:00","2016","06","08","09:00","12.3","","8.2","","76","","31","","7","","","","99.24","","","","","","NA"
"2016-06-08 10:00","2016","06","08","10:00","13.1","","6.5","","64","","30","","17","","","","99.26","","","","","","NA"
"2016-06-08 11:00","2016","06","08","11:00","13.7","","5.4","","57","","31","","20","","","","99.28","","","","","","NA"
"2016-06-08 12:00","2016","06","08","12:00","13.9","","4.8","","54","","29","","21","","","","99.29","","","","","","NA"
"2016-06-08 13:00","2016","06","08","13:00","13.3","","5.7","","60","","27","","24","","","","99.30","","","","","","NA"
"2016-06-08 14:00","2016","06","08","14:00","14.1","","6.1","","59","","28","","20","","","","99.33","","","","","","NA"
"2016-06-08 15:00","2016","06","08","15:00","14.3","","6.8","","61","","29","","19","","","","99.37","","","","","","NA"
"2016-06-08 16:00","2016","06","08","16:00","13.5","","5.0","","57","","28","","25","","","","99.43","","","","","","NA"
"2016-06-08 17:00","2016","06","08","17:00","13.2","","5.8","","61","","29","","18","","","","99.51","","","","","","NA"
"2016-06-08 18:00","2016","06","08","18:00","13.1","","5.6","","60","","28","","20","","","","99.59","","","","","","NA"
"2016-06-08 19:00","2016","06","08","19:00","12.7","","5.6","","62","","28","","15","","","","99.65","","","","","","NA"
"2016-06-08 20:00","2016","06","08","20:00","11.9","","6.1","","68","","27","","25","","","","99.70","","","","","","NA"
"2016-06-08 21:00","2016","06","08","21:00","11.7","","6.0","","68","","27","","17","","","","99.75","","","","","","NA"
"2016-06-08 22:00","2016","06","08","22:00","11.7","","6.1","","68","","28","","20","","","","99.76","","","","","","NA"
"2016-06-08 23:00","2016","06","08","23:00","10.9","","6.0","","72","","28","","16","","","","99.76","","","","","","NA"
"2016-06-09 00:00","2016","06","09","00:00","10.1","","6.0","","75","","28","","14","","","","99.77","","","","","","NA"
"2016-06-09 01:00","2016","06","09","01:00","8.9","","5.6","","80","","28","","8","","","","99.78","","","","","","NA"
"2016-06-09 02:00","2016","06","09","02:00","8.8","","5.5","","80","","27","","12","","","","99.84","","","","","","NA"
"2016-06-09 03:00","2016","06","09","03:00","9.3","","5.3","","76","","29","","12","","","","99.84","","","","","","NA"
"2016-06-09 04:00","2016","06","09","04:00","8.9","","5.5","","79","","28","","14","","","","99.90","","","","","","NA"
"2016-06-09 05:00","2016","06","09","05:00","8.6","","5.8","","82","","28","","15","","","","99.94","","","","","","NA"
"2016-06-09 06:00","2016","06","09","06:00","8.6","","5.5","","81","","29","","15","","","","99.97","","","","","","NA"
"2016-06-09 07:00","2016","06","09","07:00","10.7","","5.4","","70","","29","","19","","","","100.01","","","","","","NA"
"2016-06-09 08:00","2016","06","09","08:00","11.0","","3.8","","61","","31","","22","","","","100.04","","","","","","NA"
"2016-06-09 09:00","2016","06","09","09:00","12.0","","4.0","","58","","33","","21","","","","100.05","","","","","","NA"
"2016-06-09 10:00","2016","06","09","10:00","13.4","","3.4","","51","","31","","20","","","","100.05","","","","","","NA"
"2016-06-09 11:00","2016","06","09","11:00","14.9","","3.2","","45","","30","","25","","","","100.06","","","","","","NA"
"2016-06-09 12:00","2016","06","09","12:00","15.9","","2.3","","40","","31","","22","","","","100.04","","","","","","NA"
"2016-06-09 13:00","2016","06","09","13:00","17.3","","1.7","","35","","30","","18","","","","99.99","","","","","","NA"
"2016-06-09 14:00","2016","06","09","14:00","18.7","","3.0","","35","","28","","19","","","","99.97","","","","","","NA"
"2016-06-09 15:00","2016","06","09","15:00","18.4","","1.7","","33","","29","","21","","","","99.97","","","","","","NA"
"2016-06-09 16:00","2016","06","09","16:00","18.6","","0.8","","30","","29","","22","","","","99.96","","","","","","NA"
"2016-06-09 17:00","2016","06","09","17:00","18.8","","0.1","","29","","31","","24","","","","99.95","","","","","","NA"
"2016-06-09 18:00","2016","06","09","18:00","18.5","","0.2","","29","","31","","23","","","","99.98","","","","","","NA"
"2016-06-09 19:00","2016","06","09","19:00","17.2","","0.0","","31","","32","","17","","","","100.03","","","","","","NA"
"2016-06-09 20:00","2016","06","09","20:00","14.7","","1.4","","40","","31","","12","","","","100.07","","","","","","NA"
"2016-06-09 21:00","2016","06","09","21:00","12.9","","1.8","","47","","30","","10","","","","100.15","","","","","","NA"
"2016-06-09 22:00","2016","06","09","22:00","11.9","","2.3","","52","","33","","9","","","","100.24","","","","","","NA"
"2016-06-09 23:00","2016","06","09","23:00","10.7","","2.6","","58","","31","","7","","","","100.28","","","","","","NA"
"2016-06-10 00:00","2016","06","10","00:00","10.4","","2.7","","59","","31","","13","","","","100.34","","","","","","NA"
"2016-06-10 01:00","2016","06","10","01:00","9.3","","2.6","","63","","31","","13","","","","100.39","","","","","","NA"
"2016-06-10 02:00","2016","06","10","02:00","8.6","","2.4","","65","","31","","13","","","","100.44","","","","","","NA"
"2016-06-10 03:00","2016","06","10","03:00","7.2","","2.6","","73","","32","","12","","","","100.46","","","","","","NA"
"2016-06-10 04:00","2016","06","10","04:00","6.8","","2.8","","76","","32","","11","","","","100.51","","","","","","NA"
"2016-06-10 05:00","2016","06","10","05:00","7.2","","3.4","","77","","32","","12","","","","100.59","","","","","","NA"
"2016-06-10 06:00","2016","06","10","06:00","9.4","","4.3","","70","","32","","10","","","","100.62","","","","","","NA"
"2016-06-10 07:00","2016","06","10","07:00","12.4","","4.8","","60","","33","","13","","","","100.66","","","","","","NA"
"2016-06-10 08:00","2016","06","10","08:00","14.3","","3.7","","49","","30","","14","","","","100.69","","","","","","NA"
"2016-06-10 09:00","2016","06","10","09:00","15.8","","3.0","","42","","31","","15","","","","100.73","","","","","","NA"
"2016-06-10 10:00","2016","06","10","10:00","17.2","","2.9","","38","","31","","20","","","","100.75","","","","","","NA"
"2016-06-10 11:00","2016","06","10","11:00","18.3","","4.3","","39","","32","","15","","","","100.75","","","","","","NA"
"2016-06-10 12:00","2016","06","10","12:00","18.9","","3.6","","36","","31","","13","","","","100.75","","","","","","NA"
"2016-06-10 13:00","2016","06","10","13:00","19.9","","3.1","","33","","31","","17","","","","100.67","","","","","","NA"
"2016-06-10 14:00","2016","06","10","14:00","20.6","","2.2","","29","","30","","14","","","","100.61","","","","","","NA"
"2016-06-10 15:00","2016","06","10","15:00","17.8","","8.4","","54","","19","","22","","","","100.60","","","","","","NA"
"2016-06-10 16:00","2016","06","10","16:00","18.7","","7.2","","47","","21","","17","","","","100.57","","","","","","NA"
"2016-06-10 17:00","2016","06","10","17:00","17.4","","9.3","","59","","19","","16","","","","100.54","","","","","","NA"
"2016-06-10 18:00","2016","06","10","18:00","18.0","","5.6","","44","","22","","18","","","","100.50","","","","","","NA"
"2016-06-10 19:00","2016","06","10","19:00","17.0","","6.0","","48","","23","","21","","","","100.47","","","","","","NA"
"2016-06-10 20:00","2016","06","10","20:00","14.5","","7.6","","63","","23","","9","","","","100.49","","","","","","NA"
"2016-06-10 21:00","2016","06","10","21:00","13.8","","7.9","","68","","25","","9","","","","100.51","","","","","","NA"
"2016-06-10 22:00","2016","06","10","22:00","11.9","","7.2","","73","","23","","2","","","","100.48","","","","","","NA"
"2016-06-10 23:00","2016","06","10","23:00","12.4","","8.3","","76","","14","","9","","","","100.43","","","","","","NA"
"2016-06-11 00:00","2016","06","11","00:00","13.5","","10.5","","82","","18","","14","","","","100.45","","","","","","NA"
"2016-06-11 01:00","2016","06","11","01:00","13.0","","9.9","","82","","19","","9","","","","100.37","","","","","","NA"
"2016-06-11 02:00","2016","06","11","02:00","13.4","","10.3","","81","","18","","11","","","","100.33","","","","","","NA"
"2016-06-11 03:00","2016","06","11","03:00","13.7","","9.0","","73","","18","","17","","","","100.20","","","","","","NA"
"2016-06-11 04:00","2016","06","11","04:00","13.7","","9.4","","75","","15","","17","","","","100.11","","","","","","NA"
"2016-06-11 05:00","2016","06","11","05:00","13.7","","9.1","","74","","13","","12","","","","100.09","","","","","","NA"
"2016-06-11 06:00","2016","06","11","06:00","12.5","","9.5","","82","","12","","8","","","","100.03","","","","","","NA"
"2016-06-11 07:00","2016","06","11","07:00","11.6","","9.2","","85","","2","","16","","","","99.95","","","","","","NA"
"2016-06-11 08:00","2016","06","11","08:00","11.6","","9.6","","88","","10","","12","","","","99.79","","","","","","NA"
"2016-06-11 09:00","2016","06","11","09:00","12.9","","10.2","","84","","16","","19","","","","99.75","","","","","","NA"
"2016-06-11 10:00","2016","06","11","10:00","13.6","","11.2","","85","","16","","16","","","","99.72","","","","","","NA"
"2016-06-11 11:00","2016","06","11","11:00","14.5","","12.0","","85","","18","","16","","","","99.62","","","","","","NA"
"2016-06-11 12:00","2016","06","11","12:00","15.0","","12.4","","85","","19","","14","","","","99.66","","","","","","NA"
"2016-06-11 13:00","2016","06","11","13:00","16.1","","13.0","","82","","22","","13","","","","99.57","","","","","","NA"
"2016-06-11 14:00","2016","06","11","14:00","17.0","","13.5","","80","","19","","11","","","","99.51","","","","","","NA"
"2016-06-11 15:00","2016","06","11","15:00","17.0","","13.8","","81","","16","","9","","","","99.47","","","","","","NA"
"2016-06-11 16:00","2016","06","11","16:00","17.7","","14.2","","80","","17","","13","","","","99.44","","","","","","NA"
"2016-06-11 17:00","2016","06","11","17:00","16.5","","13.7","","83","","16","","11","","","","99.43","","","","","","NA"
"2016-06-11 18:00","2016","06","11","18:00","18.6","","14.9","","79","","13","","7","","","","99.39","","","","","","NA"
"2016-06-11 19:00","2016","06","11","19:00","19.5","","14.5","","73","","18","","10","","","","99.37","","","","","","NA"
"2016-06-11 20:00","2016","06","11","20:00","17.8","","14.6","","82","","19","","7","","","","99.34","","","","","","NA"
"2016-06-11 21:00","2016","06","11","21:00","17.5","","15.1","","86","","18","","8","","","","99.25","","","","","","NA"
"2016-06-11 22:00","2016","06","11","22:00","20.1","","15.5","","75","","25","","16","","","","99.23","","","","","","NA"
"2016-06-11 23:00","2016","06","11","23:00","20.9","","15.2","","70","","25","","16","","","","99.15","","25","","","","NA"
"2016-06-12 00:00","2016","06","12","00:00","21.5","","14.2","","63","","25","","18","","","","99.09","","25","","","","NA"
"2016-06-12 01:00","2016","06","12","01:00","21.4","","11.2","","52","","28","","23","","","","99.08","","","","","","NA"
"2016-06-12 02:00","2016","06","12","02:00","19.4","","11.0","","58","","27","","17","","","","99.14","","","","","","NA"
"2016-06-12 03:00","2016","06","12","03:00","17.8","","11.4","","66","","35","","16","","","","99.30","","","","","","NA"
"2016-06-12 04:00","2016","06","12","04:00","15.0","","7.2","","60","","33","","30","","","","99.48","","","","","","NA"
"2016-06-12 05:00","2016","06","12","05:00","13.9","","6.3","","60","","35","","16","","","","99.59","","","","","","NA"
"2016-06-12 06:00","2016","06","12","06:00","14.0","","5.4","","56","","32","","10","","","","99.65","","","","","","NA"
"2016-06-12 07:00","2016","06","12","07:00","15.0","","5.2","","52","","32","","23","","","","99.66","","","","","","NA"
"2016-06-12 08:00","2016","06","12","08:00","14.9","","5.7","","54","","31","","26","","","","99.70","","","","","","NA"
"2016-06-12 09:00","2016","06","12","09:00","13.8","","5.1","","56","","30","","17","","","","99.77","","","","","","NA"
"2016-06-12 10:00","2016","06","12","10:00","13.7","","5.8","","59","","31","","19","","","","99.79","","","","","","NA"
"2016-06-12 11:00","2016","06","12","11:00","13.0","","6.1","","63","","33","","22","","","","99.85","","","","","","NA"
"2016-06-12 12:00","2016","06","12","12:00","12.9","","5.4","","60","","32","","24","","","","99.87","","","","","","NA"
"2016-06-12 13:00","2016","06","12","13:00","14.5","","6.1","","57","","31","","25","","","","99.87","","","","","","NA"
"2016-06-12 14:00","2016","06","12","14:00","14.7","","6.6","","58","","31","","24","","","","99.89","","","","","","NA"
"2016-06-12 15:00","2016","06","12","15:00","14.2","","6.1","","59","","31","","28","","","","99.90","","","","","","NA"
"2016-06-12 16:00","2016","06","12","16:00","14.0","","5.9","","58","","33","","30","","","","100.00","","","","","","NA"
"2016-06-12 17:00","2016","06","12","17:00","13.0","","6.1","","63","","33","","24","","","","100.09","","","","","","NA"
"2016-06-12 18:00","2016","06","12","18:00","12.9","","5.9","","63","","33","","27","","","","100.13","","","","","","NA"
"2016-06-12 19:00","2016","06","12","19:00","12.5","","5.6","","63","","33","","32","","","","100.19","","","","","","NA"
"2016-06-12 20:00","2016","06","12","20:00","12.2","","6.0","","66","","33","","20","","","","100.24","","","","","","NA"
"2016-06-12 21:00","2016","06","12","21:00","12.2","","6.4","","68","","32","","23","","","","100.29","","","","","","NA"
"2016-06-12 22:00","2016","06","12","22:00","11.9","","6.8","","71","","34","","18","","","","100.27","","","","","","NA"
"2016-06-12 23:00","2016","06","12","23:00","11.9","","7.0","","72","","33","","17","","","","100.31","","","","","","NA"
"2016-06-13 00:00","2016","06","13","00:00","11.8","","7.0","","72","","32","","20","","","","100.34","","","","","","NA"
"2016-06-13 01:00","2016","06","13","01:00","11.6","","7.0","","73","","33","","16","","","","100.35","","","","","","NA"
"2016-06-13 02:00","2016","06","13","02:00","11.5","","7.0","","73","","33","","15","","","","100.36","","","","","","NA"
"2016-06-13 03:00","2016","06","13","03:00","11.5","","7.0","","74","","34","","15","","","","100.34","","","","","","NA"
"2016-06-13 04:00","2016","06","13","04:00","11.6","","7.1","","74","","34","","18","","","","100.36","","","","","","NA"
"2016-06-13 05:00","2016","06","13","05:00","11.5","","7.3","","75","","35","","10","","","","100.36","","","","","","NA"
"2016-06-13 06:00","2016","06","13","06:00","11.7","","7.5","","75","","36","","9","","","","100.36","","","","","","NA"
"2016-06-13 07:00","2016","06","13","07:00","12.0","","7.9","","76","","32","","11","","","","100.43","","","","","","NA"
"2016-06-13 08:00","2016","06","13","08:00","12.4","","8.1","","75","","32","","15","","","","100.44","","","","","","NA"
"2016-06-13 09:00","2016","06","13","09:00","12.8","","8.3","","74","","32","","10","","","","100.41","","","","","","NA"
"2016-06-13 10:00","2016","06","13","10:00","13.9","","8.5","","70","","29","","8","","","","100.37","","","","","","NA"
"2016-06-13 11:00","2016","06","13","11:00","15.1","","9.8","","71","","20","","13","","","","100.29","","","","","","NA"
"2016-06-13 12:00","2016","06","13","12:00","14.1","","9.6","","74","","18","","22","","","","100.19","","","","","","NA"
"2016-06-13 13:00","2016","06","13","13:00","16.3","","10.3","","68","","20","","24","","","","100.09","","","","","","NA"
"2016-06-13 14:00","2016","06","13","14:00","17.4","","10.7","","65","","22","","24","","","","100.00","","","","","","NA"
"2016-06-13 15:00","2016","06","13","15:00","17.8","","10.9","","64","","23","","26","","","","99.93","","","","","","NA"
"2016-06-13 16:00","2016","06","13","16:00","18.2","","10.7","","62","","23","","28","","","","99.86","","","","","","NA"
"2016-06-13 17:00","2016","06","13","17:00","19.4","","10.8","","58","","24","","22","","","","99.83","","","","","","NA"
"2016-06-13 18:00","2016","06","13","18:00","20.3","","1.2","","28","","34","","24","","","","99.86","","","","","","NA"
"2016-06-13 19:00","2016","06","13","19:00","18.8","","2.7","","34","","35","","19","","","","99.94","","","","","","NA"
"2016-06-13 20:00","2016","06","13","20:00","17.5","","2.7","","37","","36","","19","","","","100.01","","","","","","NA"
"2016-06-13 21:00","2016","06","13","21:00","14.3","","4.0","","50","","1","","18","","","","100.15","","","","","","NA"
"2016-06-13 22:00","2016","06","13","22:00","10.6","","3.9","","63","","34","","12","","","","100.19","","","","","","NA"
"2016-06-13 23:00","2016","06","13","23:00","9.2","","5.0","","75","","33","","14","","","","100.27","","","","","","NA"
"2016-06-14 00:00","2016","06","14","00:00","8.6","","4.1","","74","","34","","16","","","","100.31","","","","","","NA"
"2016-06-14 01:00","2016","06","14","01:00","9.2","","3.5","","67","","32","","16","","","","100.38","","","","","","NA"
"2016-06-14 02:00","2016","06","14","02:00","7.3","","3.2","","76","","33","","14","","","","100.41","","","","","","NA"
"2016-06-14 03:00","2016","06","14","03:00","6.2","","2.7","","78","","34","","13","","","","100.43","","","","","","NA"
"2016-06-14 04:00","2016","06","14","04:00","4.8","","2.2","","83","","34","","11","","","","100.49","","","","","","NA"
"2016-06-14 05:00","2016","06","14","05:00","6.1","","2.9","","80","","34","","9","","","","100.53","","","","","","NA"
"2016-06-14 06:00","2016","06","14","06:00","8.8","","4.1","","72","","35","","10","","","","100.57","","","","","","NA"
"2016-06-14 07:00","2016","06","14","07:00","11.0","","4.1","","62","","34","","11","","","","100.61","","","","","","NA"
"2016-06-14 08:00","2016","06","14","08:00","13.9","","5.9","","59","","30","","6","","","","100.63","","","","","","NA"
"2016-06-14 09:00","2016","06","14","09:00","15.6","","5.8","","52","","29","","7","","","","100.61","","","","","","NA"
"2016-06-14 10:00","2016","06","14","10:00","17.2","","6.3","","49","","32","","10","","","","100.60","","","","","","NA"
"2016-06-14 11:00","2016","06","14","11:00","18.2","","7.3","","49","","22","","13","","","","100.55","","","","","","NA"
"2016-06-14 12:00","2016","06","14","12:00","16.8","","10.0","","64","","18","","19","","","","100.53","","","","","","NA"
"2016-06-14 13:00","2016","06","14","13:00","17.1","","10.6","","66","","19","","24","","","","100.48","","","","","","NA"
"2016-06-14 14:00","2016","06","14","14:00","18.2","","9.9","","58","","19","","22","","","","100.43","","","","","","NA"
"2016-06-14 15:00","2016","06","14","15:00","18.9","","10.1","","57","","19","","20","","","","100.38","","","","","","NA"
"2016-06-14 16:00","2016","06","14","16:00","20.6","","10.4","","52","","21","","16","","","","100.34","","","","","","NA"
"2016-06-14 17:00","2016","06","14","17:00","20.7","","9.4","","48","","22","","18","","","","100.32","","","","","","NA"
"2016-06-14 18:00","2016","06","14","18:00","19.6","","8.9","","50","","23","","17","","","","100.33","","","","","","NA"
"2016-06-14 19:00","2016","06","14","19:00","17.7","","8.7","","56","","25","","15","","","","100.36","","","","","","NA"
"2016-06-14 20:00","2016","06","14","20:00","15.4","","8.9","","65","","23","","12","","","","100.37","","","","","","NA"
"2016-06-14 21:00","2016","06","14","21:00","13.8","","9.4","","75","","23","","8","","","","100.41","","","","","","NA"
"2016-06-14 22:00","2016","06","14","22:00","12.5","","7.6","","72","","19","","5","","","","100.45","","","","","","NA"
"2016-06-14 23:00","2016","06","14","23:00","12.7","","6.9","","68","","19","","5","","","","100.45","","","","","","NA"
"2016-06-15 00:00","2016","06","15","00:00","11.3","","6.4","","72","","19","","3","","","","100.43","","","","","","NA"
"2016-06-15 01:00","2016","06","15","01:00","11.9","","6.3","","69","","21","","8","","","","100.43","","","","","","NA"
"2016-06-15 02:00","2016","06","15","02:00","10.6","","5.9","","73","","20","","2","","","","100.44","","","","","","NA"
"2016-06-15 03:00","2016","06","15","03:00","9.3","","5.5","","77","","19","","2","","","","100.41","","","","","","NA"
"2016-06-15 04:00","2016","06","15","04:00","8.0","","6.2","","88","","35","","2","","","","100.41","","","","","","NA"
"2016-06-15 05:00","2016","06","15","05:00","7.6","","6.1","","90","","0","","1","","","","100.42","","","","","","NA"
"2016-06-15 06:00","2016","06","15","06:00","12.5","","9.7","","83","","24","","1","","","","100.43","","","","","","NA"
"2016-06-15 07:00","2016","06","15","07:00","14.8","","8.4","","65","","18","","7","","","","100.46","","","","","","NA"
"2016-06-15 08:00","2016","06","15","08:00","16.0","","10.2","","69","","18","","11","","","","100.45","","","","","","NA"
"2016-06-15 09:00","2016","06","15","09:00","15.9","","11.2","","74","","17","","14","","","","100.44","","","","","","NA"
"2016-06-15 10:00","2016","06","15","10:00","16.0","","10.7","","71","","17","","14","","","","100.41","","","","","","NA"
"2016-06-15 11:00","2016","06","15","11:00","16.6","","8.9","","60","","16","","12","","","","100.37","","","","","","NA"
"2016-06-15 12:00","2016","06","15","12:00","17.9","","8.3","","53","","15","","9","","","","100.31","","","","","","NA"
"2016-06-15 13:00","2016","06","15","13:00","19.1","","4.8","","39","","18","","12","","","","100.22","","","","","","NA"
"2016-06-15 14:00","2016","06","15","14:00","19.0","","2.2","","33","","17","","12","","","","100.16","","","","","","NA"
"2016-06-15 15:00","2016","06","15","15:00","20.5","","7.4","","43","","18","","8","","","","100.10","","","","","","NA"
"2016-06-15 16:00","2016","06","15","16:00","19.8","","6.5","","42","","18","","8","","","","100.05","","","","","","NA"
"2016-06-15 17:00","2016","06","15","17:00","20.5","","7.8","","44","","14","","5","","","","99.99","","","","","","NA"
"2016-06-15 18:00","2016","06","15","18:00","20.2","","9.4","","50","","20","","2","","","","99.98","","","","","","NA"
"2016-06-15 19:00","2016","06","15","19:00","19.6","","11.8","","61","","34","","4","","","","99.92","","","","","","NA"
"2016-06-15 20:00","2016","06","15","20:00","18.5","","10.4","","59","","","","0","","","","99.93","","","","","","NA"
"2016-06-15 21:00","2016","06","15","21:00","17.7","","11.4","","66","","30","","3","","","","99.98","","","","","","NA"
"2016-06-15 22:00","2016","06","15","22:00","17.4","","12.5","","73","","1","","4","","","","99.95","","","","","","NA"
"2016-06-15 23:00","2016","06","15","23:00","17.1","","11.8","","71","","1","","6","","","","99.91","","","","","","NA"
"2016-06-16 00:00","2016","06","16","00:00","16.0","","11.1","","72","","36","","6","","","","99.86","","","","","","NA"
"2016-06-16 01:00","2016","06","16","01:00","15.3","","11.4","","77","","36","","8","","","","99.85","","","","","","NA"
"2016-06-16 02:00","2016","06","16","02:00","17.1","","10.3","","65","","0","","1","","","","99.84","","","","","","NA"
"2016-06-16 03:00","2016","06","16","03:00","17.1","","10.2","","64","","7","","4","","","","99.83","","","","","","NA"
"2016-06-16 04:00","2016","06","16","04:00","16.7","","11.6","","72","","4","","12","","","","99.82","","","","","","NA"
"2016-06-16 05:00","2016","06","16","05:00","17.1","","10.6","","65","","4","","13","","","","99.83","","","","","","NA"
"2016-06-16 06:00","2016","06","16","06:00","17.8","","11.2","","65","","5","","12","","","","99.86","","","","","","NA"
"2016-06-16 07:00","2016","06","16","07:00","19.2","","11.7","","62","","6","","11","","","","99.89","","","","","","NA"
"2016-06-16 08:00","2016","06","16","08:00","21.5","","11.6","","53","","6","","16","","","","99.88","","","","","","NA"
"2016-06-16 09:00","2016","06","16","09:00","23.6","","11.9","","48","","6","","15","","","","99.87","","26","","","","NA"
"2016-06-16 10:00","2016","06","16","10:00","25.5","","10.8","","40","","7","","18","","","","99.82","","27","","","","NA"
"2016-06-16 11:00","2016","06","16","11:00","26.8","","10.1","","35","","5","","19","","","","99.83","","28","","","","NA"
"2016-06-16 12:00","2016","06","16","12:00","27.3","","7.1","","28","","9","","24","","","","99.79","","27","","","","NA"
"2016-06-16 13:00","2016","06","16","13:00","27.1","","8.0","","30","","10","","24","","","","99.78","","28","","","","NA"
"2016-06-16 14:00","2016","06","16","14:00","27.6","","5.9","","25","","9","","23","","","","99.72","","27","","","","NA"
"2016-06-16 15:00","2016","06","16","15:00","28.0","","5.2","","23","","10","","19","","","","99.69","","27","","","","NA"
"2016-06-16 16:00","2016","06","16","16:00","27.5","","5.8","","25","","4","","22","","","","99.68","","27","","","","NA"
"2016-06-16 17:00","2016","06","16","17:00","27.0","","4.0","","23","","4","","18","","","","99.70","","26","","","","NA"
"2016-06-16 18:00","2016","06","16","18:00","26.3","","5.8","","27","","5","","20","","","","99.73","","26","","","","NA"
"2016-06-16 19:00","2016","06","16","19:00","24.3","","7.5","","34","","4","","13","","","","99.76","","25","","","","NA"
"2016-06-16 20:00","2016","06","16","20:00","22.0","","6.0","","35","","5","","12","","","","99.81","","","","","","NA"
"2016-06-16 21:00","2016","06","16","21:00","20.7","","5.9","","38","","4","","9","","","","99.91","","","","","","NA"
"2016-06-16 22:00","2016","06","16","22:00","19.9","","6.6","","42","","5","","10","","","","99.92","","","","","","NA"
"2016-06-16 23:00","2016","06","16","23:00","15.9","","7.6","","58","","3","","7","","","","99.93","","","","","","NA"
"2016-06-17 00:00","2016","06","17","00:00","13.4","","9.0","","74","","1","","8","","","","99.96","","","","","","NA"
"2016-06-17 01:00","2016","06","17","01:00","12.9","","8.9","","77","","2","","7","","","","100.02","","","","","","NA"
"2016-06-17 02:00","2016","06","17","02:00","12.0","","8.3","","79","","34","","9","","","","100.05","","","","","","NA"
"2016-06-17 03:00","2016","06","17","03:00","11.9","","8.7","","81","","35","","9","","","","100.07","","","","","","NA"
"2016-06-17 04:00","2016","06","17","04:00","11.6","","8.2","","80","","34","","10","","","","100.16","","","","","","NA"
"2016-06-17 05:00","2016","06","17","05:00","11.6","","9.0","","84","","34","","11","","","","100.23","","","","","","NA"
"2016-06-17 06:00","2016","06","17","06:00","15.0","","10.8","","76","","34","","7","","","","100.29","","","","","","NA"
"2016-06-17 07:00","2016","06","17","07:00","20.2","","9.3","","50","","3","","5","","","","100.36","","","","","","NA"
"2016-06-17 08:00","2016","06","17","08:00","22.1","","8.8","","42","","6","","8","","","","100.41","","","","","","NA"
"2016-06-17 09:00","2016","06","17","09:00","22.4","","11.3","","49","","18","","7","","","","100.47","","","","","","NA"
"2016-06-17 10:00","2016","06","17","10:00","22.9","","10.1","","44","","16","","11","","","","100.49","","","","","","NA"
"2016-06-17 11:00","2016","06","17","11:00","23.1","","11.1","","46","","16","","10","","","","100.50","","25","","","","NA"
"2016-06-17 12:00","2016","06","17","12:00","23.1","","12.1","","50","","17","","12","","","","100.48","","25","","","","NA"
"2016-06-17 13:00","2016","06","17","13:00","24.0","","8.0","","36","","17","","13","","","","100.47","","","","","","NA"
"2016-06-17 14:00","2016","06","17","14:00","23.5","","9.3","","40","","19","","18","","","","100.44","","","","","","NA"
"2016-06-17 15:00","2016","06","17","15:00","24.8","","9.2","","37","","20","","17","","","","100.44","","26","","","","NA"
"2016-06-17 16:00","2016","06","17","16:00","23.4","","11.2","","46","","19","","16","","","","100.45","","25","","","","NA"
"2016-06-17 17:00","2016","06","17","17:00","25.1","","6.8","","31","","21","","16","","","","100.44","","25","","","","NA"
"2016-06-17 18:00","2016","06","17","18:00","24.5","","5.8","","30","","22","","16","","","","100.49","","","","","","NA"
"2016-06-17 19:00","2016","06","17","19:00","22.2","","8.0","","40","","24","","10","","","","100.55","","","","","","NA"
"2016-06-17 20:00","2016","06","17","20:00","20.1","","9.3","","50","","23","","8","","","","100.58","","","","","","NA"
"2016-06-17 21:00","2016","06","17","21:00","17.9","","9.1","","56","","22","","1","","","","100.64","","","","","","NA"
"2016-06-17 22:00","2016","06","17","22:00","16.6","","10.0","","65","","34","","4","","","","100.65","","","","","","NA"
"2016-06-17 23:00","2016","06","17","23:00","16.1","","10.3","","69","","34","","8","","","","100.67","","","","","","NA"
"2016-06-18 00:00","2016","06","18","00:00","14.7","","9.2","","70","","33","","7","","","","100.70","","","","","","NA"
"2016-06-18 01:00","2016","06","18","01:00","14.1","","8.5","","69","","24","","2","","","","100.70","","","","","","NA"
"2016-06-18 02:00","2016","06","18","02:00","12.0","","8.8","","81","","1","","5","","","","100.74","","","","","","NA"
"2016-06-18 03:00","2016","06","18","03:00","12.2","","9.9","","86","","34","","7","","","","100.80","","","","","","NA"
"2016-06-18 04:00","2016","06","18","04:00","12.1","","8.6","","79","","23","","5","","","","100.89","","","","","","NA"
"2016-06-18 05:00","2016","06","18","05:00","11.3","","9.3","","88","","9","","1","","","","100.96","","","","","","NA"
"2016-06-18 06:00","2016","06","18","06:00","14.9","","12.0","","83","","36","","4","","","","101.01","","","","","","NA"
"2016-06-18 07:00","2016","06","18","07:00","19.6","","11.8","","61","","11","","3","","","","101.03","","","","","","NA"
"2016-06-18 08:00","2016","06","18","08:00","19.2","","14.2","","73","","17","","11","","","","101.17","","","","","","NA"
"2016-06-18 09:00","2016","06","18","09:00","19.5","","13.6","","69","","17","","10","","","","101.23","","","","","","NA"
"2016-06-18 10:00","2016","06","18","10:00","20.1","","12.8","","63","","16","","10","","","","101.25","","","","","","NA"
"2016-06-18 11:00","2016","06","18","11:00","20.1","","13.8","","67","","16","","10","","","","101.27","","","","","","NA"
"2016-06-18 12:00","2016","06","18","12:00","21.3","","14.8","","66","","16","","10","","","","101.25","","25","","","","NA"
"2016-06-18 13:00","2016","06","18","13:00","21.0","","14.0","","64","","17","","12","","","","101.23","","","","","","NA"
"2016-06-18 14:00","2016","06","18","14:00","21.0","","12.7","","59","","18","","15","","","","101.19","","","","","","NA"
"2016-06-18 15:00","2016","06","18","15:00","22.8","","12.8","","53","","16","","11","","","","101.15","","25","","","","NA"
"2016-06-18 16:00","2016","06","18","16:00","23.1","","13.2","","54","","18","","10","","","","101.10","","26","","","","NA"
"2016-06-18 17:00","2016","06","18","17:00","24.4","","12.0","","46","","18","","10","","","","101.08","","27","","","","NA"
"2016-06-18 18:00","2016","06","18","18:00","24.8","","9.8","","39","","23","","14","","","","101.09","","26","","","","NA"
"2016-06-18 19:00","2016","06","18","19:00","23.5","","8.2","","38","","24","","12","","","","101.09","","","","","","NA"
"2016-06-18 20:00","2016","06","18","20:00","21.4","","9.0","","45","","24","","12","","","","101.11","","","","","","NA"
"2016-06-18 21:00","2016","06","18","21:00","21.0","","8.6","","45","","24","","10","","","","101.15","","","","","","NA"
"2016-06-18 22:00","2016","06","18","22:00","20.3","","8.3","","46","","25","","10","","","","101.15","","","","","","NA"
"2016-06-18 23:00","2016","06","18","23:00","17.1","","8.2","","56","","28","","6","","","","101.20","","","","","","NA"
"2016-06-19 00:00","2016","06","19","00:00","16.7","","12.3","","75","","20","","8","","","","101.21","","","","","","NA"
"2016-06-19 01:00","2016","06","19","01:00","15.4","","12.8","","85","","16","","3","","","","101.18","","","","","","NA"
"2016-06-19 02:00","2016","06","19","02:00","14.4","","12.7","","89","","14","","3","","","","101.19","","","","","","NA"
"2016-06-19 03:00","2016","06","19","03:00","14.0","","12.5","","91","","","","0","","","","101.19","","","","","","NA"
"2016-06-19 04:00","2016","06","19","04:00","13.4","","11.6","","89","","","","0","","","","101.23","","","","","","NA"
"2016-06-19 05:00","2016","06","19","05:00","15.4","","14.1","","92","","17","","6","","","","101.25","","","","","","NA"
"2016-06-19 06:00","2016","06","19","06:00","17.5","","15.2","","87","","18","","8","","","","101.31","","","","","","NA"
"2016-06-19 07:00","2016","06","19","07:00","18.8","","15.7","","82","","17","","12","","","","101.35","","","","","","NA"
"2016-06-19 08:00","2016","06","19","08:00","19.8","","15.6","","77","","18","","12","","","","101.38","","","","","","NA"
"2016-06-19 09:00","2016","06","19","09:00","19.5","","15.5","","78","","17","","17","","","","101.35","","","","","","NA"
"2016-06-19 10:00","2016","06","19","10:00","20.0","","15.4","","75","","17","","16","","","","101.32","","","","","","NA"
"2016-06-19 11:00","2016","06","19","11:00","20.9","","16.0","","74","","16","","17","","","","101.29","","26","","","","NA"
"2016-06-19 12:00","2016","06","19","12:00","20.1","","15.4","","75","","17","","18","","","","101.27","","","","","","NA"
"2016-06-19 13:00","2016","06","19","13:00","21.4","","16.5","","74","","15","","16","","","","101.22","","26","","","","NA"
"2016-06-19 14:00","2016","06","19","14:00","23.7","","15.5","","60","","18","","20","","","","101.13","","28","","","","NA"
"2016-06-19 15:00","2016","06","19","15:00","23.3","","15.0","","60","","18","","21","","","","101.07","","27","","","","NA"
"2016-06-19 16:00","2016","06","19","16:00","24.0","","14.8","","57","","18","","18","","","","101.05","","28","","","","NA"
"2016-06-19 17:00","2016","06","19","17:00","22.0","","14.7","","63","","18","","18","","","","101.03","","26","","","","NA"
"2016-06-19 18:00","2016","06","19","18:00","21.2","","14.5","","65","","20","","10","","","","101.01","","25","","","","NA"
"2016-06-19 19:00","2016","06","19","19:00","20.9","","14.1","","65","","19","","15","","","","100.99","","","","","","NA"
"2016-06-19 20:00","2016","06","19","20:00","19.8","","13.7","","68","","20","","12","","","","100.99","","","","","","NA"
"2016-06-19 21:00","2016","06","19","21:00","19.7","","13.2","","66","","23","","9","","","","101.00","","","","","","NA"
"2016-06-19 22:00","2016","06","19","22:00","19.4","","13.5","","69","","22","","4","","","","100.96","","","","","","NA"
"2016-06-19 23:00","2016","06","19","23:00","19.5","","13.9","","70","","18","","9","","","","100.90","","","","","","NA"
"2016-06-20 00:00","2016","06","20","00:00","18.9","","14.7","","76","","18","","11","","","","100.83","","","","","","NA"
"2016-06-20 01:00","2016","06","20","01:00","18.5","","15.3","","82","","17","","12","","","","100.82","","","","","","NA"
"2016-06-20 02:00","2016","06","20","02:00","18.1","","14.9","","82","","20","","9","","","","100.80","","","","","","NA"
"2016-06-20 03:00","2016","06","20","03:00","17.9","","14.3","","80","","19","","9","","","","100.82","","","","","","NA"
"2016-06-20 04:00","2016","06","20","04:00","17.8","","14.9","","83","","19","","12","","","","100.81","","","","","","NA"
"2016-06-20 05:00","2016","06","20","05:00","18.0","","14.9","","83","","19","","14","","","","100.81","","","","","","NA"
"2016-06-20 06:00","2016","06","20","06:00","18.9","","15.3","","79","","18","","11","","","","100.79","","","","","","NA"
"2016-06-20 07:00","2016","06","20","07:00","19.6","","15.9","","79","","16","","10","","","","100.71","","","","","","NA"
"2016-06-20 08:00","2016","06","20","08:00","19.8","","15.6","","76","","17","","16","","","","100.66","","","","","","NA"
"2016-06-20 09:00","2016","06","20","09:00","21.7","","15.6","","68","","18","","20","","","","100.57","","26","","","","NA"
"2016-06-20 10:00","2016","06","20","10:00","22.4","","15.9","","67","","19","","24","","","","100.48","","27","","","","NA"
"2016-06-20 11:00","2016","06","20","11:00","23.3","","16.2","","64","","19","","23","","","","100.41","","28","","","","NA"
"2016-06-20 12:00","2016","06","20","12:00","23.5","","16.2","","64","","19","","24","","","","100.28","","28","","","","NA"
"2016-06-20 13:00","2016","06","20","13:00","24.2","","16.7","","63","","19","","23","","","","100.20","","29","","","","NA"
"2016-06-20 14:00","2016","06","20","14:00","25.3","","17.0","","60","","19","","25","","","","100.08","","31","","","","NA"
"2016-06-20 15:00","2016","06","20","15:00","24.2","","17.3","","66","","19","","23","","","","99.97","","30","","","","NA"
"2016-06-20 16:00","2016","06","20","16:00","24.1","","18.5","","71","","19","","23","","","","99.80","","30","","","","NA"
"2016-06-20 17:00","2016","06","20","17:00","26.0","","18.8","","65","","20","","24","","","","99.66","","33","","","","NA"
"2016-06-20 18:00","2016","06","20","18:00","25.6","","17.8","","62","","21","","27","","","","99.59","","31","","","","NA"
"2016-06-20 19:00","2016","06","20","19:00","22.1","","17.3","","74","","30","","12","","","","99.61","","28","","","","NA"
"2016-06-20 20:00","2016","06","20","20:00","19.7","","18.3","","92","","32","","41","","","","99.65","","","","","","NA"
"2016-06-20 21:00","2016","06","20","21:00","19.3","","18.2","","93","","23","","7","","","","99.67","","","","","","NA"
"2016-06-20 22:00","2016","06","20","22:00","19.1","","18.0","","94","","27","","4","","","","99.59","","","","","","NA"
"2016-06-20 23:00","2016","06","20","23:00","19.9","","17.9","","88","","28","","20","","","","99.61","","","","","","NA"
"2016-06-21 00:00","2016","06","21","00:00","18.4","","12.6","","69","","28","","15","","","","99.70","","","","","","NA"
"2016-06-21 01:00","2016","06","21","01:00","18.6","","12.9","","70","","24","","19","","","","99.73","","","","","","NA"
"2016-06-21 02:00","2016","06","21","02:00","17.2","","10.2","","63","","26","","18","","","","99.81","","","","","","NA"
"2016-06-21 03:00","2016","06","21","03:00","16.0","","9.8","","67","","26","","17","","","","99.86","","","","","","NA"
"2016-06-21 04:00","2016","06","21","04:00","14.6","","9.0","","69","","27","","15","","","","99.89","","","","","","NA"
"2016-06-21 05:00","2016","06","21","05:00","14.4","","8.4","","67","","28","","12","","","","99.94","","","","","","NA"
"2016-06-21 06:00","2016","06","21","06:00","15.3","","8.7","","65","","25","","10","","","","99.91","","","","","","NA"
"2016-06-21 07:00","2016","06","21","07:00","16.6","","9.2","","61","","24","","17","","","","99.93","","","","","","NA"
"2016-06-21 08:00","2016","06","21","08:00","18.3","","8.5","","53","","25","","18","","","","99.95","","","","","","NA"
"2016-06-21 09:00","2016","06","21","09:00","19.0","","8.6","","51","","27","","19","","","","99.95","","","","","","NA"
"2016-06-21 10:00","2016","06","21","10:00","19.3","","8.7","","50","","25","","17","","","","99.93","","","","","","NA"
"2016-06-21 11:00","2016","06","21","11:00","21.0","","8.5","","45","","25","","18","","","","99.92","","","","","","NA"
"2016-06-21 12:00","2016","06","21","12:00","21.8","","7.8","","41","","25","","21","","","","99.92","","","","","","NA"
"2016-06-21 13:00","2016","06","21","13:00","22.2","","6.7","","37","","26","","22","","","","99.89","","","","","","NA"
"2016-06-21 14:00","2016","06","21","14:00","22.6","","6.3","","35","","25","","20","","","","99.85","","","","","","NA"
"2016-06-21 15:00","2016","06","21","15:00","23.7","","6.9","","34","","26","","20","","","","99.80","","","","","","NA"
"2016-06-21 16:00","2016","06","21","16:00","23.3","","5.7","","32","","27","","20","","","","99.77","","","","","","NA"
"2016-06-21 17:00","2016","06","21","17:00","23.1","","7.2","","36","","27","","21","","","","99.74","","","","","","NA"
"2016-06-21 18:00","2016","06","21","18:00","22.3","","5.4","","33","","27","","17","","","","99.70","","","","","","NA"
"2016-06-21 19:00","2016","06","21","19:00","21.0","","5.8","","37","","28","","11","","","","99.72","","","","","","NA"
"2016-06-21 20:00","2016","06","21","20:00","19.6","","5.9","","41","","27","","8","","","","99.75","","","","","","NA"
"2016-06-21 21:00","2016","06","21","21:00","18.1","","9.0","","56","","23","","8","","","","99.78","","","","","","NA"
"2016-06-21 22:00","2016","06","21","22:00","16.6","","9.7","","64","","20","","8","","","","99.73","","","","","","NA"
"2016-06-21 23:00","2016","06","21","23:00","15.0","","10.2","","73","","18","","4","","","","99.70","","","","","","NA"
"2016-06-22 00:00","2016","06","22","00:00","14.9","","10.6","","76","","30","","16","","","","99.84","","","","","","NA"
"2016-06-22 01:00","2016","06","22","01:00","15.8","","10.7","","72","","20","","16","","","","99.71","","","","","","NA"
"2016-06-22 02:00","2016","06","22","02:00","14.7","","10.2","","74","","24","","6","","","","99.63","","","","","","NA"
"2016-06-22 03:00","2016","06","22","03:00","12.7","","11.1","","90","","28","","6","","","","99.62","","","","","","NA"
"2016-06-22 04:00","2016","06","22","04:00","14.6","","11.2","","80","","24","","10","","","","99.65","","","","","","NA"
"2016-06-22 05:00","2016","06","22","05:00","14.6","","11.6","","82","","24","","15","","","","99.76","","","","","","NA"
"2016-06-22 06:00","2016","06","22","06:00","14.5","","11.9","","84","","22","","10","","","","99.71","","","","","","NA"
"2016-06-22 07:00","2016","06","22","07:00","16.0","","12.1","","78","","24","","18","","","","99.78","","","","","","NA"
"2016-06-22 08:00","2016","06","22","08:00","17.5","","11.3","","67","","28","","14","","","","99.80","","","","","","NA"
"2016-06-22 09:00","2016","06","22","09:00","18.9","","10.3","","57","","28","","18","","","","99.87","","","","","","NA"
"2016-06-22 10:00","2016","06","22","10:00","19.7","","9.9","","53","","28","","21","","","","99.96","","","","","","NA"
"2016-06-22 11:00","2016","06","22","11:00","19.1","","9.0","","52","","31","","22","","","","100.01","","","","","","NA"
"2016-06-22 12:00","2016","06","22","12:00","20.6","","8.0","","44","","28","","23","","","","100.05","","","","","","NA"
"2016-06-22 13:00","2016","06","22","13:00","21.1","","9.2","","47","","32","","21","","","","100.00","","","","","","NA"
"2016-06-22 14:00","2016","06","22","14:00","21.4","","8.8","","44","","32","","18","","","","100.02","","","","","","NA"
"2016-06-22 15:00","2016","06","22","15:00","21.0","","6.7","","40","","29","","15","","","","100.03","","","","","","NA"
"2016-06-22 16:00","2016","06","22","16:00","21.0","","7.6","","42","","30","","9","","","","100.01","","","","","","NA"
"2016-06-22 17:00","2016","06","22","17:00","18.7","","12.2","","66","","19","","18","","","","100.02","","","","","","NA"
"2016-06-22 18:00","2016","06","22","18:00","19.4","","11.3","","60","","22","","12","","","","100.03","","","","","","NA"
"2016-06-22 19:00","2016","06","22","19:00","18.8","","10.9","","60","","22","","9","","","","100.05","","","","","","NA"
"2016-06-22 20:00","2016","06","22","20:00","17.7","","9.6","","59","","22","","8","","","","100.08","","","","","","NA"
"2016-06-22 21:00","2016","06","22","21:00","16.4","","8.7","","60","","24","","10","","","","100.12","","","","","","NA"
"2016-06-22 22:00","2016","06","22","22:00","16.2","","8.1","","59","","23","","13","","","","100.10","","","","","","NA"
"2016-06-22 23:00","2016","06","22","23:00","15.7","","10.5","","71","","24","","12","","","","100.06","","","","","","NA"
"2016-06-23 00:00","2016","06","23","00:00","14.8","","7.6","","62","","26","","8","","","","100.04","","","","","","NA"
"2016-06-23 01:00","2016","06","23","01:00","14.2","","8.8","","70","","24","","10","","","","100.08","","","","","","NA"
"2016-06-23 02:00","2016","06","23","02:00","13.7","","5.5","","58","","26","","9","","","","100.08","","","","","","NA"
"2016-06-23 03:00","2016","06","23","03:00","12.3","","4.4","","59","","28","","9","","","","100.03","","","","","","NA"
"2016-06-23 04:00","2016","06","23","04:00","10.8","","4.2","","64","","30","","8","","","","100.03","","","","","","NA"
"2016-06-23 05:00","2016","06","23","05:00","10.3","","5.8","","74","","35","","5","","","","100.03","","","","","","NA"
"2016-06-23 06:00","2016","06","23","06:00","12.6","","5.6","","62","","33","","3","","","","100.09","","","","","","NA"
"2016-06-23 07:00","2016","06","23","07:00","15.0","","7.2","","60","","32","","4","","","","100.13","","","","","","NA"
"2016-06-23 08:00","2016","06","23","08:00","17.8","","9.4","","58","","3","","3","","","","100.13","","","","","","NA"
"2016-06-23 09:00","2016","06","23","09:00","17.9","","10.6","","62","","16","","11","","","","100.13","","","","","","NA"
"2016-06-23 10:00","2016","06","23","10:00","18.9","","8.5","","51","","17","","10","","","","100.12","","","","","","NA"
"2016-06-23 11:00","2016","06","23","11:00","19.1","","9.8","","55","","18","","14","","","","100.13","","","","","","NA"
"2016-06-23 12:00","2016","06","23","12:00","19.4","","7.0","","44","","19","","13","","","","100.13","","","","","","NA"
"2016-06-23 13:00","2016","06","23","13:00","19.5","","11.6","","60","","18","","15","","","","100.12","","","","","","NA"
"2016-06-23 14:00","2016","06","23","14:00","20.3","","9.4","","49","","19","","14","","","","100.10","","","","","","NA"
"2016-06-23 15:00","2016","06","23","15:00","20.1","","10.5","","54","","19","","18","","","","100.09","","","","","","NA"
"2016-06-23 16:00","2016","06","23","16:00","20.6","","10.3","","52","","19","","15","","","","100.09","","","","","","NA"
"2016-06-23 17:00","2016","06","23","17:00","21.1","","9.9","","49","","23","","13","","","","100.08","","","","","","NA"
"2016-06-23 18:00","2016","06","23","18:00","20.7","","11.4","","55","","15","","8","","","","100.10","","","","","","NA"
"2016-06-23 19:00","2016","06","23","19:00","19.3","","12.0","","63","","20","","5","","","","100.14","","","","","","NA"
"2016-06-23 20:00","2016","06","23","20:00","17.6","","13.3","","76","","20","","4","","","","100.19","","","","","","NA"
"2016-06-23 21:00","2016","06","23","21:00","15.6","","10.7","","72","","33","","4","","","","100.29","","","","","","NA"
"2016-06-23 22:00","2016","06","23","22:00","15.2","","11.4","","78","","31","","2","","","","100.35","","","","","","NA"
"2016-06-23 23:00","2016","06","23","23:00","15.8","","10.1","","69","","28","","10","","","","100.38","","","","","","NA"
"2016-06-24 00:00","2016","06","24","00:00","14.2","","8.9","","71","","29","","8","","","","100.38","","","","","","NA"
"2016-06-24 01:00","2016","06","24","01:00","14.2","","9.2","","72","","31","","6","","","","100.36","","","","","","NA"
"2016-06-24 02:00","2016","06","24","02:00","13.4","","9.1","","75","","31","","6","","","","100.39","","","","","","NA"
"2016-06-24 03:00","2016","06","24","03:00","12.6","","9.1","","79","","33","","7","","","","100.45","","","","","","NA"
"2016-06-24 04:00","2016","06","24","04:00","11.8","","9.4","","85","","34","","9","","","","100.51","","","","","","NA"
"2016-06-24 05:00","2016","06","24","05:00","11.8","","8.9","","83","","34","","5","","","","100.57","","","","","","NA"
"2016-06-24 06:00","2016","06","24","06:00","15.6","","11.8","","78","","2","","4","","","","100.63","","","","","","NA"
"2016-06-24 07:00","2016","06","24","07:00","18.3","","12.0","","66","","9","","2","","","","100.71","","","","","","NA"
"2016-06-24 08:00","2016","06","24","08:00","18.3","","11.7","","65","","16","","6","","","","100.76","","","","","","NA"
"2016-06-24 09:00","2016","06","24","09:00","19.6","","11.7","","60","","16","","7","","","","100.78","","","","","","NA"
"2016-06-24 10:00","2016","06","24","10:00","19.9","","12.2","","61","","15","","12","","","","100.82","","","","","","NA"
"2016-06-24 11:00","2016","06","24","11:00","19.2","","13.7","","70","","17","","14","","","","100.83","","","","","","NA"
"2016-06-24 12:00","2016","06","24","12:00","20.7","","13.0","","61","","17","","14","","","","100.82","","","","","","NA"
"2016-06-24 13:00","2016","06","24","13:00","20.4","","14.0","","66","","18","","17","","","","100.79","","","","","","NA"
"2016-06-24 14:00","2016","06","24","14:00","21.9","","13.8","","60","","19","","15","","","","100.81","","25","","","","NA"
"2016-06-24 15:00","2016","06","24","15:00","22.6","","11.4","","49","","19","","15","","","","100.80","","25","","","","NA"
"2016-06-24 16:00","2016","06","24","16:00","22.9","","12.4","","52","","19","","14","","","","100.78","","25","","","","NA"
"2016-06-24 17:00","2016","06","24","17:00","23.7","","11.8","","47","","20","","12","","","","100.76","","26","","","","NA"
"2016-06-24 18:00","2016","06","24","18:00","23.6","","10.5","","44","","23","","9","","","","100.77","","25","","","","NA"
"2016-06-24 19:00","2016","06","24","19:00","22.3","","11.9","","52","","23","","6","","","","100.78","","25","","","","NA"
"2016-06-24 20:00","2016","06","24","20:00","20.6","","10.4","","52","","24","","6","","","","100.76","","","","","","NA"
"2016-06-24 21:00","2016","06","24","21:00","17.9","","9.7","","59","","","","0","","","","100.79","","","","","","NA"
"2016-06-24 22:00","2016","06","24","22:00","16.9","","11.6","","71","","32","","7","","","","100.82","","","","","","NA"
"2016-06-24 23:00","2016","06","24","23:00","15.8","","10.3","","70","","15","","2","","","","100.82","","","","","","NA"
"2016-06-25 00:00","2016","06","25","00:00","14.9","","11.6","","81","","35","","6","","","","100.84","","","","","","NA"
"2016-06-25 01:00","2016","06","25","01:00","13.1","","9.9","","81","","34","","10","","","","100.88","","","","","","NA"
"2016-06-25 02:00","2016","06","25","02:00","14.4","","10.4","","77","","17","","3","","","","100.90","","","","","","NA"
"2016-06-25 03:00","2016","06","25","03:00","11.5","","9.6","","88","","34","","10","","","","100.92","","","","","","NA"
"2016-06-25 04:00","2016","06","25","04:00"
"2016-06-25 05:00","2016","06","25","05:00"
"2016-06-25 06:00","2016","06","25","06:00"
"2016-06-25 07:00","2016","06","25","07:00"
"2016-06-25 08:00","2016","06","25","08:00"
"2016-06-25 09:00","2016","06","25","09:00","22.3","","10.9","","48","","18","","8","","","","101.13","","","","","","NA"
"2016-06-25 10:00","2016","06","25","10:00","22.0","","13.2","","57","","17","","10","","","","101.12","","25","","","","NA"
"2016-06-25 11:00","2016","06","25","11:00","21.9","","16.6","","72","","17","","13","","","","101.11","","27","","","","NA"
"2016-06-25 12:00","2016","06","25","12:00","22.5","","12.8","","54","","17","","11","","","","101.06","","25","","","","NA"
"2016-06-25 13:00","2016","06","25","13:00","23.6","","13.6","","53","","18","","13","","","","101.04","","27","","","","NA"
"2016-06-25 14:00","2016","06","25","14:00","24.4","","12.0","","46","","17","","11","","","","101.04","","27","","","","NA"
"2016-06-25 15:00","2016","06","25","15:00","24.9","","11.2","","42","","17","","10","","","","100.98","","27","","","","NA"
"2016-06-25 16:00","2016","06","25","16:00","26.1","","10.0","","36","","20","","10","","","","100.96","","27","","","","NA"
"2016-06-25 17:00","2016","06","25","17:00","25.0","","11.6","","43","","19","","9","","","","100.93","","27","","","","NA"
"2016-06-25 18:00","2016","06","25","18:00","25.5","","10.3","","38","","21","","6","","","","100.93","","27","","","","NA"
"2016-06-25 19:00","2016","06","25","19:00","24.1","","10.0","","41","","19","","4","","","","100.87","","25","","","","NA"
"2016-06-25 20:00","2016","06","25","20:00","20.3","","16.2","","77","","15","","6","","","","100.86","","25","","","","NA"
"2016-06-25 21:00","2016","06","25","21:00","18.2","","14.2","","77","","16","","7","","","","100.85","","","","","","NA"
"2016-06-25 22:00","2016","06","25","22:00","17.1","","14.5","","84","","0","","1","","","","100.85","","","","","","NA"
"2016-06-25 23:00","2016","06","25","23:00","15.4","","12.9","","85","","33","","7","","","","100.86","","","","","","NA"
"2016-06-26 00:00","2016","06","26","00:00","15.1","","12.8","","86","","34","","9","","","","100.90","","","","","","NA"
"2016-06-26 01:00","2016","06","26","01:00","14.0","","12.1","","88","","34","","9","","","","100.90","","","","","","NA"
"2016-06-26 02:00","2016","06","26","02:00","13.3","","11.2","","87","","34","","10","","","","100.91","","","","","","NA"
"2016-06-26 03:00","2016","06","26","03:00","13.3","","11.6","","90","","36","","5","","","","100.85","","","","","","NA"
"2016-06-26 04:00","2016","06","26","04:00","13.3","","11.5","","89","","6","","5","","","","100.82","","","","","","NA"
"2016-06-26 05:00","2016","06","26","05:00","13.0","","11.3","","89","","36","","4","","","","100.87","","","","","","NA"
"2016-06-26 06:00","2016","06","26","06:00","16.4","","14.2","","87","","6","","5","","","","100.87","","","","","","NA"
"2016-06-26 07:00","2016","06","26","07:00","20.3","","17.2","","82","","17","","14","","","","100.86","","26","","","","NA"
"2016-06-26 08:00","2016","06","26","08:00","20.9","","17.6","","82","","16","","11","","","","100.89","","27","","","","NA"
"2016-06-26 09:00","2016","06","26","09:00","22.1","","18.3","","79","","19","","10","","","","100.88","","28","","","","NA"
"2016-06-26 10:00","2016","06","26","10:00","22.2","","18.2","","78","","17","","15","","","","100.85","","28","","","","NA"
"2016-06-26 11:00","2016","06","26","11:00","22.8","","18.6","","78","","16","","13","","","","100.83","","29","","","","NA"
"2016-06-26 12:00","2016","06","26","12:00","24.0","","18.1","","70","","16","","10","","","","100.80","","30","","","","NA"
"2016-06-26 13:00","2016","06","26","13:00","25.4","","17.9","","63","","18","","12","","","","100.72","","31","","","","NA"
"2016-06-26 14:00","2016","06","26","14:00","25.2","","18.7","","67","","17","","11","","","","100.64","","32","","","","NA"
"2016-06-26 15:00","2016","06","26","15:00","26.2","","19.3","","66","","18","","15","","","","100.56","","33","","","","NA"
"2016-06-26 16:00","2016","06","26","16:00","25.6","","18.7","","66","","18","","13","","","","100.50","","32","","","","NA"
"2016-06-26 17:00","2016","06","26","17:00","25.3","","17.7","","63","","18","","13","","","","100.43","","31","","","","NA"
"2016-06-26 18:00","2016","06","26","18:00","24.9","","18.5","","68","","17","","12","","","","100.35","","31","","","","NA"
"2016-06-26 19:00","2016","06","26","19:00","23.8","","18.7","","73","","16","","7","","","","100.29","","30","","","","NA"
"2016-06-26 20:00","2016","06","26","20:00","23.2","","18.1","","73","","18","","6","","","","100.29","","29","","","","NA"
"2016-06-26 21:00","2016","06","26","21:00","23.7","","17.7","","69","","18","","14","","","","100.30","","29","","","","NA"
"2016-06-26 22:00","2016","06","26","22:00","23.1","","17.8","","72","","17","","20","","","","100.28","","29","","","","NA"
"2016-06-26 23:00","2016","06","26","23:00","22.7","","17.7","","74","","18","","20","","","","100.23","","28","","","","NA"
"2016-06-27 00:00","2016","06","27","00:00","21.8","","17.8","","78","","18","","17","","","","100.23","","28","","","","NA"
"2016-06-27 01:00","2016","06","27","01:00","22.5","","17.2","","72","","25","","12","","","","100.26","","28","","","","NA"
"2016-06-27 02:00","2016","06","27","02:00","21.8","","17.9","","78","","22","","11","","","","100.21","","28","","","","NA"
"2016-06-27 03:00","2016","06","27","03:00","20.4","","18.4","","88","","19","","14","","","","100.18","","27","","","","NA"
"2016-06-27 04:00","2016","06","27","04:00","20.5","","19.2","","92","","19","","14","","","","100.16","","27","","","","NA"
"2016-06-27 05:00","2016","06","27","05:00","19.7","","18.3","","92","","20","","10","","","","100.16","","","","","","NA"
"2016-06-27 06:00","2016","06","27","06:00","19.6","","17.9","","90","","18","","21","","","","100.14","","","","","","NA"
"2016-06-27 07:00","2016","06","27","07:00","19.8","","17.7","","88","","17","","22","","","","100.15","","","","","","NA"
"2016-06-27 08:00","2016","06","27","08:00","19.9","","17.7","","87","","18","","19","","","","100.16","","","","","","NA"
"2016-06-27 09:00","2016","06","27","09:00","19.8","","17.6","","87","","18","","21","","","","100.15","","","","","","NA"
"2016-06-27 10:00","2016","06","27","10:00","20.3","","18.0","","87","","18","","18","","","","100.12","","26","","","","NA"
"2016-06-27 11:00","2016","06","27","11:00","20.2","","17.8","","86","","19","","21","","","","100.13","","26","","","","NA"
"2016-06-27 12:00","2016","06","27","12:00","21.3","","18.8","","85","","18","","20","","","","100.10","","28","","","","NA"
"2016-06-27 13:00","2016","06","27","13:00","21.7","","19.1","","85","","18","","20","","","","100.03","","29","","","","NA"
"2016-06-27 14:00","2016","06","27","14:00","21.7","","18.8","","83","","18","","21","","","","99.99","","28","","","","NA"
"2016-06-27 15:00","2016","06","27","15:00","22.6","","19.7","","84","","19","","17","","","","99.95","","30","","","","NA"
"2016-06-27 16:00","2016","06","27","16:00","22.7","","19.0","","80","","18","","21","","","","99.90","","29","","","","NA"
"2016-06-27 17:00","2016","06","27","17:00","22.9","","18.5","","76","","18","","17","","","","99.87","","29","","","","NA"
"2016-06-27 18:00","2016","06","27","18:00","24.2","","17.9","","68","","20","","13","","","","99.89","","30","","","","NA"
"2016-06-27 19:00","2016","06","27","19:00","23.4","","16.9","","67","","22","","11","","","","99.91","","29","","","","NA"
"2016-06-27 20:00","2016","06","27","20:00","23.7","","16.6","","65","","22","","10","","","","99.95","","29","","","","NA"
"2016-06-27 21:00","2016","06","27","21:00","23.7","","16.2","","63","","27","","12","","","","100.01","","28","","","","NA"
"2016-06-27 22:00","2016","06","27","22:00","22.9","","16.3","","67","","24","","16","","","","100.00","","28","","","","NA"
"2016-06-27 23:00","2016","06","27","23:00","20.7","","16.0","","75","","27","","5","","","","99.98","","25","","","","NA"
"2016-06-28 00:00","2016","06","28","00:00","20.8","","17.4","","81","","16","","10","","","","99.99","","26","","","","NA"
"2016-06-28 01:00","2016","06","28","01:00","19.4","","16.8","","85","","20","","3","","","","99.96","","","","","","NA"
"2016-06-28 02:00","2016","06","28","02:00","17.7","","16.2","","91","","","","0","","","","99.97","","","","","","NA"
"2016-06-28 03:00","2016","06","28","03:00","17.7","","16.3","","92","","34","","6","","","","99.98","","","","","","NA"
"2016-06-28 04:00","2016","06","28","04:00","17.5","","15.8","","90","","31","","5","","","","100.00","","","","","","NA"
"2016-06-28 05:00","2016","06","28","05:00","18.2","","15.8","","86","","31","","2","","","","99.99","","","","","","NA"
"2016-06-28 06:00","2016","06","28","06:00","19.7","","17.0","","85","","33","","5","","","","100.01","","","","","","NA"
"2016-06-28 07:00","2016","06","28","07:00","21.7","","15.5","","68","","34","","10","","","","100.05","","26","","","","NA"
"2016-06-28 08:00","2016","06","28","08:00","23.1","","15.6","","63","","34","","5","","","","100.07","","27","","","","NA"
"2016-06-28 09:00","2016","06","28","09:00","24.0","","15.1","","58","","30","","4","","","","100.06","","28","","","","NA"
"2016-06-28 10:00","2016","06","28","10:00","24.1","","15.3","","58","","21","","10","","","","100.07","","28","","","","NA"
"2016-06-28 11:00","2016","06","28","11:00","24.0","","16.6","","63","","19","","18","","","","100.08","","29","","","","NA"
"2016-06-28 12:00","2016","06","28","12:00"
"2016-06-28 13:00","2016","06","28","13:00","22.5","","17.6","","74","","19","","23","","","","100.05","","28","","","","NA"
"2016-06-28 14:00","2016","06","28","14:00","24.2","","17.2","","65","","21","","17","","","","100.03","","30","","","","NA"
"2016-06-28 15:00","2016","06","28","15:00","24.2","","16.9","","64","","31","","17","","","","100.01","","29","","","","NA"
"2016-06-28 16:00","2016","06","28","16:00","22.8","","15.5","","63","","35","","25","","","","100.05","","27","","","","NA"
"2016-06-28 17:00","2016","06","28","17:00","21.5","","15.2","","67","","35","","17","","","","100.10","","26","","","","NA"
"2016-06-28 18:00","2016","06","28","18:00","22.0","","15.2","","65","","34","","12","","","","100.10","","26","","","","NA"
"2016-06-28 19:00","2016","06","28","19:00","20.4","","14.7","","70","","35","","14","","","","100.16","","","","","","NA"
"2016-06-28 20:00","2016","06","28","20:00","18.4","","14.3","","77","","32","","11","","","","100.18","","","","","","NA"
"2016-06-28 21:00","2016","06","28","21:00","17.1","","14.4","","84","","32","","10","","","","100.19","","","","","","NA"
"2016-06-28 22:00","2016","06","28","22:00","17.0","","15.1","","88","","32","","10","","","","100.16","","","","","","NA"
"2016-06-28 23:00","2016","06","28","23:00","17.5","","15.0","","85","","28","","7","","","","100.15","","","","","","NA"
"2016-06-29 00:00","2016","06","29","00:00","16.1","","14.3","","89","","32","","9","","","","100.14","","","","","","NA"
"2016-06-29 01:00","2016","06","29","01:00","16.0","","13.6","","86","","30","","8","","","","100.12","","","","","","NA"
"2016-06-29 02:00","2016","06","29","02:00","15.5","","13.2","","86","","33","","9","","","","100.10","","","","","","NA"
"2016-06-29 03:00","2016","06","29","03:00","15.6","","13.3","","86","","33","","13","","","","100.10","","","","","","NA"
"2016-06-29 04:00","2016","06","29","04:00","15.5","","13.3","","87","","33","","8","","","","100.12","","","","","","NA"
"2016-06-29 05:00","2016","06","29","05:00","16.2","","13.8","","86","","29","","5","","","","100.17","","","","","","NA"
"2016-06-29 06:00","2016","06","29","06:00","15.7","","14.0","","90","","31","","8","","","","100.20","","","","","","NA"
"2016-06-29 07:00","2016","06","29","07:00","16.0","","14.5","","91","","35","","8","","","","100.20","","","","","","NA"
"2016-06-29 08:00","2016","06","29","08:00","17.1","","14.7","","86","","32","","6","","","","100.22","","","","","","NA"
"2016-06-29 09:00","2016","06","29","09:00","18.2","","15.3","","83","","28","","6","","","","100.27","","","","","","NA"
"2016-06-29 10:00","2016","06","29","10:00","19.5","","15.4","","77","","28","","9","","","","100.28","","","","","","NA"
"2016-06-29 11:00","2016","06","29","11:00","21.1","","15.0","","68","","29","","11","","","","100.21","","25","","","","NA"
"2016-06-29 12:00","2016","06","29","12:00","23.3","","15.3","","61","","28","","12","","","","100.19","","27","","","","NA"
"2016-06-29 13:00","2016","06","29","13:00","20.4","","15.8","","75","","19","","24","","","","100.21","","25","","","","NA"
"2016-06-29 14:00","2016","06","29","14:00","21.9","","15.7","","68","","19","","14","","","","100.20","","26","","","","NA"
"2016-06-29 15:00","2016","06","29","15:00","24.5","","12.6","","47","","31","","13","","","","100.18","","27","","","","NA"
"2016-06-29 16:00","2016","06","29","16:00","24.7","","12.2","","46","","31","","12","","","","100.15","","27","","","","NA"
"2016-06-29 17:00","2016","06","29","17:00","23.4","","11.9","","48","","29","","9","","","","100.18","","26","","","","NA"
"2016-06-29 18:00","2016","06","29","18:00","23.8","","12.4","","49","","31","","8","","","","100.21","","26","","","","NA"
"2016-06-29 19:00","2016","06","29","19:00","22.4","","14.4","","61","","24","","12","","","","100.23","","26","","","","NA"
"2016-06-29 20:00","2016","06","29","20:00","20.5","","11.7","","57","","26","","11","","","","100.25","","","","","","NA"
"2016-06-29 21:00","2016","06","29","21:00","19.6","","11.1","","58","","25","","11","","","","100.28","","","","","","NA"
"2016-06-29 22:00","2016","06","29","22:00","18.1","","11.2","","64","","25","","8","","","","100.30","","","","","","NA"
"2016-06-29 23:00","2016","06","29","23:00","17.6","","11.7","","69","","25","","10","","","","100.30","","","","","","NA"
"2016-06-30 00:00","2016","06","30","00:00","17.1","","11.1","","68","","30","","15","","","","100.32","","","","","","NA"
"2016-06-30 01:00","2016","06","30","01:00","15.5","","10.4","","71","","31","","12","","","","100.33","","","","","","NA"
"2016-06-30 02:00","2016","06","30","02:00","14.8","","10.0","","73","","30","","13","","","","100.34","","","","","","NA"
"2016-06-30 03:00","2016","06","30","03:00","13.7","","9.9","","78","","30","","8","","","","100.34","","","","","","NA"
"2016-06-30 04:00","2016","06","30","04:00","12.6","","9.7","","83","","27","","8","","","","100.37","","","","","","NA"
"2016-06-30 05:00","2016","06","30","05:00","12.8","","9.7","","82","","25","","7","","","","100.41","","","","","","NA"
"2016-06-30 06:00","2016","06","30","06:00","14.8","","10.7","","77","","26","","6","","","","100.43","","","","","","NA"
"2016-06-30 07:00","2016","06","30","07:00","16.1","","10.4","","69","","25","","6","","","","100.48","","","","","","NA"
"2016-06-30 08:00","2016","06","30","08:00","18.1","","11.5","","66","","22","","5","","","","100.49","","","","","","NA"
"2016-06-30 09:00","2016","06","30","09:00","19.6","","11.7","","60","","22","","11","","","","100.53","","","","","","NA"
"2016-06-30 10:00","2016","06","30","10:00","22.2","","11.7","","51","","24","","11","","","","100.55","","","","","","NA"
"2016-06-30 11:00","2016","06","30","11:00","23.7","","11.9","","47","","22","","15","","","","100.53","","26","","","","NA"
"2016-06-30 12:00","2016","06","30","12:00","22.3","","15.6","","66","","18","","21","","","","100.47","","27","","","","NA"
"2016-06-30 13:00","2016","06","30","13:00","23.6","","13.4","","53","","19","","22","","","","100.45","","27","","","","NA"
"2016-06-30 14:00","2016","06","30","14:00","25.7","","10.9","","40","","20","","19","","","","100.42","","27","","","","NA"
"2016-06-30 15:00","2016","06","30","15:00","24.0","","12.1","","47","","20","","20","","","","100.41","","26","","","","NA"
"2016-06-30 16:00","2016","06","30","16:00","23.6","","11.3","","46","","19","","21","","","","100.41","","26","","","","NA"
"2016-06-30 17:00","2016","06","30","17:00","22.7","","10.8","","47","","19","","15","","","","100.38","","","","","","NA"
"2016-06-30 18:00","2016","06","30","18:00","20.4","","13.4","","64","","18","","14","","","","100.40","","","","","","NA"
"2016-06-30 19:00","2016","06","30","19:00","19.9","","12.8","","64","","17","","13","","","","100.38","","","","","","NA"
"2016-06-30 20:00","2016","06","30","20:00","19.1","","13.0","","68","","18","","12","","","","100.39","","","","","","NA"
"2016-06-30 21:00","2016","06","30","21:00","18.4","","13.3","","72","","22","","6","","","","100.45","","","","","","NA"
"2016-06-30 22:00","2016","06","30","22:00","17.7","","13.3","","76","","22","","8","","","","100.42","","","","","","NA"
"2016-06-30 23:00","2016","06","30","23:00","14.0","","11.6","","85","","24","","2","","","","100.39","","","","","","NA"
