"Station Name","KINGSTON CLIMATE"
"Province","ONTARIO"
"Latitude","44.22"
"Longitude","-76.60"
"Elevation","93.00"
"Climate Identifier","6104142"
"WMO Identifier","71820"
"TC Identifier","TKG"
"All times are specified in Local Standard Time (LST). Add 1 hour to adjust for Daylight Saving Time where and when it is observed."

"Legend"
"E","Estimated"
"M","Missing"
"NA","Not Available"

"Date/Time","Year","Month","Day","Time","Temp (°C)","Temp Flag","Dew Point Temp (°C)","Dew Point Temp Flag","Rel Hum (%)","Rel Hum Flag","Wind Dir (10s deg)","Wind Dir Flag","Wind Spd (km/h)","Wind Spd Flag","Visibility (km)","Visibility Flag","Stn Press (kPa)","Stn Press Flag","Hmdx","Hmdx Flag","Wind Chill","Wind Chill Flag","Weather"
"2016-04-01 00:00","2016","04","01","00:00","11.3","","9.6","","89","","24","","25","","","","98.58","","","","","","NA"
"2016-04-01 01:00","2016","04","01","01:00","11.6","","10.1","","90","","24","","27","","","","98.55","","","","","","NA"
"2016-04-01 02:00","2016","04","01","02:00","9.0","","6.7","","85","","20","","27","","","","98.49","","","","","","NA"
"2016-04-01 03:00","2016","04","01","03:00","11.6","","9.8","","89","","22","","27","","","","98.55","","","","","","NA"
"2016-04-01 04:00","2016","04","01","04:00","10.7","","8.8","","88","","23","","22","","","","98.57","","","","","","NA"
"2016-04-01 05:00","2016","04","01","05:00","8.7","","7.4","","91","","23","","14","","","","98.61","","","","","","NA"
"2016-04-01 06:00","2016","04","01","06:00","9.2","","7.8","","91","","21","","12","","","","98.59","","","","","","NA"
"2016-04-01 07:00","2016","04","01","07:00","7.3","","6.3","","94","","22","","6","","","","98.61","","","","","","NA"
"2016-04-01 08:00","2016","04","01","08:00","8.3","","6.8","","90","","25","","12","","","","98.65","","","","","","NA"
"2016-04-01 09:00","2016","04","01","09:00","10.1","","8.0","","87","","23","","16","","","","98.65","","","","","","NA"
"2016-04-01 10:00","2016","04","01","10:00","10.2","","6.9","","80","","23","","20","","","","98.66","","","","","","NA"
"2016-04-01 11:00","2016","04","01","11:00","11.5","","7.0","","74","","23","","25","","","","98.62","","","","","","NA"
"2016-04-01 12:00","2016","04","01","12:00","10.5","","4.7","","67","","24","","30","","","","98.64","","","","","","NA"
"2016-04-01 13:00","2016","04","01","13:00","9.2","","5.0","","75","","24","","24","","","","98.69","","","","","","NA"
"2016-04-01 14:00","2016","04","01","14:00","9.7","","4.5","","70","","26","","21","","","","98.78","","","","","","NA"
"2016-04-01 15:00","2016","04","01","15:00","8.9","","3.5","","69","","26","","24","","","","98.81","","","","","","NA"
"2016-04-01 16:00","2016","04","01","16:00","8.4","","2.6","","67","","27","","23","","","","98.88","","","","","","NA"
"2016-04-01 17:00","2016","04","01","17:00","8.0","","2.8","","70","","24","","22","","","","98.98","","","","","","NA"
"2016-04-01 18:00","2016","04","01","18:00","6.2","","2.8","","79","","23","","27","","","","99.16","","","","","","NA"
"2016-04-01 19:00","2016","04","01","19:00","5.4","","2.2","","80","","23","","19","","","","99.22","","","","","","NA"
"2016-04-01 20:00","2016","04","01","20:00","6.1","","1.0","","70","","28","","20","","","","99.31","","","","","","NA"
"2016-04-01 21:00","2016","04","01","21:00","4.8","","-0.5","","69","","28","","19","","","","99.41","","","","","","NA"
"2016-04-01 22:00","2016","04","01","22:00","3.3","","-1.0","","74","","28","","10","","","","99.40","","","","","","NA"
"2016-04-01 23:00","2016","04","01","23:00","2.4","","-1.2","","77","","25","","6","","","","99.36","","","","","","NA"
"2016-04-02 00:00","2016","04","02","00:00","1.8","","-0.9","","82","","21","","9","","","","99.40","","","","","","NA"
"2016-04-02 01:00","2016","04","02","01:00","1.5","","-1.0","","83","","22","","6","","","","99.29","","","","","","NA"
"2016-04-02 02:00","2016","04","02","02:00","1.2","","-0.9","","86","","19","","10","","","","99.20","","","","","","NA"
"2016-04-02 03:00","2016","04","02","03:00","2.0","","0.6","","91","","17","","10","","","","99.14","","","","","","NA"
"2016-04-02 04:00","2016","04","02","04:00","1.2","","0.4","","94","","19","","8","","","","99.05","","","","","","NA"
"2016-04-02 05:00","2016","04","02","05:00","1.9","","1.0","","94","","15","","7","","","","98.88","","","","","","NA"
"2016-04-02 06:00","2016","04","02","06:00","2.9","","1.6","","91","","16","","20","","","","98.79","","","","","","NA"
"2016-04-02 07:00","2016","04","02","07:00","3.7","","1.4","","85","","17","","27","","","","98.74","","","","","","NA"
"2016-04-02 08:00","2016","04","02","08:00","4.1","","1.9","","86","","17","","26","","","","98.62","","","","","","NA"
"2016-04-02 09:00","2016","04","02","09:00","4.8","","2.3","","84","","24","","27","","","","98.60","","","","","","NA"
"2016-04-02 10:00","2016","04","02","10:00","3.7","","-0.1","","76","","26","","17","","","","98.64","","","","","","NA"
"2016-04-02 11:00","2016","04","02","11:00","5.8","","-2.1","","57","","26","","29","","","","98.60","","","","","","NA"
"2016-04-02 12:00","2016","04","02","12:00","5.4","","-3.7","","52","","26","","30","","","","98.57","","","","","","NA"
"2016-04-02 13:00","2016","04","02","13:00","5.2","","-5.8","","45","","26","","28","","","","98.54","","","","","","NA"
"2016-04-02 14:00","2016","04","02","14:00","4.5","","-2.1","","62","","24","","21","","","","98.51","","","","","","NA"
"2016-04-02 15:00","2016","04","02","15:00","5.1","","-1.8","","61","","23","","26","","","","98.47","","","","","","NA"
"2016-04-02 16:00","2016","04","02","16:00","4.8","","-3.2","","56","","23","","21","","","","98.45","","","","","","NA"
"2016-04-02 17:00","2016","04","02","17:00","4.6","","-4.0","","54","","24","","12","","","","98.40","","","","","","NA"
"2016-04-02 18:00","2016","04","02","18:00","4.1","","-4.0","","56","","25","","16","","","","98.46","","","","","","NA"
"2016-04-02 19:00","2016","04","02","19:00","3.4","","-6.7","","48","","32","","14","","","","98.43","","","","","","NA"
"2016-04-02 20:00","2016","04","02","20:00","2.9","","-7.1","","48","","0","","1","","","","98.46","","","","","","NA"
"2016-04-02 21:00","2016","04","02","21:00","2.2","","-5.9","","55","","34","","13","","","","98.48","","","","","","NA"
"2016-04-02 22:00","2016","04","02","22:00","0.5","","-6.3","","61","","1","","23","","","","98.54","","","","","","NA"
"2016-04-02 23:00","2016","04","02","23:00","-0.3","","-8.1","","55","","36","","23","","","","98.61","","","","-6","","NA"
"2016-04-03 00:00","2016","04","03","00:00","-0.9","","-8.9","","55","","36","","24","","","","98.69","","","","-7","","NA"
"2016-04-03 01:00","2016","04","03","01:00","-1.5","","-9.9","","53","","1","","20","","","","98.76","","","","-7","","NA"
"2016-04-03 02:00","2016","04","03","02:00","-2.1","","-10.0","","55","","1","","15","","","","98.82","","","","-7","","NA"
"2016-04-03 03:00","2016","04","03","03:00","-2.7","","-9.8","","58","","34","","19","","","","98.94","","","","-8","","NA"
"2016-04-03 04:00","2016","04","03","04:00"
"2016-04-03 05:00","2016","04","03","05:00"
"2016-04-03 06:00","2016","04","03","06:00"
"2016-04-03 07:00","2016","04","03","07:00"
"2016-04-03 08:00","2016","04","03","08:00"
"2016-04-03 09:00","2016","04","03","09:00"
"2016-04-03 10:00","2016","04","03","10:00"
"2016-04-03 11:00","2016","04","03","11:00","-4.1","","-14.3","","45","","28","","28","","","","100.02","","","","-12","","NA"
"2016-04-03 12:00","2016","04","03","12:00","-4.3","","-16.6","","38","","31","","29","","","","100.07","","","","-12","","NA"
"2016-04-03 13:00","2016","04","03","13:00","-3.5","","-15.3","","40","","27","","31","","","","100.11","","","","-11","","NA"
"2016-04-03 14:00","2016","04","03","14:00","-3.5","","-17.4","","33","","27","","28","","","","100.13","","","","-11","","NA"
"2016-04-03 15:00","2016","04","03","15:00","-2.7","","-17.4","","31","","28","","24","","","","100.18","","","","-9","","NA"
"2016-04-03 16:00","2016","04","03","16:00","-2.3","","-18.1","","29","","28","","24","","","","100.20","","","","-9","","NA"
"2016-04-03 17:00","2016","04","03","17:00","-2.8","","-16.4","","34","","26","","25","","","","100.22","","","","-10","","NA"
"2016-04-03 18:00","2016","04","03","18:00","-3.2","","-15.1","","39","","26","","20","","","","100.26","","","","-9","","NA"
"2016-04-03 19:00","2016","04","03","19:00","-3.2","","-15.5","","38","","27","","17","","","","100.34","","","","-9","","NA"
"2016-04-03 20:00","2016","04","03","20:00","-3.2","","-15.2","","39","","27","","14","","","","100.43","","","","-8","","NA"
"2016-04-03 21:00","2016","04","03","21:00","-3.2","","-15.0","","40","","31","","12","","","","100.49","","","","-8","","NA"
"2016-04-03 22:00","2016","04","03","22:00","-3.7","","-13.8","","45","","29","","14","","","","100.48","","","","-9","","NA"
"2016-04-03 23:00","2016","04","03","23:00","-4.4","","-11.6","","57","","32","","7","","","","100.42","","","","-8","","NA"
"2016-04-04 00:00","2016","04","04","00:00","-4.5","","-13.2","","50","","3","","9","","","","100.37","","","","-8","","NA"
"2016-04-04 01:00","2016","04","04","01:00","-5.8","","-12.6","","58","","5","","25","","","","100.36","","","","-13","","NA"
"2016-04-04 02:00","2016","04","04","02:00","-7.0","","-10.3","","77","","5","","22","","","","100.38","","","","-14","","NA"
"2016-04-04 03:00","2016","04","04","03:00","-7.6","","-9.9","","83","","5","","21","","","","100.34","","","","-15","","NA"
"2016-04-04 04:00","2016","04","04","04:00","-7.5","","-10.0","","82","","5","","21","","","","100.34","","","","-15","","NA"
"2016-04-04 05:00","2016","04","04","05:00","-7.5","","-10.3","","80","","5","","26","","","","100.33","","","","-16","","NA"
"2016-04-04 06:00","2016","04","04","06:00","-7.5","","-10.4","","79","","4","","26","","","","100.38","","","","-16","","NA"
"2016-04-04 07:00","2016","04","04","07:00","-7.6","","-10.9","","77","","5","","27","","","","100.39","","","","-16","","NA"
"2016-04-04 08:00","2016","04","04","08:00","-6.9","","-11.7","","68","","4","","26","","","","100.41","","","","-15","","NA"
"2016-04-04 09:00","2016","04","04","09:00","-6.3","","-11.2","","68","","3","","26","","","","100.46","","","","-14","","NA"
"2016-04-04 10:00","2016","04","04","10:00","-5.8","","-11.6","","63","","4","","32","","","","100.51","","","","-14","","NA"
"2016-04-04 11:00","2016","04","04","11:00","-4.6","","-11.6","","58","","4","","30","","","","100.53","","","","-12","","NA"
"2016-04-04 12:00","2016","04","04","12:00","-3.4","","-11.4","","54","","1","","31","","","","100.52","","","","-11","","NA"
"2016-04-04 13:00","2016","04","04","13:00","-2.7","","-13.1","","45","","2","","26","","","","100.54","","","","-10","","NA"
"2016-04-04 14:00","2016","04","04","14:00","-1.9","","-13.0","","42","","2","","23","","","","100.60","","","","-8","","NA"
"2016-04-04 15:00","2016","04","04","15:00","-1.8","","-16.5","","31","","2","","24","","","","100.63","","","","-8","","NA"
"2016-04-04 16:00","2016","04","04","16:00","-1.1","","-14.2","","36","","36","","19","","","","100.68","","","","-6","","NA"
"2016-04-04 17:00","2016","04","04","17:00","-1.5","","-16.3","","31","","3","","19","","","","100.73","","","","-7","","NA"
"2016-04-04 18:00","2016","04","04","18:00","-2.0","","-17.6","","29","","2","","14","","","","100.83","","","","-7","","NA"
"2016-04-04 19:00","2016","04","04","19:00","-3.1","","-17.4","","32","","2","","9","","","","100.93","","","","-7","","NA"
"2016-04-04 20:00","2016","04","04","20:00","-4.2","","-16.5","","38","","1","","7","","","","101.05","","","","-7","","NA"
"2016-04-04 21:00","2016","04","04","21:00","-5.0","","-16.0","","42","","1","","8","","","","101.12","","","","-9","","NA"
"2016-04-04 22:00","2016","04","04","22:00","-5.2","","-15.3","","45","","34","","8","","","","101.16","","","","-9","","NA"
"2016-04-04 23:00","2016","04","04","23:00","-6.4","","-14.3","","53","","34","","4","","","","101.20","","","","-8","","NA"
"2016-04-05 00:00","2016","04","05","00:00","-7.5","","-13.3","","63","","33","","13","","","","101.26","","","","-13","","NA"
"2016-04-05 01:00","2016","04","05","01:00","-6.8","","-14.0","","56","","35","","16","","","","101.32","","","","-13","","NA"
"2016-04-05 02:00","2016","04","05","02:00","-6.3","","-15.2","","49","","35","","18","","","","101.38","","","","-13","","NA"
"2016-04-05 03:00","2016","04","05","03:00","-6.7","","-15.6","","49","","36","","14","","","","101.45","","","","-12","","NA"
"2016-04-05 04:00","2016","04","05","04:00","-7.1","","-15.5","","51","","36","","16","","","","101.56","","","","-13","","NA"
"2016-04-05 05:00","2016","04","05","05:00","-8.0","","-15.9","","53","","36","","11","","","","101.66","","","","-13","","NA"
"2016-04-05 06:00","2016","04","05","06:00","-8.9","","-15.7","","57","","36","","9","","","","101.78","","","","-14","","NA"
"2016-04-05 07:00","2016","04","05","07:00","-6.7","","-15.8","","48","","36","","12","","","","101.87","","","","-12","","NA"
"2016-04-05 08:00","2016","04","05","08:00","-5.3","","-16.0","","43","","35","","14","","","","101.96","","","","-11","","NA"
"2016-04-05 09:00","2016","04","05","09:00","-4.4","","-17.1","","36","","35","","13","","","","101.98","","","","-9","","NA"
"2016-04-05 10:00","2016","04","05","10:00","-3.8","","-17.6","","34","","35","","9","","","","102.02","","","","-8","","NA"
"2016-04-05 11:00","2016","04","05","11:00","-2.1","","-15.2","","36","","33","","15","","","","102.00","","","","-7","","NA"
"2016-04-05 12:00","2016","04","05","12:00","-1.1","","-15.4","","33","","33","","14","","","","101.91","","","","-6","","NA"
"2016-04-05 13:00","2016","04","05","13:00","-1.3","","-9.8","","53","","20","","21","","","","101.85","","","","-7","","NA"
"2016-04-05 14:00","2016","04","05","14:00","-1.2","","-10.2","","50","","18","","27","","","","101.83","","","","-8","","NA"
"2016-04-05 15:00","2016","04","05","15:00","-1.0","","-8.8","","56","","19","","29","","","","101.77","","","","-8","","NA"
"2016-04-05 16:00","2016","04","05","16:00","-0.8","","-8.3","","57","","19","","36","","","","101.72","","","","-8","","NA"
"2016-04-05 17:00","2016","04","05","17:00","-0.7","","-9.0","","53","","23","","26","","","","101.70","","","","-7","","NA"
"2016-04-05 18:00","2016","04","05","18:00","-1.5","","-9.6","","54","","23","","28","","","","101.66","","","","-8","","NA"
"2016-04-05 19:00","2016","04","05","19:00","-2.0","","-9.1","","58","","24","","26","","","","101.62","","","","-9","","NA"
"2016-04-05 20:00","2016","04","05","20:00","-2.0","","-9.0","","58","","25","","28","","","","101.62","","","","-9","","NA"
"2016-04-05 21:00","2016","04","05","21:00","-2.0","","-8.7","","60","","25","","22","","","","101.63","","","","-8","","NA"
"2016-04-05 22:00","2016","04","05","22:00","-2.0","","-8.4","","62","","25","","19","","","","101.59","","","","-8","","NA"
"2016-04-05 23:00","2016","04","05","23:00","-2.6","","-8.6","","63","","25","","15","","","","101.57","","","","-8","","NA"
"2016-04-06 00:00","2016","04","06","00:00","-2.8","","-8.4","","65","","26","","11","","","","101.54","","","","-7","","NA"
"2016-04-06 01:00","2016","04","06","01:00","-2.6","","-8.3","","65","","26","","8","","","","101.53","","","","-6","","NA"
"2016-04-06 02:00","2016","04","06","02:00","-2.6","","-7.8","","68","","25","","4","","","","101.43","","","","-4","","NA"
"2016-04-06 03:00","2016","04","06","03:00","-1.3","","-7.0","","65","","23","","12","","","","101.41","","","","-5","","NA"
"2016-04-06 04:00","2016","04","06","04:00","-1.1","","-7.0","","64","","23","","14","","","","101.35","","","","-6","","NA"
"2016-04-06 05:00","2016","04","06","05:00","-1.3","","-7.1","","65","","22","","11","","","","101.32","","","","-5","","NA"
"2016-04-06 06:00","2016","04","06","06:00","-0.5","","-7.0","","62","","20","","21","","","","101.32","","","","-6","","NA"
"2016-04-06 07:00","2016","04","06","07:00","-0.6","","-8.1","","57","","17","","24","","","","101.29","","","","-7","","NA"
"2016-04-06 08:00","2016","04","06","08:00","-0.6","","-8.3","","56","","17","","27","","","","101.23","","","","-7","","NA"
"2016-04-06 09:00","2016","04","06","09:00","-0.4","","-8.7","","54","","15","","29","","","","101.10","","","","-7","","NA"
"2016-04-06 10:00","2016","04","06","10:00","-0.1","","-7.6","","57","","15","","28","","","","100.95","","","","-6","","NA"
"2016-04-06 11:00","2016","04","06","11:00","0.0","","-7.5","","57","","15","","24","","","","100.86","","","","-6","","NA"
"2016-04-06 12:00","2016","04","06","12:00","-0.2","","-4.6","","72","","17","","33","","","","100.74","","","","-7","","NA"
"2016-04-06 13:00","2016","04","06","13:00","-1.2","","-2.6","","91","","14","","29","","","","100.48","","","","-8","","NA"
"2016-04-06 14:00","2016","04","06","14:00","-0.9","","-2.6","","89","","13","","27","","","","100.37","","","","-7","","NA"
"2016-04-06 15:00","2016","04","06","15:00","-0.5","","-3.0","","83","","10","","16","","","","100.18","","","","-5","","NA"
"2016-04-06 16:00","2016","04","06","16:00","-0.6","","-1.8","","92","","12","","19","","","","100.01","","","","-6","","NA"
"2016-04-06 17:00","2016","04","06","17:00","0.4","","-1.1","","90","","8","","14","","","","99.82","","","","","","NA"
"2016-04-06 18:00","2016","04","06","18:00","3.0","","-1.0","","75","","14","","28","","","","99.76","","","","","","NA"
"2016-04-06 19:00","2016","04","06","19:00","4.1","","-2.5","","62","","14","","21","","","","99.62","","","","","","NA"
"2016-04-06 20:00","2016","04","06","20:00","4.2","","-2.7","","61","","14","","21","","","","99.56","","","","","","NA"
"2016-04-06 21:00","2016","04","06","21:00","4.6","","-2.3","","61","","13","","26","","","","99.43","","","","","","NA"
"2016-04-06 22:00","2016","04","06","22:00","4.8","","-1.3","","65","","15","","29","","","","99.35","","","","","","NA"
"2016-04-06 23:00","2016","04","06","23:00","3.9","","0.0","","75","","14","","20","","","","99.25","","","","","","NA"
"2016-04-07 00:00","2016","04","07","00:00","4.7","","0.1","","72","","15","","30","","","","99.12","","","","","","NA"
"2016-04-07 01:00","2016","04","07","01:00","4.6","","0.5","","74","","16","","32","","","","98.99","","","","","","NA"
"2016-04-07 02:00","2016","04","07","02:00","5.1","","0.2","","71","","16","","32","","","","98.91","","","","","","NA"
"2016-04-07 03:00","2016","04","07","03:00","4.6","","0.7","","76","","15","","28","","","","98.85","","","","","","NA"
"2016-04-07 04:00","2016","04","07","04:00","4.5","","1.1","","79","","14","","35","","","","98.73","","","","","","NA"
"2016-04-07 05:00","2016","04","07","05:00","4.1","","1.8","","85","","15","","30","","","","98.68","","","","","","NA"
"2016-04-07 06:00","2016","04","07","06:00","4.4","","1.9","","84","","15","","37","","","","98.65","","","","","","NA"
"2016-04-07 07:00","2016","04","07","07:00","4.6","","2.2","","84","","14","","35","","","","98.59","","","","","","NA"
"2016-04-07 08:00","2016","04","07","08:00","5.0","","2.0","","81","","14","","30","","","","98.54","","","","","","NA"
"2016-04-07 09:00","2016","04","07","09:00","5.5","","2.6","","81","","15","","30","","","","98.49","","","","","","NA"
"2016-04-07 10:00","2016","04","07","10:00","6.3","","2.8","","79","","15","","32","","","","98.47","","","","","","NA"
"2016-04-07 11:00","2016","04","07","11:00","7.0","","3.3","","77","","19","","25","","","","98.49","","","","","","NA"
"2016-04-07 12:00","2016","04","07","12:00","6.1","","3.4","","83","","19","","17","","","","98.46","","","","","","NA"
"2016-04-07 13:00","2016","04","07","13:00","7.9","","5.1","","82","","24","","9","","","","98.39","","","","","","NA"
"2016-04-07 14:00","2016","04","07","14:00","7.6","","4.1","","78","","23","","15","","","","98.29","","","","","","NA"
"2016-04-07 15:00","2016","04","07","15:00","6.8","","3.2","","78","","24","","14","","","","98.24","","","","","","NA"
"2016-04-07 16:00","2016","04","07","16:00","6.3","","3.0","","80","","23","","18","","","","98.20","","","","","","NA"
"2016-04-07 17:00","2016","04","07","17:00","5.7","","2.1","","77","","23","","18","","","","98.18","","","","","","NA"
"2016-04-07 18:00","2016","04","07","18:00","5.6","","1.8","","76","","23","","18","","","","98.20","","","","","","NA"
"2016-04-07 19:00","2016","04","07","19:00","4.4","","1.4","","81","","24","","19","","","","98.23","","","","","","NA"
"2016-04-07 20:00","2016","04","07","20:00","3.9","","1.0","","81","","24","","18","","","","98.28","","","","","","NA"
"2016-04-07 21:00","2016","04","07","21:00","3.9","","0.8","","80","","26","","14","","","","98.32","","","","","","NA"
"2016-04-07 22:00","2016","04","07","22:00","2.6","","-0.6","","80","","26","","18","","","","98.40","","","","","","NA"
"2016-04-07 23:00","2016","04","07","23:00","1.6","","-1.6","","79","","26","","18","","","","98.42","","","","","","NA"
"2016-04-08 00:00","2016","04","08","00:00","1.3","","-2.3","","77","","26","","17","","","","98.46","","","","","","NA"
"2016-04-08 01:00","2016","04","08","01:00","1.6","","-2.5","","74","","24","","24","","","","98.45","","","","","","NA"
"2016-04-08 02:00","2016","04","08","02:00","1.1","","-2.8","","75","","23","","28","","","","98.43","","","","","","NA"
"2016-04-08 03:00","2016","04","08","03:00","0.8","","-3.5","","73","","24","","30","","","","98.42","","","","","","NA"
"2016-04-08 04:00","2016","04","08","04:00","0.6","","-3.0","","77","","24","","26","","","","98.43","","","","","","NA"
"2016-04-08 05:00","2016","04","08","05:00","0.1","","-3.8","","75","","24","","29","","","","98.44","","","","","","NA"
"2016-04-08 06:00","2016","04","08","06:00","-0.7","","-4.6","","75","","25","","25","","","","98.51","","","","-7","","NA"
"2016-04-08 07:00","2016","04","08","07:00","-1.9","","-5.0","","79","","26","","24","","","","98.59","","","","-8","","NA"
"2016-04-08 08:00","2016","04","08","08:00","-2.2","","-5.2","","80","","26","","23","","","","98.65","","","","-8","","NA"
"2016-04-08 09:00","2016","04","08","09:00","-1.8","","-5.2","","77","","25","","26","","","","98.71","","","","-8","","NA"
"2016-04-08 10:00","2016","04","08","10:00","-2.3","","-5.2","","81","","26","","23","","","","98.81","","","","-9","","NA"
"2016-04-08 11:00","2016","04","08","11:00","-1.8","","-6.1","","72","","27","","25","","","","98.90","","","","-8","","NA"
"2016-04-08 12:00","2016","04","08","12:00","-1.5","","-6.9","","66","","25","","22","","","","98.98","","","","-7","","NA"
"2016-04-08 13:00","2016","04","08","13:00","-0.7","","-6.5","","65","","26","","23","","","","99.05","","","","-7","","NA"
"2016-04-08 14:00","2016","04","08","14:00","-1.0","","-5.7","","70","","27","","22","","","","99.11","","","","-7","","NA"
"2016-04-08 15:00","2016","04","08","15:00","0.7","","-6.8","","57","","27","","23","","","","99.17","","","","","","NA"
"2016-04-08 16:00","2016","04","08","16:00","1.6","","-7.6","","51","","28","","28","","","","99.23","","","","","","NA"
"2016-04-08 17:00","2016","04","08","17:00","2.3","","-6.9","","51","","29","","20","","","","99.31","","","","","","NA"
"2016-04-08 18:00","2016","04","08","18:00","2.0","","-7.0","","51","","30","","17","","","","99.41","","","","","","NA"
"2016-04-08 19:00","2016","04","08","19:00","1.7","","-6.5","","54","","31","","16","","","","99.52","","","","","","NA"
"2016-04-08 20:00","2016","04","08","20:00","0.4","","-5.9","","63","","35","","16","","","","99.65","","","","","","NA"
"2016-04-08 21:00","2016","04","08","21:00","-1.5","","-6.5","","68","","36","","12","","","","99.73","","","","-6","","NA"
"2016-04-08 22:00","2016","04","08","22:00","-1.3","","-6.9","","66","","36","","15","","","","99.76","","","","-6","","NA"
"2016-04-08 23:00","2016","04","08","23:00","-1.6","","-6.9","","67","","35","","18","","","","99.78","","","","-7","","NA"
"2016-04-09 00:00","2016","04","09","00:00","-2.9","","-9.6","","60","","1","","16","","","","99.81","","","","-8","","NA"
"2016-04-09 01:00","2016","04","09","01:00","-3.8","","-10.0","","62","","2","","18","","","","99.78","","","","-10","","NA"
"2016-04-09 02:00","2016","04","09","02:00","-4.5","","-10.6","","62","","1","","14","","","","99.78","","","","-10","","NA"
"2016-04-09 03:00","2016","04","09","03:00","-5.3","","-10.6","","67","","2","","7","","","","99.78","","","","-9","","NA"
"2016-04-09 04:00","2016","04","09","04:00","-6.3","","-11.0","","69","","36","","9","","","","99.80","","","","-11","","NA"
"2016-04-09 05:00","2016","04","09","05:00","-5.8","","-11.0","","66","","1","","14","","","","99.86","","","","-11","","NA"
"2016-04-09 06:00","2016","04","09","06:00","-6.1","","-11.1","","68","","36","","14","","","","99.95","","","","-12","","NA"
"2016-04-09 07:00","2016","04","09","07:00","-5.4","","-11.9","","60","","1","","22","","","","100.02","","","","-12","","NA"
"2016-04-09 08:00","2016","04","09","08:00","-4.8","","-11.8","","58","","2","","18","","","","100.10","","","","-11","","NA"
"2016-04-09 09:00","2016","04","09","09:00","-4.4","","-11.4","","58","","1","","20","","","","100.18","","","","-11","","NA"
"2016-04-09 10:00","2016","04","09","10:00","-3.4","","-11.0","","56","","36","","14","","","","100.24","","","","-8","","NA"
"2016-04-09 11:00","2016","04","09","11:00","-1.7","","-9.2","","57","","33","","9","","","","100.26","","","","-5","","NA"
"2016-04-09 12:00","2016","04","09","12:00","-1.1","","-10.8","","48","","35","","17","","","","100.27","","","","-6","","NA"
"2016-04-09 13:00","2016","04","09","13:00","0.5","","-10.4","","44","","35","","16","","","","100.26","","","","","","NA"
"2016-04-09 14:00","2016","04","09","14:00","0.9","","-12.6","","36","","32","","21","","","","100.27","","","","","","NA"
"2016-04-09 15:00","2016","04","09","15:00","0.9","","-14.7","","30","","34","","19","","","","100.30","","","","","","NA"
"2016-04-09 16:00","2016","04","09","16:00","1.3","","-13.9","","31","","36","","14","","","","100.37","","","","","","NA"
"2016-04-09 17:00","2016","04","09","17:00","1.7","","-14.0","","30","","35","","13","","","","100.48","","","","","","NA"
"2016-04-09 18:00","2016","04","09","18:00","0.8","","-14.9","","30","","35","","13","","","","100.58","","","","","","NA"
"2016-04-09 19:00","2016","04","09","19:00","-0.3","","-14.8","","33","","1","","13","","","","100.67","","","","-4","","NA"
"2016-04-09 20:00","2016","04","09","20:00","-2.1","","-13.5","","41","","3","","11","","","","100.78","","","","-6","","NA"
"2016-04-09 21:00","2016","04","09","21:00","-2.5","","-13.0","","44","","2","","11","","","","100.90","","","","-7","","NA"
"2016-04-09 22:00","2016","04","09","22:00","-3.5","","-12.9","","48","","1","","11","","","","100.96","","","","-8","","NA"
"2016-04-09 23:00","2016","04","09","23:00","-4.3","","-12.6","","53","","35","","9","","","","101.02","","","","-8","","NA"
"2016-04-10 00:00","2016","04","10","00:00","-5.5","","-12.1","","60","","33","","11","","","","101.10","","","","-10","","NA"
"2016-04-10 01:00","2016","04","10","01:00","-5.8","","-12.2","","60","","33","","8","","","","101.17","","","","-10","","NA"
"2016-04-10 02:00","2016","04","10","02:00","-6.5","","-12.0","","65","","34","","10","","","","101.20","","","","-11","","NA"
"2016-04-10 03:00","2016","04","10","03:00","-6.0","","-11.9","","63","","32","","8","","","","101.26","","","","-10","","NA"
"2016-04-10 04:00","2016","04","10","04:00","-6.9","","-12.0","","67","","33","","8","","","","101.31","","","","-11","","NA"
"2016-04-10 05:00","2016","04","10","05:00","-6.9","","-11.3","","71","","32","","6","","","","101.39","","","","-10","","NA"
"2016-04-10 06:00","2016","04","10","06:00","-7.8","","-11.0","","78","","34","","7","","","","101.45","","","","-11","","NA"
"2016-04-10 07:00","2016","04","10","07:00","-5.1","","-9.4","","72","","34","","6","","","","101.52","","","","-8","","NA"
"2016-04-10 08:00","2016","04","10","08:00","-3.0","","-11.9","","50","","9","","3","","","","101.51","","","","-4","","NA"
"2016-04-10 09:00","2016","04","10","09:00","-2.5","","-10.9","","53","","19","","11","","","","101.56","","","","-7","","NA"
"2016-04-10 10:00","2016","04","10","10:00","-2.2","","-10.5","","53","","15","","11","","","","101.56","","","","-6","","NA"
"2016-04-10 11:00","2016","04","10","11:00","-1.7","","-9.7","","54","","18","","15","","","","101.56","","","","-7","","NA"
"2016-04-10 12:00","2016","04","10","12:00","-1.2","","-9.1","","55","","17","","17","","","","101.52","","","","-6","","NA"
"2016-04-10 13:00","2016","04","10","13:00","-0.7","","-8.4","","56","","18","","20","","","","101.48","","","","-6","","NA"
"2016-04-10 14:00","2016","04","10","14:00","-0.2","","-8.1","","55","","18","","19","","","","101.39","","","","-5","","NA"
"2016-04-10 15:00","2016","04","10","15:00","0.0","","-7.2","","59","","17","","17","","","","101.32","","","","-5","","NA"
"2016-04-10 16:00","2016","04","10","16:00","0.3","","-6.4","","61","","18","","15","","","","101.27","","","","","","NA"
"2016-04-10 17:00","2016","04","10","17:00","-0.7","","-6.6","","65","","16","","12","","","","101.15","","","","-5","","NA"
"2016-04-10 18:00","2016","04","10","18:00","-0.8","","-6.3","","66","","16","","5","","","","101.19","","","","-2","","NA"
"2016-04-10 19:00","2016","04","10","19:00","-1.2","","-5.4","","73","","4","","8","","","","101.11","","","","-4","","NA"
"2016-04-10 20:00","2016","04","10","20:00","-1.0","","-3.8","","81","","7","","13","","","","101.04","","","","-5","","NA"
"2016-04-10 21:00","2016","04","10","21:00","-0.5","","-3.5","","80","","11","","13","","","","101.00","","","","-5","","NA"
"2016-04-10 22:00","2016","04","10","22:00","0.1","","-3.5","","77","","9","","14","","","","100.90","","","","","","NA"
"2016-04-10 23:00","2016","04","10","23:00","0.7","","-0.4","","92","","16","","31","","","","100.80","","","","","","NA"
"2016-04-11 00:00","2016","04","11","00:00","0.7","","-0.1","","94","","15","","27","","","","100.72","","","","","","NA"
"2016-04-11 01:00","2016","04","11","01:00","0.8","","0.0","","94","","14","","25","","","","100.60","","","","","","NA"
"2016-04-11 02:00","2016","04","11","02:00","1.8","","-0.3","","86","","13","","17","","","","100.45","","","","","","NA"
"2016-04-11 03:00","2016","04","11","03:00","2.4","","0.5","","87","","15","","28","","","","100.33","","","","","","NA"
"2016-04-11 04:00","2016","04","11","04:00","2.5","","1.2","","91","","15","","28","","","","100.22","","","","","","NA"
"2016-04-11 05:00","2016","04","11","05:00","3.0","","1.6","","91","","15","","21","","","","100.14","","","","","","NA"
"2016-04-11 06:00","2016","04","11","06:00","3.8","","1.7","","86","","16","","26","","","","100.07","","","","","","NA"
"2016-04-11 07:00","2016","04","11","07:00","3.9","","1.8","","86","","16","","29","","","","99.96","","","","","","NA"
"2016-04-11 08:00","2016","04","11","08:00","4.3","","2.1","","85","","17","","34","","","","99.91","","","","","","NA"
"2016-04-11 09:00","2016","04","11","09:00","4.5","","2.3","","86","","16","","33","","","","99.87","","","","","","NA"
"2016-04-11 10:00","2016","04","11","10:00","4.4","","2.8","","89","","17","","28","","","","99.85","","","","","","NA"
"2016-04-11 11:00","2016","04","11","11:00","4.5","","3.1","","91","","17","","26","","","","99.84","","","","","","NA"
"2016-04-11 12:00","2016","04","11","12:00","5.1","","3.3","","88","","18","","21","","","","99.83","","","","","","NA"
"2016-04-11 13:00","2016","04","11","13:00","5.1","","3.9","","92","","18","","21","","","","99.83","","","","","","NA"
"2016-04-11 14:00","2016","04","11","14:00","5.1","","4.1","","93","","18","","19","","","","99.82","","","","","","NA"
"2016-04-11 15:00","2016","04","11","15:00","5.0","","4.1","","94","","18","","18","","","","99.78","","","","","","NA"
"2016-04-11 16:00","2016","04","11","16:00","4.9","","4.2","","95","","18","","17","","","","99.78","","","","","","NA"
"2016-04-11 17:00","2016","04","11","17:00","5.8","","5.1","","95","","17","","25","","","","99.79","","","","","","NA"
"2016-04-11 18:00","2016","04","11","18:00","5.6","","4.8","","95","","17","","24","","","","99.79","","","","","","NA"
"2016-04-11 19:00","2016","04","11","19:00","5.8","","5.1","","95","","17","","28","","","","99.79","","","","","","NA"
"2016-04-11 20:00","2016","04","11","20:00","5.6","","4.9","","96","","17","","22","","","","99.76","","","","","","NA"
"2016-04-11 21:00","2016","04","11","21:00","5.2","","4.6","","96","","19","","17","","","","99.77","","","","","","NA"
"2016-04-11 22:00","2016","04","11","22:00","6.0","","5.4","","96","","20","","17","","","","99.71","","","","","","NA"
"2016-04-11 23:00","2016","04","11","23:00","6.8","","6.1","","96","","23","","28","","","","99.77","","","","","","NA"
"2016-04-12 00:00","2016","04","12","00:00","5.2","","2.9","","85","","31","","26","","","","99.85","","","","","","NA"
"2016-04-12 01:00","2016","04","12","01:00","3.5","","0.3","","80","","31","","13","","","","99.93","","","","","","NA"
"2016-04-12 02:00","2016","04","12","02:00","3.1","","0.6","","83","","27","","8","","","","100.02","","","","","","NA"
"2016-04-12 03:00","2016","04","12","03:00","2.8","","-0.4","","79","","27","","16","","","","100.14","","","","","","NA"
"2016-04-12 04:00","2016","04","12","04:00","1.5","","-2.0","","78","","26","","20","","","","100.30","","","","","","NA"
"2016-04-12 05:00","2016","04","12","05:00","0.5","","-2.4","","81","","26","","15","","","","100.42","","","","","","NA"
"2016-04-12 06:00","2016","04","12","06:00","0.7","","-2.4","","80","","26","","15","","","","100.52","","","","","","NA"
"2016-04-12 07:00","2016","04","12","07:00","1.7","","-1.7","","78","","24","","12","","","","100.60","","","","","","NA"
"2016-04-12 08:00","2016","04","12","08:00","3.2","","-1.3","","72","","27","","19","","","","100.64","","","","","","NA"
"2016-04-12 09:00","2016","04","12","09:00","4.6","","-0.9","","68","","25","","21","","","","100.66","","","","","","NA"
"2016-04-12 10:00","2016","04","12","10:00","5.2","","-1.5","","62","","24","","23","","","","100.71","","","","","","NA"
"2016-04-12 11:00","2016","04","12","11:00","4.8","","-1.5","","64","","23","","24","","","","100.76","","","","","","NA"
"2016-04-12 12:00","2016","04","12","12:00","3.5","","1.5","","87","","24","","14","","","","100.83","","","","","","NA"
"2016-04-12 13:00","2016","04","12","13:00","4.5","","0.3","","74","","23","","21","","","","100.87","","","","","","NA"
"2016-04-12 14:00","2016","04","12","14:00","5.6","","0.8","","71","","23","","26","","","","100.92","","","","","","NA"
"2016-04-12 15:00","2016","04","12","15:00","1.9","","0.4","","90","","30","","17","","","","101.05","","","","","","NA"
"2016-04-12 16:00","2016","04","12","16:00","4.7","","1.8","","81","","23","","16","","","","101.06","","","","","","NA"
"2016-04-12 17:00","2016","04","12","17:00"
"2016-04-12 18:00","2016","04","12","18:00","5.2","","-2.9","","56","","29","","20","","","","101.22","","","","","","NA"
"2016-04-12 19:00","2016","04","12","19:00","3.4","","-3.7","","60","","27","","12","","","","101.29","","","","","","NA"
"2016-04-12 20:00","2016","04","12","20:00","2.4","","-4.1","","62","","28","","9","","","","101.40","","","","","","NA"
"2016-04-12 21:00","2016","04","12","21:00","2.2","","-3.7","","65","","28","","11","","","","101.49","","","","","","NA"
"2016-04-12 22:00","2016","04","12","22:00","1.6","","-3.9","","67","","29","","12","","","","101.55","","","","","","NA"
"2016-04-12 23:00","2016","04","12","23:00","0.3","","-3.9","","73","","31","","6","","","","101.65","","","","","","NA"
"2016-04-13 00:00","2016","04","13","00:00","-0.3","","-4.2","","75","","36","","8","","","","101.71","","","","-3","","NA"
"2016-04-13 01:00","2016","04","13","01:00","-0.2","","-5.2","","69","","36","","4","","","","101.78","","","","-1","","NA"
"2016-04-13 02:00","2016","04","13","02:00","-2.1","","-4.5","","83","","33","","4","","","","101.83","","","","-4","","NA"
"2016-04-13 03:00","2016","04","13","03:00","-2.4","","-4.2","","88","","1","","6","","","","101.89","","","","-5","","NA"
"2016-04-13 04:00","2016","04","13","04:00","-2.7","","-4.3","","89","","33","","5","","","","101.98","","","","-5","","NA"
"2016-04-13 05:00","2016","04","13","05:00","-3.9","","-5.2","","91","","35","","6","","","","102.06","","","","-7","","NA"
"2016-04-13 06:00","2016","04","13","06:00","-4.5","","-5.6","","92","","34","","8","","","","102.16","","","","-8","","NA"
"2016-04-13 07:00","2016","04","13","07:00","-0.9","","-3.6","","82","","36","","7","","","","102.18","","","","-3","","NA"
"2016-04-13 08:00","2016","04","13","08:00","1.5","","-6.6","","55","","5","","11","","","","102.21","","","","","","NA"
"2016-04-13 09:00","2016","04","13","09:00","3.0","","-5.5","","53","","2","","10","","","","102.20","","","","","","NA"
"2016-04-13 10:00","2016","04","13","10:00","3.2","","-8.0","","44","","35","","11","","","","102.16","","","","","","NA"
"2016-04-13 11:00","2016","04","13","11:00","4.9","","-4.6","","50","","33","","11","","","","102.11","","","","","","NA"
"2016-04-13 12:00","2016","04","13","12:00","5.1","","-5.7","","46","","21","","6","","","","102.04","","","","","","NA"
"2016-04-13 13:00","2016","04","13","13:00","5.0","","-1.4","","63","","16","","14","","","","101.95","","","","","","NA"
"2016-04-13 14:00","2016","04","13","14:00","4.2","","-2.4","","62","","19","","18","","","","101.90","","","","","","NA"
"2016-04-13 15:00","2016","04","13","15:00","4.4","","-3.7","","56","","19","","18","","","","101.87","","","","","","NA"
"2016-04-13 16:00","2016","04","13","16:00","4.6","","-3.0","","58","","20","","13","","","","101.85","","","","","","NA"
"2016-04-13 17:00","2016","04","13","17:00","5.1","","-3.1","","55","","20","","7","","","","101.87","","","","","","NA"
"2016-04-13 18:00","2016","04","13","18:00","4.0","","-3.2","","59","","24","","12","","","","101.88","","","","","","NA"
"2016-04-13 19:00","2016","04","13","19:00","2.4","","-3.5","","65","","26","","8","","","","101.87","","","","","","NA"
"2016-04-13 20:00","2016","04","13","20:00","2.4","","-4.1","","62","","29","","7","","","","101.88","","","","","","NA"
"2016-04-13 21:00","2016","04","13","21:00","1.2","","-4.0","","68","","33","","8","","","","101.86","","","","","","NA"
"2016-04-13 22:00","2016","04","13","22:00","-0.7","","-3.8","","79","","33","","11","","","","101.85","","","","-4","","NA"
"2016-04-13 23:00","2016","04","13","23:00","-2.0","","-4.7","","82","","34","","12","","","","101.85","","","","-6","","NA"
"2016-04-14 00:00","2016","04","14","00:00","-1.5","","-4.9","","78","","35","","10","","","","101.84","","","","-5","","NA"
"2016-04-14 01:00","2016","04","14","01:00","-2.3","","-4.7","","84","","36","","8","","","","101.82","","","","-5","","NA"
"2016-04-14 02:00","2016","04","14","02:00","-2.2","","-4.5","","84","","33","","10","","","","101.82","","","","-6","","NA"
"2016-04-14 03:00","2016","04","14","03:00","-3.3","","-5.3","","86","","34","","11","","","","101.85","","","","-8","","NA"
"2016-04-14 04:00","2016","04","14","04:00","-3.5","","-5.1","","89","","36","","10","","","","101.88","","","","-7","","NA"
"2016-04-14 05:00","2016","04","14","05:00","-4.2","","-5.6","","90","","35","","11","","","","101.89","","","","-9","","NA"
"2016-04-14 06:00","2016","04","14","06:00","-3.1","","-5.1","","87","","35","","11","","","","101.96","","","","-7","","NA"
"2016-04-14 07:00","2016","04","14","07:00","0.9","","-3.0","","75","","36","","9","","","","102.01","","","","","","NA"
"2016-04-14 08:00","2016","04","14","08:00","4.2","","-3.3","","58","","5","","8","","","","102.04","","","","","","NA"
"2016-04-14 09:00","2016","04","14","09:00","5.9","","-3.4","","51","","5","","14","","","","102.04","","","","","","NA"
"2016-04-14 10:00","2016","04","14","10:00","6.8","","-6.1","","39","","5","","17","","","","102.05","","","","","","NA"
"2016-04-14 11:00","2016","04","14","11:00","7.9","","-6.1","","36","","4","","15","","","","102.02","","","","","","NA"
"2016-04-14 12:00","2016","04","14","12:00","9.2","","-4.1","","39","","7","","8","","","","101.97","","","","","","NA"
"2016-04-14 13:00","2016","04","14","13:00","9.5","","-4.4","","37","","12","","11","","","","101.91","","","","","","NA"
"2016-04-14 14:00","2016","04","14","14:00","9.9","","-5.1","","35","","13","","16","","","","101.85","","","","","","NA"
"2016-04-14 15:00","2016","04","14","15:00","9.5","","-2.4","","43","","17","","13","","","","101.77","","","","","","NA"
"2016-04-14 16:00","2016","04","14","16:00","9.6","","-5.8","","33","","16","","10","","","","101.76","","","","","","NA"
"2016-04-14 17:00","2016","04","14","17:00","9.4","","-6.6","","32","","16","","11","","","","101.75","","","","","","NA"
"2016-04-14 18:00","2016","04","14","18:00","9.6","","-6.6","","31","","18","","2","","","","101.73","","","","","","NA"
"2016-04-14 19:00","2016","04","14","19:00","8.6","","-6.9","","33","","4","","10","","","","101.74","","","","","","NA"
"2016-04-14 20:00","2016","04","14","20:00","8.0","","-6.6","","35","","3","","8","","","","101.79","","","","","","NA"
"2016-04-14 21:00","2016","04","14","21:00","5.7","","-6.3","","42","","4","","8","","","","101.84","","","","","","NA"
"2016-04-14 22:00","2016","04","14","22:00","4.8","","-5.4","","48","","5","","11","","","","101.85","","","","","","NA"
"2016-04-14 23:00","2016","04","14","23:00","4.6","","-5.8","","47","","4","","13","","","","101.88","","","","","","NA"
"2016-04-15 00:00","2016","04","15","00:00","4.3","","-6.0","","47","","3","","13","","","","101.90","","","","","","NA"
"2016-04-15 01:00","2016","04","15","01:00","3.8","","-5.6","","50","","4","","14","","","","101.85","","","","","","NA"
"2016-04-15 02:00","2016","04","15","02:00","3.4","","-5.5","","52","","3","","15","","","","101.81","","","","","","NA"
"2016-04-15 03:00","2016","04","15","03:00","2.2","","-4.8","","59","","5","","17","","","","101.79","","","","","","NA"
"2016-04-15 04:00","2016","04","15","04:00","1.7","","-5.0","","61","","4","","13","","","","101.84","","","","","","NA"
"2016-04-15 05:00","2016","04","15","05:00","1.4","","-4.7","","64","","4","","13","","","","101.87","","","","","","NA"
"2016-04-15 06:00","2016","04","15","06:00","1.9","","-4.3","","64","","4","","13","","","","101.92","","","","","","NA"
"2016-04-15 07:00","2016","04","15","07:00","3.6","","-3.8","","58","","5","","16","","","","101.98","","","","","","NA"
"2016-04-15 08:00","2016","04","15","08:00","6.1","","-3.0","","52","","4","","14","","","","102.02","","","","","","NA"
"2016-04-15 09:00","2016","04","15","09:00","9.1","","-2.8","","43","","6","","13","","","","102.06","","","","","","NA"
"2016-04-15 10:00","2016","04","15","10:00","11.6","","-3.1","","36","","2","","7","","","","102.08","","","","","","NA"
"2016-04-15 11:00","2016","04","15","11:00","12.9","","-5.2","","28","","10","","7","","","","102.07","","","","","","NA"
"2016-04-15 12:00","2016","04","15","12:00","12.9","","-3.1","","33","","14","","11","","","","102.05","","","","","","NA"
"2016-04-15 13:00","2016","04","15","13:00","13.5","","-3.2","","31","","13","","15","","","","102.03","","","","","","NA"
"2016-04-15 14:00","2016","04","15","14:00","12.1","","-1.3","","39","","18","","12","","","","101.97","","","","","","NA"
"2016-04-15 15:00","2016","04","15","15:00","12.0","","-2.7","","36","","18","","13","","","","101.94","","","","","","NA"
"2016-04-15 16:00","2016","04","15","16:00","13.6","","-3.6","","30","","18","","10","","","","101.88","","","","","","NA"
"2016-04-15 17:00","2016","04","15","17:00","13.6","","-4.5","","28","","19","","8","","","","101.87","","","","","","NA"
"2016-04-15 18:00","2016","04","15","18:00","12.9","","-5.6","","27","","19","","2","","","","101.86","","","","","","NA"
"2016-04-15 19:00","2016","04","15","19:00","12.1","","-6.7","","26","","6","","4","","","","101.89","","","","","","NA"
"2016-04-15 20:00","2016","04","15","20:00","11.7","","-5.9","","29","","4","","5","","","","101.96","","","","","","NA"
"2016-04-15 21:00","2016","04","15","21:00","9.6","","-3.7","","39","","5","","15","","","","102.00","","","","","","NA"
"2016-04-15 22:00","2016","04","15","22:00","8.8","","-2.9","","44","","4","","17","","","","101.98","","","","","","NA"
"2016-04-15 23:00","2016","04","15","23:00","8.5","","-3.4","","43","","4","","15","","","","101.97","","","","","","NA"
"2016-04-16 00:00","2016","04","16","00:00","8.0","","-3.3","","45","","4","","18","","","","101.96","","","","","","NA"
"2016-04-16 01:00","2016","04","16","01:00","7.2","","-3.0","","48","","3","","13","","","","101.93","","","","","","NA"
"2016-04-16 02:00","2016","04","16","02:00","6.6","","-3.0","","51","","4","","16","","","","101.94","","","","","","NA"
"2016-04-16 03:00","2016","04","16","03:00","6.2","","-3.0","","52","","4","","18","","","","101.93","","","","","","NA"
"2016-04-16 04:00","2016","04","16","04:00","5.5","","-3.1","","54","","4","","8","","","","101.99","","","","","","NA"
"2016-04-16 05:00","2016","04","16","05:00","5.4","","-3.7","","52","","3","","7","","","","102.06","","","","","","NA"
"2016-04-16 06:00","2016","04","16","06:00","4.7","","-3.2","","57","","2","","11","","","","102.15","","","","","","NA"
"2016-04-16 07:00","2016","04","16","07:00","6.5","","-2.6","","52","","4","","12","","","","102.17","","","","","","NA"
"2016-04-16 08:00","2016","04","16","08:00","8.6","","-1.7","","48","","6","","15","","","","102.16","","","","","","NA"
"2016-04-16 09:00","2016","04","16","09:00","10.8","","-1.7","","42","","4","","13","","","","102.17","","","","","","NA"
"2016-04-16 10:00","2016","04","16","10:00","12.6","","-3.3","","33","","5","","13","","","","102.17","","","","","","NA"
"2016-04-16 11:00","2016","04","16","11:00","15.1","","-3.7","","27","","5","","16","","","","102.15","","","","","","NA"
"2016-04-16 12:00","2016","04","16","12:00","16.8","","-4.1","","24","","4","","16","","","","102.12","","","","","","NA"
"2016-04-16 13:00","2016","04","16","13:00","16.3","","-4.8","","23","","4","","19","","","","102.09","","","","","","NA"
"2016-04-16 14:00","2016","04","16","14:00","17.1","","-3.2","","25","","5","","15","","","","102.04","","","","","","NA"
"2016-04-16 15:00","2016","04","16","15:00","17.5","","-3.6","","23","","4","","13","","","","102.00","","","","","","NA"
"2016-04-16 16:00","2016","04","16","16:00","18.1","","-3.9","","22","","3","","15","","","","101.96","","","","","","NA"
"2016-04-16 17:00","2016","04","16","17:00","17.6","","-3.8","","23","","4","","16","","","","101.92","","","","","","NA"
"2016-04-16 18:00","2016","04","16","18:00","16.1","","-5.2","","23","","6","","18","","","","101.91","","","","","","NA"
"2016-04-16 19:00","2016","04","16","19:00","14.7","","-5.8","","24","","3","","12","","","","101.92","","","","","","NA"
"2016-04-16 20:00","2016","04","16","20:00","12.0","","-5.3","","29","","5","","7","","","","101.97","","","","","","NA"
"2016-04-16 21:00","2016","04","16","21:00","11.2","","-6.5","","28","","5","","9","","","","101.97","","","","","","NA"
"2016-04-16 22:00","2016","04","16","22:00","10.5","","-7.0","","29","","2","","7","","","","101.97","","","","","","NA"
"2016-04-16 23:00","2016","04","16","23:00","9.0","","-3.0","","43","","1","","7","","","","101.97","","","","","","NA"
"2016-04-17 00:00","2016","04","17","00:00","8.4","","-5.1","","38","","2","","10","","","","101.95","","","","","","NA"
"2016-04-17 01:00","2016","04","17","01:00","8.6","","-5.9","","35","","3","","11","","","","101.92","","","","","","NA"
"2016-04-17 02:00","2016","04","17","02:00","6.9","","-4.0","","46","","5","","15","","","","101.87","","","","","","NA"
"2016-04-17 03:00","2016","04","17","03:00","4.8","","-2.3","","60","","34","","13","","","","101.91","","","","","","NA"
"2016-04-17 04:00","2016","04","17","04:00","6.0","","-3.5","","50","","35","","9","","","","101.94","","","","","","NA"
"2016-04-17 05:00","2016","04","17","05:00","3.6","","-3.6","","59","","2","","6","","","","101.96","","","","","","NA"
"2016-04-17 06:00","2016","04","17","06:00","3.9","","-1.7","","67","","36","","8","","","","101.99","","","","","","NA"
"2016-04-17 07:00","2016","04","17","07:00","7.6","","-0.6","","56","","2","","5","","","","102.01","","","","","","NA"
"2016-04-17 08:00","2016","04","17","08:00","11.3","","-2.9","","37","","36","","7","","","","102.05","","","","","","NA"
"2016-04-17 09:00","2016","04","17","09:00","13.9","","-2.3","","33","","3","","7","","","","102.06","","","","","","NA"
"2016-04-17 10:00","2016","04","17","10:00","13.3","","-1.0","","37","","16","","9","","","","102.01","","","","","","NA"
"2016-04-17 11:00","2016","04","17","11:00","14.7","","-2.4","","31","","17","","12","","","","101.96","","","","","","NA"
"2016-04-17 12:00","2016","04","17","12:00","13.9","","-0.4","","37","","18","","15","","","","101.88","","","","","","NA"
"2016-04-17 13:00","2016","04","17","13:00","13.2","","-1.5","","36","","18","","16","","","","101.82","","","","","","NA"
"2016-04-17 14:00","2016","04","17","14:00","14.6","","-0.3","","36","","20","","19","","","","101.76","","","","","","NA"
"2016-04-17 15:00","2016","04","17","15:00","14.1","","3.3","","48","","18","","11","","","","101.68","","","","","","NA"
"2016-04-17 16:00","2016","04","17","16:00","15.2","","2.6","","43","","19","","20","","","","101.61","","","","","","NA"
"2016-04-17 17:00","2016","04","17","17:00","12.1","","1.7","","49","","18","","12","","","","101.60","","","","","","NA"
"2016-04-17 18:00","2016","04","17","18:00","8.7","","3.1","","68","","17","","6","","","","101.57","","","","","","NA"
"2016-04-17 19:00","2016","04","17","19:00","7.5","","2.4","","70","","16","","2","","","","101.54","","","","","","NA"
"2016-04-17 20:00","2016","04","17","20:00","7.3","","2.1","","70","","9","","7","","","","101.55","","","","","","NA"
"2016-04-17 21:00","2016","04","17","21:00","6.9","","1.8","","70","","17","","6","","","","101.53","","","","","","NA"
"2016-04-17 22:00","2016","04","17","22:00","5.6","","0.7","","71","","10","","8","","","","101.53","","","","","","NA"
"2016-04-17 23:00","2016","04","17","23:00","5.8","","0.8","","70","","13","","5","","","","101.49","","","","","","NA"
"2016-04-18 00:00","2016","04","18","00:00","5.3","","1.3","","76","","14","","7","","","","101.48","","","","","","NA"
"2016-04-18 01:00","2016","04","18","01:00","3.9","","0.8","","80","","17","","3","","","","101.46","","","","","","NA"
"2016-04-18 02:00","2016","04","18","02:00","2.2","","0.2","","86","","7","","3","","","","101.45","","","","","","NA"
"2016-04-18 03:00","2016","04","18","03:00","3.3","","1.7","","90","","35","","7","","","","101.44","","","","","","NA"
"2016-04-18 04:00","2016","04","18","04:00","2.6","","0.2","","84","","4","","6","","","","101.41","","","","","","NA"
"2016-04-18 05:00","2016","04","18","05:00","2.9","","0.8","","86","","10","","3","","","","101.41","","","","","","NA"
"2016-04-18 06:00","2016","04","18","06:00","3.3","","0.7","","83","","2","","5","","","","101.49","","","","","","NA"
"2016-04-18 07:00","2016","04","18","07:00","8.1","","3.8","","74","","3","","3","","","","101.48","","","","","","NA"
"2016-04-18 08:00","2016","04","18","08:00","11.7","","3.4","","57","","5","","9","","","","101.47","","","","","","NA"
"2016-04-18 09:00","2016","04","18","09:00","13.1","","4.3","","55","","13","","8","","","","101.45","","","","","","NA"
"2016-04-18 10:00","2016","04","18","10:00","12.5","","3.3","","54","","15","","11","","","","101.41","","","","","","NA"
"2016-04-18 11:00","2016","04","18","11:00","12.1","","3.3","","55","","17","","11","","","","101.38","","","","","","NA"
"2016-04-18 12:00","2016","04","18","12:00","11.9","","2.9","","54","","17","","13","","","","101.31","","","","","","NA"
"2016-04-18 13:00","2016","04","18","13:00","10.9","","3.5","","60","","18","","14","","","","101.23","","","","","","NA"
"2016-04-18 14:00","2016","04","18","14:00","11.7","","3.2","","56","","18","","15","","","","101.14","","","","","","NA"
"2016-04-18 15:00","2016","04","18","15:00","11.5","","4.0","","60","","19","","19","","","","101.08","","","","","","NA"
"2016-04-18 16:00","2016","04","18","16:00","9.6","","3.1","","64","","17","","11","","","","100.97","","","","","","NA"
"2016-04-18 17:00","2016","04","18","17:00","9.2","","3.3","","67","","16","","8","","","","100.91","","","","","","NA"
"2016-04-18 18:00","2016","04","18","18:00","8.6","","3.1","","68","","15","","14","","","","100.82","","","","","","NA"
"2016-04-18 19:00","2016","04","18","19:00","7.5","","2.7","","72","","14","","11","","","","100.77","","","","","","NA"
"2016-04-18 20:00","2016","04","18","20:00","9.3","","2.8","","64","","12","","10","","","","100.79","","","","","","NA"
"2016-04-18 21:00","2016","04","18","21:00","11.8","","-1.3","","40","","4","","22","","","","100.84","","","","","","NA"
"2016-04-18 22:00","2016","04","18","22:00","10.0","","0.7","","52","","2","","17","","","","100.85","","","","","","NA"
"2016-04-18 23:00","2016","04","18","23:00","8.1","","2.7","","68","","2","","26","","","","100.83","","","","","","NA"
"2016-04-19 00:00","2016","04","19","00:00","7.2","","4.8","","85","","2","","21","","","","100.89","","","","","","NA"
"2016-04-19 01:00","2016","04","19","01:00","7.0","","4.8","","86","","1","","15","","","","100.95","","","","","","NA"
"2016-04-19 02:00","2016","04","19","02:00","7.1","","4.6","","84","","36","","16","","","","100.93","","","","","","NA"
"2016-04-19 03:00","2016","04","19","03:00","6.0","","3.9","","86","","35","","21","","","","101.00","","","","","","NA"
"2016-04-19 04:00","2016","04","19","04:00","5.9","","3.3","","84","","36","","15","","","","101.06","","","","","","NA"
"2016-04-19 05:00","2016","04","19","05:00","5.2","","2.5","","83","","35","","21","","","","101.14","","","","","","NA"
"2016-04-19 06:00","2016","04","19","06:00","4.3","","1.5","","82","","34","","15","","","","101.21","","","","","","NA"
"2016-04-19 07:00","2016","04","19","07:00","5.5","","1.4","","75","","33","","12","","","","101.26","","","","","","NA"
"2016-04-19 08:00","2016","04","19","08:00","7.4","","0.2","","60","","34","","17","","","","101.29","","","","","","NA"
"2016-04-19 09:00","2016","04","19","09:00","9.3","","-2.4","","44","","36","","23","","","","101.30","","","","","","NA"
"2016-04-19 10:00","2016","04","19","10:00","11.4","","-1.4","","41","","36","","18","","","","101.30","","","","","","NA"
"2016-04-19 11:00","2016","04","19","11:00","11.8","","-3.2","","35","","35","","22","","","","101.29","","","","","","NA"
"2016-04-19 12:00","2016","04","19","12:00","13.2","","-4.5","","29","","32","","20","","","","101.25","","","","","","NA"
"2016-04-19 13:00","2016","04","19","13:00","13.8","","-3.8","","29","","35","","27","","","","101.23","","","","","","NA"
"2016-04-19 14:00","2016","04","19","14:00","14.9","","-2.7","","29","","32","","19","","","","101.18","","","","","","NA"
"2016-04-19 15:00","2016","04","19","15:00","15.3","","-3.9","","26","","34","","24","","","","101.15","","","","","","NA"
"2016-04-19 16:00","2016","04","19","16:00","15.3","","-4.7","","25","","34","","23","","","","101.12","","","","","","NA"
"2016-04-19 17:00","2016","04","19","17:00","15.2","","-5.2","","24","","34","","24","","","","101.12","","","","","","NA"
"2016-04-19 18:00","2016","04","19","18:00","14.1","","-4.8","","27","","34","","19","","","","101.12","","","","","","NA"
"2016-04-19 19:00","2016","04","19","19:00","11.3","","-4.3","","33","","35","","14","","","","101.16","","","","","","NA"
"2016-04-19 20:00","2016","04","19","20:00","10.8","","-4.8","","33","","33","","7","","","","101.22","","","","","","NA"
"2016-04-19 21:00","2016","04","19","21:00","9.1","","-3.3","","41","","35","","9","","","","101.26","","","","","","NA"
"2016-04-19 22:00","2016","04","19","22:00","8.4","","-2.5","","46","","33","","11","","","","101.31","","","","","","NA"
"2016-04-19 23:00","2016","04","19","23:00","5.6","","-1.6","","59","","34","","16","","","","101.34","","","","","","NA"
"2016-04-20 00:00","2016","04","20","00:00","6.1","","-1.6","","58","","35","","18","","","","101.38","","","","","","NA"
"2016-04-20 01:00","2016","04","20","01:00","4.6","","-1.6","","64","","34","","13","","","","101.42","","","","","","NA"
"2016-04-20 02:00","2016","04","20","02:00","4.6","","-0.7","","69","","35","","16","","","","101.46","","","","","","NA"
"2016-04-20 03:00","2016","04","20","03:00","5.6","","-0.6","","65","","35","","18","","","","101.51","","","","","","NA"
"2016-04-20 04:00","2016","04","20","04:00","3.5","","-1.0","","72","","34","","11","","","","101.50","","","","","","NA"
"2016-04-20 05:00","2016","04","20","05:00","1.4","","-2.5","","76","","34","","11","","","","101.55","","","","","","NA"
"2016-04-20 06:00","2016","04","20","06:00","2.8","","-0.9","","76","","35","","8","","","","101.63","","","","","","NA"
"2016-04-20 07:00","2016","04","20","07:00","5.7","","-1.2","","61","","2","","12","","","","101.67","","","","","","NA"
"2016-04-20 08:00","2016","04","20","08:00","7.5","","-3.7","","45","","3","","15","","","","101.68","","","","","","NA"
"2016-04-20 09:00","2016","04","20","09:00","8.9","","-6.6","","33","","6","","10","","","","101.69","","","","","","NA"
"2016-04-20 10:00","2016","04","20","10:00","7.9","","-4.0","","43","","16","","14","","","","101.69","","","","","","NA"
"2016-04-20 11:00","2016","04","20","11:00","8.8","","-4.0","","40","","17","","12","","","","101.65","","","","","","NA"
"2016-04-20 12:00","2016","04","20","12:00","9.6","","-4.4","","37","","19","","13","","","","101.60","","","","","","NA"
"2016-04-20 13:00","2016","04","20","13:00","10.5","","-3.3","","38","","18","","11","","","","101.53","","","","","","NA"
"2016-04-20 14:00","2016","04","20","14:00","11.3","","-5.2","","31","","19","","15","","","","101.45","","","","","","NA"
"2016-04-20 15:00","2016","04","20","15:00","12.1","","-3.6","","33","","16","","9","","","","101.37","","","","","","NA"
"2016-04-20 16:00","2016","04","20","16:00","11.8","","-4.0","","33","","19","","13","","","","101.32","","","","","","NA"
"2016-04-20 17:00","2016","04","20","17:00","12.1","","-1.9","","38","","21","","14","","","","101.30","","","","","","NA"
"2016-04-20 18:00","2016","04","20","18:00","10.2","","-3.0","","39","","19","","10","","","","101.21","","","","","","NA"
"2016-04-20 19:00","2016","04","20","19:00","9.3","","-3.5","","40","","23","","6","","","","101.18","","","","","","NA"
"2016-04-20 20:00","2016","04","20","20:00","7.2","","-3.4","","47","","23","","2","","","","101.15","","","","","","NA"
"2016-04-20 21:00","2016","04","20","21:00","6.6","","-4.2","","46","","","","0","","","","101.08","","","","","","NA"
"2016-04-20 22:00","2016","04","20","22:00","5.2","","-3.3","","54","","7","","3","","","","100.99","","","","","","NA"
"2016-04-20 23:00","2016","04","20","23:00","3.7","","-0.2","","75","","34","","6","","","","100.97","","","","","","NA"
"2016-04-21 00:00","2016","04","21","00:00","2.1","","-0.9","","81","","11","","3","","","","100.93","","","","","","NA"
"2016-04-21 01:00","2016","04","21","01:00","1.4","","-0.7","","87","","33","","7","","","","100.91","","","","","","NA"
"2016-04-21 02:00","2016","04","21","02:00","1.0","","-1.2","","86","","35","","4","","","","100.83","","","","","","NA"
"2016-04-21 03:00","2016","04","21","03:00","0.3","","-1.5","","88","","2","","3","","","","100.79","","","","","","NA"
"2016-04-21 04:00","2016","04","21","04:00","0.5","","-1.1","","89","","1","","3","","","","100.72","","","","","","NA"
"2016-04-21 05:00","2016","04","21","05:00","0.0","","-1.6","","89","","5","","3","","","","100.68","","","","-1","","NA"
"2016-04-21 06:00","2016","04","21","06:00","0.3","","-1.5","","88","","2","","4","","","","100.68","","","","","","NA"
"2016-04-21 07:00","2016","04","21","07:00","7.0","","1.5","","68","","36","","1","","","","100.63","","","","","","NA"
"2016-04-21 08:00","2016","04","21","08:00","10.1","","-0.2","","49","","14","","7","","","","100.58","","","","","","NA"
"2016-04-21 09:00","2016","04","21","09:00","10.9","","-1.1","","43","","16","","6","","","","100.54","","","","","","NA"
"2016-04-21 10:00","2016","04","21","10:00","11.4","","-1.7","","40","","19","","11","","","","100.49","","","","","","NA"
"2016-04-21 11:00","2016","04","21","11:00","13.2","","-0.6","","39","","18","","8","","","","100.43","","","","","","NA"
"2016-04-21 12:00","2016","04","21","12:00","14.2","","-1.7","","33","","17","","9","","","","100.32","","","","","","NA"
"2016-04-21 13:00","2016","04","21","13:00","16.6","","-0.7","","31","","18","","11","","","","100.26","","","","","","NA"
"2016-04-21 14:00","2016","04","21","14:00","17.0","","0.8","","33","","18","","9","","","","100.18","","","","","","NA"
"2016-04-21 15:00","2016","04","21","15:00","16.9","","0.3","","32","","23","","8","","","","100.15","","","","","","NA"
"2016-04-21 16:00","2016","04","21","16:00","16.9","","0.3","","32","","23","","8","","","","100.14","","","","","","NA"
"2016-04-21 17:00","2016","04","21","17:00","15.5","","1.1","","38","","23","","11","","","","100.14","","","","","","NA"
"2016-04-21 18:00","2016","04","21","18:00","12.8","","4.8","","58","","20","","6","","","","100.15","","","","","","NA"
"2016-04-21 19:00","2016","04","21","19:00","13.7","","3.4","","50","","24","","8","","","","100.13","","","","","","NA"
"2016-04-21 20:00","2016","04","21","20:00","7.8","","3.9","","76","","17","","19","","","","100.20","","","","","","NA"
"2016-04-21 21:00","2016","04","21","21:00","7.4","","3.9","","79","","15","","12","","","","100.20","","","","","","NA"
"2016-04-21 22:00","2016","04","21","22:00","8.3","","4.7","","78","","19","","2","","","","100.14","","","","","","NA"
"2016-04-21 23:00","2016","04","21","23:00","8.7","","5.0","","78","","21","","6","","","","100.10","","","","","","NA"
"2016-04-22 00:00","2016","04","22","00:00","8.2","","6.2","","87","","35","","6","","","","100.03","","","","","","NA"
"2016-04-22 01:00","2016","04","22","01:00","8.7","","6.9","","88","","13","","4","","","","99.98","","","","","","NA"
"2016-04-22 02:00","2016","04","22","02:00","9.4","","7.4","","87","","13","","6","","","","99.90","","","","","","NA"
"2016-04-22 03:00","2016","04","22","03:00","9.5","","7.4","","86","","19","","8","","","","99.85","","","","","","NA"
"2016-04-22 04:00","2016","04","22","04:00","9.8","","6.6","","80","","20","","13","","","","99.81","","","","","","NA"
"2016-04-22 05:00","2016","04","22","05:00","9.6","","7.0","","84","","20","","16","","","","99.80","","","","","","NA"
"2016-04-22 06:00","2016","04","22","06:00","10.1","","8.8","","92","","20","","15","","","","99.84","","","","","","NA"
"2016-04-22 07:00","2016","04","22","07:00","10.2","","8.2","","88","","21","","13","","","","99.88","","","","","","NA"
"2016-04-22 08:00","2016","04","22","08:00","11.3","","9.6","","89","","20","","5","","","","99.89","","","","","","NA"
"2016-04-22 09:00","2016","04","22","09:00","13.3","","10.5","","83","","23","","18","","","","99.91","","","","","","NA"
"2016-04-22 10:00","2016","04","22","10:00","14.6","","11.3","","80","","24","","16","","","","99.90","","","","","","NA"
"2016-04-22 11:00","2016","04","22","11:00","13.3","","10.8","","85","","20","","8","","","","99.91","","","","","","NA"
"2016-04-22 12:00","2016","04","22","12:00","10.1","","7.9","","86","","17","","12","","","","99.91","","","","","","NA"
"2016-04-22 13:00","2016","04","22","13:00","10.3","","7.9","","85","","18","","23","","","","99.90","","","","","","NA"
"2016-04-22 14:00","2016","04","22","14:00","13.5","","10.4","","81","","20","","12","","","","99.90","","","","","","NA"
"2016-04-22 15:00","2016","04","22","15:00","17.6","","12.1","","70","","21","","12","","","","99.86","","","","","","NA"
"2016-04-22 16:00","2016","04","22","16:00","16.0","","12.1","","77","","1","","19","","","","99.95","","","","","","NA"
"2016-04-22 17:00","2016","04","22","17:00","14.9","","10.7","","76","","36","","15","","","","100.03","","","","","","NA"
"2016-04-22 18:00","2016","04","22","18:00","13.7","","8.5","","71","","36","","21","","","","100.09","","","","","","NA"
"2016-04-22 19:00","2016","04","22","19:00","12.2","","7.3","","72","","36","","18","","","","100.17","","","","","","NA"
"2016-04-22 20:00","2016","04","22","20:00","10.6","","5.7","","72","","36","","21","","","","100.31","","","","","","NA"
"2016-04-22 21:00","2016","04","22","21:00","8.8","","4.5","","74","","36","","23","","","","100.40","","","","","","NA"
"2016-04-22 22:00","2016","04","22","22:00","7.5","","3.4","","75","","1","","24","","","","100.46","","","","","","NA"
"2016-04-22 23:00","2016","04","22","23:00","6.7","","2.9","","77","","35","","27","","","","100.47","","","","","","NA"
"2016-04-23 00:00","2016","04","23","00:00","6.1","","2.2","","76","","36","","22","","","","100.52","","","","","","NA"
"2016-04-23 01:00","2016","04","23","01:00","5.7","","1.5","","74","","1","","21","","","","100.50","","","","","","NA"
"2016-04-23 02:00","2016","04","23","02:00","5.4","","1.0","","74","","1","","21","","","","100.54","","","","","","NA"
"2016-04-23 03:00","2016","04","23","03:00","5.0","","0.7","","74","","36","","20","","","","100.55","","","","","","NA"
"2016-04-23 04:00","2016","04","23","04:00","4.4","","0.2","","74","","36","","18","","","","100.58","","","","","","NA"
"2016-04-23 05:00","2016","04","23","05:00","2.8","","-1.9","","71","","1","","24","","","","100.64","","","","","","NA"
"2016-04-23 06:00","2016","04","23","06:00","2.6","","-2.6","","68","","1","","20","","","","100.74","","","","","","NA"
"2016-04-23 07:00","2016","04","23","07:00","3.4","","-3.3","","61","","1","","23","","","","100.82","","","","","","NA"
"2016-04-23 08:00","2016","04","23","08:00","4.5","","-3.6","","56","","1","","23","","","","100.87","","","","","","NA"
"2016-04-23 09:00","2016","04","23","09:00","5.7","","-4.5","","48","","36","","24","","","","100.88","","","","","","NA"
"2016-04-23 10:00","2016","04","23","10:00","7.2","","-5.3","","41","","36","","19","","","","100.90","","","","","","NA"
"2016-04-23 11:00","2016","04","23","11:00","8.5","","-5.2","","37","","2","","21","","","","100.87","","","","","","NA"
"2016-04-23 12:00","2016","04","23","12:00","9.9","","-6.5","","31","","3","","12","","","","100.83","","","","","","NA"
"2016-04-23 13:00","2016","04","23","13:00","10.7","","-6.5","","29","","32","","14","","","","100.82","","","","","","NA"
"2016-04-23 14:00","2016","04","23","14:00","10.9","","-9.2","","23","","36","","13","","","","100.77","","","","","","NA"
"2016-04-23 15:00","2016","04","23","15:00","11.9","","-8.5","","23","","32","","15","","","","100.75","","","","","","NA"
"2016-04-23 16:00","2016","04","23","16:00","9.4","","-1.4","","47","","20","","21","","","","100.72","","","","","","NA"
"2016-04-23 17:00","2016","04","23","17:00","9.5","","-1.6","","46","","21","","17","","","","100.73","","","","","","NA"
"2016-04-23 18:00","2016","04","23","18:00"
"2016-04-23 19:00","2016","04","23","19:00","5.6","","1.9","","77","","22","","1","","","","100.75","","","","","","NA"
"2016-04-23 20:00","2016","04","23","20:00","5.4","","0.3","","70","","3","","3","","","","100.80","","","","","","NA"
"2016-04-23 21:00","2016","04","23","21:00","5.8","","-7.7","","37","","3","","9","","","","100.85","","","","","","NA"
"2016-04-23 22:00","2016","04","23","22:00","5.0","","-9.9","","33","","2","","10","","","","100.86","","","","","","NA"
"2016-04-23 23:00","2016","04","23","23:00","3.5","","-4.8","","55","","35","","6","","","","100.86","","","","","","NA"
"2016-04-24 00:00","2016","04","24","00:00","3.1","","-8.8","","41","","2","","7","","","","100.89","","","","","","NA"
"2016-04-24 01:00","2016","04","24","01:00","1.8","","-6.5","","54","","36","","8","","","","100.89","","","","","","NA"
"2016-04-24 02:00","2016","04","24","02:00","1.3","","-7.7","","51","","1","","10","","","","100.87","","","","","","NA"
"2016-04-24 03:00","2016","04","24","03:00","2.0","","-8.4","","46","","1","","14","","","","100.90","","","","","","NA"
"2016-04-24 04:00","2016","04","24","04:00","1.3","","-8.7","","47","","2","","10","","","","100.95","","","","","","NA"
"2016-04-24 05:00","2016","04","24","05:00","0.0","","-8.2","","54","","1","","10","","","","100.99","","","","-3","","NA"
"2016-04-24 06:00","2016","04","24","06:00","2.0","","-7.7","","49","","3","","9","","","","101.05","","","","","","NA"
"2016-04-24 07:00","2016","04","24","07:00","3.6","","-8.2","","42","","4","","10","","","","101.09","","","","","","NA"
"2016-04-24 08:00","2016","04","24","08:00","5.1","","-8.1","","38","","6","","11","","","","101.09","","","","","","NA"
"2016-04-24 09:00","2016","04","24","09:00","6.3","","-6.2","","40","","15","","12","","","","101.10","","","","","","NA"
"2016-04-24 10:00","2016","04","24","10:00","6.4","","-8.9","","32","","13","","15","","","","101.09","","","","","","NA"
"2016-04-24 11:00","2016","04","24","11:00","6.2","","-6.2","","40","","14","","11","","","","101.06","","","","","","NA"
"2016-04-24 12:00","2016","04","24","12:00","6.9","","-8.2","","33","","19","","14","","","","100.96","","","","","","NA"
"2016-04-24 13:00","2016","04","24","13:00","6.8","","-8.6","","32","","19","","18","","","","100.93","","","","","","NA"
"2016-04-24 14:00","2016","04","24","14:00","8.1","","-6.8","","34","","19","","19","","","","100.87","","","","","","NA"
"2016-04-24 15:00","2016","04","24","15:00","6.8","","-6.2","","39","","19","","16","","","","100.82","","","","","","NA"
"2016-04-24 16:00","2016","04","24","16:00","7.6","","-7.6","","33","","21","","17","","","","100.81","","","","","","NA"
"2016-04-24 17:00","2016","04","24","17:00","7.4","","-6.0","","38","","22","","13","","","","100.78","","","","","","NA"
"2016-04-24 18:00","2016","04","24","18:00","7.1","","-4.6","","43","","23","","13","","","","100.75","","","","","","NA"
"2016-04-24 19:00","2016","04","24","19:00","7.4","","-4.5","","43","","23","","15","","","","100.74","","","","","","NA"
"2016-04-24 20:00","2016","04","24","20:00","6.9","","-0.9","","57","","24","","10","","","","100.75","","","","","","NA"
"2016-04-24 21:00","2016","04","24","21:00","6.8","","-2.8","","50","","23","","10","","","","100.76","","","","","","NA"
"2016-04-24 22:00","2016","04","24","22:00","6.4","","-2.2","","54","","22","","7","","","","100.69","","","","","","NA"
"2016-04-24 23:00","2016","04","24","23:00","6.2","","-1.6","","57","","24","","5","","","","100.68","","","","","","NA"
"2016-04-25 00:00","2016","04","25","00:00","5.8","","1.1","","72","","18","","2","","","","100.67","","","","","","NA"
"2016-04-25 01:00","2016","04","25","01:00","5.2","","1.8","","79","","20","","8","","","","100.68","","","","","","NA"
"2016-04-25 02:00","2016","04","25","02:00","4.7","","1.6","","80","","35","","6","","","","100.70","","","","","","NA"
"2016-04-25 03:00","2016","04","25","03:00","6.1","","-5.0","","45","","3","","23","","","","100.73","","","","","","NA"
"2016-04-25 04:00","2016","04","25","04:00","5.4","","-5.5","","45","","3","","19","","","","100.77","","","","","","NA"
"2016-04-25 05:00","2016","04","25","05:00","4.8","","-6.1","","45","","3","","18","","","","100.84","","","","","","NA"
"2016-04-25 06:00","2016","04","25","06:00","4.1","","-7.3","","43","","2","","15","","","","100.90","","","","","","NA"
"2016-04-25 07:00","2016","04","25","07:00","3.7","","-7.9","","43","","3","","19","","","","100.92","","","","","","NA"
"2016-04-25 08:00","2016","04","25","08:00","4.0","","-9.1","","38","","3","","15","","","","100.88","","","","","","NA"
"2016-04-25 09:00","2016","04","25","09:00","5.1","","-9.6","","34","","6","","17","","","","100.86","","","","","","NA"
"2016-04-25 10:00","2016","04","25","10:00","5.7","","-9.8","","32","","5","","12","","","","100.87","","","","","","NA"
"2016-04-25 11:00","2016","04","25","11:00","7.1","","-9.8","","29","","3","","12","","","","100.82","","","","","","NA"
"2016-04-25 12:00","2016","04","25","12:00","8.1","","-9.1","","29","","1","","12","","","","100.74","","","","","","NA"
"2016-04-25 13:00","2016","04","25","13:00","8.6","","-8.4","","29","","3","","11","","","","100.67","","","","","","NA"
"2016-04-25 14:00","2016","04","25","14:00","8.9","","-7.7","","30","","4","","11","","","","100.57","","","","","","NA"
"2016-04-25 15:00","2016","04","25","15:00","8.6","","-6.9","","33","","4","","10","","","","100.52","","","","","","NA"
"2016-04-25 16:00","2016","04","25","16:00","8.3","","-7.0","","33","","3","","11","","","","100.49","","","","","","NA"
"2016-04-25 17:00","2016","04","25","17:00","8.1","","-6.9","","34","","2","","16","","","","100.47","","","","","","NA"
"2016-04-25 18:00","2016","04","25","18:00","7.4","","-7.0","","35","","3","","16","","","","100.41","","","","","","NA"
"2016-04-25 19:00","2016","04","25","19:00","6.8","","-7.0","","37","","4","","16","","","","100.35","","","","","","NA"
"2016-04-25 20:00","2016","04","25","20:00","6.9","","-7.0","","36","","3","","17","","","","100.32","","","","","","NA"
"2016-04-25 21:00","2016","04","25","21:00","6.6","","-7.5","","36","","4","","17","","","","100.30","","","","","","NA"
"2016-04-25 22:00","2016","04","25","22:00"
"2016-04-25 23:00","2016","04","25","23:00"
"2016-04-26 00:00","2016","04","26","00:00"
"2016-04-26 01:00","2016","04","26","01:00"
"2016-04-26 02:00","2016","04","26","02:00"
"2016-04-26 03:00","2016","04","26","03:00"
"2016-04-26 04:00","2016","04","26","04:00"
"2016-04-26 05:00","2016","04","26","05:00"
"2016-04-26 06:00","2016","04","26","06:00"
"2016-04-26 07:00","2016","04","26","07:00"
"2016-04-26 08:00","2016","04","26","08:00","0.4","","-1.3","","88","","3","","32","","","","99.83","","","","","","NA"
"2016-04-26 09:00","2016","04","26","09:00","0.4","","-1.5","","87","","3","","31","","","","99.87","","","","","","NA"
"2016-04-26 10:00","2016","04","26","10:00","0.5","","-1.8","","84","","3","","34","","","","99.94","","","","","","NA"
"2016-04-26 11:00","2016","04","26","11:00","2.2","","-1.0","","79","","4","","33","","","","99.91","","","","","","NA"
"2016-04-26 12:00","2016","04","26","12:00","3.5","","-1.7","","69","","5","","30","","","","99.94","","","","","","NA"
"2016-04-26 13:00","2016","04","26","13:00","4.9","","-2.2","","60","","4","","21","","","","99.96","","","","","","NA"
"2016-04-26 14:00","2016","04","26","14:00","5.4","","-4.4","","49","","4","","23","","","","99.99","","","","","","NA"
"2016-04-26 15:00","2016","04","26","15:00","7.3","","-3.5","","46","","2","","19","","","","99.98","","","","","","NA"
"2016-04-26 16:00","2016","04","26","16:00","8.7","","-6.0","","35","","1","","20","","","","100.00","","","","","","NA"
"2016-04-26 17:00","2016","04","26","17:00","9.5","","-6.8","","31","","35","","8","","","","100.03","","","","","","NA"
"2016-04-26 18:00","2016","04","26","18:00","5.3","","0.1","","69","","19","","17","","","","100.05","","","","","","NA"
"2016-04-26 19:00","2016","04","26","19:00","3.7","","0.1","","77","","20","","10","","","","100.08","","","","","","NA"
"2016-04-26 20:00","2016","04","26","20:00","3.1","","-1.2","","74","","22","","13","","","","100.13","","","","","","NA"
"2016-04-26 21:00","2016","04","26","21:00","4.2","","-0.6","","71","","25","","15","","","","100.16","","","","","","NA"
"2016-04-26 22:00","2016","04","26","22:00","2.8","","-1.9","","72","","27","","12","","","","100.19","","","","","","NA"
"2016-04-26 23:00","2016","04","26","23:00","0.9","","-2.0","","81","","30","","10","","","","100.17","","","","","","NA"
"2016-04-27 00:00","2016","04","27","00:00","0.2","","-2.0","","85","","32","","8","","","","100.21","","","","","","NA"
"2016-04-27 01:00","2016","04","27","01:00","-0.1","","-2.0","","87","","34","","7","","","","100.31","","","","-3","","NA"
"2016-04-27 02:00","2016","04","27","02:00","-0.7","","-4.1","","77","","35","","14","","","","100.37","","","","-5","","NA"
"2016-04-27 03:00","2016","04","27","03:00","-1.3","","-6.6","","67","","35","","12","","","","100.39","","","","-5","","NA"
"2016-04-27 04:00","2016","04","27","04:00","-0.5","","-7.6","","59","","1","","11","","","","100.40","","","","-4","","NA"
"2016-04-27 05:00","2016","04","27","05:00","-0.7","","-7.4","","61","","1","","11","","","","100.42","","","","-4","","NA"
"2016-04-27 06:00","2016","04","27","06:00","-0.1","","-7.0","","60","","1","","11","","","","100.54","","","","-4","","NA"
"2016-04-27 07:00","2016","04","27","07:00","1.2","","-7.9","","51","","35","","12","","","","100.56","","","","","","NA"
"2016-04-27 08:00","2016","04","27","08:00","2.4","","-9.0","","43","","35","","14","","","","100.51","","","","","","NA"
"2016-04-27 09:00","2016","04","27","09:00","3.3","","-10.8","","35","","32","","8","","","","100.50","","","","","","NA"
"2016-04-27 10:00","2016","04","27","10:00","4.0","","-8.2","","41","","16","","14","","","","100.45","","","","","","NA"
"2016-04-27 11:00","2016","04","27","11:00","5.1","","-5.7","","46","","17","","15","","","","100.38","","","","","","NA"
"2016-04-27 12:00","2016","04","27","12:00","4.8","","-5.4","","47","","17","","19","","","","100.35","","","","","","NA"
"2016-04-27 13:00","2016","04","27","13:00","5.1","","-3.5","","54","","19","","24","","","","100.28","","","","","","NA"
"2016-04-27 14:00","2016","04","27","14:00","5.7","","-2.8","","55","","19","","25","","","","100.27","","","","","","NA"
"2016-04-27 15:00","2016","04","27","15:00","5.7","","-2.2","","57","","19","","27","","","","100.21","","","","","","NA"
"2016-04-27 16:00","2016","04","27","16:00","7.3","","-2.8","","49","","20","","30","","","","100.15","","","","","","NA"
"2016-04-27 17:00","2016","04","27","17:00","6.6","","0.3","","64","","19","","28","","","","100.13","","","","","","NA"
"2016-04-27 18:00","2016","04","27","18:00","7.9","","-2.1","","49","","23","","24","","","","100.13","","","","","","NA"
"2016-04-27 19:00","2016","04","27","19:00","7.0","","-1.6","","54","","24","","22","","","","100.16","","","","","","NA"
"2016-04-27 20:00","2016","04","27","20:00","5.3","","-1.2","","63","","25","","14","","","","100.27","","","","","","NA"
"2016-04-27 21:00","2016","04","27","21:00","3.9","","-3.3","","60","","31","","13","","","","100.36","","","","","","NA"
"2016-04-27 22:00","2016","04","27","22:00","2.7","","-3.8","","62","","1","","9","","","","100.41","","","","","","NA"
"2016-04-27 23:00","2016","04","27","23:00","3.1","","-3.2","","63","","34","","6","","","","100.48","","","","","","NA"
"2016-04-28 00:00","2016","04","28","00:00","1.1","","-4.7","","65","","3","","8","","","","100.51","","","","","","NA"
"2016-04-28 01:00","2016","04","28","01:00","1.2","","-5.3","","62","","2","","3","","","","100.52","","","","","","NA"
"2016-04-28 02:00","2016","04","28","02:00","0.3","","-5.7","","64","","33","","5","","","","100.58","","","","","","NA"
"2016-04-28 03:00","2016","04","28","03:00","-0.6","","-3.6","","80","","36","","4","","","","100.61","","","","-2","","NA"
"2016-04-28 04:00","2016","04","28","04:00","-1.7","","-4.0","","84","","35","","6","","","","100.64","","","","-4","","NA"
"2016-04-28 05:00","2016","04","28","05:00","-1.6","","-5.7","","74","","1","","11","","","","100.69","","","","-5","","NA"
"2016-04-28 06:00","2016","04","28","06:00","1.4","","-5.9","","58","","2","","10","","","","100.84","","","","","","NA"
"2016-04-28 07:00","2016","04","28","07:00","3.3","","-5.8","","52","","3","","16","","","","100.89","","","","","","NA"
"2016-04-28 08:00","2016","04","28","08:00","4.5","","-5.6","","48","","3","","17","","","","100.92","","","","","","NA"
"2016-04-28 09:00","2016","04","28","09:00","4.9","","-6.7","","43","","2","","18","","","","100.94","","","","","","NA"
"2016-04-28 10:00","2016","04","28","10:00","6.0","","-5.7","","43","","3","","19","","","","100.94","","","","","","NA"
"2016-04-28 11:00","2016","04","28","11:00","7.3","","-3.8","","45","","4","","16","","","","100.88","","","","","","NA"
"2016-04-28 12:00","2016","04","28","12:00","7.3","","-5.0","","41","","4","","20","","","","100.82","","","","","","NA"
"2016-04-28 13:00","2016","04","28","13:00","7.6","","-7.2","","34","","5","","12","","","","100.80","","","","","","NA"
"2016-04-28 14:00","2016","04","28","14:00","8.9","","-4.2","","39","","5","","10","","","","100.72","","","","","","NA"
"2016-04-28 15:00","2016","04","28","15:00","9.1","","-2.6","","44","","9","","10","","","","100.65","","","","","","NA"
"2016-04-28 16:00","2016","04","28","16:00","9.2","","-2.5","","44","","10","","14","","","","100.68","","","","","","NA"
"2016-04-28 17:00","2016","04","28","17:00","8.8","","-4.9","","38","","2","","13","","","","100.74","","","","","","NA"
"2016-04-28 18:00","2016","04","28","18:00","8.1","","-3.9","","43","","6","","10","","","","100.75","","","","","","NA"
"2016-04-28 19:00","2016","04","28","19:00","7.4","","-5.8","","38","","4","","13","","","","100.79","","","","","","NA"
"2016-04-28 20:00","2016","04","28","20:00","5.9","","-5.9","","42","","5","","15","","","","100.83","","","","","","NA"
"2016-04-28 21:00","2016","04","28","21:00","5.3","","-5.6","","45","","5","","14","","","","100.86","","","","","","NA"
"2016-04-28 22:00","2016","04","28","22:00","4.3","","-5.4","","49","","5","","13","","","","100.86","","","","","","NA"
"2016-04-28 23:00","2016","04","28","23:00","3.6","","-5.6","","51","","5","","11","","","","100.83","","","","","","NA"
"2016-04-29 00:00","2016","04","29","00:00","3.8","","-5.9","","49","","5","","13","","","","100.81","","","","","","NA"
"2016-04-29 01:00","2016","04","29","01:00","3.2","","-5.8","","52","","5","","13","","","","100.79","","","","","","NA"
"2016-04-29 02:00","2016","04","29","02:00","3.2","","-5.8","","51","","5","","11","","","","100.79","","","","","","NA"
"2016-04-29 03:00","2016","04","29","03:00","3.4","","-6.7","","48","","4","","14","","","","100.77","","","","","","NA"
"2016-04-29 04:00","2016","04","29","04:00","3.1","","-7.4","","46","","3","","16","","","","100.75","","","","","","NA"
"2016-04-29 05:00","2016","04","29","05:00","3.2","","-7.7","","45","","5","","20","","","","100.77","","","","","","NA"
"2016-04-29 06:00","2016","04","29","06:00","3.3","","-7.4","","45","","6","","22","","","","100.82","","","","","","NA"
"2016-04-29 07:00","2016","04","29","07:00","4.4","","-6.8","","44","","5","","25","","","","100.86","","","","","","NA"
"2016-04-29 08:00","2016","04","29","08:00","5.8","","-5.9","","43","","4","","21","","","","100.86","","","","","","NA"
"2016-04-29 09:00","2016","04","29","09:00","8.0","","-3.6","","44","","6","","22","","","","100.85","","","","","","NA"
"2016-04-29 10:00","2016","04","29","10:00","9.8","","-3.2","","40","","5","","16","","","","100.87","","","","","","NA"
"2016-04-29 11:00","2016","04","29","11:00","10.5","","-3.7","","37","","5","","17","","","","100.82","","","","","","NA"
"2016-04-29 12:00","2016","04","29","12:00","11.5","","-4.2","","33","","5","","16","","","","100.75","","","","","","NA"
"2016-04-29 13:00","2016","04","29","13:00","12.1","","-4.7","","31","","7","","13","","","","100.72","","","","","","NA"
"2016-04-29 14:00","2016","04","29","14:00","12.4","","-4.3","","31","","7","","14","","","","100.73","","","","","","NA"
"2016-04-29 15:00","2016","04","29","15:00","12.4","","-4.0","","32","","4","","18","","","","100.69","","","","","","NA"
"2016-04-29 16:00","2016","04","29","16:00","12.6","","-4.4","","30","","3","","16","","","","100.67","","","","","","NA"
"2016-04-29 17:00","2016","04","29","17:00","12.3","","-4.6","","30","","1","","17","","","","100.69","","","","","","NA"
"2016-04-29 18:00","2016","04","29","18:00","11.5","","-5.4","","30","","2","","14","","","","100.72","","","","","","NA"
"2016-04-29 19:00","2016","04","29","19:00","10.2","","-5.5","","33","","3","","10","","","","100.84","","","","","","NA"
"2016-04-29 20:00","2016","04","29","20:00","8.8","","-4.8","","38","","36","","9","","","","100.96","","","","","","NA"
"2016-04-29 21:00","2016","04","29","21:00","8.2","","-5.9","","36","","1","","9","","","","101.01","","","","","","NA"
"2016-04-29 22:00","2016","04","29","22:00","6.9","","-3.7","","47","","36","","8","","","","101.01","","","","","","NA"
"2016-04-29 23:00","2016","04","29","23:00","5.6","","-3.0","","54","","35","","7","","","","101.03","","","","","","NA"
"2016-04-30 00:00","2016","04","30","00:00","4.3","","-3.0","","59","","1","","7","","","","100.99","","","","","","NA"
"2016-04-30 01:00","2016","04","30","01:00","3.4","","-4.0","","59","","1","","5","","","","100.99","","","","","","NA"
"2016-04-30 02:00","2016","04","30","02:00","1.3","","-3.9","","68","","34","","8","","","","101.03","","","","","","NA"
"2016-04-30 03:00","2016","04","30","03:00","0.7","","-3.8","","72","","34","","14","","","","101.08","","","","","","NA"
"2016-04-30 04:00","2016","04","30","04:00","-0.1","","-3.7","","76","","35","","12","","","","101.14","","","","-4","","NA"
"2016-04-30 05:00","2016","04","30","05:00","-1.2","","-4.2","","80","","35","","10","","","","101.17","","","","-5","","NA"
"2016-04-30 06:00","2016","04","30","06:00","1.2","","-2.3","","78","","34","","13","","","","101.26","","","","","","NA"
"2016-04-30 07:00","2016","04","30","07:00","7.6","","-4.6","","42","","3","","14","","","","101.26","","","","","","NA"
"2016-04-30 08:00","2016","04","30","08:00","9.9","","-5.5","","33","","4","","15","","","","101.24","","","","","","NA"
"2016-04-30 09:00","2016","04","30","09:00","11.6","","-5.3","","30","","4","","16","","","","101.27","","","","","","NA"
"2016-04-30 10:00","2016","04","30","10:00","12.9","","-5.2","","28","","6","","13","","","","101.25","","","","","","NA"
"2016-04-30 11:00","2016","04","30","11:00","13.7","","-5.2","","27","","6","","11","","","","101.23","","","","","","NA"
"2016-04-30 12:00","2016","04","30","12:00","14.1","","-5.8","","25","","6","","14","","","","101.16","","","","","","NA"
"2016-04-30 13:00","2016","04","30","13:00","15.0","","-4.6","","25","","12","","14","","","","101.12","","","","","","NA"
"2016-04-30 14:00","2016","04","30","14:00","14.7","","-4.2","","27","","15","","14","","","","101.11","","","","","","NA"
"2016-04-30 15:00","2016","04","30","15:00","14.0","","-2.2","","32","","17","","13","","","","101.08","","","","","","NA"
"2016-04-30 16:00","2016","04","30","16:00","14.3","","-5.1","","26","","15","","13","","","","101.03","","","","","","NA"
"2016-04-30 17:00","2016","04","30","17:00","14.4","","-3.8","","28","","16","","8","","","","101.04","","","","","","NA"
"2016-04-30 18:00","2016","04","30","18:00","13.5","","-3.5","","31","","16","","5","","","","101.02","","","","","","NA"
"2016-04-30 19:00","2016","04","30","19:00","11.0","","-4.3","","34","","10","","7","","","","101.02","","","","","","NA"
"2016-04-30 20:00","2016","04","30","20:00","10.2","","-3.4","","38","","7","","10","","","","100.98","","","","","","NA"
"2016-04-30 21:00","2016","04","30","21:00","11.1","","-2.6","","38","","5","","10","","","","100.98","","","","","","NA"
"2016-04-30 22:00","2016","04","30","22:00","11.0","","-3.2","","37","","6","","13","","","","100.98","","","","","","NA"
"2016-04-30 23:00","2016","04","30","23:00","10.4","","-4.2","","36","","5","","13","","","","100.96","","","","","","NA"
