"Station Name","KINGSTON CLIMATE"
"Province","ONTARIO"
"Latitude","44.22"
"Longitude","-76.60"
"Elevation","93.00"
"Climate Identifier","6104142"
"WMO Identifier","71820"
"TC Identifier","TKG"
"All times are specified in Local Standard Time (LST). Add 1 hour to adjust for Daylight Saving Time where and when it is observed."

"Legend"
"E","Estimated"
"M","Missing"
"NA","Not Available"

"Date/Time","Year","Month","Day","Time","Temp (°C)","Temp Flag","Dew Point Temp (°C)","Dew Point Temp Flag","Rel Hum (%)","Rel Hum Flag","Wind Dir (10s deg)","Wind Dir Flag","Wind Spd (km/h)","Wind Spd Flag","Visibility (km)","Visibility Flag","Stn Press (kPa)","Stn Press Flag","Hmdx","Hmdx Flag","Wind Chill","Wind Chill Flag","Weather"
"2016-01-01 00:00","2016","01","01","00:00","0.9","","-3.7","","71","","26","","20","","","","100.48","","","","","","NA"
"2016-01-01 01:00","2016","01","01","01:00","0.7","","-3.5","","73","","26","","16","","","","100.43","","","","","","NA"
"2016-01-01 02:00","2016","01","01","02:00","0.0","","-2.9","","81","","25","","24","","","","100.43","","","","-6","","NA"
"2016-01-01 03:00","2016","01","01","03:00","-0.4","","-3.1","","82","","26","","15","","","","100.41","","","","-5","","NA"
"2016-01-01 04:00","2016","01","01","04:00","-0.3","","-3.5","","79","","26","","16","","","","100.35","","","","-5","","NA"
"2016-01-01 05:00","2016","01","01","05:00","-0.7","","-3.5","","81","","26","","17","","","","100.31","","","","-6","","NA"
"2016-01-01 06:00","2016","01","01","06:00","-0.7","","-3.6","","81","","26","","18","","","","100.26","","","","-6","","NA"
"2016-01-01 07:00","2016","01","01","07:00","-0.5","","-3.6","","79","","26","","15","","","","100.25","","","","-5","","NA"
"2016-01-01 08:00","2016","01","01","08:00","-0.1","","-4.2","","74","","27","","16","","","","100.24","","","","-5","","NA"
"2016-01-01 09:00","2016","01","01","09:00","0.0","","-4.4","","72","","26","","17","","","","100.25","","","","-5","","NA"
"2016-01-01 10:00","2016","01","01","10:00","-0.3","","-4.3","","74","","25","","20","","","","100.24","","","","-6","","NA"
"2016-01-01 11:00","2016","01","01","11:00","-0.6","","-3.8","","79","","26","","20","","","","100.21","","","","-6","","NA"
"2016-01-01 12:00","2016","01","01","12:00","-0.1","","-3.9","","76","","25","","22","","","","100.13","","","","-6","","NA"
"2016-01-01 13:00","2016","01","01","13:00","0.6","","-5.3","","65","","25","","21","","","","100.02","","","","","","NA"
"2016-01-01 14:00","2016","01","01","14:00","0.6","","-7.2","","56","","25","","26","","","","100.01","","","","","","NA"
"2016-01-01 15:00","2016","01","01","15:00","0.1","","-8.7","","51","","27","","26","","","","100.03","","","","","","NA"
"2016-01-01 16:00","2016","01","01","16:00","-0.2","","-8.7","","53","","27","","19","","","","100.06","","","","-5","","NA"
"2016-01-01 17:00","2016","01","01","17:00","-0.7","","-8.6","","55","","27","","22","","","","100.11","","","","-6","","NA"
"2016-01-01 18:00","2016","01","01","18:00","-1.2","","-7.6","","62","","26","","17","","","","100.14","","","","-6","","NA"
"2016-01-01 19:00","2016","01","01","19:00","-1.5","","-6.8","","67","","26","","21","","","","100.23","","","","-7","","NA"
"2016-01-01 20:00","2016","01","01","20:00","-1.4","","-6.2","","70","","26","","22","","","","100.25","","","","-7","","NA"
"2016-01-01 21:00","2016","01","01","21:00","-1.4","","-6.4","","68","","27","","22","","","","100.28","","","","-7","","NA"
"2016-01-01 22:00","2016","01","01","22:00","-1.4","","-6.3","","69","","27","","21","","","","100.27","","","","-7","","NA"
"2016-01-01 23:00","2016","01","01","23:00","-1.4","","-6.1","","70","","26","","19","","","","100.29","","","","-7","","NA"
"2016-01-02 00:00","2016","01","02","00:00","-1.2","","-6.4","","68","","27","","21","","","","100.31","","","","-7","","NA"
"2016-01-02 01:00","2016","01","02","01:00","-1.3","","-6.9","","66","","26","","21","","","","100.31","","","","-7","","NA"
"2016-01-02 02:00","2016","01","02","02:00","-1.4","","-7.3","","64","","27","","22","","","","100.32","","","","-7","","NA"
"2016-01-02 03:00","2016","01","02","03:00","-1.6","","-7.4","","64","","27","","14","","","","100.33","","","","-6","","NA"
"2016-01-02 04:00","2016","01","02","04:00","-1.6","","-7.5","","64","","27","","17","","","","100.29","","","","-7","","NA"
"2016-01-02 05:00","2016","01","02","05:00","-1.4","","-6.8","","67","","26","","17","","","","100.26","","","","-7","","NA"
"2016-01-02 06:00","2016","01","02","06:00","-1.5","","-6.8","","68","","25","","25","","","","100.28","","","","-8","","NA"
"2016-01-02 07:00","2016","01","02","07:00","-1.4","","-6.9","","66","","26","","21","","","","100.28","","","","-7","","NA"
"2016-01-02 08:00","2016","01","02","08:00","-2.1","","-7.0","","69","","26","","20","","","","100.28","","","","-8","","NA"
"2016-01-02 09:00","2016","01","02","09:00","-1.8","","-6.5","","71","","26","","16","","","","100.28","","","","-7","","NA"
"2016-01-02 10:00","2016","01","02","10:00","-1.5","","-5.0","","77","","25","","18","","","","100.28","","","","-7","","NA"
"2016-01-02 11:00","2016","01","02","11:00","-1.2","","-4.7","","77","","26","","17","","","","100.27","","","","-6","","NA"
"2016-01-02 12:00","2016","01","02","12:00","-0.3","","-4.5","","73","","25","","21","","","","100.11","","","","-6","","NA"
"2016-01-02 13:00","2016","01","02","13:00","0.5","","-2.7","","80","","23","","25","","","","100.02","","","","","","NA"
"2016-01-02 14:00","2016","01","02","14:00","0.9","","-4.7","","66","","24","","27","","","","99.96","","","","","","NA"
"2016-01-02 15:00","2016","01","02","15:00","0.9","","-5.0","","65","","24","","26","","","","99.92","","","","","","NA"
"2016-01-02 16:00","2016","01","02","16:00","0.8","","-5.3","","64","","25","","26","","","","99.94","","","","","","NA"
"2016-01-02 17:00","2016","01","02","17:00","0.4","","-5.0","","67","","26","","17","","","","99.97","","","","","","NA"
"2016-01-02 18:00","2016","01","02","18:00","0.1","","-4.8","","70","","26","","16","","","","99.98","","","","","","NA"
"2016-01-02 19:00","2016","01","02","19:00","0.4","","-4.7","","69","","25","","18","","","","99.90","","","","","","NA"
"2016-01-02 20:00","2016","01","02","20:00","0.3","","-3.7","","75","","22","","18","","","","99.85","","","","","","NA"
"2016-01-02 21:00","2016","01","02","21:00","1.7","","-3.0","","71","","24","","33","","","","99.70","","","","","","NA"
"2016-01-02 22:00","2016","01","02","22:00","2.0","","-1.6","","77","","22","","31","","","","99.60","","","","","","NA"
"2016-01-02 23:00","2016","01","02","23:00","1.9","","-1.4","","78","","22","","33","","","","99.54","","","","","","NA"
"2016-01-03 00:00","2016","01","03","00:00","1.6","","-2.4","","75","","22","","42","","","","99.45","","","","","","NA"
"2016-01-03 01:00","2016","01","03","01:00","1.6","","-2.1","","77","","21","","37","","","","99.37","","","","","","NA"
"2016-01-03 02:00","2016","01","03","02:00","1.8","","-2.0","","76","","21","","34","","","","99.31","","","","","","NA"
"2016-01-03 03:00","2016","01","03","03:00","2.2","","-1.4","","77","","21","","31","","","","99.28","","","","","","NA"
"2016-01-03 04:00","2016","01","03","04:00","2.3","","-2.0","","73","","26","","24","","","","99.23","","","","","","NA"
"2016-01-03 05:00","2016","01","03","05:00","1.9","","-3.1","","70","","25","","15","","","","99.17","","","","","","NA"
"2016-01-03 06:00","2016","01","03","06:00","1.7","","-3.1","","71","","25","","24","","","","99.20","","","","","","NA"
"2016-01-03 07:00","2016","01","03","07:00","2.0","","-2.1","","74","","25","","28","","","","99.21","","","","","","NA"
"2016-01-03 08:00","2016","01","03","08:00","1.2","","-0.7","","87","","25","","22","","","","99.25","","","","","","NA"
"2016-01-03 09:00","2016","01","03","09:00","1.6","","-1.2","","81","","26","","21","","","","99.32","","","","","","NA"
"2016-01-03 10:00","2016","01","03","10:00","2.2","","-1.5","","77","","26","","23","","","","99.35","","","","","","NA"
"2016-01-03 11:00","2016","01","03","11:00","2.2","","-1.8","","75","","27","","21","","","","99.39","","","","","","NA"
"2016-01-03 12:00","2016","01","03","12:00","1.5","","-1.5","","80","","28","","24","","","","99.39","","","","","","NA"
"2016-01-03 13:00","2016","01","03","13:00","1.8","","-2.1","","75","","30","","19","","","","99.42","","","","","","NA"
"2016-01-03 14:00","2016","01","03","14:00","1.6","","-3.8","","67","","32","","18","","","","99.50","","","","","","NA"
"2016-01-03 15:00","2016","01","03","15:00","-0.6","","-4.4","","76","","34","","24","","","","99.67","","","","-7","","NA"
"2016-01-03 16:00","2016","01","03","16:00","-2.2","","-6.2","","74","","33","","25","","","","99.85","","","","-9","","NA"
"2016-01-03 17:00","2016","01","03","17:00","-3.7","","-8.3","","70","","34","","29","","","","100.04","","","","-11","","NA"
"2016-01-03 18:00","2016","01","03","18:00","-5.5","","-10.4","","68","","35","","28","","","","100.22","","","","-13","","NA"
"2016-01-03 19:00","2016","01","03","19:00","-7.1","","-11.6","","70","","35","","24","","","","100.34","","","","-15","","NA"
"2016-01-03 20:00","2016","01","03","20:00","-8.1","","-12.4","","71","","33","","21","","","","100.44","","","","-16","","NA"
"2016-01-03 21:00","2016","01","03","21:00","-9.1","","-13.4","","71","","1","","17","","","","100.54","","","","-16","","NA"
"2016-01-03 22:00","2016","01","03","22:00","-10.5","","-15.0","","70","","36","","19","","","","100.65","","","","-18","","NA"
"2016-01-03 23:00","2016","01","03","23:00","-11.5","","-16.0","","69","","1","","17","","","","100.75","","","","-19","","NA"
"2016-01-04 00:00","2016","01","04","00:00","-12.7","","-17.2","","69","","35","","27","","","","100.82","","","","-23","","NA"
"2016-01-04 01:00","2016","01","04","01:00","-13.3","","-17.6","","70","","35","","24","","","","100.85","","","","-23","","NA"
"2016-01-04 02:00","2016","01","04","02:00","-14.2","","-18.8","","68","","36","","26","","","","100.90","","","","-24","","NA"
"2016-01-04 03:00","2016","01","04","03:00","-14.7","","-19.1","","69","","35","","23","","","","100.98","","","","-24","","NA"
"2016-01-04 04:00","2016","01","04","04:00","-15.9","","-20.4","","68","","1","","24","","","","101.05","","","","-26","","NA"
"2016-01-04 05:00","2016","01","04","05:00","-16.8","","-21.5","","67","","1","","20","","","","101.11","","","","-26","","NA"
"2016-01-04 06:00","2016","01","04","06:00","-17.4","","-21.5","","70","","36","","15","","","","101.22","","","","-26","","NA"
"2016-01-04 07:00","2016","01","04","07:00","-17.7","","-22.0","","69","","35","","18","","","","101.32","","","","-27","","NA"
"2016-01-04 08:00","2016","01","04","08:00","-17.6","","-22.5","","65","","36","","20","","","","101.41","","","","-27","","NA"
"2016-01-04 09:00","2016","01","04","09:00","-17.1","","-22.8","","61","","1","","24","","","","101.53","","","","-28","","NA"
"2016-01-04 10:00","2016","01","04","10:00","-16.1","","-21.9","","61","","2","","21","","","","101.60","","","","-26","","NA"
"2016-01-04 11:00","2016","01","04","11:00","-15.7","","-22.0","","58","","3","","24","","","","101.67","","","","-26","","NA"
"2016-01-04 12:00","2016","01","04","12:00","-15.0","","-21.3","","59","","2","","19","","","","101.67","","","","-24","","NA"
"2016-01-04 13:00","2016","01","04","13:00","-14.0","","-20.5","","58","","1","","20","","","","101.73","","","","-23","","NA"
"2016-01-04 14:00","2016","01","04","14:00","-13.7","","-21.1","","54","","36","","26","","","","101.76","","","","-24","","NA"
"2016-01-04 15:00","2016","01","04","15:00","-13.1","","-20.8","","52","","1","","19","","","","101.84","","","","-22","","NA"
"2016-01-04 16:00","2016","01","04","16:00","-13.2","","-21.1","","51","","1","","21","","","","101.96","","","","-22","","NA"
"2016-01-04 17:00","2016","01","04","17:00","-13.8","","-20.9","","55","","36","","16","","","","102.03","","","","-22","","NA"
"2016-01-04 18:00","2016","01","04","18:00","-14.8","","-20.3","","63","","34","","19","","","","102.15","","","","-24","","NA"
"2016-01-04 19:00","2016","01","04","19:00","-15.1","","-20.1","","65","","35","","14","","","","102.23","","","","-23","","NA"
"2016-01-04 20:00","2016","01","04","20:00","-15.8","","-20.1","","70","","34","","8","","","","102.31","","","","-21","","NA"
"2016-01-04 21:00","2016","01","04","21:00","-15.9","","-19.8","","72","","31","","9","","","","102.38","","","","-22","","NA"
"2016-01-04 22:00","2016","01","04","22:00","-16.5","","-19.9","","75","","33","","10","","","","102.42","","","","-23","","NA"
"2016-01-04 23:00","2016","01","04","23:00","-16.6","","-19.6","","78","","32","","8","","","","102.46","","","","-22","","NA"
"2016-01-05 00:00","2016","01","05","00:00","-16.3","","-19.1","","79","","33","","7","","","","102.47","","","","-21","","NA"
"2016-01-05 01:00","2016","01","05","01:00","-16.9","","-19.7","","79","","31","","8","","","","102.47","","","","-23","","NA"
"2016-01-05 02:00","2016","01","05","02:00","-16.7","","-18.9","","83","","32","","6","","","","102.49","","","","-21","","NA"
"2016-01-05 03:00","2016","01","05","03:00","-17.8","","-20.1","","82","","35","","7","","","","102.55","","","","-23","","NA"
"2016-01-05 04:00","2016","01","05","04:00","-17.7","","-19.9","","83","","33","","7","","","","102.58","","","","-23","","NA"
"2016-01-05 05:00","2016","01","05","05:00","-17.8","","-19.6","","86","","36","","7","","","","102.56","","","","-23","","NA"
"2016-01-05 06:00","2016","01","05","06:00","-18.2","","-20.5","","83","","33","","9","","","","102.64","","","","-25","","NA"
"2016-01-05 07:00","2016","01","05","07:00","-18.1","","-20.4","","82","","33","","8","","","","102.66","","","","-24","","NA"
"2016-01-05 08:00","2016","01","05","08:00","-18.0","","-20.1","","84","","32","","7","","","","102.67","","","","-23","","NA"
"2016-01-05 09:00","2016","01","05","09:00","-15.8","","-18.6","","79","","31","","7","","","","102.67","","","","-21","","NA"
"2016-01-05 10:00","2016","01","05","10:00","-13.3","","-18.6","","64","","27","","10","","","","102.71","","","","-19","","NA"
"2016-01-05 11:00","2016","01","05","11:00","-11.6","","-17.9","","60","","27","","11","","","","102.72","","","","-18","","NA"
"2016-01-05 12:00","2016","01","05","12:00","-9.8","","-13.6","","74","","24","","15","","","","102.64","","","","-16","","NA"
"2016-01-05 13:00","2016","01","05","13:00","-8.6","","-10.9","","83","","23","","12","","","","102.56","","","","-14","","NA"
"2016-01-05 14:00","2016","01","05","14:00","-7.0","","-9.6","","82","","23","","14","","","","102.46","","","","-13","","NA"
"2016-01-05 15:00","2016","01","05","15:00","-5.7","","-8.4","","81","","23","","18","","","","102.41","","","","-12","","NA"
"2016-01-05 16:00","2016","01","05","16:00","-5.0","","-8.2","","78","","22","","24","","","","102.36","","","","-12","","NA"
"2016-01-05 17:00","2016","01","05","17:00","-4.6","","-8.0","","77","","23","","24","","","","102.26","","","","-12","","NA"
"2016-01-05 18:00","2016","01","05","18:00","-4.6","","-8.2","","76","","22","","31","","","","102.16","","","","-13","","NA"
"2016-01-05 19:00","2016","01","05","19:00","-3.8","","-7.4","","76","","22","","23","","","","102.13","","","","-11","","NA"
"2016-01-05 20:00","2016","01","05","20:00","-3.4","","-7.6","","72","","21","","27","","","","102.15","","","","-11","","NA"
"2016-01-05 21:00","2016","01","05","21:00","-2.8","","-7.5","","70","","20","","32","","","","102.09","","","","-10","","NA"
"2016-01-05 22:00","2016","01","05","22:00","-2.6","","-7.0","","72","","21","","26","","","","102.10","","","","-9","","NA"
"2016-01-05 23:00","2016","01","05","23:00","-2.0","","-7.8","","65","","22","","28","","","","102.04","","","","-9","","NA"
"2016-01-06 00:00","2016","01","06","00:00","-2.2","","-7.8","","65","","22","","20","","","","101.98","","","","-8","","NA"
"2016-01-06 01:00","2016","01","06","01:00","-1.7","","-7.6","","64","","22","","23","","","","101.93","","","","-8","","NA"
"2016-01-06 02:00","2016","01","06","02:00","-1.4","","-7.0","","66","","21","","24","","","","101.91","","","","-8","","NA"
"2016-01-06 03:00","2016","01","06","03:00","-1.1","","-6.0","","69","","22","","20","","","","101.91","","","","-7","","NA"
"2016-01-06 04:00","2016","01","06","04:00","-0.9","","-5.6","","70","","22","","20","","","","101.87","","","","-6","","NA"
"2016-01-06 05:00","2016","01","06","05:00","-0.5","","-5.2","","71","","22","","20","","","","101.83","","","","-6","","NA"
"2016-01-06 06:00","2016","01","06","06:00","-0.5","","-5.3","","70","","22","","24","","","","101.83","","","","-6","","NA"
"2016-01-06 07:00","2016","01","06","07:00","-0.3","","-5.0","","71","","22","","21","","","","101.83","","","","-6","","NA"
"2016-01-06 08:00","2016","01","06","08:00","-0.3","","-5.0","","71","","22","","21","","","","101.83","","","","-6","","NA"
"2016-01-06 09:00","2016","01","06","09:00","0.2","","-4.9","","69","","22","","21","","","","101.83","","","","","","NA"
"2016-01-06 10:00","2016","01","06","10:00","0.9","","-4.5","","67","","22","","23","","","","101.83","","","","","","NA"
"2016-01-06 11:00","2016","01","06","11:00","1.4","","-4.2","","67","","22","","23","","","","101.80","","","","","","NA"
"2016-01-06 12:00","2016","01","06","12:00","1.7","","-3.9","","66","","22","","22","","","","101.67","","","","","","NA"
"2016-01-06 13:00","2016","01","06","13:00","2.1","","-3.0","","69","","22","","22","","","","101.61","","","","","","NA"
"2016-01-06 14:00","2016","01","06","14:00","2.0","","-2.9","","70","","23","","22","","","","101.55","","","","","","NA"
"2016-01-06 15:00","2016","01","06","15:00","2.0","","-3.2","","69","","23","","23","","","","101.51","","","","","","NA"
"2016-01-06 16:00","2016","01","06","16:00","1.8","","-3.1","","70","","22","","22","","","","101.49","","","","","","NA"
"2016-01-06 17:00","2016","01","06","17:00","1.1","","-3.4","","72","","22","","19","","","","101.45","","","","","","NA"
"2016-01-06 18:00","2016","01","06","18:00","1.0","","-4.4","","67","","22","","16","","","","101.48","","","","","","NA"
"2016-01-06 19:00","2016","01","06","19:00","1.5","","-4.6","","64","","22","","17","","","","101.50","","","","","","NA"
"2016-01-06 20:00","2016","01","06","20:00","1.3","","-4.8","","64","","23","","18","","","","101.51","","","","","","NA"
"2016-01-06 21:00","2016","01","06","21:00","1.4","","-4.4","","65","","22","","16","","","","101.49","","","","","","NA"
"2016-01-06 22:00","2016","01","06","22:00","0.7","","-4.7","","67","","23","","10","","","","101.48","","","","","","NA"
"2016-01-06 23:00","2016","01","06","23:00","1.2","","-4.6","","65","","23","","13","","","","101.51","","","","","","NA"
"2016-01-07 00:00","2016","01","07","00:00","0.7","","-4.1","","70","","22","","10","","","","101.48","","","","","","NA"
"2016-01-07 01:00","2016","01","07","01:00","0.6","","-3.3","","75","","23","","10","","","","101.45","","","","","","NA"
"2016-01-07 02:00","2016","01","07","02:00","0.7","","-2.3","","81","","23","","9","","","","101.43","","","","","","NA"
"2016-01-07 03:00","2016","01","07","03:00","-0.2","","-2.7","","84","","21","","6","","","","101.45","","","","-2","","NA"
"2016-01-07 04:00","2016","01","07","04:00","-0.1","","-3.5","","78","","26","","8","","","","101.44","","","","-3","","NA"
"2016-01-07 05:00","2016","01","07","05:00","-3.9","","-5.8","","87","","29","","5","","","","101.43","","","","-6","","NA"
"2016-01-07 06:00","2016","01","07","06:00","-5.5","","-7.0","","90","","33","","5","","","","101.40","","","","-8","","NA"
"2016-01-07 07:00","2016","01","07","07:00","-5.4","","-6.5","","92","","6","","3","","","","101.41","","","","-7","","NA"
"2016-01-07 08:00","2016","01","07","08:00","-7.1","","-8.0","","93","","36","","6","","","","101.42","","","","-10","","NA"
"2016-01-07 09:00","2016","01","07","09:00","-6.4","","-7.4","","92","","36","","5","","","","101.45","","","","-9","","NA"
"2016-01-07 10:00","2016","01","07","10:00","-1.8","","-4.8","","80","","3","","3","","","","101.45","","","","-3","","NA"
"2016-01-07 11:00","2016","01","07","11:00","-0.1","","-4.0","","74","","35","","3","","","","101.40","","","","-1","","NA"
"2016-01-07 12:00","2016","01","07","12:00","1.3","","-3.2","","72","","","","0","","","","101.35","","","","","","NA"
"2016-01-07 13:00","2016","01","07","13:00","2.1","","-2.1","","74","","19","","4","","","","101.30","","","","","","NA"
"2016-01-07 14:00","2016","01","07","14:00","2.3","","-2.0","","73","","19","","4","","","","101.22","","","","","","NA"
"2016-01-07 15:00","2016","01","07","15:00","2.4","","-2.0","","73","","20","","2","","","","101.22","","","","","","NA"
"2016-01-07 16:00","2016","01","07","16:00","1.9","","-1.5","","78","","11","","4","","","","101.22","","","","","","NA"
"2016-01-07 17:00","2016","01","07","17:00","1.4","","-1.7","","80","","10","","4","","","","101.24","","","","","","NA"
"2016-01-07 18:00","2016","01","07","18:00","0.2","","-2.0","","86","","5","","4","","","","101.25","","","","","","NA"
"2016-01-07 19:00","2016","01","07","19:00","0.2","","-2.0","","85","","8","","6","","","","101.24","","","","","","NA"
"2016-01-07 20:00","2016","01","07","20:00","-0.8","","-2.7","","87","","7","","8","","","","101.24","","","","-4","","NA"
"2016-01-07 21:00","2016","01","07","21:00","-2.4","","-3.8","","90","","3","","5","","","","101.27","","","","-4","","NA"
"2016-01-07 22:00","2016","01","07","22:00","-2.8","","-4.5","","88","","3","","7","","","","101.23","","","","-6","","NA"
"2016-01-07 23:00","2016","01","07","23:00","-4.8","","-6.0","","92","","36","","5","","","","101.21","","","","-7","","NA"
"2016-01-08 00:00","2016","01","08","00:00","-5.2","","-6.3","","92","","3","","6","","","","101.17","","","","-8","","NA"
"2016-01-08 01:00","2016","01","08","01:00","-3.9","","-5.9","","86","","4","","11","","","","101.09","","","","-8","","NA"
"2016-01-08 02:00","2016","01","08","02:00","-5.1","","-7.0","","87","","2","","9","","","","101.08","","","","-9","","NA"
"2016-01-08 03:00","2016","01","08","03:00","-4.2","","-6.2","","86","","3","","9","","","","101.13","","","","-8","","NA"
"2016-01-08 04:00","2016","01","08","04:00","-4.3","","-6.4","","86","","4","","11","","","","101.07","","","","-9","","NA"
"2016-01-08 05:00","2016","01","08","05:00","-4.3","","-6.4","","86","","3","","10","","","","101.05","","","","-8","","NA"
"2016-01-08 06:00","2016","01","08","06:00","-4.6","","-6.5","","87","","3","","12","","","","101.04","","","","-9","","NA"
"2016-01-08 07:00","2016","01","08","07:00","-4.9","","-6.7","","87","","4","","14","","","","101.06","","","","-10","","NA"
"2016-01-08 08:00","2016","01","08","08:00","-5.3","","-6.9","","89","","5","","12","","","","101.03","","","","-10","","NA"
"2016-01-08 09:00","2016","01","08","09:00","-4.7","","-6.4","","88","","4","","11","","","","101.08","","","","-9","","NA"
"2016-01-08 10:00","2016","01","08","10:00","-3.6","","-5.7","","85","","4","","13","","","","101.04","","","","-8","","NA"
"2016-01-08 11:00","2016","01","08","11:00","-2.7","","-5.6","","80","","5","","12","","","","100.98","","","","-7","","NA"
"2016-01-08 12:00","2016","01","08","12:00","-1.7","","-5.6","","75","","5","","11","","","","100.91","","","","-6","","NA"
"2016-01-08 13:00","2016","01","08","13:00","-0.3","","-5.5","","68","","5","","12","","","","100.77","","","","-4","","NA"
"2016-01-08 14:00","2016","01","08","14:00","0.2","","-5.3","","67","","6","","11","","","","100.70","","","","","","NA"
"2016-01-08 15:00","2016","01","08","15:00","0.6","","-5.8","","62","","3","","9","","","","100.74","","","","","","NA"
"2016-01-08 16:00","2016","01","08","16:00","0.5","","-5.9","","62","","5","","13","","","","100.71","","","","","","NA"
"2016-01-08 17:00","2016","01","08","17:00","-0.2","","-5.5","","67","","6","","12","","","","100.69","","","","-4","","NA"
"2016-01-08 18:00","2016","01","08","18:00","-1.2","","-5.4","","73","","7","","14","","","","100.64","","","","-6","","NA"
"2016-01-08 19:00","2016","01","08","19:00","-0.8","","-5.1","","73","","9","","10","","","","100.63","","","","-4","","NA"
"2016-01-08 20:00","2016","01","08","20:00","3.6","","-1.2","","71","","14","","29","","","","100.61","","","","","","NA"
"2016-01-08 21:00","2016","01","08","21:00","3.7","","-1.0","","72","","15","","30","","","","100.57","","","","","","NA"
"2016-01-08 22:00","2016","01","08","22:00","3.6","","-0.6","","74","","15","","32","","","","100.52","","","","","","NA"
"2016-01-08 23:00","2016","01","08","23:00","3.5","","-0.1","","77","","15","","33","","","","100.48","","","","","","NA"
"2016-01-09 00:00","2016","01","09","00:00","3.4","","0.5","","81","","16","","36","","","","100.45","","","","","","NA"
"2016-01-09 01:00","2016","01","09","01:00","3.5","","0.8","","83","","16","","34","","","","100.40","","","","","","NA"
"2016-01-09 02:00","2016","01","09","02:00","3.5","","1.2","","85","","16","","37","","","","100.40","","","","","","NA"
"2016-01-09 03:00","2016","01","09","03:00","3.2","","1.6","","89","","16","","41","","","","100.38","","","","","","NA"
"2016-01-09 04:00","2016","01","09","04:00","3.6","","1.5","","86","","16","","40","","","","100.31","","","","","","NA"
"2016-01-09 05:00","2016","01","09","05:00","3.7","","1.5","","86","","16","","41","","","","100.29","","","","","","NA"
"2016-01-09 06:00","2016","01","09","06:00","3.9","","1.6","","85","","16","","35","","","","100.30","","","","","","NA"
"2016-01-09 07:00","2016","01","09","07:00","4.1","","1.6","","84","","16","","35","","","","100.28","","","","","","NA"
"2016-01-09 08:00","2016","01","09","08:00","4.1","","1.7","","85","","16","","32","","","","100.32","","","","","","NA"
"2016-01-09 09:00","2016","01","09","09:00","4.0","","2.1","","87","","16","","36","","","","100.34","","","","","","NA"
"2016-01-09 10:00","2016","01","09","10:00","4.1","","2.4","","89","","16","","40","","","","100.35","","","","","","NA"
"2016-01-09 11:00","2016","01","09","11:00","4.3","","2.7","","89","","16","","36","","","","100.34","","","","","","NA"
"2016-01-09 12:00","2016","01","09","12:00","4.4","","2.8","","89","","16","","29","","","","100.32","","","","","","NA"
"2016-01-09 13:00","2016","01","09","13:00","4.6","","3.2","","91","","16","","31","","","","100.27","","","","","","NA"
"2016-01-09 14:00","2016","01","09","14:00","4.7","","3.4","","91","","16","","25","","","","100.24","","","","","","NA"
"2016-01-09 15:00","2016","01","09","15:00","5.0","","3.4","","89","","16","","30","","","","100.25","","","","","","NA"
"2016-01-09 16:00","2016","01","09","16:00","5.1","","3.5","","89","","16","","28","","","","100.30","","","","","","NA"
"2016-01-09 17:00","2016","01","09","17:00","5.1","","3.4","","89","","16","","26","","","","100.33","","","","","","NA"
"2016-01-09 18:00","2016","01","09","18:00","5.5","","3.6","","87","","16","","27","","","","100.32","","","","","","NA"
"2016-01-09 19:00","2016","01","09","19:00","5.4","","3.6","","88","","16","","24","","","","100.37","","","","","","NA"
"2016-01-09 20:00","2016","01","09","20:00","5.2","","3.5","","89","","15","","22","","","","100.37","","","","","","NA"
"2016-01-09 21:00","2016","01","09","21:00","5.2","","3.5","","89","","16","","23","","","","100.36","","","","","","NA"
"2016-01-09 22:00","2016","01","09","22:00","5.3","","3.5","","88","","16","","31","","","","100.28","","","","","","NA"
"2016-01-09 23:00","2016","01","09","23:00","5.2","","3.3","","88","","15","","16","","","","100.25","","","","","","NA"
"2016-01-10 00:00","2016","01","10","00:00","5.6","","3.5","","86","","14","","23","","","","100.15","","","","","","NA"
"2016-01-10 01:00","2016","01","10","01:00","5.8","","3.4","","84","","12","","19","","","","99.94","","","","","","NA"
"2016-01-10 02:00","2016","01","10","02:00","6.3","","3.7","","83","","12","","14","","","","99.89","","","","","","NA"
"2016-01-10 03:00","2016","01","10","03:00","5.6","","3.8","","88","","14","","9","","","","99.94","","","","","","NA"
"2016-01-10 04:00","2016","01","10","04:00","6.3","","4.0","","85","","11","","13","","","","99.71","","","","","","NA"
"2016-01-10 05:00","2016","01","10","05:00","5.5","","3.3","","86","","8","","13","","","","99.52","","","","","","NA"
"2016-01-10 06:00","2016","01","10","06:00","4.9","","3.2","","89","","6","","11","","","","99.39","","","","","","NA"
"2016-01-10 07:00","2016","01","10","07:00","5.0","","3.7","","91","","9","","14","","","","99.32","","","","","","NA"
"2016-01-10 08:00","2016","01","10","08:00","4.7","","3.8","","94","","6","","15","","","","99.09","","","","","","NA"
"2016-01-10 09:00","2016","01","10","09:00","6.0","","5.1","","94","","8","","27","","","","98.81","","","","","","NA"
"2016-01-10 10:00","2016","01","10","10:00","6.4","","4.9","","90","","8","","33","","","","98.47","","","","","","NA"
"2016-01-10 11:00","2016","01","10","11:00","6.6","","4.7","","88","","8","","31","","","","98.17","","","","","","NA"
"2016-01-10 12:00","2016","01","10","12:00","5.7","","4.5","","92","","7","","15","","","","97.93","","","","","","NA"
"2016-01-10 13:00","2016","01","10","13:00","5.6","","4.7","","94","","4","","7","","","","97.70","","","","","","NA"
"2016-01-10 14:00","2016","01","10","14:00","6.5","","5.4","","93","","14","","12","","","","97.53","","","","","","NA"
"2016-01-10 15:00","2016","01","10","15:00","6.9","","5.7","","92","","18","","32","","","","97.46","","","","","","NA"
"2016-01-10 16:00","2016","01","10","16:00","6.7","","5.8","","93","","19","","26","","","","97.47","","","","","","NA"
"2016-01-10 17:00","2016","01","10","17:00","7.1","","5.8","","92","","20","","27","","","","97.47","","","","","","NA"
"2016-01-10 18:00","2016","01","10","18:00","7.0","","5.2","","88","","21","","42","","","","97.48","","","","","","NA"
"2016-01-10 19:00","2016","01","10","19:00","2.4","","0.8","","89","","24","","56","","","","97.70","","","","","","NA"
"2016-01-10 20:00","2016","01","10","20:00","-0.8","","-2.5","","89","","26","","46","","","","98.01","","","","-9","","NA"
"2016-01-10 21:00","2016","01","10","21:00","-1.0","","-4.8","","75","","26","","47","","","","98.22","","","","-9","","NA"
"2016-01-10 22:00","2016","01","10","22:00","-1.3","","-4.6","","78","","26","","36","","","","98.47","","","","-9","","NA"
"2016-01-10 23:00","2016","01","10","23:00","-1.8","","-6.8","","69","","25","","42","","","","98.67","","","","-10","","NA"
"2016-01-11 00:00","2016","01","11","00:00","-2.0","","-7.6","","66","","25","","44","","","","98.77","","","","-10","","NA"
"2016-01-11 01:00","2016","01","11","01:00","-2.5","","-7.8","","67","","25","","45","","","","98.88","","","","-11","","NA"
"2016-01-11 02:00","2016","01","11","02:00","-3.5","","-8.9","","66","","25","","36","","","","99.00","","","","-12","","NA"
"2016-01-11 03:00","2016","01","11","03:00","-4.0","","-9.7","","65","","25","","41","","","","99.10","","","","-13","","NA"
"2016-01-11 04:00","2016","01","11","04:00","-4.8","","-10.5","","64","","25","","36","","","","99.19","","","","-13","","NA"
"2016-01-11 05:00","2016","01","11","05:00","-5.2","","-10.8","","64","","26","","34","","","","99.29","","","","-14","","NA"
"2016-01-11 06:00","2016","01","11","06:00","-5.5","","-11.4","","63","","26","","34","","","","99.39","","","","-14","","NA"
"2016-01-11 07:00","2016","01","11","07:00","-5.8","","-11.6","","64","","26","","26","","","","99.52","","","","-14","","NA"
"2016-01-11 08:00","2016","01","11","08:00","-6.4","","-10.6","","72","","27","","22","","","","99.60","","","","-14","","NA"
"2016-01-11 09:00","2016","01","11","09:00","-6.3","","-11.7","","66","","27","","24","","","","99.69","","","","-14","","NA"
"2016-01-11 10:00","2016","01","11","10:00","-5.6","","-11.8","","62","","27","","33","","","","99.78","","","","-14","","NA"
"2016-01-11 11:00","2016","01","11","11:00","-6.3","","-10.4","","73","","29","","23","","","","99.85","","","","-14","","NA"
"2016-01-11 12:00","2016","01","11","12:00","-7.1","","-9.7","","82","","30","","20","","","","99.88","","","","-14","","NA"
"2016-01-11 13:00","2016","01","11","13:00","-6.1","","-11.2","","67","","28","","22","","","","99.91","","","","-13","","NA"
"2016-01-11 14:00","2016","01","11","14:00","-5.3","","-12.6","","56","","27","","21","","","","99.96","","","","-12","","NA"
"2016-01-11 15:00","2016","01","11","15:00","-5.5","","-13.7","","53","","28","","25","","","","100.04","","","","-13","","NA"
"2016-01-11 16:00","2016","01","11","16:00","-5.8","","-13.8","","53","","28","","23","","","","100.11","","","","-13","","NA"
"2016-01-11 17:00","2016","01","11","17:00","-6.8","","-13.5","","59","","27","","20","","","","100.23","","","","-14","","NA"
"2016-01-11 18:00","2016","01","11","18:00","-7.3","","-14.0","","59","","27","","16","","","","100.31","","","","-14","","NA"
"2016-01-11 19:00","2016","01","11","19:00","-8.0","","-13.7","","64","","27","","10","","","","100.38","","","","-13","","NA"
"2016-01-11 20:00","2016","01","11","20:00","-8.4","","-13.7","","65","","28","","9","","","","100.38","","","","-13","","NA"
"2016-01-11 21:00","2016","01","11","21:00","-8.9","","-13.6","","69","","30","","9","","","","100.37","","","","-14","","NA"
"2016-01-11 22:00","2016","01","11","22:00","-8.5","","-13.2","","69","","24","","4","","","","100.41","","","","-11","","NA"
"2016-01-11 23:00","2016","01","11","23:00","-7.6","","-12.2","","69","","27","","8","","","","100.41","","","","-12","","NA"
"2016-01-12 00:00","2016","01","12","00:00","-7.5","","-12.3","","69","","25","","9","","","","100.37","","","","-12","","NA"
"2016-01-12 01:00","2016","01","12","01:00","-8.6","","-10.9","","83","","29","","6","","","","100.33","","","","-12","","NA"
"2016-01-12 02:00","2016","01","12","02:00","-8.7","","-10.3","","88","","3","","5","","","","100.27","","","","-11","","NA"
"2016-01-12 03:00","2016","01","12","03:00","-8.4","","-9.8","","90","","6","","13","","","","100.20","","","","-14","","NA"
"2016-01-12 04:00","2016","01","12","04:00","-7.9","","-9.3","","90","","6","","15","","","","100.06","","","","-14","","NA"
"2016-01-12 05:00","2016","01","12","05:00","-7.1","","-8.7","","88","","7","","22","","","","99.89","","","","-15","","NA"
"2016-01-12 06:00","2016","01","12","06:00","-5.0","","-10.6","","65","","16","","30","","","","99.78","","","","-13","","NA"
"2016-01-12 07:00","2016","01","12","07:00","-4.7","","-8.0","","78","","16","","34","","","","99.65","","","","-13","","NA"
"2016-01-12 08:00","2016","01","12","08:00","-4.9","","-6.5","","89","","14","","39","","","","99.51","","","","-14","","NA"
"2016-01-12 09:00","2016","01","12","09:00","-3.9","","-5.6","","88","","16","","44","","","","99.42","","","","-13","","NA"
"2016-01-12 10:00","2016","01","12","10:00","-3.3","","-5.0","","88","","17","","42","","","","99.31","","","","-12","","NA"
"2016-01-12 11:00","2016","01","12","11:00","-2.7","","-4.4","","88","","17","","41","","","","99.19","","","","-11","","NA"
"2016-01-12 12:00","2016","01","12","12:00","-2.1","","-4.0","","87","","18","","40","","","","99.01","","","","-10","","NA"
"2016-01-12 13:00","2016","01","12","13:00","-1.1","","-3.7","","83","","18","","36","","","","98.86","","","","-9","","NA"
"2016-01-12 14:00","2016","01","12","14:00","-0.9","","-2.8","","87","","18","","39","","","","98.73","","","","-9","","NA"
"2016-01-12 15:00","2016","01","12","15:00","-0.5","","-2.6","","86","","18","","42","","","","98.64","","","","-8","","NA"
"2016-01-12 16:00","2016","01","12","16:00","-1.7","","-3.0","","91","","22","","28","","","","98.67","","","","-8","","NA"
"2016-01-12 17:00","2016","01","12","17:00","-1.6","","-6.0","","72","","23","","41","","","","98.67","","","","-10","","NA"
"2016-01-12 18:00","2016","01","12","18:00","-2.1","","-6.2","","73","","24","","40","","","","98.74","","","","-10","","NA"
"2016-01-12 19:00","2016","01","12","19:00","-4.0","","-8.3","","72","","24","","36","","","","98.91","","","","-12","","NA"
"2016-01-12 20:00","2016","01","12","20:00","-5.3","","-8.2","","80","","25","","30","","","","98.95","","","","-13","","NA"
"2016-01-12 21:00","2016","01","12","21:00","-5.2","","-7.5","","84","","24","","25","","","","98.95","","","","-13","","NA"
"2016-01-12 22:00","2016","01","12","22:00","-6.7","","-8.5","","87","","28","","11","","","","98.93","","","","-12","","NA"
"2016-01-12 23:00","2016","01","12","23:00","-6.8","","-9.9","","79","","27","","18","","","","99.03","","","","-13","","NA"
"2016-01-13 00:00","2016","01","13","00:00","-7.2","","-9.8","","81","","27","","22","","","","99.11","","","","-15","","NA"
"2016-01-13 01:00","2016","01","13","01:00","-6.9","","-10.5","","76","","27","","28","","","","99.24","","","","-15","","NA"
"2016-01-13 02:00","2016","01","13","02:00","-8.2","","-12.9","","69","","29","","24","","","","99.40","","","","-16","","NA"
"2016-01-13 03:00","2016","01","13","03:00","-9.0","","-12.9","","73","","26","","21","","","","99.56","","","","-17","","NA"
"2016-01-13 04:00","2016","01","13","04:00","-10.3","","-13.6","","77","","27","","19","","","","99.68","","","","-18","","NA"
"2016-01-13 05:00","2016","01","13","05:00","-11.2","","-14.3","","78","","28","","19","","","","99.78","","","","-19","","NA"
"2016-01-13 06:00","2016","01","13","06:00","-12.1","","-15.1","","78","","28","","18","","","","99.89","","","","-20","","NA"
"2016-01-13 07:00","2016","01","13","07:00","-12.7","","-15.7","","78","","27","","21","","","","100.03","","","","-21","","NA"
"2016-01-13 08:00","2016","01","13","08:00","-13.4","","-16.5","","77","","28","","21","","","","100.12","","","","-22","","NA"
"2016-01-13 09:00","2016","01","13","09:00","-13.3","","-16.9","","75","","29","","23","","","","100.23","","","","-23","","NA"
"2016-01-13 10:00","2016","01","13","10:00","-12.8","","-17.0","","70","","28","","20","","","","100.32","","","","-21","","NA"
"2016-01-13 11:00","2016","01","13","11:00","-11.6","","-16.9","","65","","27","","17","","","","100.33","","","","-19","","NA"
"2016-01-13 12:00","2016","01","13","12:00","-10.3","","-16.8","","58","","26","","14","","","","100.31","","","","-17","","NA"
"2016-01-13 13:00","2016","01","13","13:00","-9.8","","-16.9","","56","","26","","18","","","","100.24","","","","-17","","NA"
"2016-01-13 14:00","2016","01","13","14:00","-9.0","","-17.0","","52","","26","","15","","","","100.20","","","","-16","","NA"
"2016-01-13 15:00","2016","01","13","15:00","-8.4","","-16.2","","54","","29","","16","","","","100.18","","","","-15","","NA"
"2016-01-13 16:00","2016","01","13","16:00","-8.9","","-15.3","","60","","33","","21","","","","100.14","","","","-17","","NA"
"2016-01-13 17:00","2016","01","13","17:00","-10.0","","-15.2","","66","","34","","10","","","","100.11","","","","-15","","NA"
"2016-01-13 18:00","2016","01","13","18:00","-9.1","","-14.9","","63","","24","","4","","","","100.14","","","","-11","","NA"
"2016-01-13 19:00","2016","01","13","19:00","-9.0","","-14.0","","67","","0","","1","","","","100.09","","","","-10","","NA"
"2016-01-13 20:00","2016","01","13","20:00","-8.2","","-10.7","","82","","21","","10","","","","100.06","","","","-13","","NA"
"2016-01-13 21:00","2016","01","13","21:00","-8.0","","-10.0","","85","","26","","7","","","","100.02","","","","-12","","NA"
"2016-01-13 22:00","2016","01","13","22:00","-8.8","","-11.2","","83","","27","","14","","","","100.00","","","","-15","","NA"
"2016-01-13 23:00","2016","01","13","23:00","-9.2","","-11.5","","83","","28","","8","","","","99.92","","","","-14","","NA"
"2016-01-14 00:00","2016","01","14","00:00","-9.2","","-11.5","","83","","5","","2","","","","99.83","","","","-10","","NA"
"2016-01-14 01:00","2016","01","14","01:00","-8.9","","-10.4","","89","","6","","4","","","","99.77","","","","-11","","NA"
"2016-01-14 02:00","2016","01","14","02:00","-7.6","","-8.9","","90","","20","","10","","","","99.72","","","","-12","","NA"
"2016-01-14 03:00","2016","01","14","03:00","-7.5","","-8.7","","91","","31","","8","","","","99.66","","","","-12","","NA"
"2016-01-14 04:00","2016","01","14","04:00","-7.6","","-8.9","","90","","1","","6","","","","99.60","","","","-11","","NA"
"2016-01-14 05:00","2016","01","14","05:00","-7.7","","-8.9","","91","","35","","11","","","","99.58","","","","-13","","NA"
"2016-01-14 06:00","2016","01","14","06:00","-7.6","","-8.8","","91","","7","","5","","","","99.61","","","","-10","","NA"
"2016-01-14 07:00","2016","01","14","07:00","-5.8","","-7.7","","87","","26","","8","","","","99.62","","","","-10","","NA"
"2016-01-14 08:00","2016","01","14","08:00","-6.7","","-9.4","","81","","27","","11","","","","99.64","","","","-12","","NA"
"2016-01-14 09:00","2016","01","14","09:00","-6.2","","-9.6","","77","","25","","14","","","","99.69","","","","-12","","NA"
"2016-01-14 10:00","2016","01","14","10:00","-6.2","","-10.1","","74","","27","","12","","","","99.78","","","","-11","","NA"
"2016-01-14 11:00","2016","01","14","11:00","-5.5","","-9.5","","74","","26","","17","","","","99.81","","","","-12","","NA"
"2016-01-14 12:00","2016","01","14","12:00","-5.3","","-9.4","","73","","27","","17","","","","99.76","","","","-11","","NA"
"2016-01-14 13:00","2016","01","14","13:00","-4.3","","-9.1","","69","","26","","13","","","","99.76","","","","-9","","NA"
"2016-01-14 14:00","2016","01","14","14:00","-3.6","","-9.0","","67","","26","","9","","","","99.75","","","","-7","","NA"
"2016-01-14 15:00","2016","01","14","15:00","-3.8","","-8.8","","68","","27","","11","","","","99.82","","","","-8","","NA"
"2016-01-14 16:00","2016","01","14","16:00","-3.5","","-8.7","","67","","25","","9","","","","99.91","","","","-7","","NA"
"2016-01-14 17:00","2016","01","14","17:00","-3.9","","-8.8","","69","","28","","7","","","","100.00","","","","-7","","NA"
"2016-01-14 18:00","2016","01","14","18:00","-3.8","","-8.7","","69","","27","","5","","","","100.08","","","","-6","","NA"
"2016-01-14 19:00","2016","01","14","19:00","-4.8","","-8.7","","74","","27","","3","","","","100.10","","","","-6","","NA"
"2016-01-14 20:00","2016","01","14","20:00","-5.4","","-8.7","","78","","35","","3","","","","100.13","","","","-7","","NA"
"2016-01-14 21:00","2016","01","14","21:00","-5.7","","-8.2","","83","","","","0","","","","100.15","","","","","","NA"
"2016-01-14 22:00","2016","01","14","22:00","-4.9","","-7.2","","84","","30","","2","","","","100.13","","","","-6","","NA"
"2016-01-14 23:00","2016","01","14","23:00","-4.1","","-6.9","","81","","24","","3","","","","100.13","","","","-5","","NA"
"2016-01-15 00:00","2016","01","15","00:00","-4.4","","-6.3","","86","","0","","1","","","","100.07","","","","-5","","NA"
"2016-01-15 01:00","2016","01","15","01:00","-5.0","","-6.4","","90","","3","","4","","","","100.09","","","","-7","","NA"
"2016-01-15 02:00","2016","01","15","02:00","-4.1","","-6.5","","84","","5","","8","","","","100.05","","","","-8","","NA"
"2016-01-15 03:00","2016","01","15","03:00","-4.9","","-6.7","","87","","4","","9","","","","100.09","","","","-9","","NA"
"2016-01-15 04:00","2016","01","15","04:00","-4.6","","-6.3","","88","","4","","11","","","","100.08","","","","-9","","NA"
"2016-01-15 05:00","2016","01","15","05:00","-4.5","","-6.5","","86","","4","","16","","","","100.04","","","","-10","","NA"
"2016-01-15 06:00","2016","01","15","06:00","-4.4","","-6.5","","85","","5","","16","","","","100.02","","","","-10","","NA"
"2016-01-15 07:00","2016","01","15","07:00","-4.6","","-7.2","","82","","4","","20","","","","99.93","","","","-11","","NA"
"2016-01-15 08:00","2016","01","15","08:00","-4.4","","-7.3","","80","","5","","22","","","","99.92","","","","-11","","NA"
"2016-01-15 09:00","2016","01","15","09:00","-4.2","","-7.5","","78","","5","","22","","","","99.90","","","","-11","","NA"
"2016-01-15 10:00","2016","01","15","10:00","-4.3","","-7.4","","79","","5","","23","","","","99.83","","","","-11","","NA"
"2016-01-15 11:00","2016","01","15","11:00","-3.9","","-7.2","","78","","4","","23","","","","99.74","","","","-11","","NA"
"2016-01-15 12:00","2016","01","15","12:00","-3.4","","-6.9","","77","","5","","23","","","","99.64","","","","-10","","NA"
"2016-01-15 13:00","2016","01","15","13:00","-3.1","","-6.8","","76","","4","","20","","","","99.58","","","","-9","","NA"
"2016-01-15 14:00","2016","01","15","14:00","-3.1","","-6.7","","76","","4","","23","","","","99.46","","","","-10","","NA"
"2016-01-15 15:00","2016","01","15","15:00","-3.5","","-7.1","","77","","5","","23","","","","99.35","","","","-10","","NA"
"2016-01-15 16:00","2016","01","15","16:00","-3.6","","-7.1","","76","","2","","13","","","","99.35","","","","-8","","NA"
"2016-01-15 17:00","2016","01","15","17:00","-4.5","","-7.8","","78","","4","","20","","","","99.29","","","","-11","","NA"
"2016-01-15 18:00","2016","01","15","18:00","-5.6","","-8.4","","81","","4","","23","","","","99.27","","","","-13","","NA"
"2016-01-15 19:00","2016","01","15","19:00","-6.4","","-8.9","","82","","4","","21","","","","99.27","","","","-13","","NA"
"2016-01-15 20:00","2016","01","15","20:00","-6.9","","-9.3","","83","","4","","21","","","","99.07","","","","-14","","NA"
"2016-01-15 21:00","2016","01","15","21:00","-6.9","","-9.4","","83","","4","","17","","","","99.00","","","","-13","","NA"
"2016-01-15 22:00","2016","01","15","22:00","-6.6","","-9.1","","82","","3","","17","","","","98.88","","","","-13","","NA"
"2016-01-15 23:00","2016","01","15","23:00","-6.1","","-8.8","","81","","3","","15","","","","98.85","","","","-12","","NA"
"2016-01-16 00:00","2016","01","16","00:00","-6.1","","-8.6","","82","","3","","17","","","","98.69","","","","-12","","NA"
"2016-01-16 01:00","2016","01","16","01:00","-6.4","","-8.9","","82","","4","","16","","","","98.58","","","","-13","","NA"
"2016-01-16 02:00","2016","01","16","02:00","-6.8","","-9.1","","83","","5","","16","","","","98.48","","","","-13","","NA"
"2016-01-16 03:00","2016","01","16","03:00","-6.9","","-9.3","","83","","4","","17","","","","98.47","","","","-13","","NA"
"2016-01-16 04:00","2016","01","16","04:00","-6.7","","-9.1","","83","","4","","14","","","","98.40","","","","-12","","NA"
"2016-01-16 05:00","2016","01","16","05:00","-6.4","","-8.7","","84","","4","","14","","","","98.44","","","","-12","","NA"
"2016-01-16 06:00","2016","01","16","06:00","-5.6","","-7.2","","88","","5","","12","","","","98.40","","","","-11","","NA"
"2016-01-16 07:00","2016","01","16","07:00","-4.1","","-5.3","","91","","4","","6","","","","98.40","","","","-7","","NA"
"2016-01-16 08:00","2016","01","16","08:00","-2.6","","-3.5","","94","","8","","9","","","","98.39","","","","-6","","NA"
"2016-01-16 09:00","2016","01","16","09:00","0.4","","-0.3","","95","","13","","11","","","","98.41","","","","","","NA"
"2016-01-16 10:00","2016","01","16","10:00","2.4","","1.6","","95","","23","","13","","","","98.47","","","","","","NA"
"2016-01-16 11:00","2016","01","16","11:00","2.6","","1.6","","93","","25","","16","","","","98.53","","","","","","NA"
"2016-01-16 12:00","2016","01","16","12:00","2.0","","0.0","","87","","27","","23","","","","98.55","","","","","","NA"
"2016-01-16 13:00","2016","01","16","13:00","1.1","","-2.2","","79","","27","","30","","","","98.61","","","","","","NA"
"2016-01-16 14:00","2016","01","16","14:00","0.2","","-3.7","","76","","26","","28","","","","98.74","","","","","","NA"
"2016-01-16 15:00","2016","01","16","15:00","-0.4","","-4.9","","71","","27","","31","","","","98.93","","","","-7","","NA"
"2016-01-16 16:00","2016","01","16","16:00","-1.0","","-5.1","","73","","28","","18","","","","99.06","","","","-6","","NA"
"2016-01-16 17:00","2016","01","16","17:00","-1.4","","-5.7","","72","","28","","21","","","","99.19","","","","-7","","NA"
"2016-01-16 18:00","2016","01","16","18:00","-1.4","","-5.8","","72","","27","","20","","","","99.35","","","","-7","","NA"
"2016-01-16 19:00","2016","01","16","19:00","-2.0","","-6.1","","73","","28","","18","","","","99.46","","","","-7","","NA"
"2016-01-16 20:00","2016","01","16","20:00","-2.3","","-6.7","","72","","28","","23","","","","99.54","","","","-9","","NA"
"2016-01-16 21:00","2016","01","16","21:00","-2.5","","-6.5","","74","","27","","17","","","","99.60","","","","-8","","NA"
"2016-01-16 22:00","2016","01","16","22:00","-3.0","","-7.8","","69","","26","","18","","","","99.68","","","","-9","","NA"
"2016-01-16 23:00","2016","01","16","23:00","-2.7","","-7.1","","72","","27","","20","","","","99.75","","","","-9","","NA"
"2016-01-17 00:00","2016","01","17","00:00","-2.9","","-6.7","","75","","28","","13","","","","99.80","","","","-8","","NA"
"2016-01-17 01:00","2016","01","17","01:00","-3.3","","-6.4","","79","","28","","6","","","","99.86","","","","-6","","NA"
"2016-01-17 02:00","2016","01","17","02:00","-4.2","","-6.7","","83","","32","","3","","","","99.84","","","","-5","","NA"
"2016-01-17 03:00","2016","01","17","03:00","-4.6","","-6.3","","88","","28","","6","","","","99.94","","","","-7","","NA"
"2016-01-17 04:00","2016","01","17","04:00","-4.8","","-7.8","","79","","27","","10","","","","99.97","","","","-9","","NA"
"2016-01-17 05:00","2016","01","17","05:00","-5.9","","-8.0","","85","","33","","6","","","","99.92","","","","-9","","NA"
"2016-01-17 06:00","2016","01","17","06:00","-5.1","","-7.3","","84","","7","","4","","","","99.92","","","","-7","","NA"
"2016-01-17 07:00","2016","01","17","07:00","-4.7","","-7.1","","84","","11","","5","","","","99.99","","","","-7","","NA"
"2016-01-17 08:00","2016","01","17","08:00","-2.9","","-5.5","","83","","13","","15","","","","99.94","","","","-8","","NA"
"2016-01-17 09:00","2016","01","17","09:00","-2.8","","-4.5","","88","","11","","6","","","","99.87","","","","-5","","NA"
"2016-01-17 10:00","2016","01","17","10:00","-2.1","","-4.4","","84","","12","","11","","","","99.85","","","","-6","","NA"
"2016-01-17 11:00","2016","01","17","11:00","-1.3","","-3.4","","85","","14","","19","","","","99.88","","","","-7","","NA"
"2016-01-17 12:00","2016","01","17","12:00","-1.1","","-2.7","","89","","13","","20","","","","99.76","","","","-7","","NA"
"2016-01-17 13:00","2016","01","17","13:00","-0.6","","-3.2","","83","","21","","15","","","","99.64","","","","-5","","NA"
"2016-01-17 14:00","2016","01","17","14:00","0.1","","-4.7","","70","","20","","21","","","","99.56","","","","","","NA"
"2016-01-17 15:00","2016","01","17","15:00","0.0","","-3.3","","78","","19","","24","","","","99.51","","","","-6","","NA"
"2016-01-17 16:00","2016","01","17","16:00","-0.7","","-1.7","","93","","20","","20","","","","99.48","","","","-6","","NA"
"2016-01-17 17:00","2016","01","17","17:00","0.1","","-2.6","","82","","18","","27","","","","99.39","","","","","","NA"
"2016-01-17 18:00","2016","01","17","18:00","-1.9","","-2.7","","95","","27","","13","","","","99.37","","","","-6","","NA"
"2016-01-17 19:00","2016","01","17","19:00","-2.6","","-3.5","","93","","29","","16","","","","99.32","","","","-8","","NA"
"2016-01-17 20:00","2016","01","17","20:00","-3.0","","-4.4","","90","","28","","14","","","","99.33","","","","-8","","NA"
"2016-01-17 21:00","2016","01","17","21:00","-4.0","","-5.5","","90","","30","","18","","","","99.34","","","","-10","","NA"
"2016-01-17 22:00","2016","01","17","22:00","-5.0","","-9.1","","73","","27","","14","","","","99.36","","","","-10","","NA"
"2016-01-17 23:00","2016","01","17","23:00","-6.1","","-9.2","","79","","26","","19","","","","99.40","","","","-13","","NA"
"2016-01-18 00:00","2016","01","18","00:00","-7.2","","-12.5","","66","","26","","20","","","","99.39","","","","-14","","NA"
"2016-01-18 01:00","2016","01","18","01:00","-8.7","","-12.7","","72","","26","","22","","","","99.43","","","","-17","","NA"
"2016-01-18 02:00","2016","01","18","02:00","-10.3","","-14.1","","74","","28","","12","","","","99.46","","","","-16","","NA"
"2016-01-18 03:00","2016","01","18","03:00","-11.3","","-14.7","","76","","26","","10","","","","99.45","","","","-17","","NA"
"2016-01-18 04:00","2016","01","18","04:00","-12.3","","-15.4","","77","","26","","12","","","","99.45","","","","-19","","NA"
"2016-01-18 05:00","2016","01","18","05:00","-12.7","","-15.1","","82","","26","","13","","","","99.48","","","","-20","","NA"
"2016-01-18 06:00","2016","01","18","06:00","-12.9","","-15.0","","84","","27","","16","","","","99.52","","","","-21","","NA"
"2016-01-18 07:00","2016","01","18","07:00","-13.0","","-15.5","","82","","27","","22","","","","99.59","","","","-22","","NA"
"2016-01-18 08:00","2016","01","18","08:00","-13.4","","-16.5","","78","","27","","20","","","","99.66","","","","-22","","NA"
"2016-01-18 09:00","2016","01","18","09:00","-13.1","","-17.1","","72","","27","","24","","","","99.73","","","","-23","","NA"
"2016-01-18 10:00","2016","01","18","10:00","-12.6","","-17.2","","68","","29","","21","","","","99.81","","","","-21","","NA"
"2016-01-18 11:00","2016","01","18","11:00","-11.6","","-17.5","","62","","28","","25","","","","99.82","","","","-21","","NA"
"2016-01-18 12:00","2016","01","18","12:00","-10.9","","-17.1","","60","","26","","22","","","","99.76","","","","-19","","NA"
"2016-01-18 13:00","2016","01","18","13:00","-10.2","","-17.0","","57","","26","","25","","","","99.73","","","","-19","","NA"
"2016-01-18 14:00","2016","01","18","14:00","-10.3","","-17.8","","54","","28","","30","","","","99.78","","","","-20","","NA"
"2016-01-18 15:00","2016","01","18","15:00","-10.2","","-17.1","","57","","27","","22","","","","99.82","","","","-18","","NA"
"2016-01-18 16:00","2016","01","18","16:00","-10.8","","-17.1","","60","","26","","23","","","","99.88","","","","-19","","NA"
"2016-01-18 17:00","2016","01","18","17:00","-11.2","","-17.5","","60","","28","","22","","","","99.97","","","","-20","","NA"
"2016-01-18 18:00","2016","01","18","18:00","-12.2","","-17.9","","62","","28","","18","","","","100.06","","","","-20","","NA"
"2016-01-18 19:00","2016","01","18","19:00","-12.8","","-18.2","","64","","28","","21","","","","100.13","","","","-22","","NA"
"2016-01-18 20:00","2016","01","18","20:00","-13.5","","-18.2","","68","","29","","17","","","","100.20","","","","-22","","NA"
"2016-01-18 21:00","2016","01","18","21:00","-14.1","","-18.8","","68","","30","","17","","","","100.27","","","","-22","","NA"
"2016-01-18 22:00","2016","01","18","22:00"
"2016-01-18 23:00","2016","01","18","23:00","-15.8","","-19.2","","75","","27","","16","","","","100.36","","","","-24","","NA"
"2016-01-19 00:00","2016","01","19","00:00","-16.5","","-19.7","","76","","28","","19","","","","100.41","","","","-26","","NA"
"2016-01-19 01:00","2016","01","19","01:00","-17.1","","-20.1","","78","","28","","16","","","","100.42","","","","-26","","NA"
"2016-01-19 02:00","2016","01","19","02:00","-17.7","","-20.5","","79","","27","","14","","","","100.47","","","","-26","","NA"
"2016-01-19 03:00","2016","01","19","03:00","-18.1","","-20.9","","79","","27","","13","","","","100.52","","","","-26","","NA"
"2016-01-19 04:00","2016","01","19","04:00","-18.4","","-21.1","","79","","27","","16","","","","100.55","","","","-27","","NA"
"2016-01-19 05:00","2016","01","19","05:00","-18.8","","-21.5","","79","","27","","19","","","","100.59","","","","-29","","NA"
"2016-01-19 06:00","2016","01","19","06:00","-18.9","","-21.9","","77","","28","","19","","","","100.63","","","","-29","","NA"
"2016-01-19 07:00","2016","01","19","07:00","-18.8","","-22.2","","75","","28","","19","","","","100.66","","","","-29","","NA"
"2016-01-19 08:00","2016","01","19","08:00","-18.4","","-22.2","","72","","29","","18","","","","100.70","","","","-28","","NA"
"2016-01-19 09:00","2016","01","19","09:00","-16.6","","-21.3","","67","","30","","21","","","","100.70","","","","-26","","NA"
"2016-01-19 10:00","2016","01","19","10:00","-15.1","","-21.3","","59","","30","","25","","","","100.76","","","","-25","","NA"
"2016-01-19 11:00","2016","01","19","11:00","-14.5","","-20.7","","59","","30","","24","","","","100.79","","","","-24","","NA"
"2016-01-19 12:00","2016","01","19","12:00","-13.5","","-19.2","","62","","29","","25","","","","100.74","","","","-23","","NA"
"2016-01-19 13:00","2016","01","19","13:00","-11.7","","-17.5","","62","","28","","22","","","","100.70","","","","-20","","NA"
"2016-01-19 14:00","2016","01","19","14:00","-10.0","","-16.3","","60","","26","","23","","","","100.65","","","","-18","","NA"
"2016-01-19 15:00","2016","01","19","15:00","-9.2","","-15.2","","62","","26","","24","","","","100.63","","","","-18","","NA"
"2016-01-19 16:00","2016","01","19","16:00","-8.2","","-14.1","","63","","26","","27","","","","100.67","","","","-17","","NA"
"2016-01-19 17:00","2016","01","19","17:00","-8.3","","-13.7","","65","","27","","23","","","","100.78","","","","-16","","NA"
"2016-01-19 18:00","2016","01","19","18:00","-8.5","","-13.6","","67","","28","","14","","","","100.88","","","","-15","","NA"
"2016-01-19 19:00","2016","01","19","19:00","-8.9","","-13.8","","67","","29","","22","","","","100.99","","","","-17","","NA"
"2016-01-19 20:00","2016","01","19","20:00","-9.4","","-13.9","","70","","30","","18","","","","101.08","","","","-17","","NA"
"2016-01-19 21:00","2016","01","19","21:00","-9.5","","-14.0","","70","","28","","19","","","","101.16","","","","-17","","NA"
"2016-01-19 22:00","2016","01","19","22:00","-9.4","","-13.7","","71","","28","","15","","","","101.17","","","","-16","","NA"
"2016-01-19 23:00","2016","01","19","23:00","-9.4","","-13.3","","73","","28","","14","","","","101.22","","","","-16","","NA"
"2016-01-20 00:00","2016","01","20","00:00","-9.4","","-13.2","","74","","29","","15","","","","101.21","","","","-16","","NA"
"2016-01-20 01:00","2016","01","20","01:00","-9.3","","-13.4","","72","","29","","12","","","","101.18","","","","-15","","NA"
"2016-01-20 02:00","2016","01","20","02:00","-9.2","","-13.2","","73","","27","","13","","","","101.25","","","","-15","","NA"
"2016-01-20 03:00","2016","01","20","03:00","-10.2","","-13.8","","75","","27","","10","","","","101.25","","","","-15","","NA"
"2016-01-20 04:00","2016","01","20","04:00","-10.6","","-13.8","","77","","26","","15","","","","101.29","","","","-17","","NA"
"2016-01-20 05:00","2016","01","20","05:00","-11.6","","-14.5","","79","","26","","14","","","","101.32","","","","-18","","NA"
"2016-01-20 06:00","2016","01","20","06:00","-12.4","","-14.8","","82","","27","","11","","","","101.32","","","","-18","","NA"
"2016-01-20 07:00","2016","01","20","07:00","-12.6","","-15.0","","82","","28","","16","","","","101.38","","","","-20","","NA"
"2016-01-20 08:00","2016","01","20","08:00","-13.2","","-15.6","","82","","31","","16","","","","101.38","","","","-21","","NA"
"2016-01-20 09:00","2016","01","20","09:00","-12.2","","-15.2","","78","","25","","12","","","","101.42","","","","-19","","NA"
"2016-01-20 10:00","2016","01","20","10:00","-10.4","","-14.3","","73","","33","","6","","","","101.40","","","","-14","","NA"
"2016-01-20 11:00","2016","01","20","11:00","-7.6","","-13.3","","64","","35","","6","","","","101.32","","","","-11","","NA"
"2016-01-20 12:00","2016","01","20","12:00","-5.3","","-12.2","","58","","19","","3","","","","101.21","","","","-7","","NA"
"2016-01-20 13:00","2016","01","20","13:00","-5.6","","-11.8","","62","","19","","6","","","","101.09","","","","-8","","NA"
"2016-01-20 14:00","2016","01","20","14:00","-5.5","","-12.0","","60","","21","","10","","","","101.02","","","","-10","","NA"
"2016-01-20 15:00","2016","01","20","15:00","-5.7","","-10.8","","67","","20","","7","","","","100.95","","","","-9","","NA"
"2016-01-20 16:00","2016","01","20","16:00","-5.1","","-12.0","","58","","27","","6","","","","100.92","","","","-8","","NA"
"2016-01-20 17:00","2016","01","20","17:00","-5.9","","-11.7","","64","","31","","6","","","","100.90","","","","-9","","NA"
"2016-01-20 18:00","2016","01","20","18:00","-7.7","","-11.8","","72","","29","","4","","","","100.90","","","","-10","","NA"
"2016-01-20 19:00","2016","01","20","19:00","-6.7","","-10.7","","73","","29","","9","","","","100.90","","","","-11","","NA"
"2016-01-20 20:00","2016","01","20","20:00","-6.7","","-10.6","","74","","29","","12","","","","100.92","","","","-12","","NA"
"2016-01-20 21:00","2016","01","20","21:00","-7.6","","-10.8","","78","","29","","11","","","","100.91","","","","-13","","NA"
"2016-01-20 22:00","2016","01","20","22:00","-9.0","","-11.4","","82","","32","","12","","","","100.92","","","","-15","","NA"
"2016-01-20 23:00","2016","01","20","23:00","-9.7","","-11.5","","86","","34","","11","","","","100.94","","","","-15","","NA"
"2016-01-21 00:00","2016","01","21","00:00","-9.8","","-11.9","","85","","33","","10","","","","100.96","","","","-15","","NA"
"2016-01-21 01:00","2016","01","21","01:00","-10.6","","-12.1","","88","","33","","10","","","","100.97","","","","-16","","NA"
"2016-01-21 02:00","2016","01","21","02:00","-11.3","","-12.7","","89","","34","","12","","","","101.01","","","","-17","","NA"
"2016-01-21 03:00","2016","01","21","03:00","-11.5","","-13.0","","88","","33","","10","","","","101.06","","","","-17","","NA"
"2016-01-21 04:00","2016","01","21","04:00","-12.6","","-14.2","","88","","34","","13","","","","101.11","","","","-19","","NA"
"2016-01-21 05:00","2016","01","21","05:00","-12.9","","-14.8","","86","","33","","14","","","","101.16","","","","-20","","NA"
"2016-01-21 06:00","2016","01","21","06:00","-13.9","","-15.6","","87","","35","","13","","","","101.17","","","","-21","","NA"
"2016-01-21 07:00","2016","01","21","07:00","-13.8","","-15.4","","88","","34","","10","","","","101.21","","","","-20","","NA"
"2016-01-21 08:00","2016","01","21","08:00","-14.7","","-16.6","","85","","33","","11","","","","101.25","","","","-21","","NA"
"2016-01-21 09:00","2016","01","21","09:00","-12.7","","-15.0","","83","","35","","12","","","","101.27","","","","-19","","NA"
"2016-01-21 10:00","2016","01","21","10:00","-10.2","","-13.3","","78","","34","","17","","","","101.33","","","","-17","","NA"
"2016-01-21 11:00","2016","01","21","11:00","-8.9","","-13.8","","67","","35","","14","","","","101.39","","","","-15","","NA"
"2016-01-21 12:00","2016","01","21","12:00","-8.0","","-13.8","","63","","33","","10","","","","101.34","","","","-13","","NA"
"2016-01-21 13:00","2016","01","21","13:00","-6.6","","-13.6","","58","","34","","17","","","","101.31","","","","-13","","NA"
"2016-01-21 14:00","2016","01","21","14:00","-6.4","","-13.2","","59","","35","","11","","","","101.30","","","","-11","","NA"
"2016-01-21 15:00","2016","01","21","15:00","-6.4","","-13.6","","56","","34","","11","","","","101.30","","","","-11","","NA"
"2016-01-21 16:00","2016","01","21","16:00","-6.2","","-12.7","","60","","33","","17","","","","101.33","","","","-12","","NA"
"2016-01-21 17:00","2016","01","21","17:00","-6.6","","-11.8","","66","","33","","6","","","","101.38","","","","-10","","NA"
"2016-01-21 18:00","2016","01","21","18:00","-7.2","","-12.7","","65","","33","","11","","","","101.44","","","","-12","","NA"
"2016-01-21 19:00","2016","01","21","19:00","-8.6","","-12.9","","71","","34","","10","","","","101.48","","","","-14","","NA"
"2016-01-21 20:00","2016","01","21","20:00","-10.2","","-14.1","","73","","33","","12","","","","101.52","","","","-16","","NA"
"2016-01-21 21:00","2016","01","21","21:00","-11.3","","-14.9","","74","","33","","13","","","","101.55","","","","-18","","NA"
"2016-01-21 22:00","2016","01","21","22:00","-12.7","","-15.8","","78","","34","","12","","","","101.54","","","","-19","","NA"
"2016-01-21 23:00","2016","01","21","23:00","-12.9","","-15.7","","79","","33","","13","","","","101.57","","","","-20","","NA"
"2016-01-22 00:00","2016","01","22","00:00","-11.8","","-14.5","","81","","33","","10","","","","101.61","","","","-17","","NA"
"2016-01-22 01:00","2016","01","22","01:00","-10.6","","-13.7","","78","","33","","12","","","","101.62","","","","-17","","NA"
"2016-01-22 02:00","2016","01","22","02:00","-10.0","","-13.5","","76","","33","","13","","","","101.62","","","","-16","","NA"
"2016-01-22 03:00","2016","01","22","03:00","-10.2","","-13.4","","77","","35","","10","","","","101.56","","","","-15","","NA"
"2016-01-22 04:00","2016","01","22","04:00","-12.1","","-15.0","","79","","34","","12","","","","101.59","","","","-18","","NA"
"2016-01-22 05:00","2016","01","22","05:00","-13.4","","-15.8","","82","","34","","13","","","","101.54","","","","-20","","NA"
"2016-01-22 06:00","2016","01","22","06:00","-13.1","","-15.3","","83","","35","","11","","","","101.50","","","","-19","","NA"
"2016-01-22 07:00","2016","01","22","07:00","-13.5","","-15.4","","85","","34","","11","","","","101.60","","","","-20","","NA"
"2016-01-22 08:00","2016","01","22","08:00","-14.6","","-16.8","","83","","33","","12","","","","101.68","","","","-21","","NA"
"2016-01-22 09:00","2016","01","22","09:00","-11.6","","-15.0","","76","","32","","6","","","","101.68","","","","-15","","NA"
"2016-01-22 10:00","2016","01","22","10:00","-8.0","","-12.3","","71","","32","","3","","","","101.68","","","","-10","","NA"
"2016-01-22 11:00","2016","01","22","11:00","-4.8","","-12.9","","53","","30","","4","","","","101.65","","","","-7","","NA"
"2016-01-22 12:00","2016","01","22","12:00","-4.4","","-14.7","","44","","29","","14","","","","101.56","","","","-10","","NA"
"2016-01-22 13:00","2016","01","22","13:00","-4.2","","-11.6","","56","","32","","11","","","","101.47","","","","-9","","NA"
"2016-01-22 14:00","2016","01","22","14:00","-4.4","","-10.4","","63","","34","","16","","","","101.35","","","","-10","","NA"
"2016-01-22 15:00","2016","01","22","15:00","-4.6","","-10.7","","62","","34","","12","","","","101.33","","","","-9","","NA"
"2016-01-22 16:00","2016","01","22","16:00","-4.8","","-10.6","","64","","33","","9","","","","101.32","","","","-9","","NA"
"2016-01-22 17:00","2016","01","22","17:00","-4.6","","-10.9","","62","","31","","5","","","","101.36","","","","-7","","NA"
"2016-01-22 18:00","2016","01","22","18:00","-5.9","","-11.2","","66","","34","","5","","","","101.32","","","","-8","","NA"
"2016-01-22 19:00","2016","01","22","19:00","-7.2","","-11.4","","71","","36","","10","","","","101.28","","","","-12","","NA"
"2016-01-22 20:00","2016","01","22","20:00","-6.2","","-10.0","","74","","2","","10","","","","101.33","","","","-11","","NA"
"2016-01-22 21:00","2016","01","22","21:00","-7.2","","-10.1","","79","","3","","6","","","","101.36","","","","-10","","NA"
"2016-01-22 22:00","2016","01","22","22:00","-8.7","","-11.4","","81","","36","","10","","","","101.27","","","","-14","","NA"
"2016-01-22 23:00","2016","01","22","23:00","-8.1","","-11.5","","76","","2","","12","","","","101.25","","","","-14","","NA"
"2016-01-23 00:00","2016","01","23","00:00","-8.8","","-11.5","","80","","2","","13","","","","101.29","","","","-15","","NA"
"2016-01-23 01:00","2016","01","23","01:00","-9.1","","-11.6","","82","","2","","15","","","","101.23","","","","-16","","NA"
"2016-01-23 02:00","2016","01","23","02:00","-9.7","","-12.4","","81","","2","","16","","","","101.19","","","","-17","","NA"
"2016-01-23 03:00","2016","01","23","03:00","-10.4","","-12.9","","82","","2","","15","","","","101.13","","","","-17","","NA"
"2016-01-23 04:00","2016","01","23","04:00","-11.1","","-13.5","","82","","2","","14","","","","101.07","","","","-18","","NA"
"2016-01-23 05:00","2016","01","23","05:00","-11.7","","-14.1","","83","","2","","15","","","","101.04","","","","-19","","NA"
"2016-01-23 06:00","2016","01","23","06:00","-11.8","","-14.3","","82","","1","","23","","","","100.90","","","","-21","","NA"
"2016-01-23 07:00","2016","01","23","07:00","-11.9","","-14.5","","81","","2","","19","","","","100.97","","","","-20","","NA"
"2016-01-23 08:00","2016","01","23","08:00","-12.5","","-15.1","","81","","2","","21","","","","100.85","","","","-21","","NA"
"2016-01-23 09:00","2016","01","23","09:00","-12.2","","-15.1","","79","","3","","23","","","","100.81","","","","-21","","NA"
"2016-01-23 10:00","2016","01","23","10:00","-11.8","","-15.1","","76","","3","","24","","","","100.85","","","","-21","","NA"
"2016-01-23 11:00","2016","01","23","11:00","-10.9","","-14.7","","73","","3","","24","","","","100.86","","","","-20","","NA"
"2016-01-23 12:00","2016","01","23","12:00","-9.2","","-13.9","","69","","3","","24","","","","100.72","","","","-18","","NA"
"2016-01-23 13:00","2016","01","23","13:00","-8.5","","-14.0","","65","","1","","27","","","","100.61","","","","-17","","NA"
"2016-01-23 14:00","2016","01","23","14:00","-7.6","","-13.5","","63","","1","","25","","","","100.48","","","","-16","","NA"
"2016-01-23 15:00","2016","01","23","15:00","-7.2","","-13.9","","59","","1","","22","","","","100.46","","","","-15","","NA"
"2016-01-23 16:00","2016","01","23","16:00","-7.4","","-14.1","","59","","1","","23","","","","100.49","","","","-15","","NA"
"2016-01-23 17:00","2016","01","23","17:00","-8.2","","-14.6","","60","","2","","19","","","","100.53","","","","-15","","NA"
"2016-01-23 18:00","2016","01","23","18:00","-9.6","","-14.7","","66","","1","","13","","","","100.56","","","","-16","","NA"
"2016-01-23 19:00","2016","01","23","19:00","-11.8","","-15.9","","72","","35","","12","","","","100.56","","","","-18","","NA"
"2016-01-23 20:00","2016","01","23","20:00","-12.0","","-15.9","","72","","36","","9","","","","100.59","","","","-17","","NA"
"2016-01-23 21:00","2016","01","23","21:00","-12.5","","-16.2","","73","","32","","6","","","","100.62","","","","-16","","NA"
"2016-01-23 22:00","2016","01","23","22:00","-13.2","","-16.5","","76","","34","","8","","","","100.55","","","","-18","","NA"
"2016-01-23 23:00","2016","01","23","23:00","-14.2","","-17.1","","78","","33","","9","","","","100.54","","","","-20","","NA"
"2016-01-24 00:00","2016","01","24","00:00","-14.8","","-17.3","","81","","33","","9","","","","100.51","","","","-21","","NA"
"2016-01-24 01:00","2016","01","24","01:00","-15.1","","-17.6","","81","","32","","7","","","","100.44","","","","-20","","NA"
"2016-01-24 02:00","2016","01","24","02:00","-16.4","","-18.9","","81","","34","","13","","","","100.47","","","","-24","","NA"
"2016-01-24 03:00","2016","01","24","03:00","-15.8","","-18.3","","81","","35","","12","","","","100.49","","","","-23","","NA"
"2016-01-24 04:00","2016","01","24","04:00","-16.1","","-18.4","","83","","34","","12","","","","100.47","","","","-23","","NA"
"2016-01-24 05:00","2016","01","24","05:00","-16.8","","-19.2","","82","","34","","10","","","","100.51","","","","-23","","NA"
"2016-01-24 06:00","2016","01","24","06:00","-17.1","","-19.3","","83","","33","","11","","","","100.54","","","","-24","","NA"
"2016-01-24 07:00","2016","01","24","07:00","-16.7","","-18.9","","83","","32","","1","","","","100.62","","","","-17","","NA"
"2016-01-24 08:00","2016","01","24","08:00","-16.9","","-19.2","","83","","34","","9","","","","100.63","","","","-23","","NA"
"2016-01-24 09:00","2016","01","24","09:00","-14.6","","-17.1","","81","","35","","6","","","","100.65","","","","-19","","NA"
"2016-01-24 10:00","2016","01","24","10:00","-11.3","","-14.3","","79","","33","","3","","","","100.68","","","","-13","","NA"
"2016-01-24 11:00","2016","01","24","11:00","-8.1","","-11.6","","76","","23","","5","","","","100.69","","","","-11","","NA"
"2016-01-24 12:00","2016","01","24","12:00","-7.0","","-12.6","","64","","22","","8","","","","100.66","","","","-11","","NA"
"2016-01-24 13:00","2016","01","24","13:00","-6.4","","-12.5","","62","","23","","13","","","","100.64","","","","-12","","NA"
"2016-01-24 14:00","2016","01","24","14:00","-5.8","","-11.4","","64","","23","","7","","","","100.56","","","","-9","","NA"
"2016-01-24 15:00","2016","01","24","15:00","-5.7","","-10.2","","71","","24","","7","","","","100.55","","","","-9","","NA"
"2016-01-24 16:00","2016","01","24","16:00","-6.2","","-7.9","","87","","19","","8","","","","100.57","","","","-10","","NA"
"2016-01-24 17:00","2016","01","24","17:00","-5.7","","-7.4","","88","","20","","8","","","","100.59","","","","-9","","NA"
"2016-01-24 18:00","2016","01","24","18:00","-4.8","","-6.3","","89","","21","","3","","","","100.62","","","","-6","","NA"
"2016-01-24 19:00","2016","01","24","19:00","-5.2","","-6.5","","91","","9","","4","","","","100.63","","","","-7","","NA"
"2016-01-24 20:00","2016","01","24","20:00","-4.5","","-5.8","","90","","10","","5","","","","100.67","","","","-7","","NA"
"2016-01-24 21:00","2016","01","24","21:00","-4.2","","-5.6","","90","","5","","6","","","","100.69","","","","-7","","NA"
"2016-01-24 22:00","2016","01","24","22:00","-3.9","","-5.2","","91","","10","","4","","","","100.68","","","","-6","","NA"
"2016-01-24 23:00","2016","01","24","23:00","-3.0","","-4.2","","92","","12","","2","","","","100.70","","","","-4","","NA"
"2016-01-25 00:00","2016","01","25","00:00","-4.2","","-5.4","","91","","35","","6","","","","100.73","","","","-7","","NA"
"2016-01-25 01:00","2016","01","25","01:00","-3.8","","-5.1","","90","","5","","4","","","","100.75","","","","-5","","NA"
"2016-01-25 02:00","2016","01","25","02:00","-4.0","","-5.4","","90","","7","","3","","","","100.78","","","","-5","","NA"
"2016-01-25 03:00","2016","01","25","03:00","-4.4","","-5.6","","91","","","","0","","","","100.80","","","","","","NA"
"2016-01-25 04:00","2016","01","25","04:00","-6.8","","-8.0","","91","","31","","6","","","","100.88","","","","-10","","NA"
"2016-01-25 05:00","2016","01","25","05:00","-7.0","","-8.0","","93","","34","","7","","","","100.92","","","","-11","","NA"
"2016-01-25 06:00","2016","01","25","06:00","-6.5","","-7.5","","93","","","","0","","","","100.95","","","","","","NA"
"2016-01-25 07:00","2016","01","25","07:00","-5.3","","-6.5","","91","","3","","4","","","","100.99","","","","-7","","NA"
"2016-01-25 08:00","2016","01","25","08:00","-4.0","","-5.4","","90","","5","","5","","","","101.01","","","","-6","","NA"
"2016-01-25 09:00","2016","01","25","09:00","-2.9","","-4.1","","92","","8","","3","","","","101.05","","","","-4","","NA"
"2016-01-25 10:00","2016","01","25","10:00","0.5","","-1.9","","84","","17","","13","","","","101.04","","","","","","NA"
"2016-01-25 11:00","2016","01","25","11:00","0.6","","-2.0","","83","","17","","20","","","","101.07","","","","","","NA"
"2016-01-25 12:00","2016","01","25","12:00","0.3","","-2.8","","80","","16","","22","","","","101.03","","","","","","NA"
"2016-01-25 13:00","2016","01","25","13:00","0.2","","-3.0","","79","","17","","23","","","","100.98","","","","","","NA"
"2016-01-25 14:00","2016","01","25","14:00","0.1","","-3.7","","76","","16","","22","","","","100.92","","","","","","NA"
"2016-01-25 15:00","2016","01","25","15:00","0.6","","-3.6","","74","","16","","25","","","","100.83","","","","","","NA"
"2016-01-25 16:00","2016","01","25","16:00","0.8","","-3.5","","73","","15","","21","","","","100.79","","","","","","NA"
"2016-01-25 17:00","2016","01","25","17:00","0.8","","-3.6","","72","","14","","23","","","","100.75","","","","","","NA"
"2016-01-25 18:00","2016","01","25","18:00","0.8","","-3.4","","74","","14","","25","","","","100.69","","","","","","NA"
"2016-01-25 19:00","2016","01","25","19:00","1.0","","-3.3","","73","","15","","24","","","","100.66","","","","","","NA"
"2016-01-25 20:00","2016","01","25","20:00","1.1","","-3.2","","73","","15","","25","","","","100.54","","","","","","NA"
"2016-01-25 21:00","2016","01","25","21:00","1.5","","-3.3","","71","","16","","31","","","","100.44","","","","","","NA"
"2016-01-25 22:00","2016","01","25","22:00","1.6","","-2.9","","72","","16","","27","","","","100.37","","","","","","NA"
"2016-01-25 23:00","2016","01","25","23:00","1.8","","-3.4","","68","","17","","28","","","","100.26","","","","","","NA"
"2016-01-26 00:00","2016","01","26","00:00","1.7","","-3.4","","68","","17","","31","","","","100.15","","","","","","NA"
"2016-01-26 01:00","2016","01","26","01:00","1.6","","-3.6","","68","","17","","32","","","","100.07","","","","","","NA"
"2016-01-26 02:00","2016","01","26","02:00","1.9","","-3.7","","67","","17","","33","","","","99.99","","","","","","NA"
"2016-01-26 03:00","2016","01","26","03:00","1.9","","-3.2","","69","","17","","31","","","","99.93","","","","","","NA"
"2016-01-26 04:00","2016","01","26","04:00","1.5","","-1.8","","79","","17","","33","","","","99.90","","","","","","NA"
"2016-01-26 05:00","2016","01","26","05:00","1.7","","-1.4","","80","","17","","27","","","","99.84","","","","","","NA"
"2016-01-26 06:00","2016","01","26","06:00","1.3","","-1.3","","83","","16","","26","","","","99.73","","","","","","NA"
"2016-01-26 07:00","2016","01","26","07:00","1.9","","-1.1","","81","","17","","32","","","","99.60","","","","","","NA"
"2016-01-26 08:00","2016","01","26","08:00","2.2","","-1.0","","79","","17","","33","","","","99.59","","","","","","NA"
"2016-01-26 09:00","2016","01","26","09:00","2.2","","-0.6","","82","","17","","30","","","","99.52","","","","","","NA"
"2016-01-26 10:00","2016","01","26","10:00","2.9","","0.0","","81","","18","","24","","","","99.46","","","","","","NA"
"2016-01-26 11:00","2016","01","26","11:00","2.6","","0.7","","87","","18","","26","","","","99.39","","","","","","NA"
"2016-01-26 12:00","2016","01","26","12:00","3.4","","1.2","","86","","19","","22","","","","99.30","","","","","","NA"
"2016-01-26 13:00","2016","01","26","13:00","4.6","","2.0","","84","","21","","25","","","","99.27","","","","","","NA"
"2016-01-26 14:00","2016","01","26","14:00","4.6","","1.2","","78","","23","","42","","","","99.27","","","","","","NA"
"2016-01-26 15:00","2016","01","26","15:00","3.8","","0.9","","81","","24","","38","","","","99.34","","","","","","NA"
"2016-01-26 16:00","2016","01","26","16:00","3.1","","0.4","","82","","24","","42","","","","99.46","","","","","","NA"
"2016-01-26 17:00","2016","01","26","17:00","3.0","","0.1","","81","","24","","39","","","","99.53","","","","","","NA"
"2016-01-26 18:00","2016","01","26","18:00","2.8","","0.0","","82","","24","","35","","","","99.66","","","","","","NA"
"2016-01-26 19:00","2016","01","26","19:00","2.7","","0.0","","83","","24","","36","","","","99.78","","","","","","NA"
"2016-01-26 20:00","2016","01","26","20:00","2.4","","0.0","","84","","24","","34","","","","99.87","","","","","","NA"
"2016-01-26 21:00","2016","01","26","21:00","2.4","","-0.1","","84","","23","","31","","","","99.92","","","","","","NA"
"2016-01-26 22:00","2016","01","26","22:00","1.9","","0.0","","87","","24","","25","","","","99.95","","","","","","NA"
"2016-01-26 23:00","2016","01","26","23:00","2.2","","-0.1","","85","","24","","25","","","","99.99","","","","","","NA"
"2016-01-27 00:00","2016","01","27","00:00","2.0","","-0.7","","82","","25","","22","","","","100.03","","","","","","NA"
"2016-01-27 01:00","2016","01","27","01:00","1.6","","-0.8","","84","","25","","19","","","","100.05","","","","","","NA"
"2016-01-27 02:00","2016","01","27","02:00","1.5","","-1.0","","84","","25","","15","","","","100.07","","","","","","NA"
"2016-01-27 03:00","2016","01","27","03:00","1.3","","-1.3","","83","","25","","14","","","","100.12","","","","","","NA"
"2016-01-27 04:00","2016","01","27","04:00","1.3","","-1.6","","81","","26","","12","","","","100.17","","","","","","NA"
"2016-01-27 05:00","2016","01","27","05:00","1.3","","-1.4","","82","","26","","10","","","","100.16","","","","","","NA"
"2016-01-27 06:00","2016","01","27","06:00","0.9","","-1.7","","82","","30","","14","","","","100.21","","","","","","NA"
"2016-01-27 07:00","2016","01","27","07:00","-0.1","","-3.4","","78","","30","","18","","","","100.32","","","","-5","","NA"
"2016-01-27 08:00","2016","01","27","08:00","-0.7","","-4.8","","73","","30","","19","","","","100.42","","","","-6","","NA"
"2016-01-27 09:00","2016","01","27","09:00","-1.8","","-5.5","","76","","35","","19","","","","100.52","","","","-7","","NA"
"2016-01-27 10:00","2016","01","27","10:00","-1.3","","-6.7","","67","","30","","14","","","","100.62","","","","-6","","NA"
"2016-01-27 11:00","2016","01","27","11:00","-0.7","","-7.5","","60","","27","","17","","","","100.65","","","","-6","","NA"
"2016-01-27 12:00","2016","01","27","12:00","-1.3","","-9.5","","54","","28","","22","","","","100.65","","","","-7","","NA"
"2016-01-27 13:00","2016","01","27","13:00","-0.9","","-9.4","","53","","29","","21","","","","100.68","","","","-7","","NA"
"2016-01-27 14:00","2016","01","27","14:00","-0.6","","-8.6","","54","","26","","21","","","","100.70","","","","-6","","NA"
"2016-01-27 15:00","2016","01","27","15:00","-1.1","","-8.8","","56","","25","","18","","","","100.66","","","","-6","","NA"
"2016-01-27 16:00","2016","01","27","16:00","-1.6","","-9.5","","55","","25","","19","","","","100.66","","","","-7","","NA"
"2016-01-27 17:00","2016","01","27","17:00","-2.4","","-10.2","","55","","26","","12","","","","100.71","","","","-7","","NA"
"2016-01-27 18:00","2016","01","27","18:00","-3.1","","-10.4","","57","","26","","11","","","","100.73","","","","-7","","NA"
"2016-01-27 19:00","2016","01","27","19:00","-3.6","","-10.2","","60","","25","","8","","","","100.75","","","","-7","","NA"
"2016-01-27 20:00","2016","01","27","20:00","-3.4","","-8.5","","68","","23","","9","","","","100.68","","","","-7","","NA"
"2016-01-27 21:00","2016","01","27","21:00","-3.1","","-8.3","","67","","21","","12","","","","100.65","","","","-8","","NA"
"2016-01-27 22:00","2016","01","27","22:00","-3.1","","-7.8","","70","","19","","12","","","","100.58","","","","-8","","NA"
"2016-01-27 23:00","2016","01","27","23:00","-0.5","","-6.5","","64","","18","","18","","","","100.49","","","","-6","","NA"
"2016-01-28 00:00","2016","01","28","00:00","0.2","","-5.4","","66","","21","","22","","","","100.42","","","","","","NA"
"2016-01-28 01:00","2016","01","28","01:00","0.2","","-3.7","","75","","21","","25","","","","100.31","","","","","","NA"
"2016-01-28 02:00","2016","01","28","02:00","0.6","","-5.4","","64","","22","","26","","","","100.19","","","","","","NA"
"2016-01-28 03:00","2016","01","28","03:00","0.5","","-5.8","","63","","22","","28","","","","100.10","","","","","","NA"
"2016-01-28 04:00","2016","01","28","04:00","0.4","","-5.4","","65","","21","","26","","","","100.00","","","","","","NA"
"2016-01-28 05:00","2016","01","28","05:00","0.3","","-5.5","","65","","21","","27","","","","99.92","","","","","","NA"
"2016-01-28 06:00","2016","01","28","06:00","0.3","","-4.9","","68","","20","","30","","","","99.82","","","","","","NA"
"2016-01-28 07:00","2016","01","28","07:00","0.1","","-5.1","","68","","20","","36","","","","99.76","","","","","","NA"
"2016-01-28 08:00","2016","01","28","08:00","-0.2","","-5.4","","68","","20","","34","","","","99.72","","","","-7","","NA"
"2016-01-28 09:00","2016","01","28","09:00","-0.7","","-4.6","","75","","19","","35","","","","99.66","","","","-8","","NA"
"2016-01-28 10:00","2016","01","28","10:00","-1.0","","-3.7","","82","","19","","33","","","","99.59","","","","-8","","NA"
"2016-01-28 11:00","2016","01","28","11:00","-1.0","","-3.3","","85","","18","","35","","","","99.50","","","","-8","","NA"
"2016-01-28 12:00","2016","01","28","12:00","-1.0","","-2.5","","90","","19","","35","","","","99.35","","","","-8","","NA"
"2016-01-28 13:00","2016","01","28","13:00","-0.4","","-2.2","","88","","19","","37","","","","99.26","","","","-8","","NA"
"2016-01-28 14:00","2016","01","28","14:00","0.0","","-2.5","","84","","17","","36","","","","99.18","","","","-7","","NA"
"2016-01-28 15:00","2016","01","28","15:00","1.1","","-2.6","","76","","18","","35","","","","99.07","","","","","","NA"
"2016-01-28 16:00","2016","01","28","16:00","1.8","","-2.6","","73","","18","","31","","","","99.05","","","","","","NA"
"2016-01-28 17:00","2016","01","28","17:00","2.0","","-2.4","","73","","18","","27","","","","99.02","","","","","","NA"
"2016-01-28 18:00","2016","01","28","18:00","2.4","","-1.9","","73","","20","","21","","","","99.01","","","","","","NA"
"2016-01-28 19:00","2016","01","28","19:00","1.9","","-1.3","","80","","24","","12","","","","99.03","","","","","","NA"
"2016-01-28 20:00","2016","01","28","20:00","1.3","","-0.9","","85","","21","","11","","","","99.02","","","","","","NA"
"2016-01-28 21:00","2016","01","28","21:00","0.9","","-0.5","","90","","17","","9","","","","98.92","","","","","","NA"
"2016-01-28 22:00","2016","01","28","22:00","1.3","","-0.6","","87","","18","","11","","","","98.85","","","","","","NA"
"2016-01-28 23:00","2016","01","28","23:00","2.1","","-1.7","","76","","18","","25","","","","98.79","","","","","","NA"
"2016-01-29 00:00","2016","01","29","00:00","2.1","","-1.2","","78","","19","","26","","","","98.75","","","","","","NA"
"2016-01-29 01:00","2016","01","29","01:00","1.6","","-0.7","","85","","20","","24","","","","98.72","","","","","","NA"
"2016-01-29 02:00","2016","01","29","02:00","1.0","","-0.4","","91","","22","","16","","","","98.67","","","","","","NA"
"2016-01-29 03:00","2016","01","29","03:00","0.6","","-0.2","","94","","20","","12","","","","98.61","","","","","","NA"
"2016-01-29 04:00","2016","01","29","04:00","0.4","","-0.2","","95","","20","","10","","","","98.58","","","","","","NA"
"2016-01-29 05:00","2016","01","29","05:00","0.4","","-0.3","","95","","23","","9","","","","98.60","","","","","","NA"
"2016-01-29 06:00","2016","01","29","06:00","0.3","","-0.3","","95","","27","","12","","","","98.61","","","","","","NA"
"2016-01-29 07:00","2016","01","29","07:00","0.2","","-1.1","","91","","27","","15","","","","98.66","","","","","","NA"
"2016-01-29 08:00","2016","01","29","08:00","-0.4","","-1.9","","90","","27","","15","","","","98.70","","","","-5","","NA"
"2016-01-29 09:00","2016","01","29","09:00","-0.7","","-2.4","","88","","27","","13","","","","98.75","","","","-5","","NA"
"2016-01-29 10:00","2016","01","29","10:00","-1.3","","-3.0","","88","","26","","14","","","","98.82","","","","-6","","NA"
"2016-01-29 11:00","2016","01","29","11:00","-2.2","","-3.8","","89","","26","","18","","","","98.89","","","","-8","","NA"
"2016-01-29 12:00","2016","01","29","12:00","-1.6","","-3.7","","86","","29","","20","","","","98.91","","","","-7","","NA"
"2016-01-29 13:00","2016","01","29","13:00","-2.3","","-4.9","","82","","32","","21","","","","98.96","","","","-8","","NA"
"2016-01-29 14:00","2016","01","29","14:00","-4.1","","-6.7","","82","","30","","22","","","","99.08","","","","-11","","NA"
"2016-01-29 15:00","2016","01","29","15:00","-4.3","","-7.7","","78","","30","","21","","","","99.20","","","","-11","","NA"
"2016-01-29 16:00","2016","01","29","16:00","-4.4","","-8.5","","73","","30","","18","","","","99.34","","","","-10","","NA"
"2016-01-29 17:00","2016","01","29","17:00","-5.4","","-9.2","","74","","28","","16","","","","99.51","","","","-11","","NA"
"2016-01-29 18:00","2016","01","29","18:00","-5.9","","-9.9","","73","","29","","15","","","","99.67","","","","-12","","NA"
"2016-01-29 19:00","2016","01","29","19:00","-6.4","","-10.4","","73","","30","","18","","","","99.79","","","","-13","","NA"
"2016-01-29 20:00","2016","01","29","20:00","-7.1","","-11.1","","74","","32","","16","","","","99.93","","","","-13","","NA"
"2016-01-29 21:00","2016","01","29","21:00","-7.5","","-11.0","","76","","31","","14","","","","100.00","","","","-13","","NA"
"2016-01-29 22:00","2016","01","29","22:00","-8.6","","-11.9","","77","","32","","13","","","","100.09","","","","-15","","NA"
"2016-01-29 23:00","2016","01","29","23:00","-10.0","","-13.8","","74","","31","","13","","","","100.13","","","","-16","","NA"
"2016-01-30 00:00","2016","01","30","00:00","-10.9","","-14.3","","76","","30","","10","","","","100.18","","","","-16","","NA"
"2016-01-30 01:00","2016","01","30","01:00","-11.5","","-14.2","","80","","28","","9","","","","100.24","","","","-17","","NA"
"2016-01-30 02:00","2016","01","30","02:00","-11.9","","-14.6","","80","","27","","14","","","","100.31","","","","-19","","NA"
"2016-01-30 03:00","2016","01","30","03:00","-11.6","","-14.2","","81","","27","","9","","","","100.38","","","","-17","","NA"
"2016-01-30 04:00","2016","01","30","04:00","-10.4","","-12.5","","85","","29","","9","","","","100.37","","","","-15","","NA"
"2016-01-30 05:00","2016","01","30","05:00","-10.3","","-12.4","","85","","28","","6","","","","100.37","","","","-14","","NA"
"2016-01-30 06:00","2016","01","30","06:00","-9.8","","-12.1","","83","","10","","2","","","","100.35","","","","-11","","NA"
"2016-01-30 07:00","2016","01","30","07:00","-8.4","","-10.2","","87","","12","","1","","","","100.33","","","","-9","","NA"
"2016-01-30 08:00","2016","01","30","08:00","-6.0","","-7.5","","89","","17","","12","","","","100.25","","","","-11","","NA"
"2016-01-30 09:00","2016","01","30","09:00","-2.4","","-5.3","","81","","17","","26","","","","100.10","","","","-9","","NA"
"2016-01-30 10:00","2016","01","30","10:00","-1.9","","-5.1","","79","","18","","35","","","","99.99","","","","-9","","NA"
"2016-01-30 11:00","2016","01","30","11:00","-1.9","","-5.7","","75","","16","","40","","","","99.87","","","","-10","","NA"
"2016-01-30 12:00","2016","01","30","12:00","-0.9","","-5.2","","72","","16","","37","","","","99.70","","","","-8","","NA"
"2016-01-30 13:00","2016","01","30","13:00","0.2","","-4.5","","71","","17","","33","","","","99.55","","","","","","NA"
"2016-01-30 14:00","2016","01","30","14:00","1.4","","-3.8","","68","","17","","27","","","","99.45","","","","","","NA"
"2016-01-30 15:00","2016","01","30","15:00","2.1","","-2.9","","69","","19","","20","","","","99.42","","","","","","NA"
"2016-01-30 16:00","2016","01","30","16:00","2.2","","-2.6","","70","","18","","20","","","","99.39","","","","","","NA"
"2016-01-30 17:00","2016","01","30","17:00","2.6","","-2.1","","71","","23","","11","","","","99.42","","","","","","NA"
"2016-01-30 18:00","2016","01","30","18:00","2.9","","-1.7","","71","","19","","17","","","","99.39","","","","","","NA"
"2016-01-30 19:00","2016","01","30","19:00","2.8","","-1.2","","75","","18","","20","","","","99.45","","","","","","NA"
"2016-01-30 20:00","2016","01","30","20:00","2.5","","-0.7","","80","","19","","17","","","","99.50","","","","","","NA"
"2016-01-30 21:00","2016","01","30","21:00","2.8","","-0.5","","79","","18","","19","","","","99.49","","","","","","NA"
"2016-01-30 22:00","2016","01","30","22:00","2.4","","-0.1","","84","","19","","16","","","","99.50","","","","","","NA"
"2016-01-30 23:00","2016","01","30","23:00","2.7","","0.3","","84","","20","","18","","","","99.58","","","","","","NA"
"2016-01-31 00:00","2016","01","31","00:00","2.4","","0.4","","87","","21","","7","","","","99.61","","","","","","NA"
"2016-01-31 01:00","2016","01","31","01:00","2.2","","0.2","","87","","19","","16","","","","99.56","","","","","","NA"
"2016-01-31 02:00","2016","01","31","02:00","2.3","","-0.4","","82","","19","","15","","","","99.59","","","","","","NA"
"2016-01-31 03:00","2016","01","31","03:00","2.2","","-0.4","","83","","21","","13","","","","99.62","","","","","","NA"
"2016-01-31 04:00","2016","01","31","04:00","2.1","","-0.7","","82","","20","","14","","","","99.57","","","","","","NA"
"2016-01-31 05:00","2016","01","31","05:00","2.2","","-0.3","","83","","19","","17","","","","99.60","","","","","","NA"
"2016-01-31 06:00","2016","01","31","06:00","2.7","","-0.4","","80","","22","","13","","","","99.66","","","","","","NA"
"2016-01-31 07:00","2016","01","31","07:00","2.5","","-0.2","","82","","21","","15","","","","99.64","","","","","","NA"
"2016-01-31 08:00","2016","01","31","08:00","3.0","","0.1","","81","","21","","15","","","","99.69","","","","","","NA"
"2016-01-31 09:00","2016","01","31","09:00","3.3","","0.3","","81","","21","","13","","","","99.65","","","","","","NA"
"2016-01-31 10:00","2016","01","31","10:00","4.3","","0.3","","75","","20","","21","","","","99.68","","","","","","NA"
"2016-01-31 11:00","2016","01","31","11:00","3.4","","0.7","","82","","17","","10","","","","99.60","","","","","","NA"
"2016-01-31 12:00","2016","01","31","12:00","4.8","","1.5","","79","","19","","11","","","","99.56","","","","","","NA"
"2016-01-31 13:00","2016","01","31","13:00","5.6","","1.1","","73","","22","","9","","","","99.51","","","","","","NA"
"2016-01-31 14:00","2016","01","31","14:00","4.3","","1.0","","79","","19","","10","","","","99.40","","","","","","NA"
"2016-01-31 15:00","2016","01","31","15:00","4.4","","1.6","","82","","14","","6","","","","99.36","","","","","","NA"
"2016-01-31 16:00","2016","01","31","16:00","4.5","","0.9","","77","","16","","6","","","","99.28","","","","","","NA"
"2016-01-31 17:00","2016","01","31","17:00","4.4","","1.5","","82","","22","","4","","","","99.27","","","","","","NA"
"2016-01-31 18:00","2016","01","31","18:00","4.5","","1.4","","80","","17","","16","","","","99.21","","","","","","NA"
"2016-01-31 19:00","2016","01","31","19:00","4.9","","2.1","","82","","19","","8","","","","99.20","","","","","","NA"
"2016-01-31 20:00","2016","01","31","20:00","5.1","","1.6","","78","","16","","12","","","","99.10","","","","","","NA"
"2016-01-31 21:00","2016","01","31","21:00","4.6","","1.4","","80","","15","","12","","","","98.95","","","","","","NA"
"2016-01-31 22:00","2016","01","31","22:00","5.1","","1.5","","77","","18","","23","","","","98.91","","","","","","NA"
"2016-01-31 23:00","2016","01","31","23:00","5.2","","2.4","","82","","19","","17","","","","98.76","","","","","","NA"
