"Station Name","KINGSTON CLIMATE"
"Province","ONTARIO"
"Latitude","44.22"
"Longitude","-76.60"
"Elevation","93.00"
"Climate Identifier","6104142"
"WMO Identifier","71820"
"TC Identifier","TKG"
"All times are specified in Local Standard Time (LST). Add 1 hour to adjust for Daylight Saving Time where and when it is observed."

"Legend"
"E","Estimated"
"M","Missing"
"NA","Not Available"

"Date/Time","Year","Month","Day","Time","Temp (°C)","Temp Flag","Dew Point Temp (°C)","Dew Point Temp Flag","Rel Hum (%)","Rel Hum Flag","Wind Dir (10s deg)","Wind Dir Flag","Wind Spd (km/h)","Wind Spd Flag","Visibility (km)","Visibility Flag","Stn Press (kPa)","Stn Press Flag","Hmdx","Hmdx Flag","Wind Chill","Wind Chill Flag","Weather"
"2018-03-01 00:00","2018","03","01","00:00","2.3","","-0.2","","84","","35","","10","","","","100.00","","","","","","NA"
"2018-03-01 01:00","2018","03","01","01:00","1.6","","-0.9","","84","","36","","9","","","","100.08","","","","","","NA"
"2018-03-01 02:00","2018","03","01","02:00","0.7","","-1.6","","85","","36","","14","","","","100.15","","","","","","NA"
"2018-03-01 03:00","2018","03","01","03:00","1.1","","-1.5","","83","","36","","13","","","","100.17","","","","","","NA"
"2018-03-01 04:00","2018","03","01","04:00","1.1","","-1.9","","80","","36","","11","","","","100.24","","","","","","NA"
"2018-03-01 05:00","2018","03","01","05:00","-0.2","","-3.1","","81","","35","","8","","","","100.27","","","","-3","","NA"
"2018-03-01 06:00","2018","03","01","06:00","0.7","","-2.6","","79","","2","","10","","","","100.34","","","","","","NA"
"2018-03-01 07:00","2018","03","01","07:00","0.1","","-3.1","","79","","3","","11","","","","100.36","","","","","","NA"
"2018-03-01 08:00","2018","03","01","08:00","0.9","","-2.8","","76","","4","","12","","","","100.41","","","","","","NA"
"2018-03-01 09:00","2018","03","01","09:00","1.6","","-2.4","","75","","3","","14","","","","100.42","","","","","","NA"
"2018-03-01 10:00","2018","03","01","10:00","3.0","","-1.4","","73","","1","","15","","","","100.36","","","","","","NA"
"2018-03-01 11:00","2018","03","01","11:00","3.9","","-1.9","","66","","7","","17","","","","100.42","","","","","","NA"
"2018-03-01 12:00","2018","03","01","12:00","4.5","","-1.1","","67","","10","","11","","","","100.38","","","","","","NA"
"2018-03-01 13:00","2018","03","01","13:00","5.1","","-2.8","","57","","3","","21","","","","100.27","","","","","","NA"
"2018-03-01 14:00","2018","03","01","14:00","5.7","","-2.7","","55","","4","","21","","","","100.17","","","","","","NA"
"2018-03-01 15:00","2018","03","01","15:00","5.6","","-3.3","","53","","4","","24","","","","100.05","","","","","","NA"
"2018-03-01 16:00","2018","03","01","16:00","5.6","","-3.9","","50","","4","","27","","","","99.99","","","","","","NA"
"2018-03-01 17:00","2018","03","01","17:00","5.0","","-5.0","","48","","4","","28","","","","99.91","","","","","","NA"
"2018-03-01 18:00","2018","03","01","18:00","4.3","","-5.2","","50","","3","","21","","","","99.90","","","","","","NA"
"2018-03-01 19:00","2018","03","01","19:00","3.4","","-4.1","","58","","3","","23","","","","99.89","","","","","","NA"
"2018-03-01 20:00","2018","03","01","20:00","2.5","","-3.5","","65","","3","","30","","","","99.85","","","","","","NA"
"2018-03-01 21:00","2018","03","01","21:00","1.6","","-3.3","","70","","3","","36","","","","99.77","","","","","","NA"
"2018-03-01 22:00","2018","03","01","22:00","0.7","","-4.1","","70","","3","","34","","","","99.75","","","","","","NA"
"2018-03-01 23:00","2018","03","01","23:00","0.3","","-4.7","","69","","3","","34","","","","99.71","","","","","","NA"
"2018-03-02 00:00","2018","03","02","00:00","-0.2","","-3.8","","77","","2","","30","","","","99.61","","","","-7","","NA"
"2018-03-02 01:00","2018","03","02","01:00","-0.6","","-3.1","","83","","2","","31","","","","99.64","","","","-7","","NA"
"2018-03-02 02:00","2018","03","02","02:00","-0.9","","-2.9","","86","","3","","29","","","","99.62","","","","-8","","NA"
"2018-03-02 03:00","2018","03","02","03:00","-1.2","","-2.3","","92","","2","","22","","","","99.66","","","","-7","","NA"
"2018-03-02 04:00","2018","03","02","04:00","-1.2","","-2.6","","91","","1","","24","","","","99.73","","","","-7","","NA"
"2018-03-02 05:00","2018","03","02","05:00","-1.1","","-2.8","","88","","1","","26","","","","99.80","","","","-7","","NA"
"2018-03-02 06:00","2018","03","02","06:00","-1.2","","-3.1","","87","","36","","27","","","","99.88","","","","-8","","NA"
"2018-03-02 07:00","2018","03","02","07:00","-1.1","","-4.0","","81","","35","","31","","","","99.97","","","","-8","","NA"
"2018-03-02 08:00","2018","03","02","08:00","-0.9","","-4.5","","77","","35","","31","","","","100.06","","","","-8","","NA"
"2018-03-02 09:00","2018","03","02","09:00","-1.0","","-4.7","","76","","35","","32","","","","100.16","","","","-8","","NA"
"2018-03-02 10:00","2018","03","02","10:00","-1.5","","-3.8","","84","","34","","30","","","","100.28","","","","-8","","NA"
"2018-03-02 11:00","2018","03","02","11:00","-1.3","","-4.1","","81","","33","","30","","","","100.35","","","","-8","","NA"
"2018-03-02 12:00","2018","03","02","12:00","-1.3","","-4.4","","79","","33","","30","","","","100.41","","","","-8","","NA"
"2018-03-02 13:00","2018","03","02","13:00","-1.2","","-4.6","","77","","34","","32","","","","100.46","","","","-8","","NA"
"2018-03-02 14:00","2018","03","02","14:00","-1.4","","-4.2","","81","","34","","30","","","","100.53","","","","-8","","NA"
"2018-03-02 15:00","2018","03","02","15:00","-1.6","","-3.1","","89","","35","","21","","","","100.64","","","","-7","","NA"
"2018-03-02 16:00","2018","03","02","16:00","-1.0","","-3.8","","82","","33","","21","","","","100.70","","","","-7","","NA"
"2018-03-02 17:00","2018","03","02","17:00","-0.3","","-5.5","","68","","33","","31","","","","100.78","","","","-7","","NA"
"2018-03-02 18:00","2018","03","02","18:00","-1.1","","-4.1","","80","","35","","22","","","","100.93","","","","-7","","NA"
"2018-03-02 19:00","2018","03","02","19:00","-2.0","","-2.9","","94","","34","","22","","","","101.03","","","","-8","","NA"
"2018-03-02 20:00","2018","03","02","20:00","-2.0","","-2.9","","94","","32","","21","","","","101.08","","","","-8","","NA"
"2018-03-02 21:00","2018","03","02","21:00","-1.9","","-3.0","","92","","32","","24","","","","101.08","","","","-8","","NA"
"2018-03-02 22:00","2018","03","02","22:00","-1.9","","-3.0","","93","","32","","19","","","","101.11","","","","-7","","NA"
"2018-03-02 23:00","2018","03","02","23:00","-1.7","","-3.3","","89","","33","","22","","","","101.08","","","","-8","","NA"
"2018-03-03 00:00","2018","03","03","00:00","-1.5","","-3.8","","84","","33","","21","","","","101.09","","","","-7","","NA"
"2018-03-03 01:00","2018","03","03","01:00","-1.5","","-3.9","","84","","33","","23","","","","101.15","","","","-8","","NA"
"2018-03-03 02:00","2018","03","03","02:00","-1.5","","-3.8","","84","","33","","20","","","","101.20","","","","-7","","NA"
"2018-03-03 03:00","2018","03","03","03:00","-1.7","","-3.3","","89","","34","","18","","","","101.24","","","","-7","","NA"
"2018-03-03 04:00","2018","03","03","04:00","-1.8","","-3.5","","88","","33","","21","","","","101.26","","","","-8","","NA"
"2018-03-03 05:00","2018","03","03","05:00","-1.6","","-3.5","","87","","33","","21","","","","101.30","","","","-7","","NA"
"2018-03-03 06:00","2018","03","03","06:00","-1.5","","-3.7","","85","","33","","20","","","","101.34","","","","-7","","NA"
"2018-03-03 07:00","2018","03","03","07:00","-1.7","","-4.1","","84","","34","","19","","","","101.38","","","","-7","","NA"
"2018-03-03 08:00","2018","03","03","08:00","-1.3","","-4.2","","80","","34","","18","","","","101.45","","","","-7","","NA"
"2018-03-03 09:00","2018","03","03","09:00","-0.6","","-4.1","","77","","35","","21","","","","101.46","","","","-6","","NA"
"2018-03-03 10:00","2018","03","03","10:00","0.0","","-4.0","","75","","35","","25","","","","101.49","","","","-6","","NA"
"2018-03-03 11:00","2018","03","03","11:00","0.7","","-3.8","","72","","34","","25","","","","101.49","","","","","","NA"
"2018-03-03 12:00","2018","03","03","12:00","1.9","","-4.0","","65","","35","","28","","","","101.49","","","","","","NA"
"2018-03-03 13:00","2018","03","03","13:00","2.2","","-3.6","","66","","33","","25","","","","101.49","","","","","","NA"
"2018-03-03 14:00","2018","03","03","14:00","2.9","","-3.6","","62","","35","","17","","","","101.47","","","","","","NA"
"2018-03-03 15:00","2018","03","03","15:00","2.6","","-3.7","","63","","33","","24","","","","101.47","","","","","","NA"
"2018-03-03 16:00","2018","03","03","16:00","2.8","","-3.8","","62","","34","","25","","","","101.49","","","","","","NA"
"2018-03-03 17:00","2018","03","03","17:00","2.8","","-3.6","","62","","1","","14","","","","101.52","","","","","","NA"
"2018-03-03 18:00","2018","03","03","18:00","2.7","","-3.6","","63","","36","","12","","","","101.55","","","","","","NA"
"2018-03-03 19:00","2018","03","03","19:00","2.4","","-3.7","","64","","36","","4","","","","101.56","","","","","","NA"
"2018-03-03 20:00","2018","03","03","20:00","2.4","","-4.4","","61","","34","","19","","","","101.60","","","","","","NA"
"2018-03-03 21:00","2018","03","03","21:00","1.6","","-4.9","","62","","34","","23","","","","101.60","","","","","","NA"
"2018-03-03 22:00","2018","03","03","22:00","1.0","","-5.4","","62","","34","","22","","","","101.60","","","","","","NA"
"2018-03-03 23:00","2018","03","03","23:00","0.5","","-5.6","","64","","34","","20","","","","101.59","","","","","","NA"
"2018-03-04 00:00","2018","03","04","00:00","0.2","","-5.7","","64","","34","","25","","","","101.59","","","","","","NA"
"2018-03-04 01:00","2018","03","04","01:00","-0.6","","-5.8","","68","","33","","20","","","","101.59","","","","-6","","NA"
"2018-03-04 02:00","2018","03","04","02:00","-0.7","","-6.1","","67","","35","","22","","","","101.60","","","","-6","","NA"
"2018-03-04 03:00","2018","03","04","03:00","-1.0","","-6.3","","67","","34","","22","","","","101.58","","","","-7","","NA"
"2018-03-04 04:00","2018","03","04","04:00","-1.5","","-6.8","","67","","34","","22","","","","101.59","","","","-7","","NA"
"2018-03-04 05:00","2018","03","04","05:00","-1.9","","-7.6","","65","","34","","19","","","","101.60","","","","-7","","NA"
"2018-03-04 06:00","2018","03","04","06:00","-3.0","","-9.0","","63","","33","","22","","","","101.64","","","","-9","","NA"
"2018-03-04 07:00","2018","03","04","07:00","-4.0","","-9.7","","64","","33","","18","","","","101.64","","","","-10","","NA"
"2018-03-04 08:00","2018","03","04","08:00","-3.2","","-10.2","","58","","33","","26","","","","101.62","","","","-10","","NA"
"2018-03-04 09:00","2018","03","04","09:00","-2.3","","-9.8","","56","","33","","28","","","","101.62","","","","-9","","NA"
"2018-03-04 10:00","2018","03","04","10:00","-1.3","","-8.9","","56","","33","","27","","","","101.61","","","","-8","","NA"
"2018-03-04 11:00","2018","03","04","11:00","-0.4","","-8.8","","53","","32","","30","","","","101.54","","","","-7","","NA"
"2018-03-04 12:00","2018","03","04","12:00","0.3","","-8.8","","50","","33","","28","","","","101.49","","","","","","NA"
"2018-03-04 13:00","2018","03","04","13:00","1.0","","-8.9","","48","","32","","27","","","","101.43","","","","","","NA"
"2018-03-04 14:00","2018","03","04","14:00","1.5","","-9.6","","43","","33","","24","","","","101.38","","","","","","NA"
"2018-03-04 15:00","2018","03","04","15:00","1.5","","-10.4","","41","","32","","29","","","","101.36","","","","","","NA"
"2018-03-04 16:00","2018","03","04","16:00","1.1","","-10.0","","43","","32","","25","","","","101.37","","","","","","NA"
"2018-03-04 17:00","2018","03","04","17:00","0.9","","-10.4","","43","","35","","24","","","","101.41","","","","","","NA"
"2018-03-04 18:00","2018","03","04","18:00","0.4","","-10.2","","45","","34","","23","","","","101.44","","","","","","NA"
"2018-03-04 19:00","2018","03","04","19:00","-0.4","","-10.6","","46","","35","","22","","","","101.46","","","","-6","","NA"
"2018-03-04 20:00","2018","03","04","20:00","-0.7","","-10.0","","49","","34","","18","","","","101.47","","","","-6","","NA"
"2018-03-04 21:00","2018","03","04","21:00","-1.9","","-10.4","","52","","32","","15","","","","101.44","","","","-7","","NA"
"2018-03-04 22:00","2018","03","04","22:00","-1.5","","-10.1","","52","","34","","16","","","","101.42","","","","-6","","NA"
"2018-03-04 23:00","2018","03","04","23:00","-1.9","","-9.3","","57","","33","","15","","","","101.38","","","","-7","","NA"
"2018-03-05 00:00","2018","03","05","00:00","-1.8","","-8.9","","58","","34","","17","","","","101.36","","","","-7","","NA"
"2018-03-05 01:00","2018","03","05","01:00","-2.1","","-8.5","","62","","35","","13","","","","101.34","","","","-7","","NA"
"2018-03-05 02:00","2018","03","05","02:00","-2.3","","-8.6","","62","","36","","16","","","","101.32","","","","-7","","NA"
"2018-03-05 03:00","2018","03","05","03:00","-2.7","","-8.6","","64","","35","","22","","","","101.31","","","","-9","","NA"
"2018-03-05 04:00","2018","03","05","04:00","-3.1","","-8.5","","66","","34","","21","","","","101.32","","","","-9","","NA"
"2018-03-05 05:00","2018","03","05","05:00","-3.3","","-8.6","","67","","35","","20","","","","101.31","","","","-9","","NA"
"2018-03-05 06:00","2018","03","05","06:00","-3.5","","-8.6","","68","","36","","18","","","","101.32","","","","-9","","NA"
"2018-03-05 07:00","2018","03","05","07:00","-3.5","","-8.5","","68","","36","","17","","","","101.34","","","","-9","","NA"
"2018-03-05 08:00","2018","03","05","08:00","-3.3","","-8.2","","69","","36","","18","","","","101.31","","","","-9","","NA"
"2018-03-05 09:00","2018","03","05","09:00","-2.7","","-7.8","","67","","36","","18","","","","101.29","","","","-8","","NA"
"2018-03-05 10:00","2018","03","05","10:00","-2.3","","-7.9","","65","","1","","21","","","","101.30","","","","-8","","NA"
"2018-03-05 11:00","2018","03","05","11:00","-1.8","","-7.3","","66","","1","","13","","","","101.33","","","","-6","","NA"
"2018-03-05 12:00","2018","03","05","12:00","-1.3","","-7.2","","64","","36","","14","","","","101.33","","","","-6","","NA"
"2018-03-05 13:00","2018","03","05","13:00","-0.4","","-6.5","","64","","35","","13","","","","101.29","","","","-5","","NA"
"2018-03-05 14:00","2018","03","05","14:00","0.2","","-6.1","","63","","33","","12","","","","101.25","","","","","","NA"
"2018-03-05 15:00","2018","03","05","15:00","1.2","","-5.0","","63","","35","","11","","","","101.23","","","","","","NA"
"2018-03-05 16:00","2018","03","05","16:00","0.8","","-6.5","","58","","34","","11","","","","101.23","","","","","","NA"
"2018-03-05 17:00","2018","03","05","17:00","0.6","","-6.0","","61","","33","","17","","","","101.19","","","","","","NA"
"2018-03-05 18:00","2018","03","05","18:00","0.5","","-5.9","","62","","35","","13","","","","101.17","","","","","","NA"
"2018-03-05 19:00","2018","03","05","19:00","0.1","","-5.9","","64","","35","","13","","","","101.14","","","","","","NA"
"2018-03-05 20:00","2018","03","05","20:00","0.0","","-6.5","","61","","1","","13","","","","101.14","","","","-4","","NA"
"2018-03-05 21:00","2018","03","05","21:00","-0.5","","-6.6","","64","","2","","12","","","","101.06","","","","-4","","NA"
"2018-03-05 22:00","2018","03","05","22:00","-0.5","","-6.7","","63","","1","","11","","","","101.04","","","","-4","","NA"
"2018-03-05 23:00","2018","03","05","23:00","-0.7","","-6.5","","65","","2","","8","","","","101.00","","","","-4","","NA"
"2018-03-06 00:00","2018","03","06","00:00","-1.0","","-6.3","","67","","36","","8","","","","100.95","","","","-4","","NA"
"2018-03-06 01:00","2018","03","06","01:00","-1.3","","-5.9","","71","","35","","8","","","","100.93","","","","-4","","NA"
"2018-03-06 02:00","2018","03","06","02:00","-1.1","","-6.2","","68","","35","","11","","","","100.84","","","","-5","","NA"
"2018-03-06 03:00","2018","03","06","03:00","-1.1","","-6.3","","68","","36","","9","","","","100.78","","","","-4","","NA"
"2018-03-06 04:00","2018","03","06","04:00","-1.2","","-6.1","","69","","36","","9","","","","100.75","","","","-4","","NA"
"2018-03-06 05:00","2018","03","06","05:00","-1.2","","-5.9","","70","","4","","8","","","","100.73","","","","-4","","NA"
"2018-03-06 06:00","2018","03","06","06:00","-1.3","","-5.6","","72","","5","","10","","","","100.73","","","","-5","","NA"
"2018-03-06 07:00","2018","03","06","07:00","-1.3","","-5.4","","74","","4","","13","","","","100.68","","","","-6","","NA"
"2018-03-06 08:00","2018","03","06","08:00","-1.1","","-5.1","","74","","5","","16","","","","100.67","","","","-6","","NA"
"2018-03-06 09:00","2018","03","06","09:00","-0.2","","-4.8","","71","","7","","13","","","","100.63","","","","-4","","NA"
"2018-03-06 10:00","2018","03","06","10:00","0.7","","-4.9","","66","","8","","19","","","","100.55","","","","","","NA"
"2018-03-06 11:00","2018","03","06","11:00","0.5","","-5.9","","62","","11","","18","","","","100.49","","","","","","NA"
"2018-03-06 12:00","2018","03","06","12:00","0.6","","-5.7","","63","","14","","15","","","","100.41","","","","","","NA"
"2018-03-06 13:00","2018","03","06","13:00","2.1","","-5.5","","57","","8","","17","","","","100.27","","","","","","NA"
"2018-03-06 14:00","2018","03","06","14:00","3.0","","-4.7","","57","","8","","19","","","","100.17","","","","","","NA"
"2018-03-06 15:00","2018","03","06","15:00","2.6","","-4.9","","58","","6","","20","","","","100.13","","","","","","NA"
"2018-03-06 16:00","2018","03","06","16:00","2.8","","-5.2","","56","","6","","20","","","","100.05","","","","","","NA"
"2018-03-06 17:00","2018","03","06","17:00","3.0","","-5.4","","54","","6","","26","","","","100.00","","","","","","NA"
"2018-03-06 18:00","2018","03","06","18:00","2.5","","-4.7","","59","","5","","20","","","","100.00","","","","","","NA"
"2018-03-06 19:00","2018","03","06","19:00","1.5","","-4.1","","66","","4","","21","","","","100.00","","","","","","NA"
"2018-03-06 20:00","2018","03","06","20:00","1.1","","-3.6","","70","","4","","23","","","","99.99","","","","","","NA"
"2018-03-06 21:00","2018","03","06","21:00","0.7","","-3.4","","74","","4","","22","","","","99.98","","","","","","NA"
"2018-03-06 22:00","2018","03","06","22:00","0.4","","-3.6","","75","","4","","18","","","","99.99","","","","","","NA"
"2018-03-06 23:00","2018","03","06","23:00","-0.2","","-2.0","","88","","8","","17","","","","99.97","","","","-5","","NA"
"2018-03-07 00:00","2018","03","07","00:00","0.0","","-0.5","","96","","10","","13","","","","99.91","","","","-4","","NA"
"2018-03-07 01:00","2018","03","07","01:00","0.3","","-0.2","","97","","11","","14","","","","99.90","","","","","","NA"
"2018-03-07 02:00","2018","03","07","02:00","0.4","","-0.1","","96","","9","","13","","","","99.85","","","","","","NA"
"2018-03-07 03:00","2018","03","07","03:00","0.6","","0.0","","96","","9","","13","","","","99.80","","","","","","NA"
"2018-03-07 04:00","2018","03","07","04:00","0.7","","0.0","","95","","8","","17","","","","99.79","","","","","","NA"
"2018-03-07 05:00","2018","03","07","05:00","1.2","","-0.2","","90","","9","","14","","","","99.79","","","","","","NA"
"2018-03-07 06:00","2018","03","07","06:00","1.2","","-0.6","","88","","9","","15","","","","99.79","","","","","","NA"
"2018-03-07 07:00","2018","03","07","07:00","1.1","","-0.7","","88","","8","","17","","","","99.80","","","","","","NA"
"2018-03-07 08:00","2018","03","07","08:00","1.1","","-1.0","","86","","8","","16","","","","99.80","","","","","","NA"
"2018-03-07 09:00","2018","03","07","09:00","1.1","","-1.8","","81","","9","","18","","","","99.80","","","","","","NA"
"2018-03-07 10:00","2018","03","07","10:00","1.0","","-2.2","","79","","8","","15","","","","99.80","","","","","","NA"
"2018-03-07 11:00","2018","03","07","11:00","0.9","","-2.1","","80","","8","","13","","","","99.80","","","","","","NA"
"2018-03-07 12:00","2018","03","07","12:00","0.9","","-1.6","","84","","7","","16","","","","99.80","","","","","","NA"
"2018-03-07 13:00","2018","03","07","13:00","1.0","","-0.9","","87","","7","","19","","","","99.73","","","","","","NA"
"2018-03-07 14:00","2018","03","07","14:00","1.0","","-0.3","","91","","6","","15","","","","99.66","","","","","","NA"
"2018-03-07 15:00","2018","03","07","15:00","1.1","","-0.5","","89","","7","","19","","","","99.72","","","","","","NA"
"2018-03-07 16:00","2018","03","07","16:00","1.0","","-0.2","","92","","6","","11","","","","99.74","","","","","","NA"
"2018-03-07 17:00","2018","03","07","17:00","1.2","","0.0","","91","","5","","10","","","","99.72","","","","","","NA"
"2018-03-07 18:00","2018","03","07","18:00","1.0","","-0.4","","90","","6","","16","","","","99.74","","","","","","NA"
"2018-03-07 19:00","2018","03","07","19:00","0.8","","-0.9","","88","","6","","15","","","","99.79","","","","","","NA"
"2018-03-07 20:00","2018","03","07","20:00","0.3","","-0.4","","96","","5","","11","","","","99.78","","","","","","NA"
"2018-03-07 21:00","2018","03","07","21:00","0.3","","-0.5","","94","","5","","12","","","","99.76","","","","","","NA"
"2018-03-07 22:00","2018","03","07","22:00","0.1","","-0.9","","93","","5","","16","","","","99.73","","","","","","NA"
"2018-03-07 23:00","2018","03","07","23:00","-0.1","","-1.2","","92","","5","","16","","","","99.72","","","","-5","","NA"
"2018-03-08 00:00","2018","03","08","00:00","-0.2","","-1.0","","94","","7","","13","","","","99.69","","","","-4","","NA"
"2018-03-08 01:00","2018","03","08","01:00","-0.3","","-0.9","","96","","8","","12","","","","99.67","","","","-4","","NA"
"2018-03-08 02:00","2018","03","08","02:00","-0.5","","-1.1","","96","","8","","10","","","","99.63","","","","-4","","NA"
"2018-03-08 03:00","2018","03","08","03:00","-0.5","","-1.0","","96","","8","","13","","","","99.57","","","","-5","","NA"
"2018-03-08 04:00","2018","03","08","04:00","-0.6","","-1.2","","96","","7","","10","","","","99.55","","","","-4","","NA"
"2018-03-08 05:00","2018","03","08","05:00","-0.6","","-1.2","","96","","8","","7","","","","99.55","","","","-3","","NA"
"2018-03-08 06:00","2018","03","08","06:00","-0.8","","-1.5","","95","","31","","4","","","","99.56","","","","-2","","NA"
"2018-03-08 07:00","2018","03","08","07:00","-0.6","","-1.5","","94","","25","","4","","","","99.58","","","","-2","","NA"
"2018-03-08 08:00","2018","03","08","08:00","-0.6","","-2.3","","89","","24","","14","","","","99.58","","","","-5","","NA"
"2018-03-08 09:00","2018","03","08","09:00","-1.0","","-2.0","","92","","23","","13","","","","99.57","","","","-5","","NA"
"2018-03-08 10:00","2018","03","08","10:00","-0.7","","-2.7","","86","","23","","18","","","","99.54","","","","-6","","NA"
"2018-03-08 11:00","2018","03","08","11:00","-0.7","","-3.0","","84","","24","","22","","","","99.54","","","","-6","","NA"
"2018-03-08 12:00","2018","03","08","12:00","-0.3","","-3.6","","79","","24","","18","","","","99.53","","","","-5","","NA"
"2018-03-08 13:00","2018","03","08","13:00","-0.9","","-3.4","","83","","23","","24","","","","99.49","","","","-7","","NA"
"2018-03-08 14:00","2018","03","08","14:00","-0.9","","-4.2","","78","","24","","21","","","","99.46","","","","-7","","NA"
"2018-03-08 15:00","2018","03","08","15:00","-0.9","","-4.6","","76","","24","","23","","","","99.44","","","","-7","","NA"
"2018-03-08 16:00","2018","03","08","16:00","-1.0","","-4.6","","77","","24","","20","","","","99.45","","","","-7","","NA"
"2018-03-08 17:00","2018","03","08","17:00","-1.3","","-4.7","","78","","25","","18","","","","99.46","","","","-7","","NA"
"2018-03-08 18:00","2018","03","08","18:00","-1.4","","-4.7","","78","","25","","19","","","","99.47","","","","-7","","NA"
"2018-03-08 19:00","2018","03","08","19:00","-1.6","","-5.1","","77","","26","","15","","","","99.48","","","","-6","","NA"
"2018-03-08 20:00","2018","03","08","20:00","-2.2","","-4.4","","85","","26","","12","","","","99.47","","","","-6","","NA"
"2018-03-08 21:00","2018","03","08","21:00","-2.4","","-3.9","","90","","26","","7","","","","99.43","","","","-5","","NA"
"2018-03-08 22:00","2018","03","08","22:00","-2.7","","-3.7","","93","","24","","12","","","","99.35","","","","-7","","NA"
"2018-03-08 23:00","2018","03","08","23:00","-2.6","","-3.7","","92","","24","","13","","","","99.27","","","","-7","","NA"
"2018-03-09 00:00","2018","03","09","00:00","-2.7","","-3.6","","94","","24","","11","","","","99.21","","","","-7","","NA"
"2018-03-09 01:00","2018","03","09","01:00","-2.7","","-3.5","","94","","25","","10","","","","99.16","","","","-7","","NA"
"2018-03-09 02:00","2018","03","09","02:00","-2.8","","-3.6","","94","","26","","8","","","","99.11","","","","-6","","NA"
"2018-03-09 03:00","2018","03","09","03:00","-2.8","","-3.6","","94","","27","","9","","","","99.07","","","","-6","","NA"
"2018-03-09 04:00","2018","03","09","04:00","-2.7","","-3.6","","94","","25","","6","","","","99.07","","","","-5","","NA"
"2018-03-09 05:00","2018","03","09","05:00","-2.4","","-3.4","","93","","26","","10","","","","99.07","","","","-6","","NA"
"2018-03-09 06:00","2018","03","09","06:00","-2.2","","-3.2","","93","","27","","12","","","","99.07","","","","-6","","NA"
"2018-03-09 07:00","2018","03","09","07:00","-2.0","","-3.0","","93","","25","","9","","","","99.09","","","","-5","","NA"
"2018-03-09 08:00","2018","03","09","08:00","-1.6","","-2.9","","91","","26","","14","","","","99.10","","","","-6","","NA"
"2018-03-09 09:00","2018","03","09","09:00","-0.6","","-2.8","","85","","28","","16","","","","99.12","","","","-5","","NA"
"2018-03-09 10:00","2018","03","09","10:00","0.1","","-3.1","","79","","28","","19","","","","99.12","","","","","","NA"
"2018-03-09 11:00","2018","03","09","11:00","0.6","","-3.1","","77","","26","","19","","","","99.13","","","","","","NA"
"2018-03-09 12:00","2018","03","09","12:00","-0.6","","-2.9","","84","","30","","20","","","","99.17","","","","-6","","NA"
"2018-03-09 13:00","2018","03","09","13:00","0.3","","-3.1","","78","","27","","20","","","","99.17","","","","","","NA"
"2018-03-09 14:00","2018","03","09","14:00","0.0","","-2.5","","83","","30","","11","","","","99.20","","","","-4","","NA"
"2018-03-09 15:00","2018","03","09","15:00","0.3","","-1.8","","86","","28","","12","","","","99.23","","","","","","NA"
"2018-03-09 16:00","2018","03","09","16:00","-0.6","","-1.4","","95","","31","","10","","","","99.32","","","","-4","","NA"
"2018-03-09 17:00","2018","03","09","17:00","-0.5","","-1.5","","93","","30","","17","","","","99.43","","","","-5","","NA"
"2018-03-09 18:00","2018","03","09","18:00","-0.7","","-1.5","","94","","27","","20","","","","99.47","","","","-6","","NA"
"2018-03-09 19:00","2018","03","09","19:00","-1.0","","-2.0","","93","","27","","12","","","","99.54","","","","-5","","NA"
"2018-03-09 20:00","2018","03","09","20:00","-1.0","","-2.0","","93","","27","","13","","","","99.60","","","","-5","","NA"
"2018-03-09 21:00","2018","03","09","21:00","-1.3","","-2.5","","92","","26","","14","","","","99.64","","","","-6","","NA"
"2018-03-09 22:00","2018","03","09","22:00","-2.1","","-3.6","","90","","27","","16","","","","99.66","","","","-7","","NA"
"2018-03-09 23:00","2018","03","09","23:00","-2.5","","-4.1","","89","","26","","15","","","","99.67","","","","-7","","NA"
"2018-03-10 00:00","2018","03","10","00:00","-2.7","","-4.6","","87","","25","","16","","","","99.70","","","","-8","","NA"
"2018-03-10 01:00","2018","03","10","01:00","-2.5","","-4.5","","86","","26","","16","","","","99.77","","","","-8","","NA"
"2018-03-10 02:00","2018","03","10","02:00","-2.7","","-4.6","","87","","26","","16","","","","99.81","","","","-8","","NA"
"2018-03-10 03:00","2018","03","10","03:00","-2.9","","-4.8","","87","","27","","17","","","","99.82","","","","-8","","NA"
"2018-03-10 04:00","2018","03","10","04:00","-2.7","","-4.6","","87","","27","","15","","","","99.87","","","","-8","","NA"
"2018-03-10 05:00","2018","03","10","05:00","-2.8","","-4.8","","86","","27","","13","","","","99.90","","","","-7","","NA"
"2018-03-10 06:00","2018","03","10","06:00","-2.1","","-4.8","","82","","26","","16","","","","99.94","","","","-7","","NA"
"2018-03-10 07:00","2018","03","10","07:00","-2.3","","-4.8","","83","","26","","13","","","","100.00","","","","-7","","NA"
"2018-03-10 08:00","2018","03","10","08:00","-2.2","","-5.0","","81","","27","","13","","","","100.05","","","","-7","","NA"
"2018-03-10 09:00","2018","03","10","09:00","-1.4","","-5.1","","76","","30","","17","","","","100.07","","","","-7","","NA"
"2018-03-10 10:00","2018","03","10","10:00","-0.6","","-5.6","","69","","29","","15","","","","100.08","","","","-5","","NA"
"2018-03-10 11:00","2018","03","10","11:00","0.0","","-6.0","","64","","29","","18","","","","100.10","","","","-5","","NA"
"2018-03-10 12:00","2018","03","10","12:00","0.2","","-6.3","","61","","29","","16","","","","100.11","","","","","","NA"
"2018-03-10 13:00","2018","03","10","13:00","0.9","","-6.6","","57","","27","","18","","","","100.09","","","","","","NA"
"2018-03-10 14:00","2018","03","10","14:00","1.0","","-6.7","","56","","28","","17","","","","100.09","","","","","","NA"
"2018-03-10 15:00","2018","03","10","15:00","0.8","","-5.8","","61","","27","","18","","","","100.12","","","","","","NA"
"2018-03-10 16:00","2018","03","10","16:00","1.3","","-4.8","","64","","25","","16","","","","100.14","","","","","","NA"
"2018-03-10 17:00","2018","03","10","17:00","1.0","","-5.6","","62","","26","","16","","","","100.20","","","","","","NA"
"2018-03-10 18:00","2018","03","10","18:00","0.5","","-5.7","","63","","27","","13","","","","100.29","","","","","","NA"
"2018-03-10 19:00","2018","03","10","19:00","-0.3","","-6.2","","64","","27","","12","","","","100.36","","","","-4","","NA"
"2018-03-10 20:00","2018","03","10","20:00","-0.6","","-6.4","","65","","27","","14","","","","100.42","","","","-5","","NA"
"2018-03-10 21:00","2018","03","10","21:00","-0.8","","-6.8","","64","","29","","16","","","","100.45","","","","-6","","NA"
"2018-03-10 22:00","2018","03","10","22:00","-1.4","","-6.8","","66","","30","","14","","","","100.51","","","","-6","","NA"
"2018-03-10 23:00","2018","03","10","23:00","-1.9","","-7.3","","66","","31","","12","","","","100.56","","","","-6","","NA"
"2018-03-11 00:00","2018","03","11","00:00","-1.6","","-7.4","","65","","29","","12","","","","100.59","","","","-6","","NA"
"2018-03-11 01:00","2018","03","11","01:00","-1.7","","-7.1","","67","","28","","10","","","","100.63","","","","-5","","NA"
"2018-03-11 02:00","2018","03","11","02:00","-1.8","","-6.8","","69","","28","","9","","","","100.62","","","","-5","","NA"
"2018-03-11 03:00","2018","03","11","03:00","-1.9","","-6.8","","69","","29","","9","","","","100.61","","","","-5","","NA"
"2018-03-11 04:00","2018","03","11","04:00","-2.1","","-6.6","","71","","30","","12","","","","100.64","","","","-6","","NA"
"2018-03-11 05:00","2018","03","11","05:00","-2.5","","-6.8","","72","","31","","10","","","","100.68","","","","-6","","NA"
"2018-03-11 06:00","2018","03","11","06:00","-2.6","","-7.3","","70","","30","","12","","","","100.74","","","","-7","","NA"
"2018-03-11 07:00","2018","03","11","07:00","-3.1","","-7.3","","72","","32","","12","","","","100.77","","","","-8","","NA"
"2018-03-11 08:00","2018","03","11","08:00","-4.2","","-8.6","","71","","33","","14","","","","100.80","","","","-9","","NA"
"2018-03-11 09:00","2018","03","11","09:00","-2.9","","-8.2","","67","","33","","9","","","","100.84","","","","-6","","NA"
"2018-03-11 10:00","2018","03","11","10:00","-2.1","","-7.7","","66","","24","","9","","","","100.87","","","","-6","","NA"
"2018-03-11 11:00","2018","03","11","11:00","-1.4","","-6.5","","69","","22","","14","","","","100.88","","","","-6","","NA"
"2018-03-11 12:00","2018","03","11","12:00","-0.9","","-6.3","","67","","21","","19","","","","100.86","","","","-6","","NA"
"2018-03-11 13:00","2018","03","11","13:00","-0.2","","-6.4","","63","","21","","18","","","","100.83","","","","-5","","NA"
"2018-03-11 14:00","2018","03","11","14:00","-0.4","","-5.6","","68","","18","","20","","","","100.79","","","","-6","","NA"
"2018-03-11 15:00","2018","03","11","15:00","-0.6","","-5.4","","70","","18","","21","","","","100.77","","","","-6","","NA"
"2018-03-11 16:00","2018","03","11","16:00","-0.8","","-4.8","","74","","18","","22","","","","100.77","","","","-7","","NA"
"2018-03-11 17:00","2018","03","11","17:00","-1.1","","-4.2","","80","","19","","24","","","","100.78","","","","-7","","NA"
"2018-03-11 18:00","2018","03","11","18:00","-1.1","","-4.4","","78","","20","","17","","","","100.83","","","","-6","","NA"
"2018-03-11 19:00","2018","03","11","19:00","-1.6","","-4.4","","81","","20","","17","","","","100.85","","","","-7","","NA"
"2018-03-11 20:00","2018","03","11","20:00","-2.3","","-5.1","","81","","20","","11","","","","100.86","","","","-6","","NA"
"2018-03-11 21:00","2018","03","11","21:00","-1.9","","-4.6","","82","","19","","13","","","","100.85","","","","-6","","NA"
"2018-03-11 22:00","2018","03","11","22:00","-2.1","","-4.2","","85","","18","","11","","","","100.81","","","","-6","","NA"
"2018-03-11 23:00","2018","03","11","23:00","-1.2","","-4.6","","78","","18","","10","","","","100.76","","","","-5","","NA"
"2018-03-12 00:00","2018","03","12","00:00","-1.1","","-5.2","","73","","21","","11","","","","100.77","","","","-5","","NA"
"2018-03-12 01:00","2018","03","12","01:00","-1.4","","-5.4","","74","","21","","10","","","","100.79","","","","-5","","NA"
"2018-03-12 02:00","2018","03","12","02:00","-2.0","","-5.9","","74","","21","","7","","","","100.75","","","","-5","","NA"
"2018-03-12 03:00","2018","03","12","03:00","-1.4","","-4.7","","78","","19","","11","","","","100.69","","","","-5","","NA"
"2018-03-12 04:00","2018","03","12","04:00","-2.2","","-5.7","","77","","20","","7","","","","100.64","","","","-5","","NA"
"2018-03-12 05:00","2018","03","12","05:00","-4.5","","-6.7","","84","","19","","1","","","","100.63","","","","-5","","NA"
"2018-03-12 06:00","2018","03","12","06:00","-2.6","","-3.7","","92","","17","","7","","","","100.63","","","","-5","","NA"
"2018-03-12 07:00","2018","03","12","07:00","-1.2","","-3.5","","84","","15","","18","","","","100.61","","","","-6","","NA"
"2018-03-12 08:00","2018","03","12","08:00","-1.2","","-4.0","","81","","15","","17","","","","100.58","","","","-6","","NA"
"2018-03-12 09:00","2018","03","12","09:00","-1.1","","-4.3","","79","","15","","11","","","","100.57","","","","-5","","NA"
"2018-03-12 10:00","2018","03","12","10:00","-0.9","","-4.4","","77","","16","","11","","","","100.61","","","","-5","","NA"
"2018-03-12 11:00","2018","03","12","11:00","-0.6","","-5.1","","72","","14","","9","","","","100.52","","","","-4","","NA"
"2018-03-12 12:00","2018","03","12","12:00","-0.2","","-5.5","","67","","15","","9","","","","100.48","","","","-3","","NA"
"2018-03-12 13:00","2018","03","12","13:00","0.6","","-6.4","","59","","8","","9","","","","100.39","","","","","","NA"
"2018-03-12 14:00","2018","03","12","14:00","1.1","","-6.8","","56","","5","","14","","","","100.33","","","","","","NA"
"2018-03-12 15:00","2018","03","12","15:00","2.2","","-7.0","","51","","3","","3","","","","100.29","","","","","","NA"
"2018-03-12 16:00","2018","03","12","16:00","2.4","","-5.5","","56","","4","","8","","","","100.26","","","","","","NA"
"2018-03-12 17:00","2018","03","12","17:00","1.5","","-5.5","","60","","4","","11","","","","100.24","","","","","","NA"
"2018-03-12 18:00","2018","03","12","18:00","1.2","","-5.7","","60","","3","","13","","","","100.25","","","","","","NA"
"2018-03-12 19:00","2018","03","12","19:00","1.0","","-5.5","","62","","3","","12","","","","100.27","","","","","","NA"
"2018-03-12 20:00","2018","03","12","20:00","0.6","","-4.4","","69","","3","","11","","","","100.24","","","","","","NA"
"2018-03-12 21:00","2018","03","12","21:00","-0.2","","-3.2","","80","","1","","10","","","","100.20","","","","-4","","NA"
"2018-03-12 22:00","2018","03","12","22:00","-0.7","","-2.6","","87","","4","","13","","","","100.16","","","","-5","","NA"
"2018-03-12 23:00","2018","03","12","23:00","-1.0","","-2.0","","93","","4","","10","","","","100.11","","","","-5","","NA"
"2018-03-13 00:00","2018","03","13","00:00","-1.1","","-1.8","","95","","4","","9","","","","100.03","","","","-4","","NA"
"2018-03-13 01:00","2018","03","13","01:00","-1.1","","-1.8","","95","","2","","6","","","","99.98","","","","-3","","NA"
"2018-03-13 02:00","2018","03","13","02:00","-1.1","","-1.7","","95","","2","","6","","","","99.91","","","","-3","","NA"
"2018-03-13 03:00","2018","03","13","03:00","-1.1","","-1.8","","96","","4","","5","","","","99.88","","","","-3","","NA"
"2018-03-13 04:00","2018","03","13","04:00","-1.1","","-1.7","","96","","3","","3","","","","99.86","","","","-2","","NA"
"2018-03-13 05:00","2018","03","13","05:00","-1.5","","-2.1","","96","","36","","5","","","","99.81","","","","-3","","NA"
"2018-03-13 06:00","2018","03","13","06:00","-1.7","","-2.2","","96","","32","","6","","","","99.80","","","","-4","","NA"
"2018-03-13 07:00","2018","03","13","07:00","-1.9","","-2.5","","96","","33","","5","","","","99.80","","","","-4","","NA"
"2018-03-13 08:00","2018","03","13","08:00","-1.2","","-2.2","","93","","2","","5","","","","99.78","","","","-3","","NA"
"2018-03-13 09:00","2018","03","13","09:00","-0.7","","-2.2","","89","","35","","6","","","","99.77","","","","-3","","NA"
"2018-03-13 10:00","2018","03","13","10:00","-0.2","","-2.1","","87","","35","","5","","","","99.74","","","","-2","","NA"
"2018-03-13 11:00","2018","03","13","11:00","0.1","","-2.1","","85","","33","","5","","","","99.70","","","","","","NA"
"2018-03-13 12:00","2018","03","13","12:00","0.0","","-1.1","","92","","22","","6","","","","99.67","","","","-2","","NA"
"2018-03-13 13:00","2018","03","13","13:00","0.3","","-1.0","","91","","32","","8","","","","99.62","","","","","","NA"
"2018-03-13 14:00","2018","03","13","14:00","0.3","","-0.7","","93","","33","","6","","","","99.61","","","","","","NA"
"2018-03-13 15:00","2018","03","13","15:00","0.4","","-0.6","","93","","31","","8","","","","99.60","","","","","","NA"
"2018-03-13 16:00","2018","03","13","16:00","0.0","","-0.8","","94","","2","","9","","","","99.60","","","","-3","","NA"
"2018-03-13 17:00","2018","03","13","17:00","-0.6","","-2.0","","90","","3","","18","","","","99.61","","","","-6","","NA"
"2018-03-13 18:00","2018","03","13","18:00","-0.7","","-2.1","","90","","3","","13","","","","99.63","","","","-5","","NA"
"2018-03-13 19:00","2018","03","13","19:00","-1.0","","-2.4","","91","","3","","10","","","","99.62","","","","-5","","NA"
"2018-03-13 20:00","2018","03","13","20:00","-1.3","","-3.2","","87","","1","","13","","","","99.61","","","","-6","","NA"
"2018-03-13 21:00","2018","03","13","21:00","-1.9","","-3.5","","89","","1","","11","","","","99.56","","","","-6","","NA"
"2018-03-13 22:00","2018","03","13","22:00","-2.2","","-3.3","","92","","34","","11","","","","99.51","","","","-6","","NA"
"2018-03-13 23:00","2018","03","13","23:00","-2.3","","-3.3","","93","","31","","10","","","","99.45","","","","-6","","NA"
"2018-03-14 00:00","2018","03","14","00:00","-2.2","","-3.2","","93","","32","","14","","","","99.37","","","","-7","","NA"
"2018-03-14 01:00","2018","03","14","01:00","-2.1","","-3.2","","92","","31","","13","","","","99.30","","","","-7","","NA"
"2018-03-14 02:00","2018","03","14","02:00","-2.0","","-3.2","","92","","30","","14","","","","99.23","","","","-7","","NA"
"2018-03-14 03:00","2018","03","14","03:00","-1.9","","-3.0","","92","","30","","16","","","","99.14","","","","-7","","NA"
"2018-03-14 04:00","2018","03","14","04:00","-1.9","","-3.0","","92","","31","","16","","","","99.08","","","","-7","","NA"
"2018-03-14 05:00","2018","03","14","05:00","-1.8","","-3.0","","91","","30","","16","","","","99.03","","","","-7","","NA"
"2018-03-14 06:00","2018","03","14","06:00","-1.8","","-3.1","","91","","29","","15","","","","99.00","","","","-7","","NA"
"2018-03-14 07:00","2018","03","14","07:00","-1.9","","-3.1","","92","","29","","15","","","","98.95","","","","-7","","NA"
"2018-03-14 08:00","2018","03","14","08:00","-1.7","","-3.1","","90","","29","","18","","","","98.91","","","","-7","","NA"
"2018-03-14 09:00","2018","03","14","09:00","-1.1","","-2.9","","88","","30","","18","","","","98.86","","","","-6","","NA"
"2018-03-14 10:00","2018","03","14","10:00","-0.7","","-2.6","","87","","30","","19","","","","98.83","","","","-6","","NA"
"2018-03-14 11:00","2018","03","14","11:00","-0.8","","-2.2","","90","","31","","17","","","","98.84","","","","-6","","NA"
"2018-03-14 12:00","2018","03","14","12:00","-0.7","","-1.7","","93","","30","","16","","","","98.82","","","","-5","","NA"
"2018-03-14 13:00","2018","03","14","13:00","-0.8","","-2.7","","87","","30","","26","","","","98.76","","","","-7","","NA"
"2018-03-14 14:00","2018","03","14","14:00","-0.8","","-3.0","","85","","29","","23","","","","98.74","","","","-7","","NA"
"2018-03-14 15:00","2018","03","14","15:00","-0.6","","-2.6","","86","","30","","21","","","","98.75","","","","-6","","NA"
"2018-03-14 16:00","2018","03","14","16:00","-0.5","","-1.8","","91","","30","","17","","","","98.76","","","","-5","","NA"
"2018-03-14 17:00","2018","03","14","17:00","-0.6","","-1.9","","91","","31","","19","","","","98.81","","","","-6","","NA"
"2018-03-14 18:00","2018","03","14","18:00","-1.0","","-2.3","","90","","30","","20","","","","98.85","","","","-7","","NA"
"2018-03-14 19:00","2018","03","14","19:00","-1.0","","-2.6","","89","","30","","19","","","","98.91","","","","-6","","NA"
"2018-03-14 20:00","2018","03","14","20:00","-1.2","","-3.3","","86","","30","","24","","","","98.96","","","","-7","","NA"
"2018-03-14 21:00","2018","03","14","21:00","-1.1","","-3.5","","84","","30","","23","","","","98.97","","","","-7","","NA"
"2018-03-14 22:00","2018","03","14","22:00","-1.2","","-4.2","","80","","28","","16","","","","98.98","","","","-6","","NA"
"2018-03-14 23:00","2018","03","14","23:00","-1.4","","-4.1","","82","","28","","18","","","","98.98","","","","-7","","NA"
"2018-03-15 00:00","2018","03","15","00:00","-1.7","","-3.2","","90","","27","","23","","","","98.96","","","","-8","","NA"
"2018-03-15 01:00","2018","03","15","01:00","-2.0","","-4.0","","86","","27","","20","","","","98.97","","","","-8","","NA"
"2018-03-15 02:00","2018","03","15","02:00","-2.5","","-4.4","","87","","27","","20","","","","98.93","","","","-8","","NA"
"2018-03-15 03:00","2018","03","15","03:00","-2.5","","-5.4","","80","","27","","21","","","","98.90","","","","-9","","NA"
"2018-03-15 04:00","2018","03","15","04:00","-2.6","","-5.9","","78","","27","","18","","","","98.87","","","","-8","","NA"
"2018-03-15 05:00","2018","03","15","05:00","-2.9","","-6.1","","78","","27","","17","","","","98.86","","","","-8","","NA"
"2018-03-15 06:00","2018","03","15","06:00","-3.0","","-6.0","","79","","26","","18","","","","98.85","","","","-9","","NA"
"2018-03-15 07:00","2018","03","15","07:00","-3.3","","-6.6","","78","","27","","17","","","","98.87","","","","-9","","NA"
"2018-03-15 08:00","2018","03","15","08:00","-3.5","","-7.1","","76","","26","","14","","","","98.87","","","","-9","","NA"
"2018-03-15 09:00","2018","03","15","09:00","-1.6","","-7.2","","66","","27","","17","","","","98.87","","","","-7","","NA"
"2018-03-15 10:00","2018","03","15","10:00","-0.7","","-6.9","","63","","27","","17","","","","98.87","","","","-6","","NA"
"2018-03-15 11:00","2018","03","15","11:00","0.6","","-7.3","","56","","28","","16","","","","98.86","","","","","","NA"
"2018-03-15 12:00","2018","03","15","12:00","1.5","","-7.0","","53","","27","","18","","","","98.84","","","","","","NA"
"2018-03-15 13:00","2018","03","15","13:00","2.0","","-6.8","","52","","26","","19","","","","98.80","","","","","","NA"
"2018-03-15 14:00","2018","03","15","14:00","2.4","","-7.1","","49","","28","","17","","","","98.80","","","","","","NA"
"2018-03-15 15:00","2018","03","15","15:00","2.6","","-7.1","","49","","29","","15","","","","98.82","","","","","","NA"
"2018-03-15 16:00","2018","03","15","16:00","2.8","","-7.2","","48","","32","","14","","","","98.83","","","","","","NA"
"2018-03-15 17:00","2018","03","15","17:00","2.8","","-7.9","","45","","30","","5","","","","98.86","","","","","","NA"
"2018-03-15 18:00","2018","03","15","18:00","2.4","","-7.9","","47","","32","","15","","","","98.93","","","","","","NA"
"2018-03-15 19:00","2018","03","15","19:00","0.8","","-7.0","","56","","33","","10","","","","99.00","","","","","","NA"
"2018-03-15 20:00","2018","03","15","20:00","0.9","","-8.9","","48","","31","","14","","","","99.09","","","","","","NA"
"2018-03-15 21:00","2018","03","15","21:00","-0.1","","-9.9","","48","","32","","17","","","","99.16","","","","-5","","NA"
"2018-03-15 22:00","2018","03","15","22:00","-1.1","","-9.9","","51","","34","","18","","","","99.19","","","","-6","","NA"
"2018-03-15 23:00","2018","03","15","23:00","-2.1","","-9.9","","55","","33","","20","","","","99.24","","","","-8","","NA"
"2018-03-16 00:00","2018","03","16","00:00","-3.1","","-9.9","","59","","34","","20","","","","99.26","","","","-9","","NA"
"2018-03-16 01:00","2018","03","16","01:00","-3.5","","-10.9","","57","","32","","23","","","","99.31","","","","-10","","NA"
"2018-03-16 02:00","2018","03","16","02:00","-4.2","","-10.9","","59","","33","","20","","","","99.35","","","","-11","","NA"
"2018-03-16 03:00","2018","03","16","03:00","-4.9","","-11.2","","61","","32","","20","","","","99.38","","","","-11","","NA"
"2018-03-16 04:00","2018","03","16","04:00","-6.2","","-11.9","","64","","32","","24","","","","99.47","","","","-14","","NA"
"2018-03-16 05:00","2018","03","16","05:00","-6.7","","-12.1","","65","","31","","21","","","","99.56","","","","-14","","NA"
"2018-03-16 06:00","2018","03","16","06:00","-7.1","","-12.4","","66","","30","","16","","","","99.66","","","","-13","","NA"
"2018-03-16 07:00","2018","03","16","07:00","-7.7","","-13.6","","63","","31","","21","","","","99.78","","","","-15","","NA"
"2018-03-16 08:00","2018","03","16","08:00","-7.6","","-13.6","","62","","32","","29","","","","99.89","","","","-16","","NA"
"2018-03-16 09:00","2018","03","16","09:00","-7.5","","-14.1","","59","","33","","25","","","","99.98","","","","-16","","NA"
"2018-03-16 10:00","2018","03","16","10:00","-6.6","","-14.1","","55","","33","","25","","","","100.04","","","","-14","","NA"
"2018-03-16 11:00","2018","03","16","11:00","-5.4","","-13.8","","52","","30","","19","","","","100.05","","","","-12","","NA"
"2018-03-16 12:00","2018","03","16","12:00","-3.9","","-12.9","","50","","31","","22","","","","100.05","","","","-10","","NA"
"2018-03-16 13:00","2018","03","16","13:00","-2.9","","-13.0","","46","","29","","22","","","","100.00","","","","-9","","NA"
"2018-03-16 14:00","2018","03","16","14:00","-1.3","","-12.0","","44","","26","","21","","","","99.95","","","","-7","","NA"
"2018-03-16 15:00","2018","03","16","15:00","-0.7","","-12.2","","41","","27","","24","","","","99.92","","","","-7","","NA"
"2018-03-16 16:00","2018","03","16","16:00","-0.6","","-11.9","","42","","27","","23","","","","99.94","","","","-6","","NA"
"2018-03-16 17:00","2018","03","16","17:00","-0.9","","-13.0","","39","","27","","24","","","","99.96","","","","-7","","NA"
"2018-03-16 18:00","2018","03","16","18:00","-1.8","","-11.7","","47","","25","","23","","","","99.98","","","","-8","","NA"
"2018-03-16 19:00","2018","03","16","19:00","-2.9","","-11.9","","50","","26","","23","","","","100.03","","","","-9","","NA"
"2018-03-16 20:00","2018","03","16","20:00","-3.9","","-12.7","","51","","27","","25","","","","100.11","","","","-11","","NA"
"2018-03-16 21:00","2018","03","16","21:00","-4.7","","-12.5","","54","","27","","23","","","","100.17","","","","-12","","NA"
"2018-03-16 22:00","2018","03","16","22:00","-5.0","","-13.4","","52","","26","","21","","","","100.22","","","","-12","","NA"
"2018-03-16 23:00","2018","03","16","23:00","-5.3","","-12.2","","58","","25","","16","","","","100.23","","","","-11","","NA"
"2018-03-17 00:00","2018","03","17","00:00","-4.7","","-10.2","","65","","25","","19","","","","100.17","","","","-11","","NA"
"2018-03-17 01:00","2018","03","17","01:00","-3.8","","-9.2","","66","","26","","24","","","","100.09","","","","-11","","NA"
"2018-03-17 02:00","2018","03","17","02:00","-3.3","","-8.8","","66","","27","","22","","","","99.98","","","","-10","","NA"
"2018-03-17 03:00","2018","03","17","03:00","-3.1","","-8.8","","65","","27","","21","","","","99.90","","","","-9","","NA"
"2018-03-17 04:00","2018","03","17","04:00","-3.0","","-9.0","","64","","28","","21","","","","99.83","","","","-9","","NA"
"2018-03-17 05:00","2018","03","17","05:00","-3.5","","-9.3","","64","","26","","16","","","","99.79","","","","-9","","NA"
"2018-03-17 06:00","2018","03","17","06:00","-4.1","","-9.7","","65","","27","","17","","","","99.80","","","","-10","","NA"
"2018-03-17 07:00","2018","03","17","07:00","-4.3","","-9.5","","67","","27","","18","","","","99.80","","","","-10","","NA"
"2018-03-17 08:00","2018","03","17","08:00","-2.8","","-10.1","","57","","28","","25","","","","99.79","","","","-10","","NA"
"2018-03-17 09:00","2018","03","17","09:00","-1.7","","-10.9","","49","","27","","26","","","","99.75","","","","-8","","NA"
"2018-03-17 10:00","2018","03","17","10:00","-1.4","","-14.6","","36","","29","","29","","","","99.73","","","","-8","","NA"
"2018-03-17 11:00","2018","03","17","11:00","-1.6","","-15.3","","34","","32","","28","","","","99.79","","","","-8","","NA"
"2018-03-17 12:00","2018","03","17","12:00","-1.1","","-15.5","","32","","33","","25","","","","99.79","","","","-7","","NA"
"2018-03-17 13:00","2018","03","17","13:00","-1.8","","-14.6","","37","","2","","20","","","","99.81","","","","-8","","NA"
"2018-03-17 14:00","2018","03","17","14:00","-2.1","","-15.7","","34","","1","","21","","","","99.87","","","","-8","","NA"
"2018-03-17 15:00","2018","03","17","15:00","-2.6","","-17.7","","30","","3","","17","","","","99.88","","","","-8","","NA"
"2018-03-17 16:00","2018","03","17","16:00","-3.3","","-17.4","","33","","2","","19","","","","99.91","","","","-9","","NA"
"2018-03-17 17:00","2018","03","17","17:00","-4.3","","-17.2","","36","","5","","18","","","","99.95","","","","-10","","NA"
"2018-03-17 18:00","2018","03","17","18:00","-5.5","","-18.8","","34","","4","","21","","","","100.03","","","","-12","","NA"
"2018-03-17 19:00","2018","03","17","19:00","-6.6","","-18.8","","37","","5","","16","","","","100.11","","","","-13","","NA"
"2018-03-17 20:00","2018","03","17","20:00","-7.5","","-18.5","","41","","4","","15","","","","100.17","","","","-14","","NA"
"2018-03-17 21:00","2018","03","17","21:00","-8.4","","-18.6","","43","","3","","12","","","","100.25","","","","-14","","NA"
"2018-03-17 22:00","2018","03","17","22:00","-9.0","","-18.9","","44","","1","","5","","","","100.31","","","","-12","","NA"
"2018-03-17 23:00","2018","03","17","23:00","-9.9","","-17.1","","55","","33","","6","","","","100.33","","","","-13","","NA"
"2018-03-18 00:00","2018","03","18","00:00","-9.2","","-18.4","","47","","33","","10","","","","100.35","","","","-14","","NA"
"2018-03-18 01:00","2018","03","18","01:00","-9.3","","-19.4","","44","","34","","10","","","","100.39","","","","-14","","NA"
"2018-03-18 02:00","2018","03","18","02:00","-9.9","","-21.4","","39","","34","","9","","","","100.40","","","","-15","","NA"
"2018-03-18 03:00","2018","03","18","03:00","-10.2","","-21.3","","40","","33","","6","","","","100.42","","","","-14","","NA"
"2018-03-18 04:00","2018","03","18","04:00","-10.9","","-20.9","","44","","33","","5","","","","100.45","","","","-14","","NA"
"2018-03-18 05:00","2018","03","18","05:00","-11.3","","-19.7","","50","","35","","5","","","","100.47","","","","-14","","NA"
"2018-03-18 06:00","2018","03","18","06:00","-12.1","","-19.3","","55","","34","","4","","","","100.51","","","","-15","","NA"
"2018-03-18 07:00","2018","03","18","07:00","-11.5","","-16.2","","68","","36","","6","","","","100.57","","","","-15","","NA"
"2018-03-18 08:00","2018","03","18","08:00","-9.0","","-22.2","","33","","34","","4","","","","100.57","","","","-11","","NA"
"2018-03-18 09:00","2018","03","18","09:00","-8.0","","-23.5","","28","","35","","6","","","","100.61","","","","-11","","NA"
"2018-03-18 10:00","2018","03","18","10:00","-6.7","","-23.2","","26","","33","","4","","","","100.60","","","","-9","","NA"
"2018-03-18 11:00","2018","03","18","11:00","-6.6","","-20.5","","32","","16","","12","","","","100.57","","","","-12","","NA"
"2018-03-18 12:00","2018","03","18","12:00","-6.0","","-18.6","","36","","17","","14","","","","100.55","","","","-12","","NA"
"2018-03-18 13:00","2018","03","18","13:00","-5.2","","-15.9","","43","","18","","16","","","","100.47","","","","-11","","NA"
"2018-03-18 14:00","2018","03","18","14:00","-4.5","","-12.8","","53","","17","","16","","","","100.38","","","","-10","","NA"
"2018-03-18 15:00","2018","03","18","15:00","-4.7","","-12.6","","54","","17","","14","","","","100.32","","","","-10","","NA"
"2018-03-18 16:00","2018","03","18","16:00","-4.2","","-11.3","","58","","16","","12","","","","100.28","","","","-9","","NA"
"2018-03-18 17:00","2018","03","18","17:00","-3.9","","-11.0","","58","","17","","9","","","","100.24","","","","-8","","NA"
"2018-03-18 18:00","2018","03","18","18:00","-3.8","","-10.9","","58","","15","","6","","","","100.20","","","","-6","","NA"
"2018-03-18 19:00","2018","03","18","19:00","-5.0","","-10.7","","65","","6","","1","","","","100.18","","","","-5","","NA"
"2018-03-18 20:00","2018","03","18","20:00","-6.1","","-11.2","","67","","","","0","","","","100.20","","","","","","NA"
"2018-03-18 21:00","2018","03","18","21:00","-5.2","","-11.0","","63","","1","","11","","","","100.26","","","","-10","","NA"
"2018-03-18 22:00","2018","03","18","22:00","-5.5","","-12.5","","58","","2","","10","","","","100.31","","","","-10","","NA"
"2018-03-18 23:00","2018","03","18","23:00","-6.3","","-14.6","","52","","2","","5","","","","100.33","","","","-9","","NA"
"2018-03-19 00:00","2018","03","19","00:00","-8.3","","-14.8","","60","","34","","14","","","","100.41","","","","-14","","NA"
"2018-03-19 01:00","2018","03","19","01:00","-6.5","","-19.4","","35","","1","","20","","","","100.53","","","","-13","","NA"
"2018-03-19 02:00","2018","03","19","02:00","-7.5","","-20.3","","35","","1","","16","","","","100.57","","","","-14","","NA"
"2018-03-19 03:00","2018","03","19","03:00","-8.5","","-20.5","","37","","36","","10","","","","100.60","","","","-13","","NA"
"2018-03-19 04:00","2018","03","19","04:00","-10.5","","-19.7","","47","","33","","10","","","","100.67","","","","-16","","NA"
"2018-03-19 05:00","2018","03","19","05:00","-11.8","","-19.7","","52","","33","","12","","","","100.71","","","","-18","","NA"
"2018-03-19 06:00","2018","03","19","06:00","-12.1","","-19.7","","53","","33","","11","","","","100.76","","","","-18","","NA"
"2018-03-19 07:00","2018","03","19","07:00","-11.3","","-19.9","","49","","33","","13","","","","100.82","","","","-18","","NA"
"2018-03-19 08:00","2018","03","19","08:00","-9.2","","-21.1","","38","","35","","17","","","","100.85","","","","-16","","NA"
"2018-03-19 09:00","2018","03","19","09:00","-8.3","","-20.7","","36","","35","","20","","","","100.86","","","","-16","","NA"
"2018-03-19 10:00","2018","03","19","10:00","-7.2","","-20.5","","34","","35","","11","","","","100.86","","","","-12","","NA"
"2018-03-19 11:00","2018","03","19","11:00","-5.9","","-18.7","","36","","34","","15","","","","100.83","","","","-12","","NA"
"2018-03-19 12:00","2018","03","19","12:00","-4.7","","-19.2","","31","","33","","8","","","","100.78","","","","-8","","NA"
"2018-03-19 13:00","2018","03","19","13:00","-3.6","","-17.9","","32","","35","","13","","","","100.72","","","","-8","","NA"
"2018-03-19 14:00","2018","03","19","14:00","-3.5","","-14.1","","44","","17","","13","","","","100.66","","","","-8","","NA"
"2018-03-19 15:00","2018","03","19","15:00","-3.9","","-13.5","","47","","18","","17","","","","100.67","","","","-10","","NA"
"2018-03-19 16:00","2018","03","19","16:00","-3.0","","-11.3","","53","","19","","18","","","","100.67","","","","-9","","NA"
"2018-03-19 17:00","2018","03","19","17:00","-3.0","","-11.4","","52","","20","","13","","","","100.64","","","","-8","","NA"
"2018-03-19 18:00","2018","03","19","18:00","-3.9","","-10.8","","59","","20","","13","","","","100.66","","","","-9","","NA"
"2018-03-19 19:00","2018","03","19","19:00","-4.7","","-10.6","","63","","23","","9","","","","100.68","","","","-9","","NA"
"2018-03-19 20:00","2018","03","19","20:00","-6.0","","-11.1","","67","","2","","3","","","","100.69","","","","-7","","NA"
"2018-03-19 21:00","2018","03","19","21:00","-5.9","","-10.5","","70","","1","","6","","","","100.71","","","","-9","","NA"
"2018-03-19 22:00","2018","03","19","22:00","-7.1","","-11.0","","74","","3","","5","","","","100.71","","","","-10","","NA"
"2018-03-19 23:00","2018","03","19","23:00","-8.1","","-10.7","","82","","33","","7","","","","100.67","","","","-12","","NA"
"2018-03-20 00:00","2018","03","20","00:00","-9.6","","-11.8","","84","","33","","9","","","","100.62","","","","-14","","NA"
"2018-03-20 01:00","2018","03","20","01:00","-10.2","","-12.7","","82","","34","","10","","","","100.62","","","","-15","","NA"
"2018-03-20 02:00","2018","03","20","02:00","-9.1","","-13.2","","72","","36","","8","","","","100.64","","","","-13","","NA"
"2018-03-20 03:00","2018","03","20","03:00","-7.9","","-14.9","","57","","1","","11","","","","100.67","","","","-13","","NA"
"2018-03-20 04:00","2018","03","20","04:00","-8.3","","-15.2","","57","","1","","11","","","","100.69","","","","-14","","NA"
"2018-03-20 05:00","2018","03","20","05:00","-9.0","","-15.5","","59","","1","","15","","","","100.68","","","","-16","","NA"
"2018-03-20 06:00","2018","03","20","06:00","-9.4","","-15.7","","60","","1","","12","","","","100.70","","","","-15","","NA"
"2018-03-20 07:00","2018","03","20","07:00","-9.0","","-16.0","","57","","2","","13","","","","100.73","","","","-15","","NA"
"2018-03-20 08:00","2018","03","20","08:00","-7.4","","-15.0","","55","","1","","13","","","","100.73","","","","-13","","NA"
"2018-03-20 09:00","2018","03","20","09:00","-6.0","","-14.7","","50","","3","","20","","","","100.69","","","","-13","","NA"
"2018-03-20 10:00","2018","03","20","10:00","-4.5","","-13.7","","48","","3","","19","","","","100.65","","","","-11","","NA"
"2018-03-20 11:00","2018","03","20","11:00","-2.8","","-12.6","","47","","2","","18","","","","100.62","","","","-8","","NA"
"2018-03-20 12:00","2018","03","20","12:00","-1.9","","-12.8","","43","","4","","20","","","","100.54","","","","-8","","NA"
"2018-03-20 13:00","2018","03","20","13:00","-0.6","","-11.7","","43","","3","","22","","","","100.51","","","","-6","","NA"
"2018-03-20 14:00","2018","03","20","14:00","0.0","","-12.3","","39","","2","","21","","","","100.46","","","","-5","","NA"
"2018-03-20 15:00","2018","03","20","15:00","0.7","","-11.1","","41","","4","","18","","","","100.43","","","","","","NA"
"2018-03-20 16:00","2018","03","20","16:00","1.2","","-10.9","","40","","1","","20","","","","100.41","","","","","","NA"
"2018-03-20 17:00","2018","03","20","17:00","0.6","","-11.4","","40","","2","","21","","","","100.39","","","","","","NA"
"2018-03-20 18:00","2018","03","20","18:00","-0.2","","-12.7","","38","","2","","19","","","","100.39","","","","-5","","NA"
"2018-03-20 19:00","2018","03","20","19:00","-1.4","","-12.3","","43","","3","","16","","","","100.41","","","","-6","","NA"
"2018-03-20 20:00","2018","03","20","20:00","-1.9","","-13.3","","41","","1","","20","","","","100.40","","","","-8","","NA"
"2018-03-20 21:00","2018","03","20","21:00","-2.9","","-12.9","","46","","2","","16","","","","100.40","","","","-8","","NA"
"2018-03-20 22:00","2018","03","20","22:00","-3.4","","-12.9","","48","","1","","14","","","","100.37","","","","-8","","NA"
"2018-03-20 23:00","2018","03","20","23:00","-3.9","","-13.0","","49","","2","","14","","","","100.36","","","","-9","","NA"
"2018-03-21 00:00","2018","03","21","00:00","-4.2","","-12.8","","51","","2","","19","","","","100.33","","","","-10","","NA"
"2018-03-21 01:00","2018","03","21","01:00","-4.7","","-12.9","","53","","2","","20","","","","100.33","","","","-11","","NA"
"2018-03-21 02:00","2018","03","21","02:00","-5.2","","-13.1","","54","","2","","14","","","","100.33","","","","-11","","NA"
"2018-03-21 03:00","2018","03","21","03:00","-5.6","","-13.0","","56","","2","","14","","","","100.28","","","","-11","","NA"
"2018-03-21 04:00","2018","03","21","04:00","-6.0","","-13.2","","57","","2","","17","","","","100.22","","","","-12","","NA"
"2018-03-21 05:00","2018","03","21","05:00","-5.9","","-13.0","","57","","2","","20","","","","100.21","","","","-13","","NA"
"2018-03-21 06:00","2018","03","21","06:00","-6.1","","-12.9","","59","","2","","21","","","","100.20","","","","-13","","NA"
"2018-03-21 07:00","2018","03","21","07:00","-5.9","","-12.7","","58","","2","","25","","","","100.24","","","","-13","","NA"
"2018-03-21 08:00","2018","03","21","08:00","-4.9","","-12.4","","56","","2","","22","","","","100.23","","","","-12","","NA"
"2018-03-21 09:00","2018","03","21","09:00","-4.1","","-12.4","","53","","1","","21","","","","100.28","","","","-11","","NA"
"2018-03-21 10:00","2018","03","21","10:00","-2.6","","-11.3","","51","","1","","22","","","","100.26","","","","-9","","NA"
"2018-03-21 11:00","2018","03","21","11:00","-0.9","","-9.8","","51","","1","","23","","","","100.26","","","","-7","","NA"
"2018-03-21 12:00","2018","03","21","12:00","-0.9","","-11.1","","46","","1","","31","","","","100.22","","","","-8","","NA"
"2018-03-21 13:00","2018","03","21","13:00","0.1","","-10.6","","44","","1","","28","","","","100.16","","","","","","NA"
"2018-03-21 14:00","2018","03","21","14:00","0.9","","-10.0","","44","","1","","27","","","","100.10","","","","","","NA"
"2018-03-21 15:00","2018","03","21","15:00","1.3","","-10.0","","43","","2","","26","","","","100.09","","","","","","NA"
"2018-03-21 16:00","2018","03","21","16:00","1.5","","-9.4","","44","","2","","23","","","","100.12","","","","","","NA"
"2018-03-21 17:00","2018","03","21","17:00","1.4","","-9.5","","44","","2","","21","","","","100.15","","","","","","NA"
"2018-03-21 18:00","2018","03","21","18:00","0.9","","-9.3","","47","","2","","16","","","","100.22","","","","","","NA"
"2018-03-21 19:00","2018","03","21","19:00","0.0","","-9.6","","49","","36","","10","","","","100.27","","","","-3","","NA"
"2018-03-21 20:00","2018","03","21","20:00","-1.3","","-9.4","","54","","34","","7","","","","100.31","","","","-4","","NA"
"2018-03-21 21:00","2018","03","21","21:00","-2.7","","-9.7","","58","","34","","11","","","","100.32","","","","-7","","NA"
"2018-03-21 22:00","2018","03","21","22:00","-3.9","","-9.5","","65","","34","","12","","","","100.34","","","","-9","","NA"
"2018-03-21 23:00","2018","03","21","23:00","-2.2","","-9.4","","58","","1","","4","","","","100.33","","","","-4","","NA"
"2018-03-22 00:00","2018","03","22","00:00","-2.4","","-9.7","","57","","36","","7","","","","100.34","","","","-5","","NA"
"2018-03-22 01:00","2018","03","22","01:00","-3.3","","-9.6","","61","","34","","16","","","","100.34","","","","-9","","NA"
"2018-03-22 02:00","2018","03","22","02:00","-3.1","","-9.9","","60","","34","","17","","","","100.33","","","","-9","","NA"
"2018-03-22 03:00","2018","03","22","03:00","-2.7","","-10.1","","56","","34","","23","","","","100.33","","","","-9","","NA"
"2018-03-22 04:00","2018","03","22","04:00","-3.2","","-10.4","","58","","34","","21","","","","100.35","","","","-9","","NA"
"2018-03-22 05:00","2018","03","22","05:00","-3.7","","-10.6","","59","","34","","23","","","","100.37","","","","-10","","NA"
"2018-03-22 06:00","2018","03","22","06:00","-4.5","","-10.7","","62","","34","","17","","","","100.40","","","","-10","","NA"
"2018-03-22 07:00","2018","03","22","07:00","-3.8","","-10.6","","59","","35","","17","","","","100.46","","","","-10","","NA"
"2018-03-22 08:00","2018","03","22","08:00","-2.5","","-10.5","","54","","35","","19","","","","100.51","","","","-8","","NA"
"2018-03-22 09:00","2018","03","22","09:00","-0.7","","-9.8","","50","","34","","19","","","","100.54","","","","-6","","NA"
"2018-03-22 10:00","2018","03","22","10:00","1.1","","-9.7","","44","","32","","9","","","","100.56","","","","","","NA"
"2018-03-22 11:00","2018","03","22","11:00","2.5","","-9.0","","42","","32","","14","","","","100.56","","","","","","NA"
"2018-03-22 12:00","2018","03","22","12:00","4.2","","-7.7","","41","","31","","9","","","","100.53","","","","","","NA"
"2018-03-22 13:00","2018","03","22","13:00","4.9","","-7.7","","40","","33","","9","","","","100.49","","","","","","NA"
"2018-03-22 14:00","2018","03","22","14:00","3.1","","-4.0","","59","","19","","18","","","","100.43","","","","","","NA"
"2018-03-22 15:00","2018","03","22","15:00","3.7","","-3.0","","62","","17","","12","","","","100.40","","","","","","NA"
"2018-03-22 16:00","2018","03","22","16:00","6.4","","-6.4","","40","","33","","14","","","","100.42","","","","","","NA"
"2018-03-22 17:00","2018","03","22","17:00","5.7","","-6.7","","41","","33","","17","","","","100.46","","","","","","NA"
"2018-03-22 18:00","2018","03","22","18:00","3.5","","-4.5","","56","","7","","6","","","","100.51","","","","","","NA"
"2018-03-22 19:00","2018","03","22","19:00","3.1","","-7.0","","48","","36","","10","","","","100.56","","","","","","NA"
"2018-03-22 20:00","2018","03","22","20:00","2.9","","-7.7","","46","","32","","8","","","","100.60","","","","","","NA"
"2018-03-22 21:00","2018","03","22","21:00","0.9","","-7.4","","54","","32","","11","","","","100.63","","","","","","NA"
"2018-03-22 22:00","2018","03","22","22:00","-0.1","","-7.3","","59","","33","","12","","","","100.62","","","","-4","","NA"
"2018-03-22 23:00","2018","03","22","23:00","0.7","","-7.8","","53","","32","","17","","","","100.62","","","","","","NA"
"2018-03-23 00:00","2018","03","23","00:00","0.4","","-8.1","","53","","31","","21","","","","100.60","","","","","","NA"
"2018-03-23 01:00","2018","03","23","01:00","-0.3","","-8.3","","55","","31","","17","","","","100.61","","","","-5","","NA"
"2018-03-23 02:00","2018","03","23","02:00","-1.0","","-8.6","","56","","31","","15","","","","100.59","","","","-6","","NA"
"2018-03-23 03:00","2018","03","23","03:00","-1.1","","-9.3","","54","","32","","17","","","","100.59","","","","-6","","NA"
"2018-03-23 04:00","2018","03","23","04:00","-2.6","","-10.1","","56","","32","","9","","","","100.63","","","","-6","","NA"
"2018-03-23 05:00","2018","03","23","05:00","-3.1","","-10.3","","58","","28","","8","","","","100.68","","","","-6","","NA"
"2018-03-23 06:00","2018","03","23","06:00","-3.2","","-9.9","","60","","27","","6","","","","100.73","","","","-6","","NA"
"2018-03-23 07:00","2018","03","23","07:00","-2.7","","-9.1","","61","","29","","6","","","","100.77","","","","-5","","NA"
"2018-03-23 08:00","2018","03","23","08:00","-1.3","","-9.8","","52","","33","","12","","","","100.78","","","","-5","","NA"
"2018-03-23 09:00","2018","03","23","09:00","0.4","","-9.5","","48","","36","","12","","","","100.80","","","","","","NA"
"2018-03-23 10:00","2018","03","23","10:00","1.3","","-9.2","","45","","31","","9","","","","100.78","","","","","","NA"
"2018-03-23 11:00","2018","03","23","11:00","1.4","","-8.0","","50","","17","","15","","","","100.76","","","","","","NA"
"2018-03-23 12:00","2018","03","23","12:00","1.3","","-6.8","","55","","18","","17","","","","100.76","","","","","","NA"
"2018-03-23 13:00","2018","03","23","13:00","1.4","","-5.5","","60","","18","","20","","","","100.75","","","","","","NA"
"2018-03-23 14:00","2018","03","23","14:00","1.5","","-3.7","","68","","18","","21","","","","100.74","","","","","","NA"
"2018-03-23 15:00","2018","03","23","15:00","3.2","","-3.3","","62","","17","","13","","","","100.75","","","","","","NA"
"2018-03-23 16:00","2018","03","23","16:00","4.7","","-6.6","","44","","2","","11","","","","100.76","","","","","","NA"
"2018-03-23 17:00","2018","03","23","17:00","5.1","","-7.8","","39","","33","","12","","","","100.79","","","","","","NA"
"2018-03-23 18:00","2018","03","23","18:00","4.1","","-8.3","","40","","34","","18","","","","100.84","","","","","","NA"
"2018-03-23 19:00","2018","03","23","19:00","2.4","","-8.3","","45","","36","","12","","","","100.90","","","","","","NA"
"2018-03-23 20:00","2018","03","23","20:00","1.3","","-8.9","","47","","33","","8","","","","100.96","","","","","","NA"
"2018-03-23 21:00","2018","03","23","21:00","-0.6","","-8.1","","57","","33","","15","","","","101.01","","","","-5","","NA"
"2018-03-23 22:00","2018","03","23","22:00","-1.1","","-8.4","","57","","33","","16","","","","101.04","","","","-6","","NA"
"2018-03-23 23:00","2018","03","23","23:00","-0.9","","-8.9","","55","","34","","17","","","","101.07","","","","-6","","NA"
"2018-03-24 00:00","2018","03","24","00:00","-1.4","","-8.8","","57","","34","","18","","","","101.11","","","","-7","","NA"
"2018-03-24 01:00","2018","03","24","01:00","-1.4","","-8.8","","57","","35","","20","","","","101.14","","","","-7","","NA"
"2018-03-24 02:00","2018","03","24","02:00","-2.0","","-9.4","","57","","35","","21","","","","101.14","","","","-8","","NA"
"2018-03-24 03:00","2018","03","24","03:00","-2.7","","-10.0","","57","","34","","20","","","","101.14","","","","-9","","NA"
"2018-03-24 04:00","2018","03","24","04:00","-3.3","","-11.9","","52","","35","","23","","","","101.20","","","","-10","","NA"
"2018-03-24 05:00","2018","03","24","05:00","-4.3","","-12.0","","55","","35","","20","","","","101.24","","","","-11","","NA"
"2018-03-24 06:00","2018","03","24","06:00","-5.1","","-12.1","","58","","35","","24","","","","101.30","","","","-12","","NA"
"2018-03-24 07:00","2018","03","24","07:00","-5.2","","-11.4","","62","","35","","22","","","","101.41","","","","-12","","NA"
"2018-03-24 08:00","2018","03","24","08:00","-4.7","","-11.6","","59","","1","","22","","","","101.44","","","","-12","","NA"
"2018-03-24 09:00","2018","03","24","09:00","-4.6","","-12.1","","56","","36","","24","","","","101.46","","","","-12","","NA"
"2018-03-24 10:00","2018","03","24","10:00","-3.9","","-11.8","","54","","35","","20","","","","101.43","","","","-10","","NA"
"2018-03-24 11:00","2018","03","24","11:00","-2.8","","-10.5","","56","","34","","21","","","","101.40","","","","-9","","NA"
"2018-03-24 12:00","2018","03","24","12:00","-2.4","","-10.8","","52","","36","","19","","","","101.37","","","","-8","","NA"
"2018-03-24 13:00","2018","03","24","13:00","-1.3","","-11.0","","48","","33","","19","","","","101.31","","","","-7","","NA"
"2018-03-24 14:00","2018","03","24","14:00","-1.0","","-12.1","","43","","33","","23","","","","101.28","","","","-7","","NA"
"2018-03-24 15:00","2018","03","24","15:00","-0.7","","-12.7","","40","","35","","20","","","","101.26","","","","-6","","NA"
"2018-03-24 16:00","2018","03","24","16:00","-0.4","","-12.3","","40","","1","","16","","","","101.22","","","","-5","","NA"
"2018-03-24 17:00","2018","03","24","17:00","-1.2","","-14.9","","34","","1","","22","","","","101.26","","","","-7","","NA"
"2018-03-24 18:00","2018","03","24","18:00","-2.1","","-15.8","","34","","1","","25","","","","101.34","","","","-9","","NA"
"2018-03-24 19:00","2018","03","24","19:00","-3.3","","-14.4","","42","","35","","17","","","","101.42","","","","-9","","NA"
"2018-03-24 20:00","2018","03","24","20:00","-4.6","","-14.4","","46","","34","","14","","","","101.47","","","","-10","","NA"
"2018-03-24 21:00","2018","03","24","21:00","-4.8","","-14.4","","47","","35","","16","","","","101.52","","","","-11","","NA"
"2018-03-24 22:00","2018","03","24","22:00","-6.0","","-14.4","","51","","33","","14","","","","101.57","","","","-12","","NA"
"2018-03-24 23:00","2018","03","24","23:00","-5.9","","-14.0","","53","","34","","16","","","","101.59","","","","-12","","NA"
"2018-03-25 00:00","2018","03","25","00:00","-6.5","","-14.1","","55","","33","","16","","","","101.64","","","","-13","","NA"
"2018-03-25 01:00","2018","03","25","01:00","-6.3","","-14.1","","54","","35","","15","","","","101.68","","","","-12","","NA"
"2018-03-25 02:00","2018","03","25","02:00","-5.8","","-13.9","","53","","35","","17","","","","101.71","","","","-12","","NA"
"2018-03-25 03:00","2018","03","25","03:00","-5.5","","-13.8","","52","","36","","20","","","","101.79","","","","-12","","NA"
"2018-03-25 04:00","2018","03","25","04:00","-5.5","","-13.5","","53","","2","","21","","","","101.82","","","","-12","","NA"
"2018-03-25 05:00","2018","03","25","05:00","-6.1","","-13.4","","56","","1","","18","","","","101.93","","","","-13","","NA"
"2018-03-25 06:00","2018","03","25","06:00","-6.6","","-13.3","","59","","36","","18","","","","102.03","","","","-13","","NA"
"2018-03-25 07:00","2018","03","25","07:00","-5.6","","-12.4","","59","","1","","17","","","","102.13","","","","-12","","NA"
"2018-03-25 08:00","2018","03","25","08:00","-4.1","","-10.5","","61","","2","","19","","","","102.20","","","","-10","","NA"
"2018-03-25 09:00","2018","03","25","09:00","-1.8","","-8.6","","60","","3","","19","","","","102.27","","","","-7","","NA"
"2018-03-25 10:00","2018","03","25","10:00","0.0","","-6.9","","60","","5","","24","","","","102.31","","","","-6","","NA"
"2018-03-25 11:00","2018","03","25","11:00","0.8","","-7.6","","53","","2","","20","","","","102.31","","","","","","NA"
"2018-03-25 12:00","2018","03","25","12:00","2.8","","-5.9","","52","","3","","20","","","","102.30","","","","","","NA"
"2018-03-25 13:00","2018","03","25","13:00","4.6","","-4.5","","51","","3","","18","","","","102.29","","","","","","NA"
"2018-03-25 14:00","2018","03","25","14:00","5.2","","-4.9","","48","","4","","20","","","","102.27","","","","","","NA"
"2018-03-25 15:00","2018","03","25","15:00","5.9","","-5.1","","45","","4","","17","","","","102.26","","","","","","NA"
"2018-03-25 16:00","2018","03","25","16:00","5.8","","-6.0","","42","","3","","20","","","","102.28","","","","","","NA"
"2018-03-25 17:00","2018","03","25","17:00","5.2","","-6.1","","44","","4","","20","","","","102.33","","","","","","NA"
"2018-03-25 18:00","2018","03","25","18:00","4.3","","-6.8","","44","","4","","17","","","","102.37","","","","","","NA"
"2018-03-25 19:00","2018","03","25","19:00","2.6","","-6.9","","50","","3","","13","","","","102.43","","","","","","NA"
"2018-03-25 20:00","2018","03","25","20:00","1.3","","-7.1","","54","","3","","14","","","","102.50","","","","","","NA"
"2018-03-25 21:00","2018","03","25","21:00","0.0","","-7.1","","59","","3","","10","","","","102.57","","","","-3","","NA"
"2018-03-25 22:00","2018","03","25","22:00","-0.3","","-7.3","","59","","3","","9","","","","102.57","","","","-3","","NA"
"2018-03-25 23:00","2018","03","25","23:00","-1.8","","-8.0","","63","","5","","15","","","","102.58","","","","-7","","NA"
"2018-03-26 00:00","2018","03","26","00:00","-1.3","","-7.8","","62","","4","","15","","","","102.60","","","","-6","","NA"
"2018-03-26 01:00","2018","03","26","01:00","-1.7","","-7.6","","64","","4","","13","","","","102.59","","","","-6","","NA"
"2018-03-26 02:00","2018","03","26","02:00","-2.5","","-7.2","","70","","5","","17","","","","102.58","","","","-8","","NA"
"2018-03-26 03:00","2018","03","26","03:00","-3.2","","-7.7","","71","","5","","13","","","","102.59","","","","-8","","NA"
"2018-03-26 04:00","2018","03","26","04:00","-3.0","","-7.9","","69","","4","","5","","","","102.62","","","","-5","","NA"
"2018-03-26 05:00","2018","03","26","05:00","-3.9","","-8.2","","72","","4","","8","","","","102.64","","","","-7","","NA"
"2018-03-26 06:00","2018","03","26","06:00","-3.9","","-8.0","","74","","3","","10","","","","102.72","","","","-8","","NA"
"2018-03-26 07:00","2018","03","26","07:00","-2.2","","-7.0","","70","","4","","14","","","","102.82","","","","-7","","NA"
"2018-03-26 08:00","2018","03","26","08:00","0.4","","-5.8","","63","","5","","13","","","","102.86","","","","","","NA"
"2018-03-26 09:00","2018","03","26","09:00","3.2","","-8.1","","44","","9","","7","","","","102.89","","","","","","NA"
"2018-03-26 10:00","2018","03","26","10:00","3.0","","-6.8","","49","","15","","9","","","","102.91","","","","","","NA"
"2018-03-26 11:00","2018","03","26","11:00","3.7","","-6.7","","47","","16","","10","","","","102.89","","","","","","NA"
"2018-03-26 12:00","2018","03","26","12:00","5.2","","-5.8","","45","","18","","8","","","","102.86","","","","","","NA"
"2018-03-26 13:00","2018","03","26","13:00","4.9","","-7.0","","42","","16","","10","","","","102.77","","","","","","NA"
"2018-03-26 14:00","2018","03","26","14:00","6.1","","-6.2","","41","","17","","13","","","","102.62","","","","","","NA"
"2018-03-26 15:00","2018","03","26","15:00","5.9","","-9.2","","33","","18","","11","","","","102.58","","","","","","NA"
"2018-03-26 16:00","2018","03","26","16:00","6.7","","-8.2","","34","","19","","9","","","","102.54","","","","","","NA"
"2018-03-26 17:00","2018","03","26","17:00","6.4","","-8.4","","34","","20","","8","","","","102.51","","","","","","NA"
"2018-03-26 18:00","2018","03","26","18:00","5.0","","-7.8","","39","","23","","8","","","","102.50","","","","","","NA"
"2018-03-26 19:00","2018","03","26","19:00","2.8","","-7.8","","46","","17","","2","","","","102.46","","","","","","NA"
"2018-03-26 20:00","2018","03","26","20:00","2.0","","-7.2","","50","","6","","10","","","","102.42","","","","","","NA"
"2018-03-26 21:00","2018","03","26","21:00","2.4","","-6.0","","54","","6","","18","","","","102.39","","","","","","NA"
"2018-03-26 22:00","2018","03","26","22:00","1.2","","-6.5","","56","","7","","15","","","","102.31","","","","","","NA"
"2018-03-26 23:00","2018","03","26","23:00","0.2","","-6.7","","60","","7","","10","","","","102.32","","","","","","NA"
"2018-03-27 00:00","2018","03","27","00:00","-0.4","","-6.6","","63","","9","","9","","","","102.22","","","","-4","","NA"
"2018-03-27 01:00","2018","03","27","01:00","0.6","","-7.0","","57","","10","","12","","","","102.15","","","","","","NA"
"2018-03-27 02:00","2018","03","27","02:00","2.2","","-4.7","","60","","13","","16","","","","102.10","","","","","","NA"
"2018-03-27 03:00","2018","03","27","03:00","2.2","","-3.7","","65","","14","","21","","","","102.02","","","","","","NA"
"2018-03-27 04:00","2018","03","27","04:00","2.2","","-4.3","","62","","13","","21","","","","101.96","","","","","","NA"
"2018-03-27 05:00","2018","03","27","05:00","2.7","","-4.7","","58","","13","","22","","","","101.88","","","","","","NA"
"2018-03-27 06:00","2018","03","27","06:00","2.8","","-5.0","","57","","13","","23","","","","101.81","","","","","","NA"
"2018-03-27 07:00","2018","03","27","07:00","2.8","","-4.6","","58","","14","","30","","","","101.78","","","","","","NA"
"2018-03-27 08:00","2018","03","27","08:00","3.1","","-4.7","","56","","14","","30","","","","101.66","","","","","","NA"
"2018-03-27 09:00","2018","03","27","09:00","3.2","","-4.0","","59","","14","","28","","","","101.63","","","","","","NA"
"2018-03-27 10:00","2018","03","27","10:00","3.2","","-3.5","","61","","14","","24","","","","101.59","","","","","","NA"
"2018-03-27 11:00","2018","03","27","11:00","3.5","","-3.6","","60","","14","","22","","","","101.45","","","","","","NA"
"2018-03-27 12:00","2018","03","27","12:00","3.8","","-2.8","","62","","15","","18","","","","101.34","","","","","","NA"
"2018-03-27 13:00","2018","03","27","13:00","3.9","","-3.0","","61","","14","","24","","","","101.21","","","","","","NA"
"2018-03-27 14:00","2018","03","27","14:00","3.2","","-2.1","","68","","15","","16","","","","101.04","","","","","","NA"
"2018-03-27 15:00","2018","03","27","15:00","3.0","","-1.5","","72","","17","","17","","","","100.91","","","","","","NA"
"2018-03-27 16:00","2018","03","27","16:00","2.5","","-0.6","","80","","19","","17","","","","100.87","","","","","","NA"
"2018-03-27 17:00","2018","03","27","17:00","2.0","","-0.3","","85","","18","","18","","","","100.80","","","","","","NA"
"2018-03-27 18:00","2018","03","27","18:00","2.0","","0.6","","91","","17","","24","","","","100.76","","","","","","NA"
"2018-03-27 19:00","2018","03","27","19:00","1.8","","0.9","","94","","17","","28","","","","100.71","","","","","","NA"
"2018-03-27 20:00","2018","03","27","20:00","1.8","","1.0","","95","","17","","30","","","","100.66","","","","","","NA"
"2018-03-27 21:00","2018","03","27","21:00","1.7","","1.2","","96","","17","","29","","","","100.60","","","","","","NA"
"2018-03-27 22:00","2018","03","27","22:00","1.8","","1.3","","97","","17","","29","","","","100.51","","","","","","NA"
"2018-03-27 23:00","2018","03","27","23:00","1.7","","1.3","","97","","17","","26","","","","100.48","","","","","","NA"
"2018-03-28 00:00","2018","03","28","00:00","1.9","","1.4","","97","","17","","26","","","","100.42","","","","","","NA"
"2018-03-28 01:00","2018","03","28","01:00","1.8","","1.4","","98","","17","","17","","","","100.41","","","","","","NA"
"2018-03-28 02:00","2018","03","28","02:00","1.8","","1.5","","98","","18","","18","","","","100.41","","","","","","NA"
"2018-03-28 03:00","2018","03","28","03:00","1.8","","1.5","","98","","18","","12","","","","100.37","","","","","","NA"
"2018-03-28 04:00","2018","03","28","04:00","1.9","","1.6","","98","","18","","11","","","","100.37","","","","","","NA"
"2018-03-28 05:00","2018","03","28","05:00","1.9","","1.7","","98","","17","","8","","","","100.37","","","","","","NA"
"2018-03-28 06:00","2018","03","28","06:00","2.0","","1.7","","98","","21","","5","","","","100.44","","","","","","NA"
"2018-03-28 07:00","2018","03","28","07:00","2.4","","2.2","","98","","0","","1","","","","100.49","","","","","","NA"
"2018-03-28 08:00","2018","03","28","08:00","2.6","","2.4","","98","","11","","4","","","","100.51","","","","","","NA"
"2018-03-28 09:00","2018","03","28","09:00","3.5","","3.2","","98","","34","","5","","","","100.51","","","","","","NA"
"2018-03-28 10:00","2018","03","28","10:00","3.2","","2.9","","98","","15","","6","","","","100.59","","","","","","NA"
"2018-03-28 11:00","2018","03","28","11:00","3.2","","2.9","","98","","17","","13","","","","100.57","","","","","","NA"
"2018-03-28 12:00","2018","03","28","12:00","4.3","","3.8","","97","","16","","9","","","","100.50","","","","","","NA"
"2018-03-28 13:00","2018","03","28","13:00","4.2","","3.5","","95","","19","","9","","","","100.50","","","","","","NA"
"2018-03-28 14:00","2018","03","28","14:00","3.9","","3.0","","94","","17","","10","","","","100.51","","","","","","NA"
"2018-03-28 15:00","2018","03","28","15:00","4.0","","3.1","","94","","16","","8","","","","100.47","","","","","","NA"
"2018-03-28 16:00","2018","03","28","16:00","4.2","","3.4","","94","","18","","4","","","","100.45","","","","","","NA"
"2018-03-28 17:00","2018","03","28","17:00","4.0","","3.4","","96","","15","","6","","","","100.44","","","","","","NA"
"2018-03-28 18:00","2018","03","28","18:00","3.5","","3.0","","96","","15","","6","","","","100.49","","","","","","NA"
"2018-03-28 19:00","2018","03","28","19:00","3.4","","3.0","","97","","","","0","","","","100.52","","","","","","NA"
"2018-03-28 20:00","2018","03","28","20:00","3.2","","2.8","","97","","18","","5","","","","100.57","","","","","","NA"
"2018-03-28 21:00","2018","03","28","21:00","3.1","","2.8","","98","","","","0","","","","100.57","","","","","","NA"
"2018-03-28 22:00","2018","03","28","22:00","3.0","","2.7","","98","","12","","1","","","","100.56","","","","","","NA"
"2018-03-28 23:00","2018","03","28","23:00","3.1","","2.8","","98","","","","0","","","","100.51","","","","","","NA"
"2018-03-29 00:00","2018","03","29","00:00","3.4","","3.1","","98","","","","0","","","","100.51","","","","","","NA"
"2018-03-29 01:00","2018","03","29","01:00","3.3","","3.0","","98","","7","","1","","","","100.47","","","","","","NA"
"2018-03-29 02:00","2018","03","29","02:00","3.8","","3.6","","99","","12","","6","","","","100.44","","","","","","NA"
"2018-03-29 03:00","2018","03","29","03:00","3.9","","3.7","","99","","5","","10","","","","100.40","","","","","","NA"
"2018-03-29 04:00","2018","03","29","04:00","4.1","","3.9","","99","","2","","2","","","","100.40","","","","","","NA"
"2018-03-29 05:00","2018","03","29","05:00","3.9","","3.7","","98","","4","","5","","","","100.39","","","","","","NA"
"2018-03-29 06:00","2018","03","29","06:00","3.6","","3.2","","97","","6","","9","","","","100.38","","","","","","NA"
"2018-03-29 07:00","2018","03","29","07:00","4.1","","3.2","","94","","2","","5","","","","100.45","","","","","","NA"
"2018-03-29 08:00","2018","03","29","08:00","4.6","","3.1","","90","","1","","9","","","","100.36","","","","","","NA"
"2018-03-29 09:00","2018","03","29","09:00","6.0","","4.1","","87","","5","","12","","","","100.23","","","","","","NA"
"2018-03-29 10:00","2018","03","29","10:00","6.9","","3.9","","81","","1","","11","","","","100.31","","","","","","NA"
"2018-03-29 11:00","2018","03","29","11:00","7.4","","4.1","","80","","6","","13","","","","100.24","","","","","","NA"
"2018-03-29 12:00","2018","03","29","12:00","7.8","","4.7","","81","","6","","16","","","","100.18","","","","","","NA"
"2018-03-29 13:00","2018","03","29","13:00","7.9","","5.0","","82","","5","","14","","","","100.07","","","","","","NA"
"2018-03-29 14:00","2018","03","29","14:00","7.2","","4.9","","85","","3","","17","","","","99.95","","","","","","NA"
"2018-03-29 15:00","2018","03","29","15:00","6.4","","5.5","","94","","3","","17","","","","99.88","","","","","","NA"
"2018-03-29 16:00","2018","03","29","16:00","6.0","","5.2","","94","","3","","18","","","","99.81","","","","","","NA"
"2018-03-29 17:00","2018","03","29","17:00","5.8","","4.9","","94","","3","","20","","","","99.75","","","","","","NA"
"2018-03-29 18:00","2018","03","29","18:00","5.6","","4.8","","95","","4","","20","","","","99.68","","","","","","NA"
"2018-03-29 19:00","2018","03","29","19:00","5.4","","4.8","","96","","3","","18","","","","99.58","","","","","","NA"
"2018-03-29 20:00","2018","03","29","20:00","5.2","","4.6","","96","","2","","15","","","","99.57","","","","","","NA"
"2018-03-29 21:00","2018","03","29","21:00","4.9","","4.3","","96","","1","","15","","","","99.49","","","","","","NA"
"2018-03-29 22:00","2018","03","29","22:00","4.6","","4.0","","96","","36","","20","","","","99.43","","","","","","NA"
"2018-03-29 23:00","2018","03","29","23:00","4.4","","3.8","","96","","36","","21","","","","99.40","","","","","","NA"
"2018-03-30 00:00","2018","03","30","00:00","4.4","","3.6","","95","","36","","22","","","","99.36","","","","","","NA"
"2018-03-30 01:00","2018","03","30","01:00","4.3","","3.5","","95","","35","","19","","","","99.40","","","","","","NA"
"2018-03-30 02:00","2018","03","30","02:00","4.0","","3.3","","95","","32","","22","","","","99.45","","","","","","NA"
"2018-03-30 03:00","2018","03","30","03:00","3.8","","2.8","","93","","32","","18","","","","99.52","","","","","","NA"
"2018-03-30 04:00","2018","03","30","04:00","3.5","","2.4","","92","","32","","17","","","","99.55","","","","","","NA"
"2018-03-30 05:00","2018","03","30","05:00","3.5","","1.8","","89","","32","","19","","","","99.69","","","","","","NA"
"2018-03-30 06:00","2018","03","30","06:00","3.1","","1.7","","91","","33","","10","","","","99.76","","","","","","NA"
"2018-03-30 07:00","2018","03","30","07:00","3.0","","2.0","","93","","23","","6","","","","99.91","","","","","","NA"
"2018-03-30 08:00","2018","03","30","08:00","4.1","","2.6","","90","","27","","9","","","","99.99","","","","","","NA"
"2018-03-30 09:00","2018","03","30","09:00","5.4","","2.5","","82","","31","","16","","","","100.06","","","","","","NA"
"2018-03-30 10:00","2018","03","30","10:00","6.1","","2.7","","79","","32","","19","","","","100.09","","","","","","NA"
"2018-03-30 11:00","2018","03","30","11:00","6.8","","2.4","","73","","31","","20","","","","100.15","","","","","","NA"
"2018-03-30 12:00","2018","03","30","12:00","7.3","","2.0","","69","","31","","23","","","","100.15","","","","","","NA"
"2018-03-30 13:00","2018","03","30","13:00","8.0","","-0.8","","54","","31","","19","","","","100.16","","","","","","NA"
"2018-03-30 14:00","2018","03","30","14:00","8.0","","-4.1","","42","","32","","21","","","","100.19","","","","","","NA"
"2018-03-30 15:00","2018","03","30","15:00","7.3","","-3.5","","46","","33","","18","","","","100.24","","","","","","NA"
"2018-03-30 16:00","2018","03","30","16:00","7.2","","-5.0","","42","","32","","15","","","","100.30","","","","","","NA"
"2018-03-30 17:00","2018","03","30","17:00","6.5","","-6.6","","39","","32","","15","","","","100.37","","","","","","NA"
"2018-03-30 18:00","2018","03","30","18:00","5.3","","-7.8","","38","","32","","15","","","","100.46","","","","","","NA"
"2018-03-30 19:00","2018","03","30","19:00","3.7","","-7.6","","43","","33","","6","","","","100.53","","","","","","NA"
"2018-03-30 20:00","2018","03","30","20:00","3.4","","-8.1","","43","","33","","9","","","","100.62","","","","","","NA"
"2018-03-30 21:00","2018","03","30","21:00","2.3","","-9.1","","43","","28","","14","","","","100.72","","","","","","NA"
"2018-03-30 22:00","2018","03","30","22:00","1.4","","-8.6","","47","","27","","11","","","","100.80","","","","","","NA"
"2018-03-30 23:00","2018","03","30","23:00","0.6","","-6.8","","58","","29","","14","","","","100.87","","","","","","NA"
"2018-03-31 00:00","2018","03","31","00:00","-0.5","","-7.1","","61","","29","","12","","","","100.95","","","","-4","","NA"
"2018-03-31 01:00","2018","03","31","01:00","-1.7","","-7.4","","65","","27","","9","","","","100.99","","","","-5","","NA"
"2018-03-31 02:00","2018","03","31","02:00","-2.2","","-7.7","","66","","26","","9","","","","101.02","","","","-6","","NA"
"2018-03-31 03:00","2018","03","31","03:00","-2.3","","-7.9","","66","","25","","7","","","","101.03","","","","-5","","NA"
"2018-03-31 04:00","2018","03","31","04:00","-2.1","","-7.0","","69","","24","","12","","","","101.09","","","","-6","","NA"
"2018-03-31 05:00","2018","03","31","05:00","-1.4","","-5.4","","74","","21","","12","","","","101.12","","","","-5","","NA"
"2018-03-31 06:00","2018","03","31","06:00","-0.8","","-5.4","","71","","21","","13","","","","101.18","","","","-5","","NA"
"2018-03-31 07:00","2018","03","31","07:00","-0.1","","-4.3","","73","","21","","9","","","","101.19","","","","-3","","NA"
"2018-03-31 08:00","2018","03","31","08:00","1.5","","-2.5","","75","","19","","17","","","","101.19","","","","","","NA"
"2018-03-31 09:00","2018","03","31","09:00","1.5","","-1.5","","80","","19","","24","","","","101.15","","","","","","NA"
"2018-03-31 10:00","2018","03","31","10:00","3.0","","-0.5","","78","","18","","24","","","","101.04","","","","","","NA"
"2018-03-31 11:00","2018","03","31","11:00","3.9","","-0.7","","72","","20","","27","","","","101.05","","","","","","NA"
"2018-03-31 12:00","2018","03","31","12:00","4.9","","-2.2","","60","","19","","23","","","","101.04","","","","","","NA"
"2018-03-31 13:00","2018","03","31","13:00","3.9","","-0.1","","75","","17","","15","","","","100.80","","","","","","NA"
"2018-03-31 14:00","2018","03","31","14:00","3.9","","0.1","","76","","17","","12","","","","100.70","","","","","","NA"
"2018-03-31 15:00","2018","03","31","15:00","3.6","","-0.9","","72","","16","","16","","","","100.52","","","","","","NA"
"2018-03-31 16:00","2018","03","31","16:00","4.4","","-1.9","","64","","14","","14","","","","100.35","","","","","","NA"
"2018-03-31 17:00","2018","03","31","17:00","5.2","","-3.4","","54","","14","","13","","","","100.14","","","","","","NA"
"2018-03-31 18:00","2018","03","31","18:00","4.9","","-1.7","","63","","15","","19","","","","99.91","","","","","","NA"
"2018-03-31 19:00","2018","03","31","19:00","8.6","","-2.5","","46","","19","","42","","","","99.87","","","","","","NA"
"2018-03-31 20:00","2018","03","31","20:00","7.2","","-0.7","","57","","20","","32","","","","99.80","","","","","","NA"
"2018-03-31 21:00","2018","03","31","21:00","5.9","","2.6","","79","","21","","28","","","","99.77","","","","","","NA"
"2018-03-31 22:00","2018","03","31","22:00","5.5","","3.8","","89","","21","","31","","","","99.68","","","","","","NA"
"2018-03-31 23:00","2018","03","31","23:00","5.9","","3.4","","84","","21","","34","","","","99.56","","","","","","NA"
