"Station Name","KINGSTON CLIMATE"
"Province","ONTARIO"
"Current Station Operator","Environment and Climate Change Canada - Meteorological Service of Canada"
"Latitude","44.22"
"Longitude","-76.60"
"Elevation","93.00"
"Climate Identifier","6104142"
"WMO Identifier","71820"
"TC Identifier","TKG"
"All times are specified in Local Standard Time (LST). Add 1 hour to adjust for Daylight Saving Time where and when it is observed."

"Legend"
"E","Estimated"
"M","Missing"
"NA","Not Available"

"Date/Time","Year","Month","Day","Time","Temp (°C)","Temp Flag","Dew Point Temp (°C)","Dew Point Temp Flag","Rel Hum (%)","Rel Hum Flag","Wind Dir (10s deg)","Wind Dir Flag","Wind Spd (km/h)","Wind Spd Flag","Visibility (km)","Visibility Flag","Stn Press (kPa)","Stn Press Flag","Hmdx","Hmdx Flag","Wind Chill","Wind Chill Flag","Weather"
"2019-05-01 00:00","2019","05","01","00:00","6.8","","2.2","","72","","36","","6","","","","101.85","","","","","","NA"
"2019-05-01 01:00","2019","05","01","01:00","7.3","","2.2","","70","","1","","10","","","","101.87","","","","","","NA"
"2019-05-01 02:00","2019","05","01","02:00","7.6","","1.9","","67","","3","","8","","","","101.85","","","","","","NA"
"2019-05-01 03:00","2019","05","01","03:00","7.6","","0.4","","60","","7","","13","","","","101.71","","","","","","NA"
"2019-05-01 04:00","2019","05","01","04:00","6.4","","3.4","","81","","15","","9","","","","101.75","","","","","","NA"
"2019-05-01 05:00","2019","05","01","05:00","6.2","","3.6","","83","","8","","6","","","","101.85","","","","","","NA"
"2019-05-01 06:00","2019","05","01","06:00","6.3","","4.3","","87","","6","","9","","","","101.86","","","","","","NA"
"2019-05-01 07:00","2019","05","01","07:00","5.9","","3.2","","83","","7","","13","","","","101.88","","","","","","NA"
"2019-05-01 08:00","2019","05","01","08:00","5.4","","2.7","","83","","5","","16","","","","101.83","","","","","","NA"
"2019-05-01 09:00","2019","05","01","09:00","5.5","","3.6","","88","","6","","19","","","","101.72","","","","","","NA"
"2019-05-01 10:00","2019","05","01","10:00","6.2","","4.2","","87","","6","","24","","","","101.59","","","","","","NA"
"2019-05-01 11:00","2019","05","01","11:00","6.0","","4.4","","90","","7","","22","","","","101.53","","","","","","NA"
"2019-05-01 12:00","2019","05","01","12:00","6.4","","5.4","","93","","7","","23","","","","101.36","","","","","","NA"
"2019-05-01 13:00","2019","05","01","13:00","7.1","","5.8","","92","","7","","26","","","","101.21","","","","","","NA"
"2019-05-01 14:00","2019","05","01","14:00","7.6","","5.9","","89","","6","","24","","","","101.09","","","","","","NA"
"2019-05-01 15:00","2019","05","01","15:00","7.4","","5.0","","85","","6","","26","","","","100.96","","","","","","NA"
"2019-05-01 16:00","2019","05","01","16:00","7.2","","4.7","","84","","6","","30","","","","100.78","","","","","","NA"
"2019-05-01 17:00","2019","05","01","17:00","6.8","","4.6","","86","","6","","28","","","","100.56","","","","","","NA"
"2019-05-01 18:00","2019","05","01","18:00","6.1","","4.4","","89","","4","","19","","","","100.53","","","","","","NA"
"2019-05-01 19:00","2019","05","01","19:00","5.2","","4.3","","94","","36","","20","","","","100.71","","","","","","NA"
"2019-05-01 20:00","2019","05","01","20:00","4.8","","4.0","","94","","5","","23","","","","100.63","","","","","","NA"
"2019-05-01 21:00","2019","05","01","21:00","4.8","","4.1","","95","","3","","17","","","","100.64","","","","","","NA"
"2019-05-01 22:00","2019","05","01","22:00","4.7","","3.8","","94","","1","","19","","","","100.68","","","","","","NA"
"2019-05-01 23:00","2019","05","01","23:00","4.4","","3.7","","95","","2","","19","","","","100.68","","","","","","NA"
"2019-05-02 00:00","2019","05","02","00:00","3.7","","3.0","","95","","2","","17","","","","100.69","","","","","","NA"
"2019-05-02 01:00","2019","05","02","01:00","3.4","","2.7","","96","","2","","16","","","","100.68","","","","","","NA"
"2019-05-02 02:00","2019","05","02","02:00","3.0","","2.4","","96","","2","","18","","","","100.71","","","","","","NA"
"2019-05-02 03:00","2019","05","02","03:00","2.8","","2.2","","96","","1","","19","","","","100.75","","","","","","NA"
"2019-05-02 04:00","2019","05","02","04:00","2.8","","2.0","","94","","2","","16","","","","100.79","","","","","","NA"
"2019-05-02 05:00","2019","05","02","05:00","3.0","","2.0","","93","","3","","15","","","","100.86","","","","","","NA"
"2019-05-02 06:00","2019","05","02","06:00","3.4","","2.1","","92","","3","","18","","","","100.92","","","","","","NA"
"2019-05-02 07:00","2019","05","02","07:00","3.9","","2.5","","91","","3","","17","","","","100.99","","","","","","NA"
"2019-05-02 08:00","2019","05","02","08:00","4.4","","2.9","","90","","2","","17","","","","101.01","","","","","","NA"
"2019-05-02 09:00","2019","05","02","09:00","5.0","","3.1","","87","","3","","18","","","","101.06","","","","","","NA"
"2019-05-02 10:00","2019","05","02","10:00","5.5","","3.4","","86","","3","","14","","","","101.08","","","","","","NA"
"2019-05-02 11:00","2019","05","02","11:00","6.5","","3.8","","83","","3","","14","","","","101.05","","","","","","NA"
"2019-05-02 12:00","2019","05","02","12:00","7.3","","5.0","","85","","4","","14","","","","101.06","","","","","","NA"
"2019-05-02 13:00","2019","05","02","13:00","7.9","","4.8","","81","","1","","11","","","","101.07","","","","","","NA"
"2019-05-02 14:00","2019","05","02","14:00","8.3","","4.5","","77","","4","","7","","","","101.12","","","","","","NA"
"2019-05-02 15:00","2019","05","02","15:00","7.2","","4.6","","84","","18","","10","","","","101.11","","","","","","NA"
"2019-05-02 16:00","2019","05","02","16:00","6.9","","4.7","","86","","18","","7","","","","101.09","","","","","","NA"
"2019-05-02 17:00","2019","05","02","17:00","6.8","","4.5","","85","","19","","6","","","","101.13","","","","","","NA"
"2019-05-02 18:00","2019","05","02","18:00","7.3","","4.7","","83","","5","","14","","","","101.04","","","","","","NA"
"2019-05-02 19:00","2019","05","02","19:00","7.0","","4.6","","84","","4","","11","","","","101.08","","","","","","NA"
"2019-05-02 20:00","2019","05","02","20:00","7.0","","4.4","","83","","6","","10","","","","101.07","","","","","","NA"
"2019-05-02 21:00","2019","05","02","21:00","6.5","","4.2","","85","","1","","7","","","","101.10","","","","","","NA"
"2019-05-02 22:00","2019","05","02","22:00","6.4","","4.2","","86","","6","","10","","","","101.00","","","","","","NA"
"2019-05-02 23:00","2019","05","02","23:00","6.3","","4.2","","87","","8","","8","","","","100.94","","","","","","NA"
"2019-05-03 00:00","2019","05","03","00:00","6.0","","4.1","","88","","11","","8","","","","100.91","","","","","","NA"
"2019-05-03 01:00","2019","05","03","01:00","5.8","","4.1","","89","","8","","6","","","","100.84","","","","","","NA"
"2019-05-03 02:00","2019","05","03","02:00","5.9","","4.4","","91","","6","","8","","","","100.76","","","","","","NA"
"2019-05-03 03:00","2019","05","03","03:00","5.7","","4.8","","94","","3","","8","","","","100.70","","","","","","NA"
"2019-05-03 04:00","2019","05","03","04:00","5.7","","5.0","","95","","3","","13","","","","100.60","","","","","","NA"
"2019-05-03 05:00","2019","05","03","05:00","5.7","","5.1","","96","","7","","11","","","","100.54","","","","","","NA"
"2019-05-03 06:00","2019","05","03","06:00","5.8","","5.3","","96","","4","","13","","","","100.52","","","","","","NA"
"2019-05-03 07:00","2019","05","03","07:00","6.3","","5.6","","96","","7","","20","","","","100.46","","","","","","NA"
"2019-05-03 08:00","2019","05","03","08:00","6.8","","6.1","","95","","2","","13","","","","100.46","","","","","","NA"
"2019-05-03 09:00","2019","05","03","09:00","7.9","","7.0","","94","","1","","11","","","","100.46","","","","","","NA"
"2019-05-03 10:00","2019","05","03","10:00","8.8","","7.7","","93","","1","","13","","","","100.45","","","","","","NA"
"2019-05-03 11:00","2019","05","03","11:00","9.9","","8.6","","91","","1","","12","","","","100.43","","","","","","NA"
"2019-05-03 12:00","2019","05","03","12:00","9.8","","8.1","","89","","34","","8","","","","100.45","","","","","","NA"
"2019-05-03 13:00","2019","05","03","13:00","9.9","","8.4","","90","","1","","9","","","","100.46","","","","","","NA"
"2019-05-03 14:00","2019","05","03","14:00","10.2","","8.2","","88","","35","","12","","","","100.42","","","","","","NA"
"2019-05-03 15:00","2019","05","03","15:00","10.2","","8.4","","89","","35","","14","","","","100.41","","","","","","NA"
"2019-05-03 16:00","2019","05","03","16:00","9.9","","8.0","","88","","1","","11","","","","100.43","","","","","","NA"
"2019-05-03 17:00","2019","05","03","17:00","9.7","","7.9","","89","","3","","9","","","","100.43","","","","","","NA"
"2019-05-03 18:00","2019","05","03","18:00","9.7","","8.0","","89","","6","","8","","","","100.43","","","","","","NA"
"2019-05-03 19:00","2019","05","03","19:00","9.6","","7.9","","89","","2","","7","","","","100.43","","","","","","NA"
"2019-05-03 20:00","2019","05","03","20:00","9.4","","7.8","","90","","35","","9","","","","100.53","","","","","","NA"
"2019-05-03 21:00","2019","05","03","21:00","9.3","","7.8","","90","","1","","6","","","","100.52","","","","","","NA"
"2019-05-03 22:00","2019","05","03","22:00","9.2","","7.8","","91","","35","","8","","","","100.49","","","","","","NA"
"2019-05-03 23:00","2019","05","03","23:00","9.3","","7.7","","90","","2","","12","","","","100.41","","","","","","NA"
"2019-05-04 00:00","2019","05","04","00:00","9.0","","7.6","","91","","31","","4","","","","100.49","","","","","","NA"
"2019-05-04 01:00","2019","05","04","01:00","8.6","","7.9","","95","","1","","5","","","","100.45","","","","","","NA"
"2019-05-04 02:00","2019","05","04","02:00","8.4","","7.8","","96","","1","","7","","","","100.36","","","","","","NA"
"2019-05-04 03:00","2019","05","04","03:00","8.3","","7.8","","97","","34","","8","","","","100.36","","","","","","NA"
"2019-05-04 04:00","2019","05","04","04:00","8.4","","7.4","","94","","36","","11","","","","100.34","","","","","","NA"
"2019-05-04 05:00","2019","05","04","05:00","8.2","","7.2","","93","","4","","9","","","","100.30","","","","","","NA"
"2019-05-04 06:00","2019","05","04","06:00","8.4","","7.3","","93","","36","","8","","","","100.39","","","","","","NA"
"2019-05-04 07:00","2019","05","04","07:00","8.7","","7.1","","89","","1","","13","","","","100.44","","","","","","NA"
"2019-05-04 08:00","2019","05","04","08:00","9.5","","6.3","","80","","3","","16","","","","100.39","","","","","","NA"
"2019-05-04 09:00","2019","05","04","09:00","10.7","","6.8","","77","","3","","16","","","","100.42","","","","","","NA"
"2019-05-04 10:00","2019","05","04","10:00","11.4","","6.0","","69","","2","","14","","","","100.40","","","","","","NA"
"2019-05-04 11:00","2019","05","04","11:00","11.7","","6.9","","72","","5","","11","","","","100.36","","","","","","NA"
"2019-05-04 12:00","2019","05","04","12:00","11.7","","6.9","","73","","2","","13","","","","100.33","","","","","","NA"
"2019-05-04 13:00","2019","05","04","13:00","12.3","","7.4","","72","","3","","14","","","","100.29","","","","","","NA"
"2019-05-04 14:00","2019","05","04","14:00","11.5","","7.5","","76","","5","","8","","","","100.25","","","","","","NA"
"2019-05-04 15:00","2019","05","04","15:00","12.3","","8.5","","78","","2","","10","","","","100.24","","","","","","NA"
"2019-05-04 16:00","2019","05","04","16:00","12.4","","7.1","","70","","1","","5","","","","100.19","","","","","","NA"
"2019-05-04 17:00","2019","05","04","17:00","11.3","","7.6","","78","","16","","11","","","","100.17","","","","","","NA"
"2019-05-04 18:00","2019","05","04","18:00","10.9","","7.4","","79","","14","","9","","","","100.15","","","","","","NA"
"2019-05-04 19:00","2019","05","04","19:00","9.8","","7.1","","83","","20","","8","","","","100.16","","","","","","NA"
"2019-05-04 20:00","2019","05","04","20:00","8.3","","6.7","","90","","23","","5","","","","100.19","","","","","","NA"
"2019-05-04 21:00","2019","05","04","21:00","7.6","","6.6","","93","","","","0","","","","100.23","","","","","","NA"
"2019-05-04 22:00","2019","05","04","22:00","7.0","","6.3","","95","","31","","4","","","","100.20","","","","","","NA"
"2019-05-04 23:00","2019","05","04","23:00","6.6","","6.1","","96","","26","","2","","","","100.18","","","","","","NA"
"2019-05-05 00:00","2019","05","05","00:00","5.2","","4.6","","96","","25","","3","","","","100.22","","","","","","NA"
"2019-05-05 01:00","2019","05","05","01:00","5.3","","5.0","","98","","","","0","","","","100.20","","","","","","NA"
"2019-05-05 02:00","2019","05","05","02:00","4.3","","4.0","","98","","0","","1","","","","100.17","","","","","","NA"
"2019-05-05 03:00","2019","05","05","03:00","4.0","","3.7","","98","","34","","5","","","","100.12","","","","","","NA"
"2019-05-05 04:00","2019","05","05","04:00","3.1","","2.8","","98","","3","","1","","","","100.11","","","","","","NA"
"2019-05-05 05:00","2019","05","05","05:00","2.3","","2.1","","98","","35","","8","","","","100.11","","","","","","NA"
"2019-05-05 06:00","2019","05","05","06:00","4.0","","3.7","","98","","3","","4","","","","100.15","","","","","","NA"
"2019-05-05 07:00","2019","05","05","07:00","8.2","","7.9","","98","","6","","5","","","","100.16","","","","","","NA"
"2019-05-05 08:00","2019","05","05","08:00","11.7","","8.6","","81","","3","","7","","","","100.16","","","","","","NA"
"2019-05-05 09:00","2019","05","05","09:00","14.3","","7.4","","63","","5","","16","","","","100.10","","","","","","NA"
"2019-05-05 10:00","2019","05","05","10:00","15.6","","7.2","","57","","7","","10","","","","100.07","","","","","","NA"
"2019-05-05 11:00","2019","05","05","11:00","15.7","","5.8","","52","","13","","14","","","","100.04","","","","","","NA"
"2019-05-05 12:00","2019","05","05","12:00","16.1","","6.4","","53","","13","","13","","","","100.01","","","","","","NA"
"2019-05-05 13:00","2019","05","05","13:00","17.8","","5.5","","44","","12","","16","","","","99.95","","","","","","NA"
"2019-05-05 14:00","2019","05","05","14:00","17.2","","2.5","","37","","13","","14","","","","99.89","","","","","","NA"
"2019-05-05 15:00","2019","05","05","15:00","15.5","","8.0","","61","","18","","10","","","","99.86","","","","","","NA"
"2019-05-05 16:00","2019","05","05","16:00","16.7","","4.0","","43","","17","","9","","","","99.83","","","","","","NA"
"2019-05-05 17:00","2019","05","05","17:00","18.1","","6.5","","47","","20","","7","","","","99.84","","","","","","NA"
"2019-05-05 18:00","2019","05","05","18:00","16.2","","6.2","","52","","19","","7","","","","99.83","","","","","","NA"
"2019-05-05 19:00","2019","05","05","19:00","14.2","","6.7","","61","","20","","10","","","","99.87","","","","","","NA"
"2019-05-05 20:00","2019","05","05","20:00","11.5","","7.2","","75","","23","","10","","","","99.93","","","","","","NA"
"2019-05-05 21:00","2019","05","05","21:00","10.5","","6.9","","78","","23","","7","","","","99.99","","","","","","NA"
"2019-05-05 22:00","2019","05","05","22:00","8.3","","6.6","","89","","20","","7","","","","100.01","","","","","","NA"
"2019-05-05 23:00","2019","05","05","23:00","6.8","","5.7","","93","","14","","3","","","","100.05","","","","","","NA"
"2019-05-06 00:00","2019","05","06","00:00","9.8","","6.9","","82","","26","","8","","","","100.05","","","","","","NA"
"2019-05-06 01:00","2019","05","06","01:00","7.6","","5.3","","86","","0","","1","","","","100.05","","","","","","NA"
"2019-05-06 02:00","2019","05","06","02:00","6.6","","5.8","","94","","16","","4","","","","100.05","","","","","","NA"
"2019-05-06 03:00","2019","05","06","03:00","6.5","","5.9","","96","","17","","3","","","","100.10","","","","","","NA"
"2019-05-06 04:00","2019","05","06","04:00","5.8","","5.3","","97","","16","","2","","","","100.14","","","","","","NA"
"2019-05-06 05:00","2019","05","06","05:00","5.8","","5.3","","97","","17","","4","","","","100.20","","","","","","NA"
"2019-05-06 06:00","2019","05","06","06:00","7.5","","6.7","","95","","24","","1","","","","100.27","","","","","","NA"
"2019-05-06 07:00","2019","05","06","07:00","7.7","","5.9","","88","","16","","6","","","","100.29","","","","","","NA"
"2019-05-06 08:00","2019","05","06","08:00","8.6","","6.2","","85","","16","","7","","","","100.35","","","","","","NA"
"2019-05-06 09:00","2019","05","06","09:00","8.9","","6.5","","85","","18","","13","","","","100.37","","","","","","NA"
"2019-05-06 10:00","2019","05","06","10:00","8.8","","6.6","","86","","17","","15","","","","100.47","","","","","","NA"
"2019-05-06 11:00","2019","05","06","11:00","8.6","","6.3","","86","","16","","14","","","","100.49","","","","","","NA"
"2019-05-06 12:00","2019","05","06","12:00","8.7","","6.4","","85","","16","","15","","","","100.48","","","","","","NA"
"2019-05-06 13:00","2019","05","06","13:00","9.0","","6.5","","84","","16","","18","","","","100.41","","","","","","NA"
"2019-05-06 14:00","2019","05","06","14:00","8.9","","6.0","","82","","17","","15","","","","100.42","","","","","","NA"
"2019-05-06 15:00","2019","05","06","15:00","10.5","","7.5","","82","","17","","15","","","","100.36","","","","","","NA"
"2019-05-06 16:00","2019","05","06","16:00","10.3","","6.9","","79","","18","","14","","","","100.34","","","","","","NA"
"2019-05-06 17:00","2019","05","06","17:00","10.3","","6.1","","75","","18","","14","","","","100.36","","","","","","NA"
"2019-05-06 18:00","2019","05","06","18:00","11.7","","6.2","","69","","21","","8","","","","100.36","","","","","","NA"
"2019-05-06 19:00","2019","05","06","19:00","11.3","","6.0","","70","","18","","6","","","","100.37","","","","","","NA"
"2019-05-06 20:00","2019","05","06","20:00","10.2","","6.0","","75","","17","","5","","","","100.40","","","","","","NA"
"2019-05-06 21:00","2019","05","06","21:00","9.8","","6.4","","80","","18","","7","","","","100.44","","","","","","NA"
"2019-05-06 22:00","2019","05","06","22:00","11.8","","7.5","","75","","23","","7","","","","100.46","","","","","","NA"
"2019-05-06 23:00","2019","05","06","23:00","10.4","","7.4","","82","","17","","6","","","","100.46","","","","","","NA"
"2019-05-07 00:00","2019","05","07","00:00","10.7","","7.8","","82","","21","","4","","","","100.50","","","","","","NA"
"2019-05-07 01:00","2019","05","07","01:00","12.4","","8.9","","79","","26","","4","","","","100.50","","","","","","NA"
"2019-05-07 02:00","2019","05","07","02:00","12.4","","9.2","","81","","28","","7","","","","100.50","","","","","","NA"
"2019-05-07 03:00","2019","05","07","03:00","12.4","","8.9","","79","","26","","5","","","","100.53","","","","","","NA"
"2019-05-07 04:00","2019","05","07","04:00","11.7","","9.0","","84","","4","","8","","","","100.59","","","","","","NA"
"2019-05-07 05:00","2019","05","07","05:00","10.6","","8.6","","87","","1","","10","","","","100.65","","","","","","NA"
"2019-05-07 06:00","2019","05","07","06:00","10.4","","9.0","","92","","3","","6","","","","100.73","","","","","","NA"
"2019-05-07 07:00","2019","05","07","07:00","10.2","","9.3","","94","","","","0","","","","100.84","","","","","","NA"
"2019-05-07 08:00","2019","05","07","08:00","10.4","","9.5","","94","","7","","4","","","","100.82","","","","","","NA"
"2019-05-07 09:00","2019","05","07","09:00","10.9","","9.8","","93","","22","","9","","","","100.89","","","","","","NA"
"2019-05-07 10:00","2019","05","07","10:00","11.2","","10.0","","92","","19","","14","","","","100.93","","","","","","NA"
"2019-05-07 11:00","2019","05","07","11:00","12.2","","8.3","","77","","22","","17","","","","100.96","","","","","","NA"
"2019-05-07 12:00","2019","05","07","12:00","12.8","","9.8","","82","","18","","15","","","","100.90","","","","","","NA"
"2019-05-07 13:00","2019","05","07","13:00","11.8","","9.3","","85","","19","","24","","","","100.93","","","","","","NA"
"2019-05-07 14:00","2019","05","07","14:00","12.5","","8.8","","78","","20","","22","","","","100.94","","","","","","NA"
"2019-05-07 15:00","2019","05","07","15:00","13.3","","8.4","","72","","20","","19","","","","100.95","","","","","","NA"
"2019-05-07 16:00","2019","05","07","16:00","14.2","","7.6","","65","","22","","19","","","","100.95","","","","","","NA"
"2019-05-07 17:00","2019","05","07","17:00","13.5","","6.2","","62","","23","","21","","","","100.96","","","","","","NA"
"2019-05-07 18:00","2019","05","07","18:00","12.7","","4.8","","58","","24","","24","","","","100.96","","","","","","NA"
"2019-05-07 19:00","2019","05","07","19:00","11.0","","5.1","","67","","5","","12","","","","101.07","","","","","","NA"
"2019-05-07 20:00","2019","05","07","20:00","9.0","","4.6","","74","","4","","9","","","","101.12","","","","","","NA"
"2019-05-07 21:00","2019","05","07","21:00","10.3","","2.3","","58","","2","","16","","","","101.22","","","","","","NA"
"2019-05-07 22:00","2019","05","07","22:00","9.7","","0.7","","53","","2","","20","","","","101.28","","","","","","NA"
"2019-05-07 23:00","2019","05","07","23:00","9.4","","0.5","","54","","2","","19","","","","101.35","","","","","","NA"
"2019-05-08 00:00","2019","05","08","00:00","8.0","","0.3","","58","","1","","15","","","","101.41","","","","","","NA"
"2019-05-08 01:00","2019","05","08","01:00","7.4","","0.0","","59","","3","","12","","","","101.44","","","","","","NA"
"2019-05-08 02:00","2019","05","08","02:00","6.7","","-0.7","","60","","2","","12","","","","101.47","","","","","","NA"
"2019-05-08 03:00","2019","05","08","03:00","5.3","","-0.7","","65","","1","","11","","","","101.56","","","","","","NA"
"2019-05-08 04:00","2019","05","08","04:00","4.3","","-0.9","","69","","1","","15","","","","101.59","","","","","","NA"
"2019-05-08 05:00","2019","05","08","05:00","3.6","","-1.5","","69","","2","","16","","","","101.66","","","","","","NA"
"2019-05-08 06:00","2019","05","08","06:00","4.5","","-1.6","","64","","2","","13","","","","101.76","","","","","","NA"
"2019-05-08 07:00","2019","05","08","07:00","5.7","","-4.5","","48","","4","","23","","","","101.85","","","","","","NA"
"2019-05-08 08:00","2019","05","08","08:00","7.3","","-4.0","","45","","3","","20","","","","101.86","","","","","","NA"
"2019-05-08 09:00","2019","05","08","09:00","8.2","","-3.8","","43","","5","","21","","","","101.89","","","","","","NA"
"2019-05-08 10:00","2019","05","08","10:00","9.1","","-2.6","","44","","3","","21","","","","101.88","","","","","","NA"
"2019-05-08 11:00","2019","05","08","11:00","10.5","","-2.1","","41","","3","","21","","","","101.81","","","","","","NA"
"2019-05-08 12:00","2019","05","08","12:00","12.0","","-0.2","","43","","3","","18","","","","101.72","","","","","","NA"
"2019-05-08 13:00","2019","05","08","13:00","11.3","","-4.3","","33","","5","","15","","","","101.69","","","","","","NA"
"2019-05-08 14:00","2019","05","08","14:00","11.9","","-3.9","","33","","5","","16","","","","101.65","","","","","","NA"
"2019-05-08 15:00","2019","05","08","15:00","12.2","","-3.4","","33","","4","","18","","","","101.62","","","","","","NA"
"2019-05-08 16:00","2019","05","08","16:00","13.0","","-4.1","","30","","4","","14","","","","101.60","","","","","","NA"
"2019-05-08 17:00","2019","05","08","17:00","13.4","","-3.2","","32","","3","","12","","","","101.58","","","","","","NA"
"2019-05-08 18:00","2019","05","08","18:00","12.2","","-3.5","","33","","2","","15","","","","101.55","","","","","","NA"
"2019-05-08 19:00","2019","05","08","19:00","11.3","","-4.2","","34","","3","","13","","","","101.54","","","","","","NA"
"2019-05-08 20:00","2019","05","08","20:00","9.6","","-4.2","","38","","3","","9","","","","101.58","","","","","","NA"
"2019-05-08 21:00","2019","05","08","21:00","8.3","","-3.3","","44","","4","","12","","","","101.54","","","","","","NA"
"2019-05-08 22:00","2019","05","08","22:00","9.0","","-2.9","","43","","4","","14","","","","101.50","","","","","","NA"
"2019-05-08 23:00","2019","05","08","23:00","8.7","","-2.4","","46","","7","","9","","","","101.51","","","","","","NA"
"2019-05-09 00:00","2019","05","09","00:00","9.1","","-2.4","","44","","6","","15","","","","101.49","","","","","","NA"
"2019-05-09 01:00","2019","05","09","01:00","8.8","","-2.1","","46","","7","","15","","","","101.49","","","","","","NA"
"2019-05-09 02:00","2019","05","09","02:00","8.3","","-2.2","","47","","5","","14","","","","101.50","","","","","","NA"
"2019-05-09 03:00","2019","05","09","03:00","8.0","","-1.2","","52","","7","","13","","","","101.48","","","","","","NA"
"2019-05-09 04:00","2019","05","09","04:00","8.0","","-2.0","","49","","6","","18","","","","101.40","","","","","","NA"
"2019-05-09 05:00","2019","05","09","05:00","7.8","","-1.7","","51","","6","","18","","","","101.35","","","","","","NA"
"2019-05-09 06:00","2019","05","09","06:00","7.8","","-1.2","","53","","6","","20","","","","101.31","","","","","","NA"
"2019-05-09 07:00","2019","05","09","07:00","8.5","","-1.2","","51","","6","","23","","","","101.27","","","","","","NA"
"2019-05-09 08:00","2019","05","09","08:00","9.6","","-1.5","","46","","7","","26","","","","101.15","","","","","","NA"
"2019-05-09 09:00","2019","05","09","09:00","10.2","","-0.1","","49","","7","","26","","","","101.02","","","","","","NA"
"2019-05-09 10:00","2019","05","09","10:00","11.9","","1.4","","48","","7","","25","","","","100.92","","","","","","NA"
"2019-05-09 11:00","2019","05","09","11:00","14.3","","1.1","","41","","7","","27","","","","100.82","","","","","","NA"
"2019-05-09 12:00","2019","05","09","12:00","16.1","","1.9","","38","","9","","21","","","","100.69","","","","","","NA"
"2019-05-09 13:00","2019","05","09","13:00","16.4","","2.9","","40","","11","","14","","","","100.62","","","","","","NA"
"2019-05-09 14:00","2019","05","09","14:00","16.1","","4.9","","48","","12","","10","","","","100.59","","","","","","NA"
"2019-05-09 15:00","2019","05","09","15:00","14.2","","7.1","","62","","13","","20","","","","100.45","","","","","","NA"
"2019-05-09 16:00","2019","05","09","16:00","16.5","","7.2","","54","","12","","21","","","","100.31","","","","","","NA"
"2019-05-09 17:00","2019","05","09","17:00","15.9","","7.8","","59","","12","","19","","","","100.24","","","","","","NA"
"2019-05-09 18:00","2019","05","09","18:00","15.3","","7.5","","60","","14","","24","","","","100.25","","","","","","NA"
"2019-05-09 19:00","2019","05","09","19:00","10.7","","7.5","","81","","16","","8","","","","100.26","","","","","","NA"
"2019-05-09 20:00","2019","05","09","20:00","9.6","","8.5","","93","","16","","14","","","","100.16","","","","","","NA"
"2019-05-09 21:00","2019","05","09","21:00","9.6","","8.6","","93","","18","","21","","","","100.17","","","","","","NA"
"2019-05-09 22:00","2019","05","09","22:00","10.3","","9.6","","95","","16","","34","","","","100.11","","","","","","NA"
"2019-05-09 23:00","2019","05","09","23:00","10.0","","9.2","","95","","16","","34","","","","100.10","","","","","","NA"
"2019-05-10 00:00","2019","05","10","00:00","9.8","","9.3","","96","","15","","29","","","","100.06","","","","","","NA"
"2019-05-10 01:00","2019","05","10","01:00","10.2","","8.9","","92","","16","","33","","","","100.04","","","","","","NA"
"2019-05-10 02:00","2019","05","10","02:00","9.6","","9.1","","97","","16","","33","","","","100.05","","","","","","NA"
"2019-05-10 03:00","2019","05","10","03:00","9.5","","9.2","","98","","16","","27","","","","99.99","","","","","","NA"
"2019-05-10 04:00","2019","05","10","04:00","9.3","","9.1","","98","","15","","21","","","","99.94","","","","","","NA"
"2019-05-10 05:00","2019","05","10","05:00","9.7","","9.5","","99","","15","","12","","","","99.88","","","","","","NA"
"2019-05-10 06:00","2019","05","10","06:00","9.6","","9.3","","99","","21","","9","","","","99.86","","","","","","NA"
"2019-05-10 07:00","2019","05","10","07:00","9.7","","9.5","","99","","17","","28","","","","99.75","","","","","","NA"
"2019-05-10 08:00","2019","05","10","08:00","9.5","","9.3","","99","","18","","23","","","","99.72","","","","","","NA"
"2019-05-10 09:00","2019","05","10","09:00","9.4","","9.2","","99","","18","","25","","","","99.70","","","","","","NA"
"2019-05-10 10:00","2019","05","10","10:00","9.6","","9.4","","99","","20","","22","","","","99.75","","","","","","NA"
"2019-05-10 11:00","2019","05","10","11:00","11.6","","11.4","","99","","19","","14","","","","99.73","","","","","","NA"
"2019-05-10 12:00","2019","05","10","12:00","12.2","","11.9","","98","","19","","15","","","","99.75","","","","","","NA"
"2019-05-10 13:00","2019","05","10","13:00","16.3","","14.1","","87","","24","","24","","","","99.81","","","","","","NA"
"2019-05-10 14:00","2019","05","10","14:00","14.2","","10.3","","77","","28","","31","","","","99.96","","","","","","NA"
"2019-05-10 15:00","2019","05","10","15:00","13.5","","8.3","","70","","27","","26","","","","100.07","","","","","","NA"
"2019-05-10 16:00","2019","05","10","16:00","13.8","","6.6","","62","","28","","28","","","","100.11","","","","","","NA"
"2019-05-10 17:00","2019","05","10","17:00","13.4","","6.2","","62","","26","","25","","","","100.18","","","","","","NA"
"2019-05-10 18:00","2019","05","10","18:00","13.3","","5.4","","59","","27","","23","","","","100.25","","","","","","NA"
"2019-05-10 19:00","2019","05","10","19:00","10.9","","4.0","","62","","28","","20","","","","100.36","","","","","","NA"
"2019-05-10 20:00","2019","05","10","20:00","8.8","","3.4","","69","","29","","16","","","","100.46","","","","","","NA"
"2019-05-10 21:00","2019","05","10","21:00","7.9","","3.3","","72","","27","","16","","","","100.56","","","","","","NA"
"2019-05-10 22:00","2019","05","10","22:00","8.0","","3.6","","73","","26","","17","","","","100.56","","","","","","NA"
"2019-05-10 23:00","2019","05","10","23:00","7.0","","3.6","","79","","27","","12","","","","100.59","","","","","","NA"
"2019-05-11 00:00","2019","05","11","00:00","7.3","","3.6","","78","","27","","12","","","","100.65","","","","","","NA"
"2019-05-11 01:00","2019","05","11","01:00","7.2","","3.8","","79","","26","","10","","","","100.68","","","","","","NA"
"2019-05-11 02:00","2019","05","11","02:00","6.7","","3.7","","82","","27","","13","","","","100.75","","","","","","NA"
"2019-05-11 03:00","2019","05","11","03:00","5.2","","3.0","","86","","28","","8","","","","100.79","","","","","","NA"
"2019-05-11 04:00","2019","05","11","04:00","4.6","","2.9","","89","","27","","6","","","","100.76","","","","","","NA"
"2019-05-11 05:00","2019","05","11","05:00","4.2","","2.8","","91","","30","","7","","","","100.80","","","","","","NA"
"2019-05-11 06:00","2019","05","11","06:00","6.2","","3.5","","83","","30","","10","","","","100.87","","","","","","NA"
"2019-05-11 07:00","2019","05","11","07:00","7.8","","4.1","","77","","30","","15","","","","100.91","","","","","","NA"
"2019-05-11 08:00","2019","05","11","08:00","9.4","","4.3","","71","","31","","14","","","","100.93","","","","","","NA"
"2019-05-11 09:00","2019","05","11","09:00","10.2","","1.9","","57","","35","","10","","","","100.93","","","","","","NA"
"2019-05-11 10:00","2019","05","11","10:00","11.7","","2.6","","54","","34","","18","","","","100.95","","","","","","NA"
"2019-05-11 11:00","2019","05","11","11:00","11.6","","1.0","","48","","33","","10","","","","100.90","","","","","","NA"
"2019-05-11 12:00","2019","05","11","12:00","9.2","","5.4","","77","","19","","23","","","","100.90","","","","","","NA"
"2019-05-11 13:00","2019","05","11","13:00","11.2","","6.3","","72","","19","","22","","","","100.88","","","","","","NA"
"2019-05-11 14:00","2019","05","11","14:00","10.5","","5.3","","70","","19","","22","","","","100.83","","","","","","NA"
"2019-05-11 15:00","2019","05","11","15:00","10.4","","4.1","","65","","20","","21","","","","100.84","","","","","","NA"
"2019-05-11 16:00","2019","05","11","16:00","9.7","","5.1","","73","","21","","16","","","","100.81","","","","","","NA"
"2019-05-11 17:00","2019","05","11","17:00","9.9","","4.1","","67","","23","","12","","","","100.79","","","","","","NA"
"2019-05-11 18:00","2019","05","11","18:00","9.6","","4.2","","69","","24","","7","","","","100.78","","","","","","NA"
"2019-05-11 19:00","2019","05","11","19:00","9.3","","4.2","","70","","23","","8","","","","100.77","","","","","","NA"
"2019-05-11 20:00","2019","05","11","20:00","8.8","","4.5","","75","","","","0","","","","100.72","","","","","","NA"
"2019-05-11 21:00","2019","05","11","21:00","8.4","","4.5","","77","","33","","2","","","","100.73","","","","","","NA"
"2019-05-11 22:00","2019","05","11","22:00","7.9","","5.4","","84","","34","","8","","","","100.73","","","","","","NA"
"2019-05-11 23:00","2019","05","11","23:00","8.4","","4.8","","78","","2","","7","","","","100.70","","","","","","NA"
"2019-05-12 00:00","2019","05","12","00:00","8.6","","4.5","","75","","2","","8","","","","100.63","","","","","","NA"
"2019-05-12 01:00","2019","05","12","01:00","8.5","","4.6","","77","","2","","7","","","","100.62","","","","","","NA"
"2019-05-12 02:00","2019","05","12","02:00","8.4","","4.7","","78","","4","","4","","","","100.63","","","","","","NA"
"2019-05-12 03:00","2019","05","12","03:00","7.8","","5.2","","83","","6","","5","","","","100.61","","","","","","NA"
"2019-05-12 04:00","2019","05","12","04:00","7.9","","3.6","","74","","6","","7","","","","100.58","","","","","","NA"
"2019-05-12 05:00","2019","05","12","05:00","8.1","","2.7","","69","","7","","11","","","","100.53","","","","","","NA"
"2019-05-12 06:00","2019","05","12","06:00","8.7","","2.3","","64","","5","","11","","","","100.53","","","","","","NA"
"2019-05-12 07:00","2019","05","12","07:00","9.6","","2.0","","59","","7","","14","","","","100.53","","","","","","NA"
"2019-05-12 08:00","2019","05","12","08:00","9.4","","1.3","","57","","8","","20","","","","100.55","","","","","","NA"
"2019-05-12 09:00","2019","05","12","09:00","9.7","","3.1","","64","","9","","14","","","","100.52","","","","","","NA"
"2019-05-12 10:00","2019","05","12","10:00","10.0","","4.4","","68","","15","","9","","","","100.49","","","","","","NA"
"2019-05-12 11:00","2019","05","12","11:00","10.6","","5.2","","69","","13","","13","","","","100.48","","","","","","NA"
"2019-05-12 12:00","2019","05","12","12:00","9.2","","5.2","","76","","18","","13","","","","100.43","","","","","","NA"
"2019-05-12 13:00","2019","05","12","13:00","9.3","","5.7","","78","","18","","14","","","","100.39","","","","","","NA"
"2019-05-12 14:00","2019","05","12","14:00","9.1","","5.2","","77","","20","","11","","","","100.35","","","","","","NA"
"2019-05-12 15:00","2019","05","12","15:00","8.1","","4.5","","78","","20","","18","","","","100.33","","","","","","NA"
"2019-05-12 16:00","2019","05","12","16:00","7.5","","4.4","","81","","22","","13","","","","100.35","","","","","","NA"
"2019-05-12 17:00","2019","05","12","17:00","7.7","","4.5","","80","","21","","14","","","","100.31","","","","","","NA"
"2019-05-12 18:00","2019","05","12","18:00","7.2","","4.4","","82","","21","","12","","","","100.26","","","","","","NA"
"2019-05-12 19:00","2019","05","12","19:00","7.1","","4.3","","83","","21","","7","","","","100.28","","","","","","NA"
"2019-05-12 20:00","2019","05","12","20:00","7.4","","4.4","","81","","16","","7","","","","100.27","","","","","","NA"
"2019-05-12 21:00","2019","05","12","21:00","7.4","","4.6","","82","","16","","12","","","","100.28","","","","","","NA"
"2019-05-12 22:00","2019","05","12","22:00","7.0","","5.1","","88","","16","","12","","","","100.29","","","","","","NA"
"2019-05-12 23:00","2019","05","12","23:00","6.7","","5.1","","90","","18","","6","","","","100.26","","","","","","NA"
"2019-05-13 00:00","2019","05","13","00:00","6.7","","5.3","","91","","19","","6","","","","100.21","","","","","","NA"
"2019-05-13 01:00","2019","05","13","01:00","6.4","","5.3","","93","","32","","1","","","","100.12","","","","","","NA"
"2019-05-13 02:00","2019","05","13","02:00","6.5","","5.2","","92","","22","","6","","","","100.09","","","","","","NA"
"2019-05-13 03:00","2019","05","13","03:00","6.2","","5.2","","93","","28","","5","","","","100.07","","","","","","NA"
"2019-05-13 04:00","2019","05","13","04:00","6.2","","5.2","","93","","9","","3","","","","100.01","","","","","","NA"
"2019-05-13 05:00","2019","05","13","05:00","6.9","","5.1","","88","","13","","5","","","","100.00","","","","","","NA"
"2019-05-13 06:00","2019","05","13","06:00","7.7","","5.5","","86","","5","","16","","","","100.03","","","","","","NA"
"2019-05-13 07:00","2019","05","13","07:00","7.9","","4.8","","81","","8","","17","","","","100.05","","","","","","NA"
"2019-05-13 08:00","2019","05","13","08:00","8.2","","4.3","","77","","9","","18","","","","100.02","","","","","","NA"
"2019-05-13 09:00","2019","05","13","09:00","8.3","","4.5","","77","","10","","23","","","","100.00","","","","","","NA"
"2019-05-13 10:00","2019","05","13","10:00","7.8","","5.0","","83","","9","","28","","","","99.96","","","","","","NA"
"2019-05-13 11:00","2019","05","13","11:00","8.3","","5.3","","82","","9","","29","","","","99.90","","","","","","NA"
"2019-05-13 12:00","2019","05","13","12:00","8.3","","5.8","","84","","8","","24","","","","99.83","","","","","","NA"
"2019-05-13 13:00","2019","05","13","13:00","8.3","","6.2","","86","","7","","20","","","","99.83","","","","","","NA"
"2019-05-13 14:00","2019","05","13","14:00","8.1","","6.3","","89","","9","","19","","","","99.86","","","","","","NA"
"2019-05-13 15:00","2019","05","13","15:00","8.0","","7.2","","95","","9","","17","","","","99.83","","","","","","NA"
"2019-05-13 16:00","2019","05","13","16:00","8.1","","7.3","","94","","9","","18","","","","99.81","","","","","","NA"
"2019-05-13 17:00","2019","05","13","17:00","7.6","","5.8","","89","","10","","19","","","","99.84","","","","","","NA"
"2019-05-13 18:00","2019","05","13","18:00","7.2","","5.8","","91","","11","","16","","","","99.88","","","","","","NA"
"2019-05-13 19:00","2019","05","13","19:00","6.9","","4.6","","85","","12","","20","","","","99.91","","","","","","NA"
"2019-05-13 20:00","2019","05","13","20:00","6.4","","5.2","","92","","11","","14","","","","99.95","","","","","","NA"
"2019-05-13 21:00","2019","05","13","21:00","6.0","","4.7","","91","","12","","15","","","","99.98","","","","","","NA"
"2019-05-13 22:00","2019","05","13","22:00","5.4","","4.0","","91","","10","","16","","","","99.98","","","","","","NA"
"2019-05-13 23:00","2019","05","13","23:00","5.1","","4.0","","93","","7","","17","","","","99.96","","","","","","NA"
"2019-05-14 00:00","2019","05","14","00:00","5.1","","4.0","","93","","7","","15","","","","99.92","","","","","","NA"
"2019-05-14 01:00","2019","05","14","01:00","5.1","","3.5","","89","","7","","17","","","","99.86","","","","","","NA"
"2019-05-14 02:00","2019","05","14","02:00","4.9","","3.9","","93","","6","","15","","","","99.82","","","","","","NA"
"2019-05-14 03:00","2019","05","14","03:00","5.1","","4.2","","93","","5","","12","","","","99.82","","","","","","NA"
"2019-05-14 04:00","2019","05","14","04:00","5.3","","4.2","","93","","5","","13","","","","99.82","","","","","","NA"
"2019-05-14 05:00","2019","05","14","05:00","4.9","","3.8","","93","","5","","17","","","","99.85","","","","","","NA"
"2019-05-14 06:00","2019","05","14","06:00","5.4","","4.1","","92","","4","","15","","","","99.89","","","","","","NA"
"2019-05-14 07:00","2019","05","14","07:00","5.8","","4.6","","92","","3","","12","","","","99.93","","","","","","NA"
"2019-05-14 08:00","2019","05","14","08:00","5.9","","5.0","","94","","5","","11","","","","99.94","","","","","","NA"
"2019-05-14 09:00","2019","05","14","09:00","6.7","","5.2","","90","","5","","15","","","","99.96","","","","","","NA"
"2019-05-14 10:00","2019","05","14","10:00","7.6","","4.9","","83","","1","","19","","","","99.99","","","","","","NA"
"2019-05-14 11:00","2019","05","14","11:00","7.9","","4.8","","81","","2","","17","","","","100.03","","","","","","NA"
"2019-05-14 12:00","2019","05","14","12:00","8.2","","3.7","","73","","2","","18","","","","100.02","","","","","","NA"
"2019-05-14 13:00","2019","05","14","13:00","8.3","","4.3","","76","","35","","21","","","","100.03","","","","","","NA"
"2019-05-14 14:00","2019","05","14","14:00","9.6","","3.9","","68","","35","","21","","","","100.04","","","","","","NA"
"2019-05-14 15:00","2019","05","14","15:00","9.8","","4.6","","70","","34","","22","","","","100.04","","","","","","NA"
"2019-05-14 16:00","2019","05","14","16:00","9.8","","4.2","","68","","2","","15","","","","100.06","","","","","","NA"
"2019-05-14 17:00","2019","05","14","17:00","10.9","","3.4","","60","","2","","18","","","","100.07","","","","","","NA"
"2019-05-14 18:00","2019","05","14","18:00","10.6","","3.3","","61","","3","","14","","","","100.07","","","","","","NA"
"2019-05-14 19:00","2019","05","14","19:00","9.9","","3.9","","66","","3","","8","","","","100.12","","","","","","NA"
"2019-05-14 20:00","2019","05","14","20:00","9.6","","4.2","","69","","1","","8","","","","100.17","","","","","","NA"
"2019-05-14 21:00","2019","05","14","21:00","8.4","","5.0","","79","","5","","4","","","","100.17","","","","","","NA"
"2019-05-14 22:00","2019","05","14","22:00","7.4","","5.2","","86","","23","","3","","","","100.17","","","","","","NA"
"2019-05-14 23:00","2019","05","14","23:00","6.5","","5.6","","94","","26","","8","","","","100.19","","","","","","NA"
"2019-05-15 00:00","2019","05","15","00:00","6.1","","4.7","","91","","34","","5","","","","100.17","","","","","","NA"
"2019-05-15 01:00","2019","05","15","01:00","5.8","","4.8","","93","","3","","5","","","","100.09","","","","","","NA"
"2019-05-15 02:00","2019","05","15","02:00","6.0","","4.6","","91","","6","","3","","","","100.05","","","","","","NA"
"2019-05-15 03:00","2019","05","15","03:00","5.4","","4.5","","94","","6","","4","","","","100.03","","","","","","NA"
"2019-05-15 04:00","2019","05","15","04:00","4.9","","4.2","","95","","7","","4","","","","100.01","","","","","","NA"
"2019-05-15 05:00","2019","05","15","05:00","4.0","","3.4","","96","","8","","2","","","","100.01","","","","","","NA"
"2019-05-15 06:00","2019","05","15","06:00","6.8","","5.3","","90","","16","","7","","","","100.02","","","","","","NA"
"2019-05-15 07:00","2019","05","15","07:00","7.9","","5.7","","86","","15","","11","","","","100.01","","","","","","NA"
"2019-05-15 08:00","2019","05","15","08:00"
"2019-05-15 09:00","2019","05","15","09:00"
"2019-05-15 10:00","2019","05","15","10:00"
"2019-05-15 11:00","2019","05","15","11:00"
"2019-05-15 12:00","2019","05","15","12:00"
"2019-05-15 13:00","2019","05","15","13:00"
"2019-05-15 14:00","2019","05","15","14:00"
"2019-05-15 15:00","2019","05","15","15:00"
"2019-05-15 16:00","2019","05","15","16:00","8.3","","6.3","","87","","16","","12","","","","99.68","","","","","","NA"
"2019-05-15 17:00","2019","05","15","17:00","8.4","","5.7","","83","","16","","12","","","","99.68","","","","","","NA"
"2019-05-15 18:00","2019","05","15","18:00","8.0","","6.0","","87","","14","","13","","","","99.69","","","","","","NA"
"2019-05-15 19:00","2019","05","15","19:00","9.4","","8.7","","95","","7","","9","","","","99.77","","","","","","NA"
"2019-05-15 20:00","2019","05","15","20:00","8.5","","7.5","","94","","17","","7","","","","99.82","","","","","","NA"
"2019-05-15 21:00","2019","05","15","21:00","8.4","","7.9","","97","","20","","7","","","","99.87","","","","","","NA"
"2019-05-15 22:00","2019","05","15","22:00","8.5","","7.9","","96","","22","","6","","","","99.93","","","","","","NA"
"2019-05-15 23:00","2019","05","15","23:00","8.9","","8.2","","96","","30","","3","","","","99.93","","","","","","NA"
"2019-05-16 00:00","2019","05","16","00:00","8.0","","7.5","","97","","13","","2","","","","99.93","","","","","","NA"
"2019-05-16 01:00","2019","05","16","01:00","8.4","","7.9","","97","","36","","9","","","","99.95","","","","","","NA"
"2019-05-16 02:00","2019","05","16","02:00","7.5","","6.3","","92","","1","","8","","","","99.98","","","","","","NA"
"2019-05-16 03:00","2019","05","16","03:00","6.5","","5.0","","90","","1","","6","","","","99.98","","","","","","NA"
"2019-05-16 04:00","2019","05","16","04:00","4.9","","3.7","","92","","36","","7","","","","100.01","","","","","","NA"
"2019-05-16 05:00","2019","05","16","05:00","5.2","","4.1","","93","","1","","4","","","","100.09","","","","","","NA"
"2019-05-16 06:00","2019","05","16","06:00","6.3","","4.6","","89","","31","","2","","","","100.17","","","","","","NA"
"2019-05-16 07:00","2019","05","16","07:00","7.3","","3.8","","78","","34","","7","","","","100.19","","","","","","NA"
"2019-05-16 08:00","2019","05","16","08:00","7.8","","3.9","","77","","26","","3","","","","100.18","","","","","","NA"
"2019-05-16 09:00","2019","05","16","09:00","9.0","","6.0","","81","","18","","13","","","","100.20","","","","","","NA"
"2019-05-16 10:00","2019","05","16","10:00","8.9","","5.6","","80","","19","","16","","","","100.18","","","","","","NA"
"2019-05-16 11:00","2019","05","16","11:00","9.2","","5.6","","78","","17","","17","","","","100.20","","","","","","NA"
"2019-05-16 12:00","2019","05","16","12:00","9.4","","6.8","","84","","17","","20","","","","100.16","","","","","","NA"
"2019-05-16 13:00","2019","05","16","13:00","9.2","","5.7","","79","","17","","18","","","","100.14","","","","","","NA"
"2019-05-16 14:00","2019","05","16","14:00","9.2","","6.1","","81","","17","","16","","","","100.12","","","","","","NA"
"2019-05-16 15:00","2019","05","16","15:00","9.2","","5.6","","78","","16","","16","","","","100.05","","","","","","NA"
"2019-05-16 16:00","2019","05","16","16:00","8.8","","5.7","","81","","15","","15","","","","100.01","","","","","","NA"
"2019-05-16 17:00","2019","05","16","17:00","8.0","","5.7","","85","","18","","10","","","","99.96","","","","","","NA"
"2019-05-16 18:00","2019","05","16","18:00","7.6","","6.0","","89","","17","","10","","","","99.90","","","","","","NA"
"2019-05-16 19:00","2019","05","16","19:00","7.7","","6.1","","90","","18","","13","","","","99.91","","","","","","NA"
"2019-05-16 20:00","2019","05","16","20:00","7.8","","6.7","","92","","21","","11","","","","99.93","","","","","","NA"
"2019-05-16 21:00","2019","05","16","21:00","8.0","","6.8","","92","","15","","6","","","","99.90","","","","","","NA"
"2019-05-16 22:00","2019","05","16","22:00","8.6","","7.3","","92","","8","","10","","","","99.81","","","","","","NA"
"2019-05-16 23:00","2019","05","16","23:00","9.3","","6.9","","85","","17","","2","","","","99.78","","","","","","NA"
"2019-05-17 00:00","2019","05","17","00:00","9.1","","7.4","","89","","8","","13","","","","99.60","","","","","","NA"
"2019-05-17 01:00","2019","05","17","01:00","8.9","","7.0","","88","","9","","17","","","","99.44","","","","","","NA"
"2019-05-17 02:00","2019","05","17","02:00","8.8","","7.5","","92","","6","","14","","","","99.37","","","","","","NA"
"2019-05-17 03:00","2019","05","17","03:00","8.5","","7.6","","94","","5","","8","","","","99.25","","","","","","NA"
"2019-05-17 04:00","2019","05","17","04:00","8.1","","7.3","","95","","5","","7","","","","99.24","","","","","","NA"
"2019-05-17 05:00","2019","05","17","05:00","7.4","","7.0","","97","","36","","4","","","","99.29","","","","","","NA"
"2019-05-17 06:00","2019","05","17","06:00","8.7","","8.3","","97","","2","","2","","","","99.29","","","","","","NA"
"2019-05-17 07:00","2019","05","17","07:00","10.7","","8.7","","87","","18","","2","","","","99.31","","","","","","NA"
"2019-05-17 08:00","2019","05","17","08:00","11.5","","8.9","","84","","22","","11","","","","99.36","","","","","","NA"
"2019-05-17 09:00","2019","05","17","09:00","13.4","","10.4","","82","","23","","15","","","","99.42","","","","","","NA"
"2019-05-17 10:00","2019","05","17","10:00","14.4","","9.7","","73","","28","","17","","","","99.41","","","","","","NA"
"2019-05-17 11:00","2019","05","17","11:00","16.1","","10.5","","69","","28","","16","","","","99.44","","","","","","NA"
"2019-05-17 12:00","2019","05","17","12:00","15.4","","10.9","","74","","23","","17","","","","99.43","","","","","","NA"
"2019-05-17 13:00","2019","05","17","13:00","16.0","","8.3","","60","","26","","23","","","","99.47","","","","","","NA"
"2019-05-17 14:00","2019","05","17","14:00","16.6","","9.2","","62","","30","","17","","","","99.55","","","","","","NA"
"2019-05-17 15:00","2019","05","17","15:00","17.5","","7.4","","52","","26","","20","","","","99.58","","","","","","NA"
"2019-05-17 16:00","2019","05","17","16:00","17.9","","7.4","","50","","26","","19","","","","99.61","","","","","","NA"
"2019-05-17 17:00","2019","05","17","17:00","18.1","","7.3","","49","","27","","20","","","","99.67","","","","","","NA"
"2019-05-17 18:00","2019","05","17","18:00","17.5","","6.2","","47","","27","","18","","","","99.75","","","","","","NA"
"2019-05-17 19:00","2019","05","17","19:00","16.1","","5.3","","49","","32","","13","","","","99.89","","","","","","NA"
"2019-05-17 20:00","2019","05","17","20:00","13.3","","4.8","","57","","1","","10","","","","99.99","","","","","","NA"
"2019-05-17 21:00","2019","05","17","21:00","12.0","","4.7","","61","","2","","10","","","","100.07","","","","","","NA"
"2019-05-17 22:00","2019","05","17","22:00","10.4","","5.0","","69","","35","","8","","","","100.10","","","","","","NA"
"2019-05-17 23:00","2019","05","17","23:00","9.6","","5.3","","74","","","","0","","","","100.16","","","","","","NA"
"2019-05-18 00:00","2019","05","18","00:00","9.0","","3.9","","70","","4","","6","","","","100.27","","","","","","NA"
"2019-05-18 01:00","2019","05","18","01:00","8.5","","4.0","","73","","12","","4","","","","100.29","","","","","","NA"
"2019-05-18 02:00","2019","05","18","02:00","6.9","","2.9","","76","","36","","9","","","","100.32","","","","","","NA"
"2019-05-18 03:00","2019","05","18","03:00","5.5","","3.9","","89","","33","","8","","","","100.38","","","","","","NA"
"2019-05-18 04:00","2019","05","18","04:00","4.9","","2.7","","85","","32","","7","","","","100.42","","","","","","NA"
"2019-05-18 05:00","2019","05","18","05:00","5.0","","2.9","","86","","29","","5","","","","100.49","","","","","","NA"
"2019-05-18 06:00","2019","05","18","06:00","6.9","","3.7","","80","","33","","3","","","","100.52","","","","","","NA"
"2019-05-18 07:00","2019","05","18","07:00","8.9","","3.4","","68","","2","","10","","","","100.60","","","","","","NA"
"2019-05-18 08:00","2019","05","18","08:00","10.2","","3.8","","64","","24","","4","","","","100.64","","","","","","NA"
"2019-05-18 09:00","2019","05","18","09:00","9.8","","4.3","","69","","15","","13","","","","100.66","","","","","","NA"
"2019-05-18 10:00","2019","05","18","10:00","10.5","","5.1","","69","","17","","16","","","","100.67","","","","","","NA"
"2019-05-18 11:00","2019","05","18","11:00","10.8","","6.0","","72","","18","","21","","","","100.69","","","","","","NA"
"2019-05-18 12:00","2019","05","18","12:00","10.8","","6.0","","72","","19","","21","","","","100.66","","","","","","NA"
"2019-05-18 13:00","2019","05","18","13:00","10.8","","5.0","","67","","19","","22","","","","100.67","","","","","","NA"
"2019-05-18 14:00","2019","05","18","14:00","11.8","","5.5","","65","","20","","16","","","","100.64","","","","","","NA"
"2019-05-18 15:00","2019","05","18","15:00","12.2","","4.9","","61","","20","","12","","","","100.63","","","","","","NA"
"2019-05-18 16:00","2019","05","18","16:00","11.8","","5.0","","63","","19","","9","","","","100.61","","","","","","NA"
"2019-05-18 17:00","2019","05","18","17:00","12.2","","5.0","","61","","18","","6","","","","100.56","","","","","","NA"
"2019-05-18 18:00","2019","05","18","18:00","12.1","","4.0","","58","","15","","3","","","","100.51","","","","","","NA"
"2019-05-18 19:00","2019","05","18","19:00","12.1","","4.8","","61","","","","0","","","","100.56","","","","","","NA"
"2019-05-18 20:00","2019","05","18","20:00","11.1","","5.7","","69","","14","","9","","","","100.50","","","","","","NA"
"2019-05-18 21:00","2019","05","18","21:00","11.8","","6.8","","72","","5","","5","","","","100.53","","","","","","NA"
"2019-05-18 22:00","2019","05","18","22:00","12.5","","5.7","","63","","4","","11","","","","100.50","","","","","","NA"
"2019-05-18 23:00","2019","05","18","23:00","12.7","","6.2","","65","","6","","13","","","","100.38","","","","","","NA"
"2019-05-19 00:00","2019","05","19","00:00","12.9","","6.6","","66","","7","","16","","","","100.34","","","","","","NA"
"2019-05-19 01:00","2019","05","19","01:00","13.0","","6.4","","64","","7","","15","","","","100.26","","","","","","NA"
"2019-05-19 02:00","2019","05","19","02:00","12.1","","6.6","","69","","5","","15","","","","100.17","","","","","","NA"
"2019-05-19 03:00","2019","05","19","03:00","11.4","","7.1","","75","","6","","10","","","","100.10","","","","","","NA"
"2019-05-19 04:00","2019","05","19","04:00","11.4","","7.1","","75","","5","","12","","","","100.03","","","","","","NA"
"2019-05-19 05:00","2019","05","19","05:00","11.5","","7.2","","75","","4","","6","","","","100.03","","","","","","NA"
"2019-05-19 06:00","2019","05","19","06:00","12.7","","7.5","","70","","2","","14","","","","100.19","","","","","","NA"
"2019-05-19 07:00","2019","05","19","07:00","13.4","","7.4","","67","","4","","17","","","","100.14","","","","","","NA"
"2019-05-19 08:00","2019","05","19","08:00","14.1","","9.2","","72","","4","","17","","","","100.14","","","","","","NA"
"2019-05-19 09:00","2019","05","19","09:00","15.4","","9.8","","69","","5","","14","","","","100.13","","","","","","NA"
"2019-05-19 10:00","2019","05","19","10:00","17.0","","10.6","","66","","6","","12","","","","100.07","","","","","","NA"
"2019-05-19 11:00","2019","05","19","11:00","19.1","","12.7","","66","","3","","14","","","","100.05","","","","","","NA"
"2019-05-19 12:00","2019","05","19","12:00","20.6","","14.2","","66","","11","","11","","","","99.99","","","","","","NA"
"2019-05-19 13:00","2019","05","19","13:00","20.9","","14.7","","68","","13","","12","","","","99.94","","25","","","","NA"
"2019-05-19 14:00","2019","05","19","14:00","22.2","","15.1","","64","","14","","13","","","","99.84","","26","","","","NA"
"2019-05-19 15:00","2019","05","19","15:00","22.1","","15.2","","65","","16","","8","","","","99.74","","26","","","","NA"
"2019-05-19 16:00","2019","05","19","16:00","22.5","","15.8","","66","","15","","12","","","","99.66","","27","","","","NA"
"2019-05-19 17:00","2019","05","19","17:00","22.5","","15.7","","65","","13","","8","","","","99.55","","27","","","","NA"
"2019-05-19 18:00","2019","05","19","18:00","21.4","","15.9","","71","","12","","8","","","","99.52","","26","","","","NA"
"2019-05-19 19:00","2019","05","19","19:00","19.2","","15.8","","81","","11","","5","","","","99.47","","","","","","NA"
"2019-05-19 20:00","2019","05","19","20:00","19.6","","16.5","","82","","9","","5","","","","99.38","","","","","","NA"
"2019-05-19 21:00","2019","05","19","21:00","17.0","","16.4","","96","","26","","10","","","","99.52","","","","","","NA"
"2019-05-19 22:00","2019","05","19","22:00","18.6","","17.2","","91","","30","","13","","","","99.48","","","","","","NA"
"2019-05-19 23:00","2019","05","19","23:00","16.6","","15.5","","93","","18","","4","","","","99.45","","","","","","NA"
"2019-05-20 00:00","2019","05","20","00:00","10.8","","10.3","","96","","18","","22","","","","99.54","","","","","","NA"
"2019-05-20 01:00","2019","05","20","01:00","10.0","","9.5","","97","","18","","20","","","","99.48","","","","","","NA"
"2019-05-20 02:00","2019","05","20","02:00","9.4","","9.2","","98","","18","","14","","","","99.46","","","","","","NA"
"2019-05-20 03:00","2019","05","20","03:00","10.2","","10.0","","99","","20","","7","","","","99.41","","","","","","NA"
"2019-05-20 04:00","2019","05","20","04:00","10.8","","10.6","","99","","19","","3","","","","99.35","","","","","","NA"
"2019-05-20 05:00","2019","05","20","05:00","13.1","","13.1","","100","","24","","13","","","","99.38","","","","","","NA"
"2019-05-20 06:00","2019","05","20","06:00","13.7","","13.7","","100","","21","","11","","","","99.41","","","","","","NA"
"2019-05-20 07:00","2019","05","20","07:00","14.6","","14.6","","100","","19","","12","","","","99.40","","","","","","NA"
"2019-05-20 08:00","2019","05","20","08:00","17.2","","14.9","","86","","23","","24","","","","99.38","","","","","","NA"
"2019-05-20 09:00","2019","05","20","09:00","16.9","","14.3","","85","","23","","28","","","","99.43","","","","","","NA"
"2019-05-20 10:00","2019","05","20","10:00","16.9","","14.1","","84","","22","","23","","","","99.42","","","","","","NA"
"2019-05-20 11:00","2019","05","20","11:00","16.8","","12.8","","77","","23","","29","","","","99.43","","","","","","NA"
"2019-05-20 12:00","2019","05","20","12:00","17.9","","13.1","","73","","23","","34","","","","99.45","","","","","","NA"
"2019-05-20 13:00","2019","05","20","13:00","18.5","","11.7","","65","","23","","33","","","","99.42","","","","","","NA"
"2019-05-20 14:00","2019","05","20","14:00","18.7","","10.4","","59","","23","","36","","","","99.40","","","","","","NA"
"2019-05-20 15:00","2019","05","20","15:00","18.1","","9.7","","58","","26","","23","","","","99.48","","","","","","NA"
"2019-05-20 16:00","2019","05","20","16:00","15.9","","7.7","","58","","24","","32","","","","99.56","","","","","","NA"
"2019-05-20 17:00","2019","05","20","17:00","16.1","","6.8","","54","","26","","26","","","","99.62","","","","","","NA"
"2019-05-20 18:00","2019","05","20","18:00","13.6","","6.1","","60","","27","","30","","","","99.71","","","","","","NA"
"2019-05-20 19:00","2019","05","20","19:00","12.2","","5.6","","64","","28","","24","","","","99.88","","","","","","NA"
"2019-05-20 20:00","2019","05","20","20:00","11.2","","5.1","","66","","27","","25","","","","99.96","","","","","","NA"
"2019-05-20 21:00","2019","05","20","21:00","10.5","","4.9","","68","","26","","21","","","","100.02","","","","","","NA"
"2019-05-20 22:00","2019","05","20","22:00","9.9","","5.4","","73","","28","","22","","","","100.14","","","","","","NA"
"2019-05-20 23:00","2019","05","20","23:00","9.3","","6.4","","82","","30","","13","","","","100.17","","","","","","NA"
"2019-05-21 00:00","2019","05","21","00:00","9.4","","4.7","","72","","30","","16","","","","100.18","","","","","","NA"
"2019-05-21 01:00","2019","05","21","01:00","8.3","","3.7","","73","","29","","13","","","","100.19","","","","","","NA"
"2019-05-21 02:00","2019","05","21","02:00","8.4","","3.3","","70","","28","","16","","","","100.20","","","","","","NA"
"2019-05-21 03:00","2019","05","21","03:00","7.7","","4.2","","78","","26","","19","","","","100.28","","","","","","NA"
"2019-05-21 04:00","2019","05","21","04:00","7.9","","4.6","","79","","26","","21","","","","100.27","","","","","","NA"
"2019-05-21 05:00","2019","05","21","05:00","7.3","","4.1","","80","","27","","16","","","","100.33","","","","","","NA"
"2019-05-21 06:00","2019","05","21","06:00","8.0","","4.3","","77","","27","","20","","","","100.40","","","","","","NA"
"2019-05-21 07:00","2019","05","21","07:00","9.7","","4.8","","72","","29","","15","","","","100.40","","","","","","NA"
"2019-05-21 08:00","2019","05","21","08:00","10.8","","4.4","","65","","33","","23","","","","100.42","","","","","","NA"
"2019-05-21 09:00","2019","05","21","09:00","12.2","","3.0","","53","","31","","26","","","","100.49","","","","","","NA"
"2019-05-21 10:00","2019","05","21","10:00","14.1","","3.1","","47","","32","","31","","","","100.51","","","","","","NA"
"2019-05-21 11:00","2019","05","21","11:00","15.5","","3.1","","43","","31","","28","","","","100.54","","","","","","NA"
"2019-05-21 12:00","2019","05","21","12:00","16.8","","3.1","","40","","32","","28","","","","100.58","","","","","","NA"
"2019-05-21 13:00","2019","05","21","13:00","17.3","","2.4","","37","","32","","22","","","","100.54","","","","","","NA"
"2019-05-21 14:00","2019","05","21","14:00","16.8","","1.5","","36","","33","","24","","","","100.58","","","","","","NA"
"2019-05-21 15:00","2019","05","21","15:00","18.9","","2.5","","34","","32","","24","","","","100.61","","","","","","NA"
"2019-05-21 16:00","2019","05","21","16:00","17.8","","1.5","","33","","35","","21","","","","100.66","","","","","","NA"
"2019-05-21 17:00","2019","05","21","17:00","18.0","","2.5","","35","","35","","19","","","","100.69","","","","","","NA"
"2019-05-21 18:00","2019","05","21","18:00","17.9","","1.1","","32","","34","","17","","","","100.72","","","","","","NA"
"2019-05-21 19:00","2019","05","21","19:00","15.6","","1.8","","39","","35","","12","","","","100.79","","","","","","NA"
"2019-05-21 20:00","2019","05","21","20:00","14.9","","1.3","","40","","35","","5","","","","100.85","","","","","","NA"
"2019-05-21 21:00","2019","05","21","21:00","12.1","","2.3","","51","","33","","5","","","","100.90","","","","","","NA"
"2019-05-21 22:00","2019","05","21","22:00","11.1","","3.4","","59","","32","","6","","","","100.93","","","","","","NA"
"2019-05-21 23:00","2019","05","21","23:00","9.4","","4.2","","70","","31","","6","","","","100.97","","","","","","NA"
"2019-05-22 00:00","2019","05","22","00:00","8.1","","4.7","","79","","34","","11","","","","100.99","","","","","","NA"
"2019-05-22 01:00","2019","05","22","01:00","8.0","","3.9","","76","","33","","13","","","","101.05","","","","","","NA"
"2019-05-22 02:00","2019","05","22","02:00","8.3","","3.6","","73","","33","","11","","","","101.11","","","","","","NA"
"2019-05-22 03:00","2019","05","22","03:00","6.9","","3.3","","78","","35","","14","","","","101.15","","","","","","NA"
"2019-05-22 04:00","2019","05","22","04:00","7.6","","3.0","","73","","34","","9","","","","101.17","","","","","","NA"
"2019-05-22 05:00","2019","05","22","05:00","6.5","","2.7","","77","","34","","10","","","","101.29","","","","","","NA"
"2019-05-22 06:00","2019","05","22","06:00","8.3","","5.2","","81","","35","","11","","","","101.36","","","","","","NA"
"2019-05-22 07:00","2019","05","22","07:00","12.7","","3.3","","53","","4","","15","","","","101.39","","","","","","NA"
"2019-05-22 08:00","2019","05","22","08:00","14.5","","5.5","","55","","6","","13","","","","101.48","","","","","","NA"
"2019-05-22 09:00","2019","05","22","09:00","15.1","","5.1","","51","","10","","18","","","","101.44","","","","","","NA"
"2019-05-22 10:00","2019","05","22","10:00","15.1","","3.6","","46","","11","","23","","","","101.44","","","","","","NA"
"2019-05-22 11:00","2019","05","22","11:00","15.7","","2.9","","42","","11","","17","","","","101.43","","","","","","NA"
"2019-05-22 12:00","2019","05","22","12:00","16.8","","4.3","","43","","10","","15","","","","101.36","","","","","","NA"
"2019-05-22 13:00","2019","05","22","13:00","16.9","","2.9","","39","","7","","18","","","","101.27","","","","","","NA"
"2019-05-22 14:00","2019","05","22","14:00","16.9","","4.5","","44","","18","","10","","","","101.33","","","","","","NA"
"2019-05-22 15:00","2019","05","22","15:00","16.4","","4.1","","44","","19","","5","","","","101.25","","","","","","NA"
"2019-05-22 16:00","2019","05","22","16:00","16.8","","5.0","","46","","7","","13","","","","101.11","","","","","","NA"
"2019-05-22 17:00","2019","05","22","17:00","17.3","","5.1","","44","","7","","15","","","","101.04","","","","","","NA"
"2019-05-22 18:00","2019","05","22","18:00","16.7","","5.2","","47","","8","","9","","","","100.95","","","","","","NA"
"2019-05-22 19:00","2019","05","22","19:00","16.1","","5.0","","48","","9","","10","","","","100.89","","","","","","NA"
"2019-05-22 20:00","2019","05","22","20:00","15.4","","5.0","","50","","8","","12","","","","100.78","","","","","","NA"
"2019-05-22 21:00","2019","05","22","21:00","14.4","","8.7","","68","","35","","3","","","","100.93","","","","","","NA"
"2019-05-22 22:00","2019","05","22","22:00","14.2","","8.3","","68","","6","","9","","","","100.87","","","","","","NA"
"2019-05-22 23:00","2019","05","22","23:00","14.0","","8.5","","70","","9","","16","","","","100.76","","","","","","NA"
"2019-05-23 00:00","2019","05","23","00:00","13.0","","7.7","","70","","9","","11","","","","100.71","","","","","","NA"
"2019-05-23 01:00","2019","05","23","01:00","13.9","","8.0","","68","","11","","6","","","","100.67","","","","","","NA"
"2019-05-23 02:00","2019","05","23","02:00","13.2","","7.7","","69","","14","","8","","","","100.63","","","","","","NA"
"2019-05-23 03:00","2019","05","23","03:00","12.0","","7.7","","75","","18","","7","","","","100.63","","","","","","NA"
"2019-05-23 04:00","2019","05","23","04:00","10.9","","7.7","","80","","14","","2","","","","100.57","","","","","","NA"
"2019-05-23 05:00","2019","05","23","05:00","11.4","","8.4","","82","","15","","5","","","","100.56","","","","","","NA"
"2019-05-23 06:00","2019","05","23","06:00","12.0","","8.7","","80","","19","","7","","","","100.54","","","","","","NA"
"2019-05-23 07:00","2019","05","23","07:00","11.9","","9.1","","83","","18","","13","","","","100.52","","","","","","NA"
"2019-05-23 08:00","2019","05","23","08:00","12.7","","9.1","","79","","19","","10","","","","100.47","","","","","","NA"
"2019-05-23 09:00","2019","05","23","09:00","13.1","","10.2","","82","","18","","13","","","","100.38","","","","","","NA"
"2019-05-23 10:00","2019","05","23","10:00","13.8","","10.1","","78","","18","","9","","","","100.32","","","","","","NA"
"2019-05-23 11:00","2019","05","23","11:00","14.0","","10.8","","82","","18","","11","","","","100.24","","","","","","NA"
"2019-05-23 12:00","2019","05","23","12:00","13.9","","11.9","","88","","28","","7","","","","100.16","","","","","","NA"
"2019-05-23 13:00","2019","05","23","13:00","14.1","","11.9","","87","","16","","7","","","","99.98","","","","","","NA"
"2019-05-23 14:00","2019","05","23","14:00","13.8","","13.2","","96","","16","","8","","","","99.79","","","","","","NA"
"2019-05-23 15:00","2019","05","23","15:00","13.8","","13.5","","98","","19","","18","","","","99.73","","","","","","NA"
"2019-05-23 16:00","2019","05","23","16:00","15.0","","14.5","","97","","19","","11","","","","99.60","","","","","","NA"
"2019-05-23 17:00","2019","05","23","17:00","16.4","","15.5","","95","","20","","7","","","","99.53","","","","","","NA"
"2019-05-23 18:00","2019","05","23","18:00","18.3","","18.1","","99","","27","","15","","","","99.51","","","","","","NA"
"2019-05-23 19:00","2019","05","23","19:00","18.1","","15.0","","82","","28","","20","","","","99.56","","","","","","NA"
"2019-05-23 20:00","2019","05","23","20:00","17.0","","14.3","","84","","27","","18","","","","99.64","","","","","","NA"
"2019-05-23 21:00","2019","05","23","21:00","16.1","","11.8","","75","","26","","16","","","","99.68","","","","","","NA"
"2019-05-23 22:00","2019","05","23","22:00","15.6","","8.7","","63","","27","","22","","","","99.70","","","","","","NA"
"2019-05-23 23:00","2019","05","23","23:00","14.9","","8.9","","67","","27","","24","","","","99.74","","","","","","NA"
"2019-05-24 00:00","2019","05","24","00:00","14.0","","9.0","","72","","27","","19","","","","99.78","","","","","","NA"
"2019-05-24 01:00","2019","05","24","01:00","13.1","","9.2","","77","","27","","17","","","","99.81","","","","","","NA"
"2019-05-24 02:00","2019","05","24","02:00","12.3","","9.0","","80","","27","","13","","","","99.81","","","","","","NA"
"2019-05-24 03:00","2019","05","24","03:00","11.9","","9.5","","85","","27","","14","","","","99.88","","","","","","NA"
"2019-05-24 04:00","2019","05","24","04:00","11.7","","9.8","","88","","28","","13","","","","99.94","","","","","","NA"
"2019-05-24 05:00","2019","05","24","05:00","11.9","","10.3","","90","","29","","12","","","","100.07","","","","","","NA"
"2019-05-24 06:00","2019","05","24","06:00","14.0","","11.1","","83","","31","","19","","","","100.13","","","","","","NA"
"2019-05-24 07:00","2019","05","24","07:00","14.5","","11.4","","81","","32","","20","","","","100.29","","","","","","NA"
"2019-05-24 08:00","2019","05","24","08:00","15.0","","9.7","","71","","34","","29","","","","100.41","","","","","","NA"
"2019-05-24 09:00","2019","05","24","09:00","14.6","","9.5","","71","","34","","23","","","","100.47","","","","","","NA"
"2019-05-24 10:00","2019","05","24","10:00","15.0","","8.6","","66","","34","","25","","","","100.53","","","","","","NA"
"2019-05-24 11:00","2019","05","24","11:00","17.3","","9.8","","61","","34","","20","","","","100.58","","","","","","NA"
"2019-05-24 12:00","2019","05","24","12:00","17.8","","9.5","","58","","34","","19","","","","100.63","","","","","","NA"
"2019-05-24 13:00","2019","05","24","13:00","19.2","","10.7","","58","","34","","13","","","","100.67","","","","","","NA"
"2019-05-24 14:00","2019","05","24","14:00","18.7","","8.9","","53","","36","","11","","","","100.70","","","","","","NA"
"2019-05-24 15:00","2019","05","24","15:00","15.5","","10.4","","72","","21","","7","","","","100.79","","","","","","NA"
"2019-05-24 16:00","2019","05","24","16:00","14.0","","10.3","","78","","16","","11","","","","100.83","","","","","","NA"
"2019-05-24 17:00","2019","05","24","17:00","12.9","","9.9","","82","","16","","10","","","","100.89","","","","","","NA"
"2019-05-24 18:00","2019","05","24","18:00","13.6","","9.8","","78","","21","","5","","","","100.91","","","","","","NA"
"2019-05-24 19:00","2019","05","24","19:00","12.3","","9.5","","83","","18","","4","","","","100.90","","","","","","NA"
"2019-05-24 20:00","2019","05","24","20:00","11.4","","9.4","","88","","0","","1","","","","100.90","","","","","","NA"
"2019-05-24 21:00","2019","05","24","21:00","10.6","","9.6","","93","","13","","3","","","","100.92","","","","","","NA"
"2019-05-24 22:00","2019","05","24","22:00","9.7","","9.0","","96","","16","","3","","","","100.95","","","","","","NA"
"2019-05-24 23:00","2019","05","24","23:00","9.1","","8.7","","97","","14","","6","","","","101.01","","","","","","NA"
"2019-05-25 00:00","2019","05","25","00:00","9.3","","8.8","","97","","12","","8","","","","100.99","","","","","","NA"
"2019-05-25 01:00","2019","05","25","01:00","9.1","","8.8","","98","","14","","6","","","","100.97","","","","","","NA"
"2019-05-25 02:00","2019","05","25","02:00","9.1","","8.5","","96","","16","","3","","","","100.94","","","","","","NA"
"2019-05-25 03:00","2019","05","25","03:00","9.0","","8.7","","98","","16","","5","","","","100.94","","","","","","NA"
"2019-05-25 04:00","2019","05","25","04:00","8.3","","7.9","","97","","15","","4","","","","100.94","","","","","","NA"
"2019-05-25 05:00","2019","05","25","05:00","8.0","","7.9","","99","","14","","4","","","","100.94","","","","","","NA"
"2019-05-25 06:00","2019","05","25","06:00","11.1","","10.1","","94","","13","","10","","","","100.84","","","","","","NA"
"2019-05-25 07:00","2019","05","25","07:00","11.5","","10.1","","92","","14","","13","","","","100.81","","","","","","NA"
"2019-05-25 08:00","2019","05","25","08:00","12.0","","10.1","","88","","17","","11","","","","100.85","","","","","","NA"
"2019-05-25 09:00","2019","05","25","09:00","12.1","","10.7","","91","","16","","10","","","","100.79","","","","","","NA"
"2019-05-25 10:00","2019","05","25","10:00","12.9","","10.9","","88","","15","","12","","","","100.76","","","","","","NA"
"2019-05-25 11:00","2019","05","25","11:00","11.9","","11.3","","96","","14","","8","","","","100.68","","","","","","NA"
"2019-05-25 12:00","2019","05","25","12:00","12.0","","11.4","","96","","18","","12","","","","100.64","","","","","","NA"
"2019-05-25 13:00","2019","05","25","13:00","11.6","","11.3","","98","","15","","15","","","","100.39","","","","","","NA"
"2019-05-25 14:00","2019","05","25","14:00","11.7","","11.7","","100","","17","","15","","","","100.28","","","","","","NA"
"2019-05-25 15:00","2019","05","25","15:00","14.9","","14.1","","95","","14","","25","","","","100.05","","","","","","NA"
"2019-05-25 16:00","2019","05","25","16:00","14.7","","13.8","","94","","16","","19","","","","100.19","","","","","","NA"
"2019-05-25 17:00","2019","05","25","17:00","15.9","","13.1","","83","","15","","17","","","","99.87","","","","","","NA"
"2019-05-25 18:00","2019","05","25","18:00","16.7","","13.5","","81","","15","","15","","","","99.92","","","","","","NA"
"2019-05-25 19:00","2019","05","25","19:00","15.4","","13.8","","90","","18","","6","","","","99.88","","","","","","NA"
"2019-05-25 20:00","2019","05","25","20:00","13.2","","13.0","","99","","17","","10","","","","99.79","","","","","","NA"
"2019-05-25 21:00","2019","05","25","21:00","12.6","","12.6","","100","","20","","5","","","","99.81","","","","","","NA"
"2019-05-25 22:00","2019","05","25","22:00","11.8","","11.8","","100","","19","","23","","","","99.90","","","","","","NA"
"2019-05-25 23:00","2019","05","25","23:00","13.4","","13.3","","100","","20","","19","","","","99.95","","","","","","NA"
"2019-05-26 00:00","2019","05","26","00:00","14.2","","14.2","","100","","22","","17","","","","99.92","","","","","","NA"
"2019-05-26 01:00","2019","05","26","01:00","13.6","","13.6","","100","","23","","12","","","","99.91","","","","","","NA"
"2019-05-26 02:00","2019","05","26","02:00","12.6","","12.5","","100","","18","","5","","","","99.90","","","","","","NA"
"2019-05-26 03:00","2019","05","26","03:00","13.0","","13.0","","100","","20","","9","","","","99.86","","","","","","NA"
"2019-05-26 04:00","2019","05","26","04:00","15.1","","15.0","","100","","24","","20","","","","99.88","","","","","","NA"
"2019-05-26 05:00","2019","05","26","05:00","14.9","","14.8","","99","","22","","13","","","","99.92","","","","","","NA"
"2019-05-26 06:00","2019","05","26","06:00","12.7","","12.6","","99","","18","","6","","","","99.95","","","","","","NA"
"2019-05-26 07:00","2019","05","26","07:00","14.4","","14.3","","99","","23","","13","","","","100.03","","","","","","NA"
"2019-05-26 08:00","2019","05","26","08:00","15.2","","15.1","","99","","22","","15","","","","100.09","","","","","","NA"
"2019-05-26 09:00","2019","05","26","09:00","16.4","","16.4","","100","","24","","13","","","","100.12","","","","","","NA"
"2019-05-26 10:00","2019","05","26","10:00","18.3","","15.7","","84","","23","","19","","","","100.11","","","","","","NA"
"2019-05-26 11:00","2019","05","26","11:00","18.1","","15.0","","82","","19","","16","","","","100.09","","","","","","NA"
"2019-05-26 12:00","2019","05","26","12:00","19.9","","15.7","","77","","20","","20","","","","100.11","","","","","","NA"
"2019-05-26 13:00","2019","05","26","13:00","23.4","","11.7","","48","","27","","21","","","","100.07","","26","","","","NA"
"2019-05-26 14:00","2019","05","26","14:00","23.8","","10.9","","44","","29","","20","","","","100.06","","26","","","","NA"
"2019-05-26 15:00","2019","05","26","15:00","24.0","","11.6","","46","","30","","15","","","","100.07","","26","","","","NA"
"2019-05-26 16:00","2019","05","26","16:00","23.1","","10.1","","44","","29","","14","","","","100.08","","","","","","NA"
"2019-05-26 17:00","2019","05","26","17:00","23.1","","9.9","","43","","28","","11","","","","100.08","","","","","","NA"
"2019-05-26 18:00","2019","05","26","18:00","22.5","","11.1","","48","","31","","11","","","","100.10","","","","","","NA"
"2019-05-26 19:00","2019","05","26","19:00","20.4","","10.4","","52","","34","","13","","","","100.13","","","","","","NA"
"2019-05-26 20:00","2019","05","26","20:00","18.9","","10.5","","58","","35","","5","","","","100.19","","","","","","NA"
"2019-05-26 21:00","2019","05","26","21:00","18.0","","9.3","","57","","2","","9","","","","100.27","","","","","","NA"
"2019-05-26 22:00","2019","05","26","22:00","16.6","","9.9","","64","","2","","4","","","","100.30","","","","","","NA"
"2019-05-26 23:00","2019","05","26","23:00","16.7","","9.2","","61","","1","","17","","","","100.33","","","","","","NA"
"2019-05-27 00:00","2019","05","27","00:00","15.4","","8.7","","64","","2","","10","","","","100.36","","","","","","NA"
"2019-05-27 01:00","2019","05","27","01:00","14.6","","8.0","","64","","4","","9","","","","100.36","","","","","","NA"
"2019-05-27 02:00","2019","05","27","02:00","11.8","","9.4","","85","","19","","2","","","","100.38","","","","","","NA"
"2019-05-27 03:00","2019","05","27","03:00","11.3","","9.7","","90","","34","","5","","","","100.35","","","","","","NA"
"2019-05-27 04:00","2019","05","27","04:00","9.9","","9.6","","98","","34","","5","","","","100.37","","","","","","NA"
"2019-05-27 05:00","2019","05","27","05:00","9.1","","8.7","","97","","34","","12","","","","100.46","","","","","","NA"
"2019-05-27 06:00","2019","05","27","06:00","12.5","","10.0","","85","","33","","9","","","","100.53","","","","","","NA"
"2019-05-27 07:00","2019","05","27","07:00","15.2","","9.3","","68","","33","","8","","","","100.58","","","","","","NA"
"2019-05-27 08:00","2019","05","27","08:00","17.3","","8.7","","57","","34","","10","","","","100.62","","","","","","NA"
"2019-05-27 09:00","2019","05","27","09:00","18.5","","8.9","","54","","15","","8","","","","100.54","","","","","","NA"
"2019-05-27 10:00","2019","05","27","10:00","19.3","","8.4","","49","","19","","9","","","","100.54","","","","","","NA"
"2019-05-27 11:00","2019","05","27","11:00","17.7","","9.7","","60","","19","","10","","","","100.58","","","","","","NA"
"2019-05-27 12:00","2019","05","27","12:00","18.7","","10.2","","58","","2","","15","","","","100.57","","","","","","NA"
"2019-05-27 13:00","2019","05","27","13:00","18.2","","10.3","","60","","1","","17","","","","100.57","","","","","","NA"
"2019-05-27 14:00","2019","05","27","14:00","17.8","","8.8","","56","","2","","15","","","","100.54","","","","","","NA"
"2019-05-27 15:00","2019","05","27","15:00","18.5","","10.2","","58","","2","","10","","","","100.51","","","","","","NA"
"2019-05-27 16:00","2019","05","27","16:00","18.1","","9.6","","57","","2","","13","","","","100.49","","","","","","NA"
"2019-05-27 17:00","2019","05","27","17:00","18.1","","8.9","","55","","3","","14","","","","100.46","","","","","","NA"
"2019-05-27 18:00","2019","05","27","18:00","17.6","","7.5","","52","","4","","11","","","","100.44","","","","","","NA"
"2019-05-27 19:00","2019","05","27","19:00","15.2","","8.6","","64","","10","","15","","","","100.40","","","","","","NA"
"2019-05-27 20:00","2019","05","27","20:00","15.2","","7.3","","59","","8","","12","","","","100.47","","","","","","NA"
"2019-05-27 21:00","2019","05","27","21:00","14.0","","7.8","","66","","9","","10","","","","100.44","","","","","","NA"
"2019-05-27 22:00","2019","05","27","22:00","14.2","","6.4","","59","","7","","14","","","","100.36","","","","","","NA"
"2019-05-27 23:00","2019","05","27","23:00","13.7","","5.4","","57","","6","","12","","","","100.34","","","","","","NA"
"2019-05-28 00:00","2019","05","28","00:00","13.2","","5.1","","58","","6","","11","","","","100.32","","","","","","NA"
"2019-05-28 01:00","2019","05","28","01:00","12.9","","6.3","","64","","7","","9","","","","100.31","","","","","","NA"
"2019-05-28 02:00","2019","05","28","02:00","11.5","","8.4","","81","","6","","10","","","","100.23","","","","","","NA"
"2019-05-28 03:00","2019","05","28","03:00","11.7","","7.3","","74","","6","","21","","","","100.07","","","","","","NA"
"2019-05-28 04:00","2019","05","28","04:00","11.8","","7.4","","74","","7","","13","","","","100.16","","","","","","NA"
"2019-05-28 05:00","2019","05","28","05:00","10.5","","8.5","","87","","8","","11","","","","100.14","","","","","","NA"
"2019-05-28 06:00","2019","05","28","06:00","10.6","","7.2","","79","","7","","12","","","","100.06","","","","","","NA"
"2019-05-28 07:00","2019","05","28","07:00","10.2","","8.1","","87","","6","","12","","","","100.01","","","","","","NA"
"2019-05-28 08:00","2019","05","28","08:00","10.1","","9.3","","95","","7","","14","","","","99.98","","","","","","NA"
"2019-05-28 09:00","2019","05","28","09:00","10.1","","8.8","","92","","8","","24","","","","99.83","","","","","","NA"
"2019-05-28 10:00","2019","05","28","10:00","9.1","","8.6","","97","","5","","27","","","","99.74","","","","","","NA"
"2019-05-28 11:00","2019","05","28","11:00","10.1","","10.0","","99","","6","","22","","","","99.64","","","","","","NA"
"2019-05-28 12:00","2019","05","28","12:00","11.2","","10.7","","97","","7","","23","","","","99.54","","","","","","NA"
"2019-05-28 13:00","2019","05","28","13:00","11.7","","10.9","","95","","5","","23","","","","99.49","","","","","","NA"
"2019-05-28 14:00","2019","05","28","14:00","12.0","","10.7","","92","","5","","26","","","","99.50","","","","","","NA"
"2019-05-28 15:00","2019","05","28","15:00","11.9","","11.5","","97","","5","","24","","","","99.45","","","","","","NA"
"2019-05-28 16:00","2019","05","28","16:00","12.3","","10.3","","87","","5","","21","","","","99.46","","","","","","NA"
"2019-05-28 17:00","2019","05","28","17:00","12.3","","10.9","","91","","3","","17","","","","99.47","","","","","","NA"
"2019-05-28 18:00","2019","05","28","18:00","11.8","","11.0","","95","","2","","14","","","","99.49","","","","","","NA"
"2019-05-28 19:00","2019","05","28","19:00","11.6","","10.9","","96","","1","","13","","","","99.53","","","","","","NA"
"2019-05-28 20:00","2019","05","28","20:00","11.5","","10.5","","94","","36","","12","","","","99.59","","","","","","NA"
"2019-05-28 21:00","2019","05","28","21:00","11.5","","10.5","","93","","36","","12","","","","99.69","","","","","","NA"
"2019-05-28 22:00","2019","05","28","22:00","11.3","","10.5","","95","","34","","14","","","","99.71","","","","","","NA"
"2019-05-28 23:00","2019","05","28","23:00","11.5","","10.1","","91","","36","","13","","","","99.67","","","","","","NA"
"2019-05-29 00:00","2019","05","29","00:00","9.6","","8.9","","96","","35","","8","","","","99.64","","","","","","NA"
"2019-05-29 01:00","2019","05","29","01:00","8.6","","8.6","","100","","33","","8","","","","99.68","","","","","","NA"
"2019-05-29 02:00","2019","05","29","02:00","8.0","","8.0","","100","","33","","8","","","","99.69","","","","","","NA"
"2019-05-29 03:00","2019","05","29","03:00","7.0","","7.0","","100","","34","","9","","","","99.68","","","","","","NA"
"2019-05-29 04:00","2019","05","29","04:00","7.5","","7.5","","100","","33","","7","","","","99.75","","","","","","NA"
"2019-05-29 05:00","2019","05","29","05:00","7.4","","7.3","","100","","34","","7","","","","99.78","","","","","","NA"
"2019-05-29 06:00","2019","05","29","06:00","9.3","","9.2","","100","","22","","3","","","","99.79","","","","","","NA"
"2019-05-29 07:00","2019","05","29","07:00","11.0","","9.2","","88","","28","","3","","","","99.82","","","","","","NA"
"2019-05-29 08:00","2019","05","29","08:00","11.9","","8.2","","78","","6","","10","","","","99.67","","","","","","NA"
"2019-05-29 09:00","2019","05","29","09:00","11.6","","9.2","","85","","17","","10","","","","99.71","","","","","","NA"
"2019-05-29 10:00","2019","05","29","10:00","12.5","","9.5","","82","","19","","12","","","","99.71","","","","","","NA"
"2019-05-29 11:00","2019","05","29","11:00","13.1","","9.5","","79","","18","","10","","","","99.70","","","","","","NA"
"2019-05-29 12:00","2019","05","29","12:00","13.2","","9.0","","76","","20","","9","","","","99.74","","","","","","NA"
"2019-05-29 13:00","2019","05","29","13:00","13.7","","8.8","","73","","16","","8","","","","99.60","","","","","","NA"
"2019-05-29 14:00","2019","05","29","14:00","13.8","","9.9","","78","","18","","13","","","","99.56","","","","","","NA"
"2019-05-29 15:00","2019","05","29","15:00","13.9","","9.8","","76","","19","","16","","","","99.50","","","","","","NA"
"2019-05-29 16:00","2019","05","29","16:00","13.6","","8.5","","71","","19","","13","","","","99.42","","","","","","NA"
"2019-05-29 17:00","2019","05","29","17:00","14.4","","9.4","","72","","21","","12","","","","99.49","","","","","","NA"
"2019-05-29 18:00","2019","05","29","18:00","13.5","","9.0","","74","","20","","17","","","","99.51","","","","","","NA"
"2019-05-29 19:00","2019","05","29","19:00","12.4","","9.0","","80","","21","","10","","","","99.47","","","","","","NA"
"2019-05-29 20:00","2019","05","29","20:00","11.2","","9.0","","86","","21","","12","","","","99.49","","","","","","NA"
"2019-05-29 21:00","2019","05","29","21:00","11.4","","10.0","","91","","24","","13","","","","99.58","","","","","","NA"
"2019-05-29 22:00","2019","05","29","22:00","11.0","","9.4","","90","","25","","13","","","","99.58","","","","","","NA"
"2019-05-29 23:00","2019","05","29","23:00","10.0","","8.5","","90","","25","","9","","","","99.60","","","","","","NA"
"2019-05-30 00:00","2019","05","30","00:00","9.4","","9.0","","97","","19","","10","","","","99.60","","","","","","NA"
"2019-05-30 01:00","2019","05","30","01:00","9.2","","9.0","","99","","19","","9","","","","99.63","","","","","","NA"
"2019-05-30 02:00","2019","05","30","02:00","8.8","","8.3","","97","","21","","7","","","","99.59","","","","","","NA"
"2019-05-30 03:00","2019","05","30","03:00","9.1","","9.1","","100","","18","","7","","","","99.65","","","","","","NA"
"2019-05-30 04:00","2019","05","30","04:00","9.1","","9.1","","100","","17","","10","","","","99.60","","","","","","NA"
"2019-05-30 05:00","2019","05","30","05:00","8.4","","8.3","","100","","14","","5","","","","99.60","","","","","","NA"
"2019-05-30 06:00","2019","05","30","06:00","10.1","","10.0","","100","","18","","10","","","","99.63","","","","","","NA"
"2019-05-30 07:00","2019","05","30","07:00","8.9","","8.8","","99","","18","","18","","","","99.66","","","","","","NA"
"2019-05-30 08:00","2019","05","30","08:00","9.6","","9.6","","100","","19","","18","","","","99.68","","","","","","NA"
"2019-05-30 09:00","2019","05","30","09:00","10.0","","10.0","","99","","18","","16","","","","99.63","","","","","","NA"
"2019-05-30 10:00","2019","05","30","10:00","10.8","","10.7","","99","","17","","18","","","","99.59","","","","","","NA"
"2019-05-30 11:00","2019","05","30","11:00","10.8","","10.7","","99","","17","","16","","","","99.57","","","","","","NA"
"2019-05-30 12:00","2019","05","30","12:00","12.9","","12.7","","99","","18","","14","","","","99.52","","","","","","NA"
"2019-05-30 13:00","2019","05","30","13:00","13.3","","12.3","","93","","17","","12","","","","99.46","","","","","","NA"
"2019-05-30 14:00","2019","05","30","14:00","13.8","","12.5","","92","","17","","11","","","","99.39","","","","","","NA"
"2019-05-30 15:00","2019","05","30","15:00","14.4","","12.5","","89","","17","","12","","","","99.32","","","","","","NA"
"2019-05-30 16:00","2019","05","30","16:00","15.0","","12.5","","85","","16","","10","","","","99.24","","","","","","NA"
"2019-05-30 17:00","2019","05","30","17:00","14.6","","12.9","","90","","18","","8","","","","99.18","","","","","","NA"
"2019-05-30 18:00","2019","05","30","18:00","13.9","","12.5","","91","","18","","10","","","","99.13","","","","","","NA"
"2019-05-30 19:00","2019","05","30","19:00","12.9","","12.1","","95","","19","","9","","","","99.14","","","","","","NA"
"2019-05-30 20:00","2019","05","30","20:00","12.9","","12.6","","98","","21","","7","","","","99.15","","","","","","NA"
"2019-05-30 21:00","2019","05","30","21:00","14.1","","12.9","","92","","22","","11","","","","99.18","","","","","","NA"
"2019-05-30 22:00","2019","05","30","22:00","13.4","","12.9","","97","","24","","9","","","","99.24","","","","","","NA"
"2019-05-30 23:00","2019","05","30","23:00","12.8","","12.7","","99","","24","","10","","","","99.26","","","","","","NA"
"2019-05-31 00:00","2019","05","31","00:00","12.5","","12.4","","100","","32","","8","","","","99.37","","","","","","NA"
"2019-05-31 01:00","2019","05","31","01:00","11.9","","10.3","","90","","36","","10","","","","99.43","","","","","","NA"
"2019-05-31 02:00","2019","05","31","02:00","10.5","","9.3","","93","","35","","7","","","","99.49","","","","","","NA"
"2019-05-31 03:00","2019","05","31","03:00","11.8","","10.0","","89","","1","","12","","","","99.58","","","","","","NA"
"2019-05-31 04:00","2019","05","31","04:00","10.8","","9.0","","89","","2","","11","","","","99.64","","","","","","NA"
"2019-05-31 05:00","2019","05","31","05:00","9.7","","4.3","","69","","3","","15","","","","99.71","","","","","","NA"
"2019-05-31 06:00","2019","05","31","06:00","9.1","","7.0","","86","","33","","7","","","","99.81","","","","","","NA"
"2019-05-31 07:00","2019","05","31","07:00","10.8","","5.8","","72","","2","","13","","","","99.86","","","","","","NA"
"2019-05-31 08:00","2019","05","31","08:00","12.0","","4.7","","61","","3","","15","","","","99.88","","","","","","NA"
"2019-05-31 09:00","2019","05","31","09:00","13.6","","3.5","","50","","4","","17","","","","99.92","","","","","","NA"
"2019-05-31 10:00","2019","05","31","10:00","14.9","","4.2","","49","","4","","10","","","","99.95","","","","","","NA"
"2019-05-31 11:00","2019","05","31","11:00","15.0","","4.5","","49","","14","","14","","","","99.94","","","","","","NA"
"2019-05-31 12:00","2019","05","31","12:00","15.3","","6.6","","56","","16","","12","","","","99.95","","","","","","NA"
"2019-05-31 13:00","2019","05","31","13:00","15.7","","6.7","","55","","18","","14","","","","99.93","","","","","","NA"
"2019-05-31 14:00","2019","05","31","14:00","16.2","","6.8","","54","","18","","16","","","","99.89","","","","","","NA"
"2019-05-31 15:00","2019","05","31","15:00","14.7","","8.0","","64","","19","","16","","","","99.85","","","","","","NA"
"2019-05-31 16:00","2019","05","31","16:00","14.4","","8.5","","67","","19","","15","","","","99.82","","","","","","NA"
"2019-05-31 17:00","2019","05","31","17:00","14.6","","9.6","","72","","23","","6","","","","99.86","","","","","","NA"
"2019-05-31 18:00","2019","05","31","18:00","13.8","","9.9","","78","","18","","7","","","","99.81","","","","","","NA"
"2019-05-31 19:00","2019","05","31","19:00","12.0","","10.1","","88","","14","","4","","","","99.86","","","","","","NA"
"2019-05-31 20:00","2019","05","31","20:00","10.7","","9.8","","94","","16","","5","","","","99.89","","","","","","NA"
"2019-05-31 21:00","2019","05","31","21:00","9.8","","8.5","","92","","12","","4","","","","99.95","","","","","","NA"
"2019-05-31 22:00","2019","05","31","22:00","9.4","","8.8","","96","","7","","4","","","","99.88","","","","","","NA"
"2019-05-31 23:00","2019","05","31","23:00","9.6","","7.9","","89","","16","","4","","","","99.86","","","","","","NA"
