"Station Name","KINGSTON CLIMATE"
"Province","ONTARIO"
"Latitude","44.22"
"Longitude","-76.60"
"Elevation","93.00"
"Climate Identifier","6104142"
"WMO Identifier","71820"
"TC Identifier","TKG"
"All times are specified in Local Standard Time (LST). Add 1 hour to adjust for Daylight Saving Time where and when it is observed."

"Legend"
"E","Estimated"
"M","Missing"
"NA","Not Available"

"Date/Time","Year","Month","Day","Time","Temp (°C)","Temp Flag","Dew Point Temp (°C)","Dew Point Temp Flag","Rel Hum (%)","Rel Hum Flag","Wind Dir (10s deg)","Wind Dir Flag","Wind Spd (km/h)","Wind Spd Flag","Visibility (km)","Visibility Flag","Stn Press (kPa)","Stn Press Flag","Hmdx","Hmdx Flag","Wind Chill","Wind Chill Flag","Weather"
"2015-09-01 00:00","2015","09","01","00:00","18.2","","16.7","","91","","1","","4","","","","100.52","","","","","","NA"
"2015-09-01 01:00","2015","09","01","01:00","17.5","","16.2","","93","","1","","4","","","","100.51","","","","","","NA"
"2015-09-01 02:00","2015","09","01","02:00","16.5","","15.3","","93","","36","","6","","","","100.53","","","","","","NA"
"2015-09-01 03:00","2015","09","01","03:00","16.5","","15.4","","93","","1","","3","","","","100.55","","","","","","NA"
"2015-09-01 04:00","2015","09","01","04:00","16.3","","15.2","","93","","4","","5","","","","100.57","","","","","","NA"
"2015-09-01 05:00","2015","09","01","05:00","16.7","","15.6","","93","","1","","6","","","","100.59","","","","","","NA"
"2015-09-01 06:00","2015","09","01","06:00","16.2","","15.2","","94","","2","","4","","","","100.63","","","","","","NA"
"2015-09-01 07:00","2015","09","01","07:00","18.6","","17.6","","94","","6","","4","","","","100.67","","","","","","NA"
"2015-09-01 08:00","2015","09","01","08:00","19.7","","18.7","","94","","6","","4","","","","100.66","","","","","","NA"
"2015-09-01 09:00","2015","09","01","09:00","20.6","","19.6","","94","","17","","5","","","","100.69","","28","","","","NA"
"2015-09-01 10:00","2015","09","01","10:00","22.1","","20.9","","93","","15","","7","","","","100.69","","30","","","","NA"
"2015-09-01 11:00","2015","09","01","11:00","21.7","","19.8","","89","","19","","15","","","","100.69","","29","","","","NA"
"2015-09-01 12:00","2015","09","01","12:00","22.5","","19.9","","85","","19","","19","","","","100.67","","30","","","","NA"
"2015-09-01 13:00","2015","09","01","13:00","23.9","","20.5","","82","","17","","18","","","","100.63","","32","","","","NA"
"2015-09-01 14:00","2015","09","01","14:00","25.2","","19.3","","70","","23","","18","","","","100.59","","32","","","","NA"
"2015-09-01 15:00","2015","09","01","15:00","23.6","","19.2","","76","","19","","21","","","","100.57","","31","","","","NA"
"2015-09-01 16:00","2015","09","01","16:00","23.2","","19.2","","79","","18","","19","","","","100.56","","30","","","","NA"
"2015-09-01 17:00","2015","09","01","17:00","22.5","","19.7","","84","","18","","17","","","","100.54","","30","","","","NA"
"2015-09-01 18:00","2015","09","01","18:00","21.7","","19.6","","88","","19","","16","","","","100.54","","29","","","","NA"
"2015-09-01 19:00","2015","09","01","19:00","21.4","","19.5","","89","","19","","14","","","","100.53","","29","","","","NA"
"2015-09-01 20:00","2015","09","01","20:00","21.4","","19.4","","89","","20","","13","","","","100.57","","28","","","","NA"
"2015-09-01 21:00","2015","09","01","21:00","20.8","","18.8","","89","","22","","10","","","","100.58","","27","","","","NA"
"2015-09-01 22:00","2015","09","01","22:00","21.0","","19.1","","89","","21","","13","","","","100.56","","28","","","","NA"
"2015-09-01 23:00","2015","09","01","23:00","20.7","","18.9","","90","","22","","10","","","","100.58","","27","","","","NA"
"2015-09-02 00:00","2015","09","02","00:00","20.3","","18.8","","92","","21","","8","","","","100.56","","27","","","","NA"
"2015-09-02 01:00","2015","09","02","01:00","19.3","","17.6","","90","","24","","4","","","","100.57","","","","","","NA"
"2015-09-02 02:00","2015","09","02","02:00","17.6","","16.5","","93","","35","","6","","","","100.53","","","","","","NA"
"2015-09-02 03:00","2015","09","02","03:00","17.6","","16.4","","93","","35","","3","","","","100.51","","","","","","NA"
"2015-09-02 04:00","2015","09","02","04:00","17.4","","16.4","","94","","0","","1","","","","100.49","","","","","","NA"
"2015-09-02 05:00","2015","09","02","05:00","18.4","","17.4","","94","","0","","1","","","","100.47","","","","","","NA"
"2015-09-02 06:00","2015","09","02","06:00","18.9","","17.9","","94","","31","","4","","","","100.50","","","","","","NA"
"2015-09-02 07:00","2015","09","02","07:00","19.5","","18.5","","94","","27","","6","","","","100.54","","","","","","NA"
"2015-09-02 08:00","2015","09","02","08:00","19.7","","18.7","","94","","27","","5","","","","100.53","","","","","","NA"
"2015-09-02 09:00","2015","09","02","09:00","19.9","","18.9","","94","","22","","5","","","","100.53","","","","","","NA"
"2015-09-02 10:00","2015","09","02","10:00","21.6","","20.5","","93","","19","","10","","","","100.49","","30","","","","NA"
"2015-09-02 11:00","2015","09","02","11:00","23.9","","20.7","","82","","17","","9","","","","100.47","","32","","","","NA"
"2015-09-02 12:00","2015","09","02","12:00","23.3","","19.8","","81","","17","","16","","","","100.44","","31","","","","NA"
"2015-09-02 13:00","2015","09","02","13:00","23.6","","20.4","","82","","18","","19","","","","100.39","","32","","","","NA"
"2015-09-02 14:00","2015","09","02","14:00","23.5","","20.6","","84","","17","","18","","","","100.35","","32","","","","NA"
"2015-09-02 15:00","2015","09","02","15:00","24.0","","21.1","","84","","18","","14","","","","100.30","","33","","","","NA"
"2015-09-02 16:00","2015","09","02","16:00","23.7","","21.0","","85","","17","","15","","","","100.25","","32","","","","NA"
"2015-09-02 17:00","2015","09","02","17:00","23.1","","20.7","","86","","17","","16","","","","100.21","","31","","","","NA"
"2015-09-02 18:00","2015","09","02","18:00","22.7","","20.7","","88","","17","","13","","","","100.16","","31","","","","NA"
"2015-09-02 19:00","2015","09","02","19:00","22.3","","20.5","","90","","18","","10","","","","100.14","","30","","","","NA"
"2015-09-02 20:00","2015","09","02","20:00","21.9","","20.1","","90","","20","","8","","","","100.19","","30","","","","NA"
"2015-09-02 21:00","2015","09","02","21:00","22.2","","20.4","","90","","23","","11","","","","100.21","","30","","","","NA"
"2015-09-02 22:00","2015","09","02","22:00","21.9","","19.9","","88","","22","","12","","","","100.19","","29","","","","NA"
"2015-09-02 23:00","2015","09","02","23:00","22.1","","20.3","","90","","24","","6","","","","100.18","","30","","","","NA"
"2015-09-03 00:00","2015","09","03","00:00","21.5","","19.7","","90","","27","","6","","","","100.16","","29","","","","NA"
"2015-09-03 01:00","2015","09","03","01:00","20.9","","19.1","","90","","24","","6","","","","100.09","","28","","","","NA"
"2015-09-03 02:00","2015","09","03","02:00","20.3","","19.1","","93","","34","","3","","","","100.06","","27","","","","NA"
"2015-09-03 03:00","2015","09","03","03:00","19.4","","18.2","","93","","33","","3","","","","100.07","","","","","","NA"
"2015-09-03 04:00","2015","09","03","04:00","19.4","","18.3","","94","","36","","4","","","","100.09","","","","","","NA"
"2015-09-03 05:00","2015","09","03","05:00","19.1","","18.1","","94","","1","","3","","","","100.12","","","","","","NA"
"2015-09-03 06:00","2015","09","03","06:00","19.5","","18.5","","94","","36","","6","","","","100.16","","","","","","NA"
"2015-09-03 07:00","2015","09","03","07:00","20.6","","19.6","","94","","5","","3","","","","100.22","","28","","","","NA"
"2015-09-03 08:00","2015","09","03","08:00","22.9","","20.3","","85","","3","","11","","","","100.21","","31","","","","NA"
"2015-09-03 09:00","2015","09","03","09:00","25.1","","21.1","","78","","4","","9","","","","100.22","","34","","","","NA"
"2015-09-03 10:00","2015","09","03","10:00","26.0","","21.1","","75","","12","","8","","","","100.26","","35","","","","NA"
"2015-09-03 11:00","2015","09","03","11:00","25.0","","20.9","","78","","16","","11","","","","100.26","","33","","","","NA"
"2015-09-03 12:00","2015","09","03","12:00","26.0","","21.0","","74","","15","","11","","","","100.23","","34","","","","NA"
"2015-09-03 13:00","2015","09","03","13:00","26.7","","21.4","","73","","17","","8","","","","100.25","","35","","","","NA"
"2015-09-03 14:00","2015","09","03","14:00","26.5","","21.2","","73","","16","","10","","","","100.22","","35","","","","NA"
"2015-09-03 15:00","2015","09","03","15:00","25.6","","21.5","","78","","17","","12","","","","100.18","","34","","","","NA"
"2015-09-03 16:00","2015","09","03","16:00","27.3","","21.0","","69","","14","","5","","","","100.15","","36","","","","NA"
"2015-09-03 17:00","2015","09","03","17:00","27.6","","17.0","","52","","4","","12","","","","100.23","","33","","","","NA"
"2015-09-03 18:00","2015","09","03","18:00","25.9","","16.7","","57","","5","","9","","","","100.26","","31","","","","NA"
"2015-09-03 19:00","2015","09","03","19:00","24.0","","18.5","","72","","13","","3","","","","100.29","","30","","","","NA"
"2015-09-03 20:00","2015","09","03","20:00","20.5","","17.0","","81","","1","","6","","","","100.36","","26","","","","NA"
"2015-09-03 21:00","2015","09","03","21:00","23.0","","17.7","","72","","3","","10","","","","100.40","","29","","","","NA"
"2015-09-03 22:00","2015","09","03","22:00","21.9","","17.3","","75","","2","","10","","","","100.41","","27","","","","NA"
"2015-09-03 23:00","2015","09","03","23:00","21.1","","16.4","","74","","2","","10","","","","100.45","","26","","","","NA"
"2015-09-04 00:00","2015","09","04","00:00","20.3","","15.7","","75","","2","","10","","","","100.50","","25","","","","NA"
"2015-09-04 01:00","2015","09","04","01:00","19.5","","15.1","","76","","2","","11","","","","100.51","","","","","","NA"
"2015-09-04 02:00","2015","09","04","02:00","19.0","","14.2","","74","","3","","11","","","","100.54","","","","","","NA"
"2015-09-04 03:00","2015","09","04","03:00","18.1","","13.7","","76","","2","","11","","","","100.59","","","","","","NA"
"2015-09-04 04:00","2015","09","04","04:00","17.7","","14.3","","81","","2","","14","","","","100.64","","","","","","NA"
"2015-09-04 05:00","2015","09","04","05:00","17.0","","14.7","","86","","3","","14","","","","100.70","","","","","","NA"
"2015-09-04 06:00","2015","09","04","06:00","16.9","","13.3","","79","","2","","13","","","","100.80","","","","","","NA"
"2015-09-04 07:00","2015","09","04","07:00","18.0","","11.6","","67","","4","","19","","","","100.86","","","","","","NA"
"2015-09-04 08:00","2015","09","04","08:00","19.4","","11.5","","60","","4","","18","","","","100.90","","","","","","NA"
"2015-09-04 09:00","2015","09","04","09:00","21.0","","10.5","","51","","3","","15","","","","100.96","","","","","","NA"
"2015-09-04 10:00","2015","09","04","10:00","23.3","","9.0","","40","","2","","18","","","","100.97","","","","","","NA"
"2015-09-04 11:00","2015","09","04","11:00","25.0","","9.9","","39","","3","","19","","","","100.93","","26","","","","NA"
"2015-09-04 12:00","2015","09","04","12:00","26.0","","7.1","","30","","5","","22","","","","100.94","","26","","","","NA"
"2015-09-04 13:00","2015","09","04","13:00","27.1","","8.3","","30","","4","","22","","","","100.90","","28","","","","NA"
"2015-09-04 14:00","2015","09","04","14:00","27.0","","7.6","","29","","4","","20","","","","100.91","","27","","","","NA"
"2015-09-04 15:00","2015","09","04","15:00","27.0","","8.7","","32","","5","","18","","","","100.88","","28","","","","NA"
"2015-09-04 16:00","2015","09","04","16:00","27.6","","8.3","","30","","6","","17","","","","100.87","","28","","","","NA"
"2015-09-04 17:00","2015","09","04","17:00","26.0","","9.9","","36","","5","","19","","","","100.91","","27","","","","NA"
"2015-09-04 18:00","2015","09","04","18:00","24.6","","11.2","","43","","4","","18","","","","100.94","","26","","","","NA"
"2015-09-04 19:00","2015","09","04","19:00","22.4","","12.2","","53","","4","","15","","","","100.96","","25","","","","NA"
"2015-09-04 20:00","2015","09","04","20:00","21.2","","12.4","","57","","4","","15","","","","101.04","","","","","","NA"
"2015-09-04 21:00","2015","09","04","21:00","20.4","","12.3","","60","","4","","18","","","","101.08","","","","","","NA"
"2015-09-04 22:00","2015","09","04","22:00","19.8","","11.9","","61","","4","","17","","","","101.06","","","","","","NA"
"2015-09-04 23:00","2015","09","04","23:00","18.8","","11.7","","63","","4","","17","","","","101.04","","","","","","NA"
"2015-09-05 00:00","2015","09","05","00:00","18.0","","11.7","","67","","4","","12","","","","101.00","","","","","","NA"
"2015-09-05 01:00","2015","09","05","01:00","17.5","","12.1","","71","","4","","10","","","","101.01","","","","","","NA"
"2015-09-05 02:00","2015","09","05","02:00","16.7","","12.3","","75","","5","","9","","","","100.99","","","","","","NA"
"2015-09-05 03:00","2015","09","05","03:00","16.7","","12.8","","78","","5","","11","","","","101.03","","","","","","NA"
"2015-09-05 04:00","2015","09","05","04:00","16.3","","13.1","","81","","4","","9","","","","101.06","","","","","","NA"
"2015-09-05 05:00","2015","09","05","05:00","15.9","","13.2","","84","","4","","6","","","","101.10","","","","","","NA"
"2015-09-05 06:00","2015","09","05","06:00","16.4","","14.1","","86","","4","","10","","","","101.17","","","","","","NA"
"2015-09-05 07:00","2015","09","05","07:00","17.9","","15.1","","84","","5","","10","","","","101.23","","","","","","NA"
"2015-09-05 08:00","2015","09","05","08:00","20.6","","16.4","","77","","6","","9","","","","101.22","","25","","","","NA"
"2015-09-05 09:00","2015","09","05","09:00","22.9","","18.4","","76","","13","","11","","","","101.21","","29","","","","NA"
"2015-09-05 10:00","2015","09","05","10:00","24.3","","19.2","","73","","16","","19","","","","101.19","","31","","","","NA"
"2015-09-05 11:00","2015","09","05","11:00","24.4","","19.5","","74","","17","","21","","","","101.16","","32","","","","NA"
"2015-09-05 12:00","2015","09","05","12:00","24.7","","19.7","","73","","17","","18","","","","101.09","","32","","","","NA"
"2015-09-05 13:00","2015","09","05","13:00","25.0","","19.9","","73","","18","","16","","","","101.05","","32","","","","NA"
"2015-09-05 14:00","2015","09","05","14:00","25.5","","20.3","","73","","18","","15","","","","101.03","","33","","","","NA"
"2015-09-05 15:00","2015","09","05","15:00","26.1","","19.9","","68","","17","","12","","","","101.00","","34","","","","NA"
"2015-09-05 16:00","2015","09","05","16:00","26.5","","19.9","","67","","15","","6","","","","100.99","","34","","","","NA"
"2015-09-05 17:00","2015","09","05","17:00","26.0","","19.5","","67","","16","","6","","","","100.94","","33","","","","NA"
"2015-09-05 18:00","2015","09","05","18:00","25.6","","19.3","","68","","14","","3","","","","100.93","","33","","","","NA"
"2015-09-05 19:00","2015","09","05","19:00","22.7","","18.7","","78","","18","","1","","","","100.92","","29","","","","NA"
"2015-09-05 20:00","2015","09","05","20:00","21.9","","19.0","","84","","31","","4","","","","100.96","","29","","","","NA"
"2015-09-05 21:00","2015","09","05","21:00","21.4","","19.4","","88","","6","","4","","","","100.94","","28","","","","NA"
"2015-09-05 22:00","2015","09","05","22:00","21.1","","19.1","","88","","9","","5","","","","100.92","","28","","","","NA"
"2015-09-05 23:00","2015","09","05","23:00","21.1","","18.9","","87","","12","","6","","","","100.89","","28","","","","NA"
"2015-09-06 00:00","2015","09","06","00:00","23.1","","20.4","","85","","16","","11","","","","100.89","","31","","","","NA"
"2015-09-06 01:00","2015","09","06","01:00","22.4","","20.4","","88","","15","","5","","","","100.88","","30","","","","NA"
"2015-09-06 02:00","2015","09","06","02:00","22.7","","20.6","","88","","16","","16","","","","100.86","","31","","","","NA"
"2015-09-06 03:00","2015","09","06","03:00","22.3","","20.1","","88","","17","","14","","","","100.86","","30","","","","NA"
"2015-09-06 04:00","2015","09","06","04:00","22.2","","20.1","","88","","17","","17","","","","100.86","","30","","","","NA"
"2015-09-06 05:00","2015","09","06","05:00","22.1","","20.0","","88","","18","","20","","","","100.87","","30","","","","NA"
"2015-09-06 06:00","2015","09","06","06:00","21.9","","19.7","","87","","18","","20","","","","100.93","","29","","","","NA"
"2015-09-06 07:00","2015","09","06","07:00","22.2","","19.4","","84","","18","","24","","","","100.98","","29","","","","NA"
"2015-09-06 08:00","2015","09","06","08:00","22.8","","20.0","","84","","18","","19","","","","100.95","","30","","","","NA"
"2015-09-06 09:00","2015","09","06","09:00","23.7","","19.9","","79","","19","","21","","","","100.94","","31","","","","NA"
"2015-09-06 10:00","2015","09","06","10:00","24.4","","20.2","","77","","19","","22","","","","100.97","","32","","","","NA"
"2015-09-06 11:00","2015","09","06","11:00","24.7","","19.5","","73","","19","","20","","","","100.95","","32","","","","NA"
"2015-09-06 12:00","2015","09","06","12:00","24.8","","19.6","","73","","18","","20","","","","100.89","","32","","","","NA"
"2015-09-06 13:00","2015","09","06","13:00","25.1","","20.1","","74","","19","","18","","","","100.85","","33","","","","NA"
"2015-09-06 14:00","2015","09","06","14:00","24.9","","20.0","","74","","18","","19","","","","100.81","","32","","","","NA"
"2015-09-06 15:00","2015","09","06","15:00","24.9","","20.4","","76","","18","","19","","","","100.78","","33","","","","NA"
"2015-09-06 16:00","2015","09","06","16:00","24.8","","20.5","","77","","18","","17","","","","100.72","","33","","","","NA"
"2015-09-06 17:00","2015","09","06","17:00","25.5","","20.4","","74","","20","","11","","","","100.68","","33","","","","NA"
"2015-09-06 18:00","2015","09","06","18:00","24.6","","20.4","","78","","19","","14","","","","100.62","","33","","","","NA"
"2015-09-06 19:00","2015","09","06","19:00","23.5","","20.2","","81","","22","","9","","","","100.58","","31","","","","NA"
"2015-09-06 20:00","2015","09","06","20:00","23.5","","19.9","","80","","22","","9","","","","100.59","","31","","","","NA"
"2015-09-06 21:00","2015","09","06","21:00","22.7","","19.9","","84","","20","","7","","","","100.59","","30","","","","NA"
"2015-09-06 22:00","2015","09","06","22:00","22.5","","20.4","","88","","20","","6","","","","100.56","","30","","","","NA"
"2015-09-06 23:00","2015","09","06","23:00","22.1","","20.0","","88","","20","","9","","","","100.54","","30","","","","NA"
"2015-09-07 00:00","2015","09","07","00:00","21.9","","20.3","","91","","21","","8","","","","100.51","","30","","","","NA"
"2015-09-07 01:00","2015","09","07","01:00","22.0","","20.4","","91","","21","","5","","","","100.49","","30","","","","NA"
"2015-09-07 02:00","2015","09","07","02:00","21.9","","20.2","","91","","20","","8","","","","100.43","","30","","","","NA"
"2015-09-07 03:00","2015","09","07","03:00","21.7","","19.6","","88","","20","","8","","","","100.42","","29","","","","NA"
"2015-09-07 04:00","2015","09","07","04:00","21.6","","19.6","","88","","21","","9","","","","100.42","","29","","","","NA"
"2015-09-07 05:00","2015","09","07","05:00","22.2","","20.1","","88","","21","","13","","","","100.43","","30","","","","NA"
"2015-09-07 06:00","2015","09","07","06:00","22.1","","20.0","","88","","21","","15","","","","100.46","","30","","","","NA"
"2015-09-07 07:00","2015","09","07","07:00","22.9","","20.2","","85","","21","","15","","","","100.49","","31","","","","NA"
"2015-09-07 08:00","2015","09","07","08:00","24.4","","20.9","","81","","21","","12","","","","100.48","","33","","","","NA"
"2015-09-07 09:00","2015","09","07","09:00","25.1","","21.0","","78","","19","","18","","","","100.46","","34","","","","NA"
"2015-09-07 10:00","2015","09","07","10:00","26.4","","21.3","","74","","19","","21","","","","100.42","","35","","","","NA"
"2015-09-07 11:00","2015","09","07","11:00","28.5","","20.8","","63","","21","","20","","","","100.41","","37","","","","NA"
"2015-09-07 12:00","2015","09","07","12:00","29.7","","20.6","","58","","22","","22","","","","100.36","","38","","","","NA"
"2015-09-07 13:00","2015","09","07","13:00","26.3","","21.1","","73","","19","","29","","","","100.32","","35","","","","NA"
"2015-09-07 14:00","2015","09","07","14:00","27.0","","21.3","","71","","19","","25","","","","100.26","","36","","","","NA"
"2015-09-07 15:00","2015","09","07","15:00","27.1","","21.3","","71","","19","","20","","","","100.20","","36","","","","NA"
"2015-09-07 16:00","2015","09","07","16:00","27.3","","21.5","","71","","19","","19","","","","100.14","","36","","","","NA"
"2015-09-07 17:00","2015","09","07","17:00","27.2","","20.9","","69","","19","","18","","","","100.10","","36","","","","NA"
"2015-09-07 18:00","2015","09","07","18:00","26.7","","20.2","","68","","21","","12","","","","100.12","","34","","","","NA"
"2015-09-07 19:00","2015","09","07","19:00","26.0","","20.1","","70","","22","","11","","","","100.12","","34","","","","NA"
"2015-09-07 20:00","2015","09","07","20:00","24.9","","20.3","","75","","23","","9","","","","100.16","","33","","","","NA"
"2015-09-07 21:00","2015","09","07","21:00","25.7","","20.0","","71","","25","","15","","","","100.18","","33","","","","NA"
"2015-09-07 22:00","2015","09","07","22:00","25.7","","19.6","","69","","25","","13","","","","100.20","","33","","","","NA"
"2015-09-07 23:00","2015","09","07","23:00","25.3","","19.4","","70","","28","","11","","","","100.24","","32","","","","NA"
"2015-09-08 00:00","2015","09","08","00:00","24.9","","19.7","","73","","30","","11","","","","100.27","","32","","","","NA"
"2015-09-08 01:00","2015","09","08","01:00","23.7","","19.5","","78","","25","","4","","","","100.27","","31","","","","NA"
"2015-09-08 02:00","2015","09","08","02:00","23.4","","19.6","","80","","29","","6","","","","100.27","","31","","","","NA"
"2015-09-08 03:00","2015","09","08","03:00","22.5","","18.8","","80","","32","","5","","","","100.27","","29","","","","NA"
"2015-09-08 04:00","2015","09","08","04:00","22.6","","18.9","","80","","30","","8","","","","100.31","","29","","","","NA"
"2015-09-08 05:00","2015","09","08","05:00","22.5","","18.8","","80","","30","","9","","","","100.34","","29","","","","NA"
"2015-09-08 06:00","2015","09","08","06:00","21.5","","19.4","","88","","30","","8","","","","100.38","","29","","","","NA"
"2015-09-08 07:00","2015","09","08","07:00","21.7","","20.0","","90","","31","","4","","","","100.40","","29","","","","NA"
"2015-09-08 08:00","2015","09","08","08:00","23.1","","20.5","","85","","29","","4","","","","100.41","","31","","","","NA"
"2015-09-08 09:00","2015","09","08","09:00","23.9","","20.8","","83","","24","","5","","","","100.39","","32","","","","NA"
"2015-09-08 10:00","2015","09","08","10:00","24.2","","20.2","","78","","23","","6","","","","100.39","","32","","","","NA"
"2015-09-08 11:00","2015","09","08","11:00","24.4","","21.2","","82","","18","","6","","","","100.36","","33","","","","NA"
"2015-09-08 12:00","2015","09","08","12:00","23.8","","21.0","","84","","17","","12","","","","100.33","","32","","","","NA"
"2015-09-08 13:00","2015","09","08","13:00","24.5","","20.9","","81","","18","","12","","","","100.26","","33","","","","NA"
"2015-09-08 14:00","2015","09","08","14:00","25.0","","21.0","","79","","17","","12","","","","100.23","","33","","","","NA"
"2015-09-08 15:00","2015","09","08","15:00","24.9","","21.7","","83","","17","","8","","","","100.13","","34","","","","NA"
"2015-09-08 16:00","2015","09","08","16:00","24.8","","20.5","","77","","15","","9","","","","100.05","","33","","","","NA"
"2015-09-08 17:00","2015","09","08","17:00","24.7","","20.6","","78","","15","","4","","","","100.03","","33","","","","NA"
"2015-09-08 18:00","2015","09","08","18:00","24.3","","20.8","","81","","14","","7","","","","100.00","","33","","","","NA"
"2015-09-08 19:00","2015","09","08","19:00","24.0","","20.4","","80","","14","","9","","","","99.98","","32","","","","NA"
"2015-09-08 20:00","2015","09","08","20:00","22.6","","19.7","","84","","14","","3","","","","99.98","","30","","","","NA"
"2015-09-08 21:00","2015","09","08","21:00","23.0","","20.4","","85","","16","","3","","","","99.95","","31","","","","NA"
"2015-09-08 22:00","2015","09","08","22:00","24.3","","21.4","","84","","18","","7","","","","99.89","","33","","","","NA"
"2015-09-08 23:00","2015","09","08","23:00","24.8","","21.8","","84","","18","","16","","","","99.84","","34","","","","NA"
"2015-09-09 00:00","2015","09","09","00:00","24.4","","21.7","","85","","17","","17","","","","99.80","","33","","","","NA"
"2015-09-09 01:00","2015","09","09","01:00","24.2","","21.9","","87","","18","","16","","","","99.77","","33","","","","NA"
"2015-09-09 02:00","2015","09","09","02:00","24.0","","21.3","","85","","19","","20","","","","99.72","","33","","","","NA"
"2015-09-09 03:00","2015","09","09","03:00","23.9","","20.3","","81","","21","","14","","","","99.70","","32","","","","NA"
"2015-09-09 04:00","2015","09","09","04:00","24.5","","19.5","","74","","21","","23","","","","99.67","","32","","","","NA"
"2015-09-09 05:00","2015","09","09","05:00","24.3","","19.4","","74","","21","","25","","","","99.68","","31","","","","NA"
"2015-09-09 06:00","2015","09","09","06:00","24.0","","19.6","","77","","24","","18","","","","99.74","","31","","","","NA"
"2015-09-09 07:00","2015","09","09","07:00","24.5","","19.5","","74","","22","","20","","","","99.76","","32","","","","NA"
"2015-09-09 08:00","2015","09","09","08:00","25.1","","20.0","","73","","22","","19","","","","99.76","","33","","","","NA"
"2015-09-09 09:00","2015","09","09","09:00","26.1","","20.4","","71","","24","","18","","","","99.79","","34","","","","NA"
"2015-09-09 10:00","2015","09","09","10:00","27.1","","20.4","","67","","23","","16","","","","99.77","","35","","","","NA"
"2015-09-09 11:00","2015","09","09","11:00","25.7","","19.7","","70","","24","","18","","","","99.79","","33","","","","NA"
"2015-09-09 12:00","2015","09","09","12:00","24.0","","18.7","","72","","29","","12","","","","99.82","","31","","","","NA"
"2015-09-09 13:00","2015","09","09","13:00","24.1","","18.1","","69","","28","","17","","","","99.82","","30","","","","NA"
"2015-09-09 14:00","2015","09","09","14:00","24.6","","16.6","","61","","29","","20","","","","99.85","","30","","","","NA"
"2015-09-09 15:00","2015","09","09","15:00","24.9","","17.3","","63","","29","","18","","","","99.81","","30","","","","NA"
"2015-09-09 16:00","2015","09","09","16:00","24.5","","16.1","","60","","31","","19","","","","99.84","","29","","","","NA"
"2015-09-09 17:00","2015","09","09","17:00","24.0","","17.0","","65","","28","","9","","","","99.85","","29","","","","NA"
"2015-09-09 18:00","2015","09","09","18:00","22.9","","15.1","","61","","27","","11","","","","99.92","","27","","","","NA"
"2015-09-09 19:00","2015","09","09","19:00","21.4","","13.8","","62","","29","","10","","","","99.99","","25","","","","NA"
"2015-09-09 20:00","2015","09","09","20:00","20.0","","13.7","","67","","29","","10","","","","100.06","","","","","","NA"
"2015-09-09 21:00","2015","09","09","21:00","19.0","","13.1","","69","","29","","14","","","","100.09","","","","","","NA"
"2015-09-09 22:00","2015","09","09","22:00","18.0","","11.9","","68","","30","","11","","","","100.15","","","","","","NA"
"2015-09-09 23:00","2015","09","09","23:00","17.1","","12.4","","74","","29","","9","","","","100.17","","","","","","NA"
"2015-09-10 00:00","2015","09","10","00:00","16.2","","12.5","","79","","29","","9","","","","100.20","","","","","","NA"
"2015-09-10 01:00","2015","09","10","01:00","15.9","","11.8","","77","","31","","13","","","","100.21","","","","","","NA"
"2015-09-10 02:00","2015","09","10","02:00","15.5","","11.1","","75","","34","","15","","","","100.21","","","","","","NA"
"2015-09-10 03:00","2015","09","10","03:00","14.1","","10.9","","81","","34","","12","","","","100.24","","","","","","NA"
"2015-09-10 04:00","2015","09","10","04:00","13.8","","11.2","","84","","34","","12","","","","100.26","","","","","","NA"
"2015-09-10 05:00","2015","09","10","05:00","13.4","","11.0","","86","","35","","13","","","","100.27","","","","","","NA"
"2015-09-10 06:00","2015","09","10","06:00","13.5","","11.3","","87","","35","","11","","","","100.32","","","","","","NA"
"2015-09-10 07:00","2015","09","10","07:00","14.7","","11.9","","83","","35","","9","","","","100.34","","","","","","NA"
"2015-09-10 08:00","2015","09","10","08:00","17.6","","12.1","","71","","1","","8","","","","100.39","","","","","","NA"
"2015-09-10 09:00","2015","09","10","09:00","20.7","","10.1","","51","","6","","15","","","","100.40","","","","","","NA"
"2015-09-10 10:00","2015","09","10","10:00","21.9","","8.4","","42","","8","","18","","","","100.39","","","","","","NA"
"2015-09-10 11:00","2015","09","10","11:00","22.6","","7.4","","37","","8","","16","","","","100.33","","","","","","NA"
"2015-09-10 12:00","2015","09","10","12:00","22.5","","7.2","","37","","10","","17","","","","100.27","","","","","","NA"
"2015-09-10 13:00","2015","09","10","13:00","22.2","","7.6","","39","","10","","14","","","","100.22","","","","","","NA"
"2015-09-10 14:00","2015","09","10","14:00","22.6","","7.4","","38","","8","","13","","","","100.16","","","","","","NA"
"2015-09-10 15:00","2015","09","10","15:00","23.4","","7.6","","36","","8","","14","","","","100.11","","","","","","NA"
"2015-09-10 16:00","2015","09","10","16:00","22.1","","8.5","","42","","10","","14","","","","100.09","","","","","","NA"
"2015-09-10 17:00","2015","09","10","17:00","21.7","","7.9","","41","","6","","12","","","","100.08","","","","","","NA"
"2015-09-10 18:00","2015","09","10","18:00","20.0","","8.8","","48","","6","","11","","","","100.07","","","","","","NA"
"2015-09-10 19:00","2015","09","10","19:00","17.9","","9.5","","58","","34","","7","","","","100.06","","","","","","NA"
"2015-09-10 20:00","2015","09","10","20:00","15.2","","10.3","","72","","36","","5","","","","100.06","","","","","","NA"
"2015-09-10 21:00","2015","09","10","21:00","14.7","","11.6","","82","","36","","7","","","","100.03","","","","","","NA"
"2015-09-10 22:00","2015","09","10","22:00","12.0","","9.5","","85","","35","","9","","","","100.05","","","","","","NA"
"2015-09-10 23:00","2015","09","10","23:00","12.1","","9.7","","86","","35","","9","","","","100.03","","","","","","NA"
"2015-09-11 00:00","2015","09","11","00:00","11.1","","9.2","","88","","33","","14","","","","100.01","","","","","","NA"
"2015-09-11 01:00","2015","09","11","01:00","11.8","","9.8","","87","","34","","16","","","","99.96","","","","","","NA"
"2015-09-11 02:00","2015","09","11","02:00","11.0","","9.3","","90","","34","","14","","","","99.92","","","","","","NA"
"2015-09-11 03:00","2015","09","11","03:00","10.7","","9.1","","90","","34","","13","","","","99.88","","","","","","NA"
"2015-09-11 04:00","2015","09","11","04:00","10.9","","9.5","","91","","34","","14","","","","99.91","","","","","","NA"
"2015-09-11 05:00","2015","09","11","05:00","11.4","","10.0","","91","","35","","10","","","","99.94","","","","","","NA"
"2015-09-11 06:00","2015","09","11","06:00","11.6","","9.6","","88","","36","","11","","","","99.97","","","","","","NA"
"2015-09-11 07:00","2015","09","11","07:00","14.2","","11.6","","84","","34","","14","","","","100.01","","","","","","NA"
"2015-09-11 08:00","2015","09","11","08:00","18.7","","12.1","","65","","36","","9","","","","100.00","","","","","","NA"
"2015-09-11 09:00","2015","09","11","09:00","21.4","","10.1","","49","","4","","7","","","","100.00","","","","","","NA"
"2015-09-11 10:00","2015","09","11","10:00","22.4","","12.1","","52","","20","","8","","","","100.02","","25","","","","NA"
"2015-09-11 11:00","2015","09","11","11:00","22.8","","11.3","","48","","16","","12","","","","99.97","","25","","","","NA"
"2015-09-11 12:00","2015","09","11","12:00","23.0","","13.2","","54","","18","","17","","","","99.94","","26","","","","NA"
"2015-09-11 13:00","2015","09","11","13:00","23.6","","12.8","","51","","19","","18","","","","99.91","","26","","","","NA"
"2015-09-11 14:00","2015","09","11","14:00","23.9","","13.4","","52","","18","","20","","","","99.87","","27","","","","NA"
"2015-09-11 15:00","2015","09","11","15:00","24.0","","13.0","","50","","19","","23","","","","99.83","","27","","","","NA"
"2015-09-11 16:00","2015","09","11","16:00","23.4","","13.2","","53","","20","","21","","","","99.84","","26","","","","NA"
"2015-09-11 17:00","2015","09","11","17:00","22.9","","14.8","","60","","19","","15","","","","99.85","","27","","","","NA"
"2015-09-11 18:00","2015","09","11","18:00","22.0","","9.9","","46","","29","","11","","","","99.85","","","","","","NA"
"2015-09-11 19:00","2015","09","11","19:00","20.4","","10.0","","51","","28","","11","","","","99.90","","","","","","NA"
"2015-09-11 20:00","2015","09","11","20:00","19.6","","10.7","","56","","28","","8","","","","99.94","","","","","","NA"
"2015-09-11 21:00","2015","09","11","21:00","19.5","","11.2","","59","","28","","6","","","","99.94","","","","","","NA"
"2015-09-11 22:00","2015","09","11","22:00","18.3","","11.8","","66","","30","","9","","","","99.94","","","","","","NA"
"2015-09-11 23:00","2015","09","11","23:00"
"2015-09-12 00:00","2015","09","12","00:00","18.1","","11.0","","63","","36","","19","","","","99.92","","","","","","NA"
"2015-09-12 01:00","2015","09","12","01:00","17.7","","10.3","","62","","2","","17","","","","99.91","","","","","","NA"
"2015-09-12 02:00","2015","09","12","02:00","17.3","","8.4","","56","","2","","19","","","","99.91","","","","","","NA"
"2015-09-12 03:00","2015","09","12","03:00","16.6","","9.1","","61","","1","","17","","","","99.92","","","","","","NA"
"2015-09-12 04:00","2015","09","12","04:00","15.4","","10.0","","70","","35","","14","","","","99.96","","","","","","NA"
"2015-09-12 05:00","2015","09","12","05:00","14.6","","10.6","","77","","34","","20","","","","100.01","","","","","","NA"
"2015-09-12 06:00","2015","09","12","06:00","13.0","","11.0","","88","","36","","21","","","","100.03","","","","","","NA"
"2015-09-12 07:00","2015","09","12","07:00","13.0","","11.3","","89","","1","","20","","","","100.01","","","","","","NA"
"2015-09-12 08:00","2015","09","12","08:00","13.0","","11.1","","88","","1","","20","","","","100.02","","","","","","NA"
"2015-09-12 09:00","2015","09","12","09:00","13.0","","11.0","","88","","3","","20","","","","100.04","","","","","","NA"
"2015-09-12 10:00","2015","09","12","10:00","13.1","","11.4","","90","","2","","17","","","","100.04","","","","","","NA"
"2015-09-12 11:00","2015","09","12","11:00","13.8","","12.2","","90","","3","","16","","","","99.99","","","","","","NA"
"2015-09-12 12:00","2015","09","12","12:00","14.0","","12.2","","89","","4","","21","","","","99.93","","","","","","NA"
"2015-09-12 13:00","2015","09","12","13:00","14.2","","12.5","","90","","4","","16","","","","99.90","","","","","","NA"
"2015-09-12 14:00","2015","09","12","14:00","14.6","","12.6","","88","","3","","23","","","","99.82","","","","","","NA"
"2015-09-12 15:00","2015","09","12","15:00","14.7","","12.8","","88","","3","","24","","","","99.77","","","","","","NA"
"2015-09-12 16:00","2015","09","12","16:00","14.7","","12.9","","89","","3","","23","","","","99.71","","","","","","NA"
"2015-09-12 17:00","2015","09","12","17:00","13.7","","12.1","","90","","2","","20","","","","99.70","","","","","","NA"
"2015-09-12 18:00","2015","09","12","18:00","13.1","","11.6","","91","","1","","25","","","","99.64","","","","","","NA"
"2015-09-12 19:00","2015","09","12","19:00","12.9","","11.5","","91","","1","","20","","","","99.65","","","","","","NA"
"2015-09-12 20:00","2015","09","12","20:00","12.7","","11.3","","91","","2","","20","","","","99.61","","","","","","NA"
"2015-09-12 21:00","2015","09","12","21:00","12.7","","11.3","","91","","1","","20","","","","99.58","","","","","","NA"
"2015-09-12 22:00","2015","09","12","22:00","12.8","","11.4","","92","","2","","19","","","","99.46","","","","","","NA"
"2015-09-12 23:00","2015","09","12","23:00","13.3","","12.0","","92","","2","","16","","","","99.44","","","","","","NA"
"2015-09-13 00:00","2015","09","13","00:00","13.7","","12.4","","92","","36","","13","","","","99.37","","","","","","NA"
"2015-09-13 01:00","2015","09","13","01:00","13.7","","12.3","","91","","36","","18","","","","99.30","","","","","","NA"
"2015-09-13 02:00","2015","09","13","02:00","14.0","","12.8","","92","","1","","14","","","","99.25","","","","","","NA"
"2015-09-13 03:00","2015","09","13","03:00","15.2","","14.0","","93","","3","","15","","","","99.19","","","","","","NA"
"2015-09-13 04:00","2015","09","13","04:00","15.1","","13.7","","91","","5","","22","","","","99.16","","","","","","NA"
"2015-09-13 05:00","2015","09","13","05:00","15.0","","13.7","","92","","4","","19","","","","99.12","","","","","","NA"
"2015-09-13 06:00","2015","09","13","06:00","15.0","","13.7","","92","","4","","12","","","","99.13","","","","","","NA"
"2015-09-13 07:00","2015","09","13","07:00","15.1","","14.0","","93","","4","","15","","","","99.14","","","","","","NA"
"2015-09-13 08:00","2015","09","13","08:00","15.4","","14.2","","93","","2","","13","","","","99.11","","","","","","NA"
"2015-09-13 09:00","2015","09","13","09:00","15.9","","14.5","","91","","35","","15","","","","99.16","","","","","","NA"
"2015-09-13 10:00","2015","09","13","10:00","17.8","","15.5","","87","","17","","23","","","","99.14","","","","","","NA"
"2015-09-13 11:00","2015","09","13","11:00","18.2","","15.5","","84","","19","","32","","","","99.16","","","","","","NA"
"2015-09-13 12:00","2015","09","13","12:00","16.1","","14.5","","90","","24","","20","","","","99.25","","","","","","NA"
"2015-09-13 13:00","2015","09","13","13:00","15.6","","13.7","","89","","24","","20","","","","99.32","","","","","","NA"
"2015-09-13 14:00","2015","09","13","14:00","15.4","","13.2","","87","","24","","25","","","","99.36","","","","","","NA"
"2015-09-13 15:00","2015","09","13","15:00","15.1","","13.0","","87","","24","","22","","","","99.40","","","","","","NA"
"2015-09-13 16:00","2015","09","13","16:00","14.9","","12.6","","86","","25","","18","","","","99.46","","","","","","NA"
"2015-09-13 17:00","2015","09","13","17:00","14.6","","12.7","","89","","27","","14","","","","99.50","","","","","","NA"
"2015-09-13 18:00","2015","09","13","18:00","14.1","","12.6","","91","","26","","14","","","","99.54","","","","","","NA"
"2015-09-13 19:00","2015","09","13","19:00","14.0","","12.4","","90","","26","","13","","","","99.61","","","","","","NA"
"2015-09-13 20:00","2015","09","13","20:00","13.9","","12.4","","91","","27","","11","","","","99.66","","","","","","NA"
"2015-09-13 21:00","2015","09","13","21:00","13.7","","12.3","","91","","28","","15","","","","99.68","","","","","","NA"
"2015-09-13 22:00","2015","09","13","22:00","13.4","","12.0","","91","","28","","14","","","","99.66","","","","","","NA"
"2015-09-13 23:00","2015","09","13","23:00","13.3","","11.8","","91","","28","","14","","","","99.68","","","","","","NA"
"2015-09-14 00:00","2015","09","14","00:00","13.2","","11.6","","90","","29","","11","","","","99.71","","","","","","NA"
"2015-09-14 01:00","2015","09","14","01:00","13.1","","11.5","","90","","28","","13","","","","99.73","","","","","","NA"
"2015-09-14 02:00","2015","09","14","02:00","13.1","","11.4","","90","","30","","14","","","","99.81","","","","","","NA"
"2015-09-14 03:00","2015","09","14","03:00","13.0","","11.2","","88","","31","","16","","","","99.86","","","","","","NA"
"2015-09-14 04:00","2015","09","14","04:00","13.1","","11.1","","88","","30","","19","","","","99.92","","","","","","NA"
"2015-09-14 05:00","2015","09","14","05:00","13.2","","10.6","","85","","30","","20","","","","100.01","","","","","","NA"
"2015-09-14 06:00","2015","09","14","06:00","13.0","","10.3","","84","","29","","17","","","","100.14","","","","","","NA"
"2015-09-14 07:00","2015","09","14","07:00","13.2","","9.9","","81","","29","","16","","","","100.23","","","","","","NA"
"2015-09-14 08:00","2015","09","14","08:00","13.8","","9.9","","78","","29","","15","","","","100.33","","","","","","NA"
"2015-09-14 09:00","2015","09","14","09:00","15.2","","10.2","","72","","28","","18","","","","100.42","","","","","","NA"
"2015-09-14 10:00","2015","09","14","10:00","17.6","","10.3","","62","","28","","20","","","","100.48","","","","","","NA"
"2015-09-14 11:00","2015","09","14","11:00","19.5","","10.3","","56","","29","","21","","","","100.49","","","","","","NA"
"2015-09-14 12:00","2015","09","14","12:00","21.1","","9.9","","49","","30","","23","","","","100.50","","","","","","NA"
"2015-09-14 13:00","2015","09","14","13:00","21.8","","10.2","","48","","26","","21","","","","100.50","","","","","","NA"
"2015-09-14 14:00","2015","09","14","14:00","21.8","","10.1","","47","","27","","21","","","","100.51","","","","","","NA"
"2015-09-14 15:00","2015","09","14","15:00","21.9","","11.2","","51","","27","","19","","","","100.55","","","","","","NA"
"2015-09-14 16:00","2015","09","14","16:00","21.7","","11.4","","52","","26","","19","","","","100.59","","","","","","NA"
"2015-09-14 17:00","2015","09","14","17:00","21.4","","12.7","","57","","24","","22","","","","100.63","","","","","","NA"
"2015-09-14 18:00","2015","09","14","18:00","20.2","","12.0","","59","","24","","18","","","","100.69","","","","","","NA"
"2015-09-14 19:00","2015","09","14","19:00","19.1","","12.0","","63","","25","","21","","","","100.73","","","","","","NA"
"2015-09-14 20:00","2015","09","14","20:00","18.2","","11.4","","64","","25","","15","","","","100.83","","","","","","NA"
"2015-09-14 21:00","2015","09","14","21:00","17.5","","11.6","","69","","25","","11","","","","100.88","","","","","","NA"
"2015-09-14 22:00","2015","09","14","22:00","17.6","","12.8","","73","","24","","13","","","","100.94","","","","","","NA"
"2015-09-14 23:00","2015","09","14","23:00","17.5","","13.2","","76","","25","","14","","","","100.99","","","","","","NA"
"2015-09-15 00:00","2015","09","15","00:00","16.4","","13.2","","81","","25","","12","","","","101.03","","","","","","NA"
"2015-09-15 01:00","2015","09","15","01:00","16.3","","13.7","","85","","25","","12","","","","101.09","","","","","","NA"
"2015-09-15 02:00","2015","09","15","02:00","15.8","","13.6","","87","","25","","9","","","","101.11","","","","","","NA"
"2015-09-15 03:00","2015","09","15","03:00","16.3","","14.0","","86","","26","","9","","","","101.15","","","","","","NA"
"2015-09-15 04:00","2015","09","15","04:00","14.9","","12.4","","85","","27","","8","","","","101.19","","","","","","NA"
"2015-09-15 05:00","2015","09","15","05:00","15.5","","12.8","","84","","25","","7","","","","101.25","","","","","","NA"
"2015-09-15 06:00","2015","09","15","06:00","14.8","","13.2","","90","","27","","5","","","","101.33","","","","","","NA"
"2015-09-15 07:00","2015","09","15","07:00","17.2","","15.4","","89","","26","","12","","","","101.39","","","","","","NA"
"2015-09-15 08:00","2015","09","15","08:00","18.7","","15.6","","82","","26","","11","","","","101.42","","","","","","NA"
"2015-09-15 09:00","2015","09","15","09:00","20.2","","15.5","","74","","23","","14","","","","101.47","","","","","","NA"
"2015-09-15 10:00","2015","09","15","10:00","21.8","","15.2","","66","","21","","14","","","","101.47","","26","","","","NA"
"2015-09-15 11:00","2015","09","15","11:00","21.6","","16.8","","74","","17","","18","","","","101.45","","27","","","","NA"
"2015-09-15 12:00","2015","09","15","12:00","21.7","","17.3","","76","","18","","21","","","","101.45","","27","","","","NA"
"2015-09-15 13:00","2015","09","15","13:00","21.7","","17.8","","79","","19","","25","","","","101.40","","28","","","","NA"
"2015-09-15 14:00","2015","09","15","14:00","21.7","","17.8","","78","","19","","23","","","","101.37","","28","","","","NA"
"2015-09-15 15:00","2015","09","15","15:00","21.7","","17.7","","78","","18","","22","","","","101.35","","27","","","","NA"
"2015-09-15 16:00","2015","09","15","16:00","21.9","","16.8","","73","","19","","21","","","","101.34","","27","","","","NA"
"2015-09-15 17:00","2015","09","15","17:00","21.3","","17.3","","78","","18","","19","","","","101.34","","27","","","","NA"
"2015-09-15 18:00","2015","09","15","18:00","20.2","","17.2","","83","","19","","13","","","","101.36","","26","","","","NA"
"2015-09-15 19:00","2015","09","15","19:00","19.5","","16.7","","84","","20","","7","","","","101.40","","","","","","NA"
"2015-09-15 20:00","2015","09","15","20:00","19.4","","16.5","","84","","21","","12","","","","101.46","","","","","","NA"
"2015-09-15 21:00","2015","09","15","21:00","18.5","","15.6","","83","","22","","9","","","","101.49","","","","","","NA"
"2015-09-15 22:00","2015","09","15","22:00","18.5","","15.5","","83","","23","","8","","","","101.48","","","","","","NA"
"2015-09-15 23:00","2015","09","15","23:00","16.5","","14.0","","85","","23","","6","","","","101.49","","","","","","NA"
"2015-09-16 00:00","2015","09","16","00:00","15.4","","14.3","","93","","","","0","","","","101.48","","","","","","NA"
"2015-09-16 01:00","2015","09","16","01:00","15.4","","14.4","","94","","","","0","","","","101.47","","","","","","NA"
"2015-09-16 02:00","2015","09","16","02:00","14.9","","13.9","","94","","","","0","","","","101.46","","","","","","NA"
"2015-09-16 03:00","2015","09","16","03:00","14.4","","13.4","","94","","22","","4","","","","101.47","","","","","","NA"
"2015-09-16 04:00","2015","09","16","04:00","14.4","","13.5","","94","","22","","5","","","","101.50","","","","","","NA"
"2015-09-16 05:00","2015","09","16","05:00","14.2","","13.3","","94","","24","","2","","","","101.49","","","","","","NA"
"2015-09-16 06:00","2015","09","16","06:00","13.7","","12.7","","94","","34","","1","","","","101.51","","","","","","NA"
"2015-09-16 07:00","2015","09","16","07:00","16.5","","15.5","","94","","21","","2","","","","101.55","","","","","","NA"
"2015-09-16 08:00","2015","09","16","08:00","19.9","","17.7","","87","","22","","6","","","","101.57","","","","","","NA"
"2015-09-16 09:00","2015","09","16","09:00","21.3","","17.8","","81","","22","","6","","","","101.58","","27","","","","NA"
"2015-09-16 10:00","2015","09","16","10:00","21.8","","18.3","","81","","19","","16","","","","101.56","","28","","","","NA"
"2015-09-16 11:00","2015","09","16","11:00","21.9","","18.2","","79","","17","","19","","","","101.54","","28","","","","NA"
"2015-09-16 12:00","2015","09","16","12:00","22.4","","18.4","","78","","17","","16","","","","101.50","","29","","","","NA"
"2015-09-16 13:00","2015","09","16","13:00","22.2","","18.6","","80","","17","","20","","","","101.45","","29","","","","NA"
"2015-09-16 14:00","2015","09","16","14:00","22.2","","18.3","","79","","17","","19","","","","101.39","","28","","","","NA"
"2015-09-16 15:00","2015","09","16","15:00","21.9","","17.9","","78","","17","","14","","","","101.31","","28","","","","NA"
"2015-09-16 16:00","2015","09","16","16:00","21.8","","18.0","","79","","17","","16","","","","101.25","","28","","","","NA"
"2015-09-16 17:00","2015","09","16","17:00","21.3","","17.6","","79","","18","","12","","","","101.20","","27","","","","NA"
"2015-09-16 18:00","2015","09","16","18:00","20.3","","17.7","","85","","18","","9","","","","101.17","","26","","","","NA"
"2015-09-16 19:00","2015","09","16","19:00","20.2","","18.2","","89","","18","","8","","","","101.16","","26","","","","NA"
"2015-09-16 20:00","2015","09","16","20:00","19.7","","17.7","","88","","18","","7","","","","101.18","","","","","","NA"
"2015-09-16 21:00","2015","09","16","21:00","19.7","","17.6","","88","","19","","10","","","","101.16","","","","","","NA"
"2015-09-16 22:00","2015","09","16","22:00","19.6","","17.3","","87","","20","","11","","","","101.16","","","","","","NA"
"2015-09-16 23:00","2015","09","16","23:00","17.5","","15.8","","90","","20","","4","","","","101.14","","","","","","NA"
"2015-09-17 00:00","2015","09","17","00:00","16.5","","15.4","","93","","0","","1","","","","101.11","","","","","","NA"
"2015-09-17 01:00","2015","09","17","01:00","15.4","","14.3","","94","","0","","1","","","","101.09","","","","","","NA"
"2015-09-17 02:00","2015","09","17","02:00","14.4","","13.4","","94","","33","","2","","","","101.05","","","","","","NA"
"2015-09-17 03:00","2015","09","17","03:00","14.8","","13.8","","94","","29","","1","","","","101.03","","","","","","NA"
"2015-09-17 04:00","2015","09","17","04:00","13.2","","12.2","","94","","34","","8","","","","101.03","","","","","","NA"
"2015-09-17 05:00","2015","09","17","05:00","13.0","","12.0","","94","","35","","6","","","","101.03","","","","","","NA"
"2015-09-17 06:00","2015","09","17","06:00","13.0","","12.1","","94","","1","","2","","","","101.02","","","","","","NA"
"2015-09-17 07:00","2015","09","17","07:00","15.8","","14.9","","95","","6","","3","","","","101.02","","","","","","NA"
"2015-09-17 08:00","2015","09","17","08:00","20.7","","19.7","","94","","18","","10","","","","101.00","","28","","","","NA"
"2015-09-17 09:00","2015","09","17","09:00"
"2015-09-17 10:00","2015","09","17","10:00"
"2015-09-17 11:00","2015","09","17","11:00"
"2015-09-17 12:00","2015","09","17","12:00","21.8","","18.9","","84","","17","","17","","","","100.86","","28","","","","NA"
"2015-09-17 13:00","2015","09","17","13:00","22.0","","18.9","","83","","17","","15","","","","100.78","","29","","","","NA"
"2015-09-17 14:00","2015","09","17","14:00","22.5","","19.4","","83","","17","","16","","","","100.71","","30","","","","NA"
"2015-09-17 15:00","2015","09","17","15:00","23.0","","18.8","","77","","18","","16","","","","100.65","","30","","","","NA"
"2015-09-17 16:00","2015","09","17","16:00","23.2","","18.3","","74","","19","","15","","","","100.62","","29","","","","NA"
"2015-09-17 17:00","2015","09","17","17:00","22.5","","17.8","","75","","19","","13","","","","100.60","","28","","","","NA"
"2015-09-17 18:00","2015","09","17","18:00","20.9","","17.9","","83","","19","","9","","","","100.58","","27","","","","NA"
"2015-09-17 19:00","2015","09","17","19:00","20.3","","17.4","","84","","19","","11","","","","100.55","","26","","","","NA"
"2015-09-17 20:00","2015","09","17","20:00","20.2","","16.9","","82","","20","","10","","","","100.55","","25","","","","NA"
"2015-09-17 21:00","2015","09","17","21:00","18.8","","16.6","","87","","20","","9","","","","100.52","","","","","","NA"
"2015-09-17 22:00","2015","09","17","22:00","20.1","","17.8","","87","","22","","6","","","","100.51","","26","","","","NA"
"2015-09-17 23:00","2015","09","17","23:00","19.2","","17.3","","89","","21","","9","","","","100.48","","","","","","NA"
"2015-09-18 00:00","2015","09","18","00:00","19.3","","17.8","","91","","24","","5","","","","100.45","","","","","","NA"
"2015-09-18 01:00","2015","09","18","01:00","16.0","","14.9","","93","","21","","4","","","","100.42","","","","","","NA"
"2015-09-18 02:00","2015","09","18","02:00","14.2","","13.1","","94","","30","","3","","","","100.42","","","","","","NA"
"2015-09-18 03:00","2015","09","18","03:00","14.8","","13.9","","94","","17","","2","","","","100.37","","","","","","NA"
"2015-09-18 04:00","2015","09","18","04:00","13.3","","12.4","","94","","34","","5","","","","100.39","","","","","","NA"
"2015-09-18 05:00","2015","09","18","05:00","13.1","","12.2","","94","","35","","3","","","","100.39","","","","","","NA"
"2015-09-18 06:00","2015","09","18","06:00","13.2","","12.3","","94","","5","","3","","","","100.41","","","","","","NA"
"2015-09-18 07:00","2015","09","18","07:00","19.7","","18.8","","95","","16","","16","","","","100.40","","","","","","NA"
"2015-09-18 08:00","2015","09","18","08:00","20.2","","17.6","","85","","17","","18","","","","100.41","","26","","","","NA"
"2015-09-18 09:00","2015","09","18","09:00","20.8","","17.8","","83","","15","","17","","","","100.39","","27","","","","NA"
"2015-09-18 10:00","2015","09","18","10:00","21.4","","17.6","","79","","17","","20","","","","100.38","","27","","","","NA"
"2015-09-18 11:00","2015","09","18","11:00","22.0","","16.6","","72","","18","","19","","","","100.35","","27","","","","NA"
"2015-09-18 12:00","2015","09","18","12:00","22.1","","17.0","","73","","18","","17","","","","100.31","","27","","","","NA"
"2015-09-18 13:00","2015","09","18","13:00","23.0","","17.8","","73","","18","","16","","","","100.26","","29","","","","NA"
"2015-09-18 14:00","2015","09","18","14:00","22.8","","17.2","","71","","19","","14","","","","100.20","","28","","","","NA"
"2015-09-18 15:00","2015","09","18","15:00","23.1","","17.5","","71","","18","","13","","","","100.16","","29","","","","NA"
"2015-09-18 16:00","2015","09","18","16:00","22.7","","17.6","","73","","17","","10","","","","100.14","","28","","","","NA"
"2015-09-18 17:00","2015","09","18","17:00","22.9","","17.6","","72","","22","","4","","","","100.11","","29","","","","NA"
"2015-09-18 18:00","2015","09","18","18:00","21.9","","17.4","","75","","14","","1","","","","100.12","","27","","","","NA"
"2015-09-18 19:00","2015","09","18","19:00","20.6","","17.2","","81","","28","","3","","","","100.14","","26","","","","NA"
"2015-09-18 20:00","2015","09","18","20:00","20.4","","17.2","","82","","8","","2","","","","100.12","","26","","","","NA"
"2015-09-18 21:00","2015","09","18","21:00","20.1","","17.0","","82","","11","","1","","","","100.12","","25","","","","NA"
"2015-09-18 22:00","2015","09","18","22:00","20.2","","17.5","","84","","12","","5","","","","100.07","","26","","","","NA"
"2015-09-18 23:00","2015","09","18","23:00","19.9","","16.6","","81","","24","","1","","","","100.09","","","","","","NA"
"2015-09-19 00:00","2015","09","19","00:00","19.2","","17.1","","88","","34","","3","","","","100.04","","","","","","NA"
"2015-09-19 01:00","2015","09","19","01:00","19.6","","17.3","","87","","9","","4","","","","99.96","","","","","","NA"
"2015-09-19 02:00","2015","09","19","02:00","19.6","","17.0","","85","","9","","3","","","","99.89","","","","","","NA"
"2015-09-19 03:00","2015","09","19","03:00","20.4","","17.8","","85","","16","","3","","","","99.87","","26","","","","NA"
"2015-09-19 04:00","2015","09","19","04:00","20.8","","18.2","","85","","15","","13","","","","99.84","","27","","","","NA"
"2015-09-19 05:00","2015","09","19","05:00","20.9","","17.8","","83","","17","","15","","","","99.80","","27","","","","NA"
"2015-09-19 06:00","2015","09","19","06:00","21.0","","17.5","","80","","17","","24","","","","99.78","","27","","","","NA"
"2015-09-19 07:00","2015","09","19","07:00","21.3","","17.2","","78","","17","","27","","","","99.74","","27","","","","NA"
"2015-09-19 08:00","2015","09","19","08:00","21.9","","17.2","","74","","17","","28","","","","99.72","","27","","","","NA"
"2015-09-19 09:00","2015","09","19","09:00","21.6","","16.9","","75","","18","","24","","","","99.70","","27","","","","NA"
"2015-09-19 10:00","2015","09","19","10:00","21.1","","17.1","","78","","19","","22","","","","99.67","","26","","","","NA"
"2015-09-19 11:00","2015","09","19","11:00","21.9","","17.2","","75","","18","","24","","","","99.63","","27","","","","NA"
"2015-09-19 12:00","2015","09","19","12:00","22.3","","17.7","","76","","19","","23","","","","99.60","","28","","","","NA"
"2015-09-19 13:00","2015","09","19","13:00","22.6","","18.0","","75","","20","","27","","","","99.54","","29","","","","NA"
"2015-09-19 14:00","2015","09","19","14:00","22.5","","18.0","","75","","18","","24","","","","99.45","","29","","","","NA"
"2015-09-19 15:00","2015","09","19","15:00","21.9","","18.0","","78","","18","","29","","","","99.39","","28","","","","NA"
"2015-09-19 16:00","2015","09","19","16:00","20.8","","18.8","","88","","19","","34","","","","99.36","","27","","","","NA"
"2015-09-19 17:00","2015","09","19","17:00","21.3","","18.7","","85","","18","","33","","","","99.25","","28","","","","NA"
"2015-09-19 18:00","2015","09","19","18:00","20.0","","18.4","","91","","20","","36","","","","99.38","","26","","","","NA"
"2015-09-19 19:00","2015","09","19","19:00","19.2","","16.9","","87","","28","","20","","","","99.47","","","","","","NA"
"2015-09-19 20:00","2015","09","19","20:00","17.6","","14.7","","83","","28","","20","","","","99.65","","","","","","NA"
"2015-09-19 21:00","2015","09","19","21:00","16.3","","13.6","","84","","27","","19","","","","99.84","","","","","","NA"
"2015-09-19 22:00","2015","09","19","22:00","14.6","","10.5","","77","","31","","16","","","","100.03","","","","","","NA"
"2015-09-19 23:00","2015","09","19","23:00","12.9","","9.5","","80","","29","","9","","","","100.14","","","","","","NA"
"2015-09-20 00:00","2015","09","20","00:00","13.1","","9.4","","79","","31","","16","","","","100.26","","","","","","NA"
"2015-09-20 01:00","2015","09","20","01:00","11.9","","8.2","","78","","33","","14","","","","100.38","","","","","","NA"
"2015-09-20 02:00","2015","09","20","02:00","11.1","","7.3","","77","","32","","15","","","","100.48","","","","","","NA"
"2015-09-20 03:00","2015","09","20","03:00","10.0","","6.9","","81","","32","","12","","","","100.58","","","","","","NA"
"2015-09-20 04:00","2015","09","20","04:00","9.2","","6.7","","84","","33","","11","","","","100.66","","","","","","NA"
"2015-09-20 05:00","2015","09","20","05:00","8.8","","6.3","","84","","33","","15","","","","100.76","","","","","","NA"
"2015-09-20 06:00","2015","09","20","06:00","7.1","","5.3","","88","","34","","11","","","","100.88","","","","","","NA"
"2015-09-20 07:00","2015","09","20","07:00","9.9","","7.5","","85","","34","","8","","","","100.97","","","","","","NA"
"2015-09-20 08:00","2015","09","20","08:00","11.5","","6.9","","73","","35","","14","","","","101.04","","","","","","NA"
"2015-09-20 09:00","2015","09","20","09:00","12.6","","6.6","","67","","2","","14","","","","101.09","","","","","","NA"
"2015-09-20 10:00","2015","09","20","10:00","13.2","","6.7","","65","","34","","9","","","","101.11","","","","","","NA"
"2015-09-20 11:00","2015","09","20","11:00","14.7","","6.4","","58","","33","","11","","","","101.12","","","","","","NA"
"2015-09-20 12:00","2015","09","20","12:00","16.0","","6.5","","53","","35","","15","","","","101.11","","","","","","NA"
"2015-09-20 13:00","2015","09","20","13:00","17.1","","7.4","","53","","35","","12","","","","101.05","","","","","","NA"
"2015-09-20 14:00","2015","09","20","14:00","17.7","","6.7","","49","","35","","12","","","","101.02","","","","","","NA"
"2015-09-20 15:00","2015","09","20","15:00","18.2","","4.8","","41","","36","","14","","","","101.01","","","","","","NA"
"2015-09-20 16:00","2015","09","20","16:00","18.0","","4.9","","42","","32","","13","","","","101.00","","","","","","NA"
"2015-09-20 17:00","2015","09","20","17:00","17.4","","5.3","","45","","3","","4","","","","101.01","","","","","","NA"
"2015-09-20 18:00","2015","09","20","18:00","15.3","","10.0","","71","","22","","9","","","","101.01","","","","","","NA"
"2015-09-20 19:00","2015","09","20","19:00","13.8","","9.8","","77","","21","","2","","","","101.04","","","","","","NA"
"2015-09-20 20:00","2015","09","20","20:00","11.8","","9.4","","85","","35","","3","","","","101.09","","","","","","NA"
"2015-09-20 21:00","2015","09","20","21:00","10.6","","9.1","","90","","36","","4","","","","101.12","","","","","","NA"
"2015-09-20 22:00","2015","09","20","22:00","8.8","","7.3","","90","","33","","9","","","","101.15","","","","","","NA"
"2015-09-20 23:00","2015","09","20","23:00","9.3","","8.1","","92","","35","","6","","","","101.17","","","","","","NA"
"2015-09-21 00:00","2015","09","21","00:00","8.0","","6.8","","92","","35","","7","","","","101.16","","","","","","NA"
"2015-09-21 01:00","2015","09","21","01:00","7.5","","6.6","","94","","35","","8","","","","101.16","","","","","","NA"
"2015-09-21 02:00","2015","09","21","02:00","7.3","","6.5","","94","","35","","7","","","","101.18","","","","","","NA"
"2015-09-21 03:00","2015","09","21","03:00","6.9","","6.1","","95","","36","","6","","","","101.17","","","","","","NA"
"2015-09-21 04:00","2015","09","21","04:00","6.6","","5.9","","95","","36","","7","","","","101.20","","","","","","NA"
"2015-09-21 05:00","2015","09","21","05:00","9.2","","8.4","","95","","4","","12","","","","101.24","","","","","","NA"
"2015-09-21 06:00","2015","09","21","06:00","9.1","","8.1","","94","","3","","8","","","","101.28","","","","","","NA"
"2015-09-21 07:00","2015","09","21","07:00","10.7","","9.7","","94","","3","","7","","","","101.35","","","","","","NA"
"2015-09-21 08:00","2015","09","21","08:00","13.9","","11.3","","84","","4","","7","","","","101.38","","","","","","NA"
"2015-09-21 09:00","2015","09","21","09:00","14.9","","9.1","","68","","7","","12","","","","101.41","","","","","","NA"
"2015-09-21 10:00","2015","09","21","10:00","16.7","","8.6","","59","","5","","12","","","","101.41","","","","","","NA"
"2015-09-21 11:00","2015","09","21","11:00","17.0","","7.6","","54","","7","","10","","","","101.39","","","","","","NA"
"2015-09-21 12:00","2015","09","21","12:00","17.9","","7.3","","50","","10","","11","","","","101.37","","","","","","NA"
"2015-09-21 13:00","2015","09","21","13:00","18.1","","6.9","","48","","10","","11","","","","101.33","","","","","","NA"
"2015-09-21 14:00","2015","09","21","14:00","18.4","","6.0","","44","","12","","8","","","","101.29","","","","","","NA"
"2015-09-21 15:00","2015","09","21","15:00","18.7","","7.2","","47","","10","","8","","","","101.26","","","","","","NA"
"2015-09-21 16:00","2015","09","21","16:00","19.1","","5.8","","42","","7","","11","","","","101.21","","","","","","NA"
"2015-09-21 17:00","2015","09","21","17:00","18.0","","7.1","","49","","6","","9","","","","101.21","","","","","","NA"
"2015-09-21 18:00","2015","09","21","18:00","16.9","","6.8","","52","","5","","4","","","","101.21","","","","","","NA"
"2015-09-21 19:00","2015","09","21","19:00","13.1","","7.8","","70","","4","","6","","","","101.23","","","","","","NA"
"2015-09-21 20:00","2015","09","21","20:00","13.1","","7.8","","71","","7","","9","","","","101.25","","","","","","NA"
"2015-09-21 21:00","2015","09","21","21:00","12.7","","8.5","","76","","7","","5","","","","101.28","","","","","","NA"
"2015-09-21 22:00","2015","09","21","22:00","10.4","","8.7","","89","","3","","4","","","","101.27","","","","","","NA"
"2015-09-21 23:00","2015","09","21","23:00","16.9","","9.8","","63","","16","","20","","","","101.26","","","","","","NA"
"2015-09-22 00:00","2015","09","22","00:00","17.5","","10.0","","61","","16","","26","","","","101.24","","","","","","NA"
"2015-09-22 01:00","2015","09","22","01:00","17.2","","11.7","","70","","16","","25","","","","101.24","","","","","","NA"
"2015-09-22 02:00","2015","09","22","02:00","17.3","","10.8","","66","","17","","24","","","","101.23","","","","","","NA"
"2015-09-22 03:00","2015","09","22","03:00","17.0","","11.1","","68","","16","","25","","","","101.23","","","","","","NA"
"2015-09-22 04:00","2015","09","22","04:00","17.2","","11.2","","68","","16","","24","","","","101.26","","","","","","NA"
"2015-09-22 05:00","2015","09","22","05:00","17.0","","11.0","","68","","16","","28","","","","101.30","","","","","","NA"
"2015-09-22 06:00","2015","09","22","06:00","17.0","","10.8","","67","","16","","27","","","","101.36","","","","","","NA"
"2015-09-22 07:00","2015","09","22","07:00","17.1","","10.4","","65","","17","","26","","","","101.42","","","","","","NA"
"2015-09-22 08:00","2015","09","22","08:00","17.5","","10.8","","65","","17","","27","","","","101.42","","","","","","NA"
"2015-09-22 09:00","2015","09","22","09:00","17.8","","11.1","","65","","18","","24","","","","101.46","","","","","","NA"
"2015-09-22 10:00","2015","09","22","10:00","18.5","","11.3","","63","","18","","19","","","","101.45","","","","","","NA"
"2015-09-22 11:00","2015","09","22","11:00","18.7","","11.6","","63","","19","","19","","","","101.43","","","","","","NA"
"2015-09-22 12:00","2015","09","22","12:00","19.2","","12.5","","65","","18","","19","","","","101.42","","","","","","NA"
"2015-09-22 13:00","2015","09","22","13:00","18.9","","11.8","","63","","18","","18","","","","101.37","","","","","","NA"
"2015-09-22 14:00","2015","09","22","14:00","19.6","","12.0","","61","","19","","15","","","","101.35","","","","","","NA"
"2015-09-22 15:00","2015","09","22","15:00","19.1","","10.9","","59","","19","","12","","","","101.32","","","","","","NA"
"2015-09-22 16:00","2015","09","22","16:00","19.1","","11.5","","61","","17","","13","","","","101.28","","","","","","NA"
"2015-09-22 17:00","2015","09","22","17:00","18.7","","11.3","","62","","17","","9","","","","101.28","","","","","","NA"
"2015-09-22 18:00","2015","09","22","18:00","17.4","","11.1","","67","","19","","5","","","","101.29","","","","","","NA"
"2015-09-22 19:00","2015","09","22","19:00","15.0","","9.8","","71","","20","","5","","","","101.29","","","","","","NA"
"2015-09-22 20:00","2015","09","22","20:00","12.4","","10.1","","86","","33","","7","","","","101.32","","","","","","NA"
"2015-09-22 21:00","2015","09","22","21:00","12.7","","11.2","","91","","34","","8","","","","101.32","","","","","","NA"
"2015-09-22 22:00","2015","09","22","22:00","11.6","","10.2","","91","","36","","5","","","","101.32","","","","","","NA"
"2015-09-22 23:00","2015","09","22","23:00","11.2","","10.1","","93","","3","","3","","","","101.32","","","","","","NA"
"2015-09-23 00:00","2015","09","23","00:00","9.3","","8.3","","93","","33","","10","","","","101.33","","","","","","NA"
"2015-09-23 01:00","2015","09","23","01:00","9.2","","8.1","","93","","34","","9","","","","101.34","","","","","","NA"
"2015-09-23 02:00","2015","09","23","02:00","9.6","","8.5","","93","","35","","6","","","","101.34","","","","","","NA"
"2015-09-23 03:00","2015","09","23","03:00","8.6","","7.6","","94","","35","","9","","","","101.36","","","","","","NA"
"2015-09-23 04:00","2015","09","23","04:00","8.6","","7.6","","93","","35","","7","","","","101.36","","","","","","NA"
"2015-09-23 05:00","2015","09","23","05:00","8.2","","7.3","","94","","35","","6","","","","101.39","","","","","","NA"
"2015-09-23 06:00","2015","09","23","06:00","8.2","","7.3","","94","","35","","6","","","","101.42","","","","","","NA"
"2015-09-23 07:00","2015","09","23","07:00","10.8","","9.6","","93","","34","","7","","","","101.45","","","","","","NA"
"2015-09-23 08:00","2015","09","23","08:00","15.0","","12.9","","87","","34","","6","","","","101.47","","","","","","NA"
"2015-09-23 09:00","2015","09","23","09:00","18.3","","14.4","","78","","22","","8","","","","101.50","","","","","","NA"
"2015-09-23 10:00","2015","09","23","10:00","19.8","","13.6","","68","","21","","10","","","","101.53","","","","","","NA"
"2015-09-23 11:00","2015","09","23","11:00","20.1","","15.8","","76","","18","","14","","","","101.51","","25","","","","NA"
"2015-09-23 12:00","2015","09","23","12:00","20.8","","15.3","","71","","17","","14","","","","101.48","","25","","","","NA"
"2015-09-23 13:00","2015","09","23","13:00","20.6","","16.3","","77","","17","","17","","","","101.40","","25","","","","NA"
"2015-09-23 14:00","2015","09","23","14:00","20.5","","16.3","","77","","19","","19","","","","101.36","","25","","","","NA"
"2015-09-23 15:00","2015","09","23","15:00","20.6","","16.0","","75","","19","","19","","","","101.32","","25","","","","NA"
"2015-09-23 16:00","2015","09","23","16:00","20.5","","15.1","","71","","20","","17","","","","101.32","","25","","","","NA"
"2015-09-23 17:00","2015","09","23","17:00","20.2","","15.5","","75","","19","","9","","","","101.33","","","","","","NA"
"2015-09-23 18:00","2015","09","23","18:00","18.7","","14.3","","75","","19","","9","","","","101.33","","","","","","NA"
"2015-09-23 19:00","2015","09","23","19:00","18.0","","15.3","","84","","21","","6","","","","101.35","","","","","","NA"
"2015-09-23 20:00","2015","09","23","20:00","16.8","","13.6","","81","","25","","7","","","","101.39","","","","","","NA"
"2015-09-23 21:00","2015","09","23","21:00","16.3","","13.6","","84","","29","","4","","","","101.40","","","","","","NA"
"2015-09-23 22:00","2015","09","23","22:00","15.6","","13.2","","86","","32","","11","","","","101.41","","","","","","NA"
"2015-09-23 23:00","2015","09","23","23:00","14.6","","13.1","","91","","","","0","","","","101.40","","","","","","NA"
"2015-09-24 00:00","2015","09","24","00:00","14.4","","13.2","","93","","","","0","","","","101.41","","","","","","NA"
"2015-09-24 01:00","2015","09","24","01:00","13.0","","11.9","","93","","1","","7","","","","101.44","","","","","","NA"
"2015-09-24 02:00","2015","09","24","02:00","12.5","","11.4","","93","","1","","5","","","","101.46","","","","","","NA"
"2015-09-24 03:00","2015","09","24","03:00","12.3","","11.3","","93","","35","","11","","","","101.48","","","","","","NA"
"2015-09-24 04:00","2015","09","24","04:00","12.5","","11.5","","93","","3","","6","","","","101.52","","","","","","NA"
"2015-09-24 05:00","2015","09","24","05:00","12.8","","11.6","","93","","2","","7","","","","101.58","","","","","","NA"
"2015-09-24 06:00","2015","09","24","06:00","13.5","","12.4","","93","","2","","10","","","","101.66","","","","","","NA"
"2015-09-24 07:00","2015","09","24","07:00","15.5","","13.6","","88","","3","","12","","","","101.72","","","","","","NA"
"2015-09-24 08:00","2015","09","24","08:00","16.5","","13.3","","82","","5","","19","","","","101.78","","","","","","NA"
"2015-09-24 09:00","2015","09","24","09:00","18.0","","13.8","","77","","4","","19","","","","101.81","","","","","","NA"
"2015-09-24 10:00","2015","09","24","10:00","19.3","","14.2","","72","","4","","15","","","","101.83","","","","","","NA"
"2015-09-24 11:00","2015","09","24","11:00","20.9","","14.2","","65","","4","","14","","","","101.81","","","","","","NA"
"2015-09-24 12:00","2015","09","24","12:00","21.5","","13.0","","58","","4","","17","","","","101.79","","","","","","NA"
"2015-09-24 13:00","2015","09","24","13:00","22.0","","12.1","","53","","6","","19","","","","101.74","","","","","","NA"
"2015-09-24 14:00","2015","09","24","14:00","22.2","","11.0","","49","","4","","18","","","","101.73","","","","","","NA"
"2015-09-24 15:00","2015","09","24","15:00","22.2","","10.8","","48","","5","","17","","","","101.71","","","","","","NA"
"2015-09-24 16:00","2015","09","24","16:00","21.5","","9.4","","46","","4","","17","","","","101.72","","","","","","NA"
"2015-09-24 17:00","2015","09","24","17:00","20.0","","8.9","","49","","5","","18","","","","101.75","","","","","","NA"
"2015-09-24 18:00","2015","09","24","18:00","18.7","","8.3","","51","","4","","13","","","","101.74","","","","","","NA"
"2015-09-24 19:00","2015","09","24","19:00","17.5","","8.6","","56","","3","","10","","","","101.78","","","","","","NA"
"2015-09-24 20:00","2015","09","24","20:00","16.2","","8.5","","60","","5","","13","","","","101.80","","","","","","NA"
"2015-09-24 21:00","2015","09","24","21:00","15.6","","8.5","","63","","6","","13","","","","101.81","","","","","","NA"
"2015-09-24 22:00","2015","09","24","22:00","15.0","","8.0","","63","","5","","14","","","","101.82","","","","","","NA"
"2015-09-24 23:00","2015","09","24","23:00","14.5","","8.1","","66","","3","","12","","","","101.84","","","","","","NA"
"2015-09-25 00:00","2015","09","25","00:00","13.4","","7.9","","69","","3","","13","","","","101.81","","","","","","NA"
"2015-09-25 01:00","2015","09","25","01:00","12.9","","7.9","","72","","3","","11","","","","101.78","","","","","","NA"
"2015-09-25 02:00","2015","09","25","02:00","13.0","","7.5","","69","","3","","14","","","","101.75","","","","","","NA"
"2015-09-25 03:00","2015","09","25","03:00","13.0","","7.0","","67","","3","","15","","","","101.71","","","","","","NA"
"2015-09-25 04:00","2015","09","25","04:00","12.7","","6.3","","65","","4","","16","","","","101.68","","","","","","NA"
"2015-09-25 05:00","2015","09","25","05:00","12.4","","5.9","","65","","4","","16","","","","101.72","","","","","","NA"
"2015-09-25 06:00","2015","09","25","06:00","12.1","","5.4","","63","","4","","18","","","","101.76","","","","","","NA"
"2015-09-25 07:00","2015","09","25","07:00","12.0","","5.2","","63","","5","","17","","","","101.78","","","","","","NA"
"2015-09-25 08:00","2015","09","25","08:00","12.7","","5.6","","62","","4","","17","","","","101.85","","","","","","NA"
"2015-09-25 09:00","2015","09","25","09:00","13.1","","4.8","","57","","4","","22","","","","101.90","","","","","","NA"
"2015-09-25 10:00","2015","09","25","10:00","14.4","","5.4","","55","","4","","19","","","","101.90","","","","","","NA"
"2015-09-25 11:00","2015","09","25","11:00","16.5","","5.8","","49","","4","","24","","","","101.89","","","","","","NA"
"2015-09-25 12:00","2015","09","25","12:00","18.1","","5.1","","42","","5","","22","","","","101.84","","","","","","NA"
"2015-09-25 13:00","2015","09","25","13:00","19.7","","5.3","","39","","5","","18","","","","101.75","","","","","","NA"
"2015-09-25 14:00","2015","09","25","14:00","19.2","","5.1","","40","","4","","20","","","","101.71","","","","","","NA"
"2015-09-25 15:00","2015","09","25","15:00","19.2","","4.8","","39","","5","","19","","","","101.66","","","","","","NA"
"2015-09-25 16:00","2015","09","25","16:00","18.6","","4.3","","39","","5","","19","","","","101.67","","","","","","NA"
"2015-09-25 17:00","2015","09","25","17:00","17.7","","4.3","","41","","3","","19","","","","101.74","","","","","","NA"
"2015-09-25 18:00","2015","09","25","18:00","16.1","","4.2","","45","","3","","19","","","","101.78","","","","","","NA"
"2015-09-25 19:00","2015","09","25","19:00","14.9","","3.7","","47","","3","","20","","","","101.84","","","","","","NA"
"2015-09-25 20:00","2015","09","25","20:00","13.4","","4.1","","53","","4","","14","","","","101.87","","","","","","NA"
"2015-09-25 21:00","2015","09","25","21:00","12.7","","4.5","","57","","3","","13","","","","101.88","","","","","","NA"
"2015-09-25 22:00","2015","09","25","22:00","12.3","","4.4","","59","","3","","13","","","","101.91","","","","","","NA"
"2015-09-25 23:00","2015","09","25","23:00","11.8","","4.3","","60","","3","","12","","","","101.91","","","","","","NA"
"2015-09-26 00:00","2015","09","26","00:00","11.6","","5.0","","64","","3","","17","","","","101.91","","","","","","NA"
"2015-09-26 01:00","2015","09","26","01:00","11.1","","5.4","","68","","3","","14","","","","101.92","","","","","","NA"
"2015-09-26 02:00","2015","09","26","02:00","10.7","","5.3","","69","","3","","13","","","","101.92","","","","","","NA"
"2015-09-26 03:00","2015","09","26","03:00","10.7","","5.0","","68","","3","","13","","","","101.92","","","","","","NA"
"2015-09-26 04:00","2015","09","26","04:00","10.5","","4.6","","67","","4","","16","","","","101.93","","","","","","NA"
"2015-09-26 05:00","2015","09","26","05:00","10.3","","4.5","","67","","3","","14","","","","101.96","","","","","","NA"
"2015-09-26 06:00","2015","09","26","06:00","9.5","","4.4","","71","","2","","13","","","","102.02","","","","","","NA"
"2015-09-26 07:00","2015","09","26","07:00","10.7","","4.5","","65","","3","","15","","","","102.08","","","","","","NA"
"2015-09-26 08:00","2015","09","26","08:00","12.6","","4.1","","56","","4","","22","","","","102.08","","","","","","NA"
"2015-09-26 09:00","2015","09","26","09:00","14.5","","4.8","","52","","5","","22","","","","102.09","","","","","","NA"
"2015-09-26 10:00","2015","09","26","10:00","16.7","","3.3","","41","","6","","18","","","","102.11","","","","","","NA"
"2015-09-26 11:00","2015","09","26","11:00","18.6","","2.9","","35","","7","","18","","","","102.11","","","","","","NA"
"2015-09-26 12:00","2015","09","26","12:00","19.8","","1.1","","29","","6","","14","","","","102.07","","","","","","NA"
"2015-09-26 13:00","2015","09","26","13:00","20.3","","4.3","","35","","10","","13","","","","101.99","","","","","","NA"
"2015-09-26 14:00","2015","09","26","14:00","20.4","","3.9","","34","","11","","16","","","","101.94","","","","","","NA"
"2015-09-26 15:00","2015","09","26","15:00","20.5","","4.9","","36","","13","","16","","","","101.88","","","","","","NA"
"2015-09-26 16:00","2015","09","26","16:00","20.2","","5.0","","37","","11","","12","","","","101.84","","","","","","NA"
"2015-09-26 17:00","2015","09","26","17:00","19.2","","5.6","","41","","9","","7","","","","101.83","","","","","","NA"
"2015-09-26 18:00","2015","09","26","18:00","17.4","","3.8","","40","","6","","6","","","","101.80","","","","","","NA"
"2015-09-26 19:00","2015","09","26","19:00","15.1","","5.1","","51","","5","","6","","","","101.80","","","","","","NA"
"2015-09-26 20:00","2015","09","26","20:00","14.2","","5.7","","57","","4","","6","","","","101.83","","","","","","NA"
"2015-09-26 21:00","2015","09","26","21:00","13.1","","7.4","","69","","5","","12","","","","101.81","","","","","","NA"
"2015-09-26 22:00","2015","09","26","22:00","12.5","","7.0","","69","","5","","5","","","","101.83","","","","","","NA"
"2015-09-26 23:00","2015","09","26","23:00","11.3","","7.5","","77","","4","","5","","","","101.81","","","","","","NA"
"2015-09-27 00:00","2015","09","27","00:00","10.7","","7.3","","80","","5","","4","","","","101.79","","","","","","NA"
"2015-09-27 01:00","2015","09","27","01:00","10.4","","7.5","","82","","6","","7","","","","101.78","","","","","","NA"
"2015-09-27 02:00","2015","09","27","02:00","16.8","","12.6","","76","","17","","19","","","","101.73","","","","","","NA"
"2015-09-27 03:00","2015","09","27","03:00","16.6","","12.8","","78","","18","","21","","","","101.71","","","","","","NA"
"2015-09-27 04:00","2015","09","27","04:00","17.0","","12.9","","77","","19","","25","","","","101.69","","","","","","NA"
"2015-09-27 05:00","2015","09","27","05:00","16.5","","12.9","","79","","18","","27","","","","101.68","","","","","","NA"
"2015-09-27 06:00","2015","09","27","06:00","16.6","","12.6","","77","","18","","28","","","","101.70","","","","","","NA"
"2015-09-27 07:00","2015","09","27","07:00","16.5","","12.5","","77","","18","","28","","","","101.76","","","","","","NA"
"2015-09-27 08:00","2015","09","27","08:00","16.8","","12.5","","76","","18","","28","","","","101.79","","","","","","NA"
"2015-09-27 09:00","2015","09","27","09:00","17.1","","12.1","","72","","19","","29","","","","101.78","","","","","","NA"
"2015-09-27 10:00","2015","09","27","10:00","17.4","","12.2","","72","","18","","25","","","","101.77","","","","","","NA"
"2015-09-27 11:00","2015","09","27","11:00","18.0","","11.7","","67","","18","","22","","","","101.72","","","","","","NA"
"2015-09-27 12:00","2015","09","27","12:00","18.2","","11.8","","66","","17","","20","","","","101.64","","","","","","NA"
"2015-09-27 13:00","2015","09","27","13:00","19.0","","12.6","","66","","17","","20","","","","101.55","","","","","","NA"
"2015-09-27 14:00","2015","09","27","14:00","19.1","","11.8","","63","","16","","20","","","","101.44","","","","","","NA"
"2015-09-27 15:00","2015","09","27","15:00","19.7","","11.8","","60","","16","","18","","","","101.34","","","","","","NA"
"2015-09-27 16:00","2015","09","27","16:00","19.9","","12.1","","61","","17","","14","","","","101.26","","","","","","NA"
"2015-09-27 17:00","2015","09","27","17:00","19.7","","13.3","","67","","16","","13","","","","101.19","","","","","","NA"
"2015-09-27 18:00","2015","09","27","18:00","19.2","","13.5","","70","","15","","13","","","","101.14","","","","","","NA"
"2015-09-27 19:00","2015","09","27","19:00","19.6","","14.4","","72","","16","","15","","","","101.12","","","","","","NA"
"2015-09-27 20:00","2015","09","27","20:00","19.9","","13.4","","66","","16","","20","","","","101.10","","","","","","NA"
"2015-09-27 21:00","2015","09","27","21:00","19.8","","13.4","","67","","17","","27","","","","101.07","","","","","","NA"
"2015-09-27 22:00","2015","09","27","22:00","19.5","","13.6","","68","","18","","27","","","","101.05","","","","","","NA"
"2015-09-27 23:00","2015","09","27","23:00","19.4","","14.0","","71","","19","","27","","","","101.05","","","","","","NA"
"2015-09-28 00:00","2015","09","28","00:00","19.3","","14.0","","71","","19","","31","","","","101.03","","","","","","NA"
"2015-09-28 01:00","2015","09","28","01:00","19.0","","14.3","","74","","20","","30","","","","101.04","","","","","","NA"
"2015-09-28 02:00","2015","09","28","02:00","18.8","","14.4","","76","","20","","29","","","","101.02","","","","","","NA"
"2015-09-28 03:00","2015","09","28","03:00","18.6","","14.4","","77","","20","","26","","","","101.00","","","","","","NA"
"2015-09-28 04:00","2015","09","28","04:00","18.3","","14.2","","77","","19","","25","","","","100.98","","","","","","NA"
"2015-09-28 05:00","2015","09","28","05:00","18.2","","14.4","","79","","18","","27","","","","100.98","","","","","","NA"
"2015-09-28 06:00","2015","09","28","06:00","17.8","","14.8","","83","","18","","26","","","","100.98","","","","","","NA"
"2015-09-28 07:00","2015","09","28","07:00","18.0","","15.0","","83","","19","","25","","","","101.01","","","","","","NA"
"2015-09-28 08:00","2015","09","28","08:00","17.9","","15.3","","85","","19","","22","","","","100.99","","","","","","NA"
"2015-09-28 09:00","2015","09","28","09:00","17.9","","15.4","","85","","19","","23","","","","100.98","","","","","","NA"
"2015-09-28 10:00","2015","09","28","10:00","17.8","","16.1","","90","","20","","20","","","","100.96","","","","","","NA"
"2015-09-28 11:00","2015","09","28","11:00","17.7","","16.3","","92","","19","","23","","","","100.94","","","","","","NA"
"2015-09-28 12:00","2015","09","28","12:00","17.7","","16.4","","92","","19","","22","","","","100.91","","","","","","NA"
"2015-09-28 13:00","2015","09","28","13:00","18.1","","16.8","","92","","20","","20","","","","100.83","","","","","","NA"
"2015-09-28 14:00","2015","09","28","14:00","18.2","","17.0","","93","","18","","17","","","","100.74","","","","","","NA"
"2015-09-28 15:00","2015","09","28","15:00","18.6","","17.2","","92","","19","","19","","","","100.68","","","","","","NA"
"2015-09-28 16:00","2015","09","28","16:00","18.5","","17.4","","93","","19","","18","","","","100.63","","","","","","NA"
"2015-09-28 17:00","2015","09","28","17:00","18.6","","17.4","","93","","19","","13","","","","100.60","","","","","","NA"
"2015-09-28 18:00","2015","09","28","18:00","19.3","","17.4","","89","","20","","20","","","","100.57","","","","","","NA"
"2015-09-28 19:00","2015","09","28","19:00","19.0","","17.7","","93","","19","","20","","","","100.55","","","","","","NA"
"2015-09-28 20:00","2015","09","28","20:00","19.2","","18.0","","93","","20","","19","","","","100.57","","","","","","NA"
"2015-09-28 21:00","2015","09","28","21:00","18.9","","17.8","","93","","19","","22","","","","100.55","","","","","","NA"
"2015-09-28 22:00","2015","09","28","22:00","19.0","","17.7","","92","","20","","19","","","","100.55","","","","","","NA"
"2015-09-28 23:00","2015","09","28","23:00","18.9","","17.6","","92","","19","","11","","","","100.51","","","","","","NA"
"2015-09-29 00:00","2015","09","29","00:00","19.0","","17.2","","90","","18","","15","","","","100.44","","","","","","NA"
"2015-09-29 01:00","2015","09","29","01:00","19.1","","17.4","","90","","20","","18","","","","100.41","","","","","","NA"
"2015-09-29 02:00","2015","09","29","02:00","19.1","","17.5","","90","","20","","16","","","","100.40","","","","","","NA"
"2015-09-29 03:00","2015","09","29","03:00","19.2","","17.5","","90","","21","","12","","","","100.37","","","","","","NA"
"2015-09-29 04:00","2015","09","29","04:00","19.2","","17.7","","91","","19","","14","","","","100.35","","","","","","NA"
"2015-09-29 05:00","2015","09","29","05:00","19.1","","17.6","","91","","19","","15","","","","100.32","","","","","","NA"
"2015-09-29 06:00","2015","09","29","06:00","19.0","","17.5","","91","","20","","13","","","","100.34","","","","","","NA"
"2015-09-29 07:00","2015","09","29","07:00","19.6","","17.8","","89","","20","","12","","","","100.34","","","","","","NA"
"2015-09-29 08:00","2015","09","29","08:00","19.5","","17.7","","89","","19","","15","","","","100.36","","","","","","NA"
"2015-09-29 09:00","2015","09","29","09:00","20.3","","18.3","","88","","20","","9","","","","100.36","","27","","","","NA"
"2015-09-29 10:00","2015","09","29","10:00","20.3","","18.2","","88","","20","","13","","","","100.35","","26","","","","NA"
"2015-09-29 11:00","2015","09","29","11:00","20.4","","18.3","","88","","20","","10","","","","100.30","","27","","","","NA"
"2015-09-29 12:00","2015","09","29","12:00","19.8","","18.2","","90","","21","","14","","","","100.30","","","","","","NA"
"2015-09-29 13:00","2015","09","29","13:00","19.9","","18.5","","92","","20","","16","","","","100.25","","","","","","NA"
"2015-09-29 14:00","2015","09","29","14:00","20.3","","18.6","","90","","22","","15","","","","100.22","","27","","","","NA"
"2015-09-29 15:00","2015","09","29","15:00","19.8","","18.5","","92","","24","","9","","","","100.21","","","","","","NA"
"2015-09-29 16:00","2015","09","29","16:00","19.6","","18.1","","91","","23","","3","","","","100.20","","","","","","NA"
"2015-09-29 17:00","2015","09","29","17:00","15.3","","13.8","","90","","2","","22","","","","100.30","","","","","","NA"
"2015-09-29 18:00","2015","09","29","18:00","14.3","","12.9","","91","","1","","18","","","","100.32","","","","","","NA"
"2015-09-29 19:00","2015","09","29","19:00","13.7","","12.2","","91","","2","","22","","","","100.36","","","","","","NA"
"2015-09-29 20:00","2015","09","29","20:00","13.3","","11.3","","88","","4","","22","","","","100.38","","","","","","NA"
"2015-09-29 21:00","2015","09","29","21:00","13.5","","11.3","","87","","3","","19","","","","100.42","","","","","","NA"
"2015-09-29 22:00","2015","09","29","22:00","13.3","","11.6","","90","","3","","14","","","","100.45","","","","","","NA"
"2015-09-29 23:00","2015","09","29","23:00","13.3","","11.7","","90","","2","","14","","","","100.48","","","","","","NA"
"2015-09-30 00:00","2015","09","30","00:00","13.4","","11.8","","90","","3","","15","","","","100.39","","","","","","NA"
"2015-09-30 01:00","2015","09","30","01:00","13.5","","11.8","","90","","3","","22","","","","100.36","","","","","","NA"
"2015-09-30 02:00","2015","09","30","02:00","13.1","","11.2","","88","","4","","22","","","","100.38","","","","","","NA"
"2015-09-30 03:00","2015","09","30","03:00","13.1","","11.4","","89","","3","","20","","","","100.35","","","","","","NA"
"2015-09-30 04:00","2015","09","30","04:00","13.3","","11.6","","89","","1","","21","","","","100.34","","","","","","NA"
"2015-09-30 05:00","2015","09","30","05:00","12.5","","10.7","","88","","1","","27","","","","100.30","","","","","","NA"
"2015-09-30 06:00","2015","09","30","06:00","11.6","","9.2","","85","","1","","27","","","","100.34","","","","","","NA"
"2015-09-30 07:00","2015","09","30","07:00","11.0","","8.5","","84","","3","","26","","","","100.42","","","","","","NA"
"2015-09-30 08:00","2015","09","30","08:00","11.4","","7.0","","75","","2","","27","","","","100.46","","","","","","NA"
"2015-09-30 09:00","2015","09","30","09:00","11.4","","6.6","","72","","2","","28","","","","100.51","","","","","","NA"
"2015-09-30 10:00","2015","09","30","10:00"
"2015-09-30 11:00","2015","09","30","11:00"
"2015-09-30 12:00","2015","09","30","12:00","12.1","","6.0","","66","","1","","26","","","","100.71","","","","","","NA"
"2015-09-30 13:00","2015","09","30","13:00","12.9","","5.9","","62","","1","","31","","","","100.75","","","","","","NA"
"2015-09-30 14:00","2015","09","30","14:00","12.9","","6.1","","63","","2","","27","","","","100.77","","","","","","NA"
"2015-09-30 15:00","2015","09","30","15:00","13.3","","5.9","","61","","1","","26","","","","100.83","","","","","","NA"
"2015-09-30 16:00","2015","09","30","16:00","13.7","","5.3","","57","","1","","27","","","","100.89","","","","","","NA"
"2015-09-30 17:00","2015","09","30","17:00","13.2","","4.8","","57","","36","","25","","","","100.96","","","","","","NA"
"2015-09-30 18:00","2015","09","30","18:00","11.9","","3.2","","55","","36","","25","","","","101.03","","","","","","NA"
"2015-09-30 19:00","2015","09","30","19:00","10.9","","2.7","","57","","36","","19","","","","101.09","","","","","","NA"
"2015-09-30 20:00","2015","09","30","20:00","9.6","","3.2","","64","","36","","17","","","","101.14","","","","","","NA"
"2015-09-30 21:00","2015","09","30","21:00","8.9","","3.5","","69","","36","","16","","","","101.21","","","","","","NA"
"2015-09-30 22:00","2015","09","30","22:00","8.7","","2.8","","66","","36","","18","","","","101.25","","","","","","NA"
"2015-09-30 23:00","2015","09","30","23:00","8.1","","2.4","","68","","36","","20","","","","101.27","","","","","","NA"
