"Station Name","KINGSTON CLIMATE"
"Province","ONTARIO"
"Latitude","44.22"
"Longitude","-76.60"
"Elevation","93.00"
"Climate Identifier","6104142"
"WMO Identifier","71820"
"TC Identifier","TKG"
"All times are specified in Local Standard Time (LST). Add 1 hour to adjust for Daylight Saving Time where and when it is observed."

"Legend"
"E","Estimated"
"M","Missing"
"NA","Not Available"

"Date/Time","Year","Month","Day","Time","Temp (°C)","Temp Flag","Dew Point Temp (°C)","Dew Point Temp Flag","Rel Hum (%)","Rel Hum Flag","Wind Dir (10s deg)","Wind Dir Flag","Wind Spd (km/h)","Wind Spd Flag","Visibility (km)","Visibility Flag","Stn Press (kPa)","Stn Press Flag","Hmdx","Hmdx Flag","Wind Chill","Wind Chill Flag","Weather"
"2015-01-01 00:00","2015","01","01","00:00","-5.9","","-11.8","","63","","26","","28","","","","100.21","","","","-14","","NA"
"2015-01-01 01:00","2015","01","01","01:00","-5.9","","-13.6","","54","","26","","21","","","","100.19","","","","-13","","NA"
"2015-01-01 02:00","2015","01","01","02:00","-6.1","","-14.2","","53","","26","","27","","","","100.17","","","","-14","","NA"
"2015-01-01 03:00","2015","01","01","03:00","-5.8","","-13.2","","56","","25","","28","","","","100.14","","","","-14","","NA"
"2015-01-01 04:00","2015","01","01","04:00","-5.7","","-11.9","","62","","25","","24","","","","100.14","","","","-13","","NA"
"2015-01-01 05:00","2015","01","01","05:00","-5.3","","-10.6","","66","","25","","25","","","","100.08","","","","-13","","NA"
"2015-01-01 06:00","2015","01","01","06:00","-4.2","","-10.2","","63","","24","","36","","","","100.07","","","","-13","","NA"
"2015-01-01 07:00","2015","01","01","07:00","-3.8","","-10.2","","61","","24","","41","","","","100.02","","","","-13","","NA"
"2015-01-01 08:00","2015","01","01","08:00","-3.7","","-8.5","","69","","24","","34","","","","100.00","","","","-12","","NA"
"2015-01-01 09:00","2015","01","01","09:00","-3.2","","-7.9","","70","","24","","35","","","","100.01","","","","-11","","NA"
"2015-01-01 10:00","2015","01","01","10:00","-2.8","","-6.6","","75","","24","","39","","","","99.96","","","","-11","","NA"
"2015-01-01 11:00","2015","01","01","11:00","-3.5","","-4.9","","90","","22","","38","","","","99.85","","","","-12","","NA"
"2015-01-01 12:00","2015","01","01","12:00","-3.5","","-4.9","","90","","22","","43","","","","99.72","","","","-12","","NA"
"2015-01-01 13:00","2015","01","01","13:00","-3.4","","-5.7","","84","","22","","41","","","","99.68","","","","-12","","NA"
"2015-01-01 14:00","2015","01","01","14:00","-3.3","","-4.7","","90","","22","","35","","","","99.63","","","","-11","","NA"
"2015-01-01 15:00","2015","01","01","15:00","-2.7","","-3.9","","91","","24","","27","","","","99.60","","","","-10","","NA"
"2015-01-01 16:00","2015","01","01","16:00","-2.6","","-5.5","","80","","25","","25","","","","99.64","","","","-9","","NA"
"2015-01-01 17:00","2015","01","01","17:00","-2.7","","-5.3","","82","","25","","29","","","","99.67","","","","-10","","NA"
"2015-01-01 18:00","2015","01","01","18:00","-2.3","","-6.8","","71","","26","","28","","","","99.72","","","","-9","","NA"
"2015-01-01 19:00","2015","01","01","19:00","-2.4","","-7.4","","69","","25","","26","","","","99.76","","","","-9","","NA"
"2015-01-01 20:00","2015","01","01","20:00","-1.8","","-6.9","","68","","25","","25","","","","99.77","","","","-8","","NA"
"2015-01-01 21:00","2015","01","01","21:00","-1.3","","-5.8","","72","","25","","36","","","","99.82","","","","-9","","NA"
"2015-01-01 22:00","2015","01","01","22:00","-0.9","","-6.5","","66","","25","","31","","","","99.87","","","","-8","","NA"
"2015-01-01 23:00","2015","01","01","23:00","-0.9","","-6.8","","64","","25","","28","","","","99.92","","","","-7","","NA"
"2015-01-02 00:00","2015","01","02","00:00","-0.8","","-6.9","","63","","25","","33","","","","99.98","","","","-8","","NA"
"2015-01-02 01:00","2015","01","02","01:00","-0.6","","-6.6","","64","","25","","28","","","","100.00","","","","-7","","NA"
"2015-01-02 02:00","2015","01","02","02:00","-0.7","","-6.6","","64","","26","","33","","","","100.06","","","","-8","","NA"
"2015-01-02 03:00","2015","01","02","03:00","-2.8","","-5.9","","79","","30","","26","","","","100.22","","","","-10","","NA"
"2015-01-02 04:00","2015","01","02","04:00","-3.6","","-8.0","","72","","30","","16","","","","100.27","","","","-9","","NA"
"2015-01-02 05:00","2015","01","02","05:00","-3.5","","-7.5","","74","","28","","18","","","","100.37","","","","-9","","NA"
"2015-01-02 06:00","2015","01","02","06:00","-4.1","","-7.4","","78","","28","","10","","","","100.48","","","","-8","","NA"
"2015-01-02 07:00","2015","01","02","07:00","-5.0","","-9.2","","73","","32","","12","","","","100.62","","","","-10","","NA"
"2015-01-02 08:00","2015","01","02","08:00","-5.9","","-10.2","","71","","31","","12","","","","100.82","","","","-11","","NA"
"2015-01-02 09:00","2015","01","02","09:00","-6.1","","-11.2","","67","","31","","9","","","","100.97","","","","-10","","NA"
"2015-01-02 10:00","2015","01","02","10:00","-5.9","","-13.4","","55","","32","","18","","","","101.05","","","","-12","","NA"
"2015-01-02 11:00","2015","01","02","11:00","-5.7","","-13.9","","52","","33","","19","","","","101.11","","","","-12","","NA"
"2015-01-02 12:00","2015","01","02","12:00","-5.3","","-12.9","","55","","29","","17","","","","101.10","","","","-11","","NA"
"2015-01-02 13:00","2015","01","02","13:00","-4.7","","-12.8","","53","","29","","19","","","","101.12","","","","-11","","NA"
"2015-01-02 14:00","2015","01","02","14:00","-4.5","","-12.9","","52","","28","","22","","","","101.23","","","","-11","","NA"
"2015-01-02 15:00","2015","01","02","15:00","-4.6","","-13.3","","50","","29","","16","","","","101.30","","","","-10","","NA"
"2015-01-02 16:00","2015","01","02","16:00","-4.7","","-12.8","","53","","26","","15","","","","101.37","","","","-10","","NA"
"2015-01-02 17:00","2015","01","02","17:00","-6.7","","-14.4","","54","","33","","9","","","","101.49","","","","-11","","NA"
"2015-01-02 18:00","2015","01","02","18:00","-7.3","","-14.4","","57","","30","","4","","","","101.59","","","","-9","","NA"
"2015-01-02 19:00","2015","01","02","19:00","-8.3","","-13.8","","64","","32","","8","","","","101.72","","","","-12","","NA"
"2015-01-02 20:00","2015","01","02","20:00","-9.6","","-14.4","","68","","34","","7","","","","101.76","","","","-14","","NA"
"2015-01-02 21:00","2015","01","02","21:00","-9.5","","-15.1","","63","","31","","4","","","","101.88","","","","-12","","NA"
"2015-01-02 22:00","2015","01","02","22:00","-10.3","","-15.0","","68","","34","","8","","","","101.96","","","","-15","","NA"
"2015-01-02 23:00","2015","01","02","23:00","-10.8","","-15.0","","71","","2","","2","","","","102.03","","","","-12","","NA"
"2015-01-03 00:00","2015","01","03","00:00","-11.8","","-15.8","","72","","4","","6","","","","102.02","","","","-16","","NA"
"2015-01-03 01:00","2015","01","03","01:00","-13.6","","-16.1","","82","","3","","7","","","","102.07","","","","-18","","NA"
"2015-01-03 02:00","2015","01","03","02:00","-13.1","","-15.4","","83","","3","","7","","","","102.12","","","","-18","","NA"
"2015-01-03 03:00","2015","01","03","03:00","-11.4","","-16.0","","69","","5","","11","","","","102.18","","","","-17","","NA"
"2015-01-03 04:00","2015","01","03","04:00","-11.4","","-15.9","","70","","5","","14","","","","102.19","","","","-18","","NA"
"2015-01-03 05:00","2015","01","03","05:00","-11.2","","-15.8","","69","","4","","16","","","","102.13","","","","-18","","NA"
"2015-01-03 06:00","2015","01","03","06:00","-11.3","","-15.9","","69","","5","","13","","","","102.14","","","","-18","","NA"
"2015-01-03 07:00","2015","01","03","07:00","-10.7","","-15.2","","69","","5","","13","","","","102.08","","","","-17","","NA"
"2015-01-03 08:00","2015","01","03","08:00","-10.1","","-14.4","","71","","4","","12","","","","101.99","","","","-16","","NA"
"2015-01-03 09:00","2015","01","03","09:00","-9.3","","-13.4","","72","","5","","13","","","","102.06","","","","-15","","NA"
"2015-01-03 10:00","2015","01","03","10:00","-8.1","","-12.0","","74","","5","","16","","","","102.06","","","","-15","","NA"
"2015-01-03 11:00","2015","01","03","11:00","-7.3","","-11.2","","74","","4","","15","","","","101.99","","","","-13","","NA"
"2015-01-03 12:00","2015","01","03","12:00","-6.4","","-10.6","","72","","4","","19","","","","101.81","","","","-13","","NA"
"2015-01-03 13:00","2015","01","03","13:00","-6.0","","-10.6","","70","","5","","25","","","","101.62","","","","-14","","NA"
"2015-01-03 14:00","2015","01","03","14:00"
"2015-01-03 15:00","2015","01","03","15:00","-4.1","","-6.2","","85","","9","","22","","","","101.33","","","","-11","","NA"
"2015-01-03 16:00","2015","01","03","16:00","-3.1","","-4.1","","93","","10","","20","","","","101.11","","","","-9","","NA"
"2015-01-03 17:00","2015","01","03","17:00","-2.3","","-3.2","","93","","11","","25","","","","100.93","","","","-9","","NA"
"2015-01-03 18:00","2015","01","03","18:00","-2.1","","-3.1","","93","","10","","17","","","","100.85","","","","-7","","NA"
"2015-01-03 19:00","2015","01","03","19:00","-1.6","","-2.6","","93","","10","","16","","","","100.69","","","","-7","","NA"
"2015-01-03 20:00","2015","01","03","20:00","-0.8","","-1.7","","94","","9","","11","","","","100.55","","","","-5","","NA"
"2015-01-03 21:00","2015","01","03","21:00","1.2","","0.2","","93","","14","","26","","","","100.39","","","","","","NA"
"2015-01-03 22:00","2015","01","03","22:00","1.6","","0.6","","93","","14","","28","","","","100.30","","","","","","NA"
"2015-01-03 23:00","2015","01","03","23:00","1.8","","0.9","","94","","14","","22","","","","100.17","","","","","","NA"
"2015-01-04 00:00","2015","01","04","00:00","2.1","","1.3","","95","","14","","22","","","","100.06","","","","","","NA"
"2015-01-04 01:00","2015","01","04","01:00","-0.4","","-1.1","","95","","7","","14","","","","99.93","","","","-5","","NA"
"2015-01-04 02:00","2015","01","04","02:00","-1.7","","-2.4","","95","","5","","10","","","","99.82","","","","-5","","NA"
"2015-01-04 03:00","2015","01","04","03:00","-1.9","","-2.5","","95","","5","","9","","","","99.73","","","","-5","","NA"
"2015-01-04 04:00","2015","01","04","04:00","-1.9","","-2.5","","96","","5","","7","","","","99.61","","","","-5","","NA"
"2015-01-04 05:00","2015","01","04","05:00","-1.9","","-2.5","","96","","5","","6","","","","99.45","","","","-4","","NA"
"2015-01-04 06:00","2015","01","04","06:00","-1.2","","-1.7","","96","","5","","6","","","","99.30","","","","-3","","NA"
"2015-01-04 07:00","2015","01","04","07:00","-0.4","","-1.0","","96","","6","","2","","","","99.27","","","","-1","","NA"
"2015-01-04 08:00","2015","01","04","08:00","-0.3","","-0.9","","96","","","","0","","","","99.18","","","","","","NA"
"2015-01-04 09:00","2015","01","04","09:00","0.2","","-0.4","","96","","","","0","","","","99.16","","","","","","NA"
"2015-01-04 10:00","2015","01","04","10:00","1.4","","0.9","","96","","","","0","","","","98.97","","","","","","NA"
"2015-01-04 11:00","2015","01","04","11:00","3.3","","2.7","","96","","12","","19","","","","98.80","","","","","","NA"
"2015-01-04 12:00","2015","01","04","12:00","4.2","","3.5","","96","","14","","14","","","","98.67","","","","","","NA"
"2015-01-04 13:00","2015","01","04","13:00","4.6","","4.0","","96","","22","","10","","","","98.68","","","","","","NA"
"2015-01-04 14:00","2015","01","04","14:00","5.6","","4.9","","96","","20","","27","","","","98.57","","","","","","NA"
"2015-01-04 15:00","2015","01","04","15:00","5.3","","4.7","","96","","23","","43","","","","98.70","","","","","","NA"
"2015-01-04 16:00","2015","01","04","16:00","4.4","","2.6","","88","","24","","41","","","","98.82","","","","","","NA"
"2015-01-04 17:00","2015","01","04","17:00","4.1","","1.7","","85","","24","","31","","","","98.99","","","","","","NA"
"2015-01-04 18:00","2015","01","04","18:00","3.8","","0.9","","82","","24","","31","","","","99.08","","","","","","NA"
"2015-01-04 19:00","2015","01","04","19:00","2.9","","0.9","","87","","24","","35","","","","99.15","","","","","","NA"
"2015-01-04 20:00","2015","01","04","20:00","1.0","","-0.5","","90","","26","","28","","","","99.30","","","","","","NA"
"2015-01-04 21:00","2015","01","04","21:00","-1.2","","-4.4","","79","","28","","34","","","","99.47","","","","-8","","NA"
"2015-01-04 22:00","2015","01","04","22:00","-1.8","","-5.2","","77","","27","","28","","","","99.53","","","","-9","","NA"
"2015-01-04 23:00","2015","01","04","23:00","-2.4","","-5.6","","78","","27","","18","","","","99.66","","","","-8","","NA"
"2015-01-05 00:00","2015","01","05","00:00","-2.6","","-6.0","","77","","27","","20","","","","99.73","","","","-9","","NA"
"2015-01-05 01:00","2015","01","05","01:00","-2.9","","-6.1","","79","","28","","20","","","","99.79","","","","-9","","NA"
"2015-01-05 02:00","2015","01","05","02:00","-3.4","","-7.5","","73","","27","","26","","","","99.90","","","","-10","","NA"
"2015-01-05 03:00","2015","01","05","03:00","-4.6","","-8.9","","72","","28","","34","","","","100.09","","","","-13","","NA"
"2015-01-05 04:00","2015","01","05","04:00","-6.0","","-11.5","","65","","28","","29","","","","100.17","","","","-14","","NA"
"2015-01-05 05:00","2015","01","05","05:00","-7.5","","-13.3","","63","","28","","36","","","","100.34","","","","-17","","NA"
"2015-01-05 06:00","2015","01","05","06:00","-8.7","","-14.4","","64","","29","","37","","","","100.53","","","","-19","","NA"
"2015-01-05 07:00","2015","01","05","07:00","-9.9","","-15.5","","63","","29","","31","","","","100.68","","","","-20","","NA"
"2015-01-05 08:00","2015","01","05","08:00","-11.0","","-17.8","","57","","29","","32","","","","100.85","","","","-21","","NA"
"2015-01-05 09:00","2015","01","05","09:00","-11.5","","-18.6","","56","","30","","23","","","","101.02","","","","-20","","NA"
"2015-01-05 10:00","2015","01","05","10:00","-11.7","","-19.9","","51","","30","","30","","","","101.12","","","","-22","","NA"
"2015-01-05 11:00","2015","01","05","11:00","-11.8","","-21.4","","45","","29","","28","","","","101.20","","","","-22","","NA"
"2015-01-05 12:00","2015","01","05","12:00","-11.4","","-20.5","","47","","28","","32","","","","101.17","","","","-22","","NA"
"2015-01-05 13:00","2015","01","05","13:00","-11.1","","-19.9","","48","","29","","35","","","","101.25","","","","-22","","NA"
"2015-01-05 14:00","2015","01","05","14:00","-11.0","","-20.7","","45","","28","","32","","","","101.32","","","","-21","","NA"
"2015-01-05 15:00","2015","01","05","15:00","-11.3","","-20.8","","46","","29","","29","","","","101.41","","","","-21","","NA"
"2015-01-05 16:00","2015","01","05","16:00","-11.7","","-20.3","","49","","27","","21","","","","101.50","","","","-20","","NA"
"2015-01-05 17:00","2015","01","05","17:00","-12.5","","-19.5","","56","","29","","12","","","","101.57","","","","-19","","NA"
"2015-01-05 18:00","2015","01","05","18:00","-12.7","","-19.2","","58","","28","","14","","","","101.68","","","","-20","","NA"
"2015-01-05 19:00","2015","01","05","19:00","-12.8","","-18.8","","61","","31","","10","","","","101.72","","","","-19","","NA"
"2015-01-05 20:00","2015","01","05","20:00","-13.0","","-17.9","","67","","30","","9","","","","101.68","","","","-18","","NA"
"2015-01-05 21:00","2015","01","05","21:00","-12.9","","-17.6","","68","","28","","14","","","","101.62","","","","-20","","NA"
"2015-01-05 22:00","2015","01","05","22:00","-13.1","","-17.3","","70","","28","","12","","","","101.62","","","","-20","","NA"
"2015-01-05 23:00","2015","01","05","23:00","-13.5","","-17.5","","72","","28","","12","","","","101.58","","","","-20","","NA"
"2015-01-06 00:00","2015","01","06","00:00","-13.1","","-17.8","","68","","26","","15","","","","101.58","","","","-21","","NA"
"2015-01-06 01:00","2015","01","06","01:00","-12.8","","-17.7","","67","","26","","14","","","","101.53","","","","-20","","NA"
"2015-01-06 02:00","2015","01","06","02:00","-12.6","","-17.9","","64","","27","","11","","","","101.55","","","","-19","","NA"
"2015-01-06 03:00","2015","01","06","03:00","-13.1","","-17.7","","68","","27","","6","","","","101.49","","","","-17","","NA"
"2015-01-06 04:00","2015","01","06","04:00","-13.1","","-17.4","","71","","33","","5","","","","101.41","","","","-16","","NA"
"2015-01-06 05:00","2015","01","06","05:00","-12.7","","-16.9","","71","","31","","10","","","","101.33","","","","-18","","NA"
"2015-01-06 06:00","2015","01","06","06:00","-12.4","","-16.6","","71","","32","","15","","","","101.28","","","","-20","","NA"
"2015-01-06 07:00","2015","01","06","07:00","-12.2","","-16.6","","70","","33","","5","","","","101.21","","","","-15","","NA"
"2015-01-06 08:00","2015","01","06","08:00","-11.9","","-15.8","","73","","32","","4","","","","101.19","","","","-14","","NA"
"2015-01-06 09:00","2015","01","06","09:00","-11.4","","-15.8","","70","","12","","6","","","","101.14","","","","-15","","NA"
"2015-01-06 10:00","2015","01","06","10:00","-10.3","","-13.7","","76","","4","","3","","","","101.06","","","","-12","","NA"
"2015-01-06 11:00","2015","01","06","11:00","-9.8","","-12.3","","82","","3","","3","","","","100.92","","","","-12","","NA"
"2015-01-06 12:00","2015","01","06","12:00","-9.3","","-12.5","","77","","24","","9","","","","100.80","","","","-14","","NA"
"2015-01-06 13:00","2015","01","06","13:00","-8.9","","-11.2","","83","","27","","9","","","","100.66","","","","-14","","NA"
"2015-01-06 14:00","2015","01","06","14:00","-8.0","","-10.6","","82","","25","","12","","","","100.56","","","","-13","","NA"
"2015-01-06 15:00","2015","01","06","15:00","-7.9","","-9.9","","85","","23","","16","","","","100.52","","","","-14","","NA"
"2015-01-06 16:00","2015","01","06","16:00","-8.0","","-9.8","","87","","27","","17","","","","100.47","","","","-15","","NA"
"2015-01-06 17:00","2015","01","06","17:00","-7.9","","-10.6","","81","","26","","16","","","","100.39","","","","-14","","NA"
"2015-01-06 18:00","2015","01","06","18:00","-7.6","","-11.3","","74","","26","","13","","","","100.32","","","","-13","","NA"
"2015-01-06 19:00","2015","01","06","19:00","-7.8","","-12.4","","69","","26","","16","","","","100.26","","","","-14","","NA"
"2015-01-06 20:00","2015","01","06","20:00","-8.1","","-13.0","","68","","27","","17","","","","100.21","","","","-15","","NA"
"2015-01-06 21:00","2015","01","06","21:00","-8.5","","-13.3","","68","","28","","16","","","","100.16","","","","-15","","NA"
"2015-01-06 22:00","2015","01","06","22:00","-8.6","","-13.7","","67","","26","","18","","","","100.08","","","","-16","","NA"
"2015-01-06 23:00","2015","01","06","23:00","-8.0","","-14.4","","60","","27","","22","","","","99.93","","","","-16","","NA"
"2015-01-07 00:00","2015","01","07","00:00","-7.7","","-14.7","","57","","27","","18","","","","99.78","","","","-15","","NA"
"2015-01-07 01:00","2015","01","07","01:00","-7.6","","-14.7","","57","","27","","18","","","","99.71","","","","-14","","NA"
"2015-01-07 02:00","2015","01","07","02:00","-7.9","","-14.7","","58","","27","","20","","","","99.64","","","","-15","","NA"
"2015-01-07 03:00","2015","01","07","03:00","-8.3","","-14.7","","60","","27","","17","","","","99.65","","","","-15","","NA"
"2015-01-07 04:00","2015","01","07","04:00","-8.6","","-14.4","","63","","27","","22","","","","99.62","","","","-16","","NA"
"2015-01-07 05:00","2015","01","07","05:00","-9.3","","-13.9","","69","","28","","20","","","","99.63","","","","-17","","NA"
"2015-01-07 06:00","2015","01","07","06:00","-9.6","","-13.5","","73","","29","","23","","","","99.72","","","","-18","","NA"
"2015-01-07 07:00","2015","01","07","07:00","-11.7","","-16.5","","67","","31","","31","","","","99.90","","","","-22","","NA"
"2015-01-07 08:00","2015","01","07","08:00","-14.8","","-20.1","","64","","32","","27","","","","100.11","","","","-25","","NA"
"2015-01-07 09:00","2015","01","07","09:00","-17.2","","-22.8","","61","","33","","35","","","","100.32","","","","-30","","NA"
"2015-01-07 10:00","2015","01","07","10:00","-17.7","","-24.4","","56","","33","","32","","","","100.46","","","","-30","","NA"
"2015-01-07 11:00","2015","01","07","11:00","-17.8","","-24.4","","56","","32","","31","","","","100.63","","","","-30","","NA"
"2015-01-07 12:00","2015","01","07","12:00","-17.8","","-24.9","","54","","32","","26","","","","100.75","","","","-29","","NA"
"2015-01-07 13:00","2015","01","07","13:00","-17.9","","-24.8","","55","","31","","23","","","","100.81","","","","-29","","NA"
"2015-01-07 14:00","2015","01","07","14:00","-18.0","","-25.7","","51","","31","","23","","","","100.92","","","","-29","","NA"
"2015-01-07 15:00","2015","01","07","15:00","-18.2","","-26.3","","49","","32","","24","","","","101.05","","","","-29","","NA"
"2015-01-07 16:00","2015","01","07","16:00","-18.8","","-27.1","","48","","31","","23","","","","101.18","","","","-30","","NA"
"2015-01-07 17:00","2015","01","07","17:00","-19.8","","-27.0","","52","","32","","20","","","","101.28","","","","-30","","NA"
"2015-01-07 18:00","2015","01","07","18:00","-20.5","","-28.0","","51","","32","","21","","","","101.42","","","","-31","","NA"
"2015-01-07 19:00","2015","01","07","19:00","-21.3","","-27.7","","56","","32","","19","","","","101.52","","","","-32","","NA"
"2015-01-07 20:00","2015","01","07","20:00","-21.8","","-28.3","","56","","32","","17","","","","101.57","","","","-32","","NA"
"2015-01-07 21:00","2015","01","07","21:00","-22.4","","-28.5","","57","","32","","16","","","","101.61","","","","-32","","NA"
"2015-01-07 22:00","2015","01","07","22:00","-23.1","","-28.6","","61","","33","","11","","","","101.64","","","","-31","","NA"
"2015-01-07 23:00","2015","01","07","23:00","-23.7","","-28.9","","62","","33","","7","","","","101.62","","","","-30","","NA"
"2015-01-08 00:00","2015","01","08","00:00","-23.8","","-29.1","","62","","31","","5","","","","101.58","","","","-29","","NA"
"2015-01-08 01:00","2015","01","08","01:00","-24.0","","-29.3","","62","","29","","8","","","","101.52","","","","-31","","NA"
"2015-01-08 02:00","2015","01","08","02:00","-23.6","","-28.6","","63","","29","","4","","","","101.45","","","","-27","","NA"
"2015-01-08 03:00","2015","01","08","03:00","-22.1","","-25.8","","72","","28","","11","","","","101.43","","","","-30","","NA"
"2015-01-08 04:00","2015","01","08","04:00","-21.8","","-24.6","","78","","36","","4","","","","101.26","","","","-25","","NA"
"2015-01-08 05:00","2015","01","08","05:00","-21.1","","-23.8","","79","","1","","5","","","","101.13","","","","-26","","NA"
"2015-01-08 06:00","2015","01","08","06:00","-17.8","","-19.6","","85","","6","","4","","","","101.05","","","","-21","","NA"
"2015-01-08 07:00","2015","01","08","07:00","-14.0","","-17.5","","75","","27","","17","","","","101.01","","","","-22","","NA"
"2015-01-08 08:00","2015","01","08","08:00","-14.0","","-17.6","","74","","26","","15","","","","101.01","","","","-22","","NA"
"2015-01-08 09:00","2015","01","08","09:00","-10.7","","-15.3","","69","","26","","27","","","","100.98","","","","-20","","NA"
"2015-01-08 10:00","2015","01","08","10:00","-8.5","","-12.3","","74","","25","","27","","","","100.95","","","","-17","","NA"
"2015-01-08 11:00","2015","01","08","11:00","-7.6","","-11.3","","75","","25","","27","","","","100.90","","","","-16","","NA"
"2015-01-08 12:00","2015","01","08","12:00","-7.3","","-11.4","","72","","24","","37","","","","100.79","","","","-17","","NA"
"2015-01-08 13:00","2015","01","08","13:00","-7.3","","-10.5","","78","","25","","29","","","","100.67","","","","-16","","NA"
"2015-01-08 14:00","2015","01","08","14:00","-8.2","","-10.6","","83","","26","","23","","","","100.64","","","","-16","","NA"
"2015-01-08 15:00","2015","01","08","15:00","-6.9","","-8.8","","86","","24","","32","","","","100.60","","","","-16","","NA"
"2015-01-08 16:00","2015","01","08","16:00","-6.7","","-8.8","","85","","22","","37","","","","100.56","","","","-16","","NA"
"2015-01-08 17:00","2015","01","08","17:00","-7.3","","-9.1","","87","","22","","46","","","","100.51","","","","-18","","NA"
"2015-01-08 18:00","2015","01","08","18:00","-7.1","","-11.2","","73","","22","","51","","","","100.49","","","","-18","","NA"
"2015-01-08 19:00","2015","01","08","19:00","-7.1","","-12.4","","65","","21","","39","","","","100.47","","","","-17","","NA"
"2015-01-08 20:00","2015","01","08","20:00","-7.0","","-14.1","","57","","21","","40","","","","100.34","","","","-17","","NA"
"2015-01-08 21:00","2015","01","08","21:00","-7.1","","-14.2","","57","","22","","38","","","","100.22","","","","-17","","NA"
"2015-01-08 22:00","2015","01","08","22:00","-6.9","","-14.4","","55","","22","","34","","","","100.04","","","","-16","","NA"
"2015-01-08 23:00","2015","01","08","23:00","-7.2","","-10.6","","77","","21","","42","","","","99.90","","","","-17","","NA"
"2015-01-09 00:00","2015","01","09","00:00","-7.7","","-9.5","","86","","21","","45","","","","99.73","","","","-18","","NA"
"2015-01-09 01:00","2015","01","09","01:00","-7.9","","-9.6","","87","","22","","40","","","","99.57","","","","-18","","NA"
"2015-01-09 02:00","2015","01","09","02:00","-7.7","","-9.5","","87","","22","","40","","","","99.49","","","","-18","","NA"
"2015-01-09 03:00","2015","01","09","03:00","-6.8","","-8.3","","89","","21","","43","","","","99.35","","","","-17","","NA"
"2015-01-09 04:00","2015","01","09","04:00","-6.4","","-9.2","","80","","21","","49","","","","99.27","","","","-17","","NA"
"2015-01-09 05:00","2015","01","09","05:00","-6.3","","-7.8","","89","","22","","48","","","","99.25","","","","-17","","NA"
"2015-01-09 06:00","2015","01","09","06:00","-8.4","","-9.9","","89","","26","","21","","","","99.33","","","","-16","","NA"
"2015-01-09 07:00","2015","01","09","07:00","-8.8","","-10.4","","88","","26","","16","","","","99.40","","","","-16","","NA"
"2015-01-09 08:00","2015","01","09","08:00","-8.6","","-10.4","","87","","25","","16","","","","99.44","","","","-15","","NA"
"2015-01-09 09:00","2015","01","09","09:00","-8.3","","-10.9","","81","","26","","17","","","","99.52","","","","-15","","NA"
"2015-01-09 10:00","2015","01","09","10:00","-8.0","","-13.2","","66","","26","","23","","","","99.63","","","","-16","","NA"
"2015-01-09 11:00","2015","01","09","11:00","-7.7","","-13.1","","65","","25","","27","","","","99.74","","","","-16","","NA"
"2015-01-09 12:00","2015","01","09","12:00","-7.2","","-13.7","","60","","26","","28","","","","99.77","","","","-16","","NA"
"2015-01-09 13:00","2015","01","09","13:00","-6.8","","-13.5","","59","","25","","27","","","","99.80","","","","-15","","NA"
"2015-01-09 14:00","2015","01","09","14:00","-6.1","","-13.4","","56","","25","","25","","","","99.88","","","","-14","","NA"
"2015-01-09 15:00","2015","01","09","15:00","-5.4","","-12.2","","59","","25","","27","","","","99.94","","","","-13","","NA"
"2015-01-09 16:00","2015","01","09","16:00","-6.0","","-11.8","","64","","27","","23","","","","100.09","","","","-13","","NA"
"2015-01-09 17:00","2015","01","09","17:00","-7.4","","-14.2","","58","","27","","21","","","","100.23","","","","-15","","NA"
"2015-01-09 18:00","2015","01","09","18:00","-8.5","","-15.7","","56","","27","","14","","","","100.33","","","","-15","","NA"
"2015-01-09 19:00","2015","01","09","19:00","-9.8","","-15.6","","62","","28","","6","","","","100.46","","","","-13","","NA"
"2015-01-09 20:00","2015","01","09","20:00","-10.8","","-17.5","","58","","29","","8","","","","100.56","","","","-15","","NA"
"2015-01-09 21:00","2015","01","09","21:00","-10.8","","-18.1","","55","","27","","11","","","","100.67","","","","-17","","NA"
"2015-01-09 22:00","2015","01","09","22:00","-11.4","","-17.3","","62","","27","","10","","","","100.69","","","","-17","","NA"
"2015-01-09 23:00","2015","01","09","23:00","-11.5","","-16.4","","67","","26","","12","","","","100.72","","","","-18","","NA"
"2015-01-10 00:00","2015","01","10","00:00","-11.7","","-17.1","","64","","26","","16","","","","100.74","","","","-19","","NA"
"2015-01-10 01:00","2015","01","10","01:00","-11.7","","-17.5","","62","","26","","17","","","","100.78","","","","-19","","NA"
"2015-01-10 02:00","2015","01","10","02:00","-11.1","","-17.8","","58","","26","","24","","","","100.84","","","","-20","","NA"
"2015-01-10 03:00","2015","01","10","03:00","-11.7","","-17.9","","60","","26","","23","","","","100.92","","","","-21","","NA"
"2015-01-10 04:00","2015","01","10","04:00","-12.1","","-18.3","","60","","26","","23","","","","100.96","","","","-21","","NA"
"2015-01-10 05:00","2015","01","10","05:00","-12.5","","-18.3","","62","","26","","22","","","","101.03","","","","-21","","NA"
"2015-01-10 06:00","2015","01","10","06:00","-12.8","","-18.2","","64","","26","","22","","","","101.11","","","","-22","","NA"
"2015-01-10 07:00","2015","01","10","07:00","-12.9","","-18.6","","62","","26","","21","","","","101.18","","","","-22","","NA"
"2015-01-10 08:00","2015","01","10","08:00","-12.8","","-19.1","","59","","26","","21","","","","101.27","","","","-22","","NA"
"2015-01-10 09:00","2015","01","10","09:00","-11.8","","-19.0","","55","","26","","28","","","","101.37","","","","-22","","NA"
"2015-01-10 10:00","2015","01","10","10:00","-10.7","","-18.1","","54","","26","","27","","","","101.47","","","","-20","","NA"
"2015-01-10 11:00","2015","01","10","11:00","-9.7","","-16.9","","56","","26","","25","","","","101.49","","","","-18","","NA"
"2015-01-10 12:00","2015","01","10","12:00","-8.9","","-15.8","","57","","25","","25","","","","101.44","","","","-17","","NA"
"2015-01-10 13:00","2015","01","10","13:00","-8.7","","-15.7","","57","","25","","26","","","","101.42","","","","-17","","NA"
"2015-01-10 14:00","2015","01","10","14:00","-7.7","","-13.9","","61","","25","","27","","","","101.36","","","","-16","","NA"
"2015-01-10 15:00","2015","01","10","15:00","-8.0","","-12.5","","70","","24","","34","","","","101.33","","","","-17","","NA"
"2015-01-10 16:00","2015","01","10","16:00","-8.4","","-11.2","","81","","25","","25","","","","101.38","","","","-17","","NA"
"2015-01-10 17:00","2015","01","10","17:00","-9.0","","-11.0","","85","","27","","17","","","","101.42","","","","-16","","NA"
"2015-01-10 18:00","2015","01","10","18:00","-7.9","","-11.0","","79","","26","","22","","","","101.45","","","","-16","","NA"
"2015-01-10 19:00","2015","01","10","19:00","-9.3","","-11.1","","87","","29","","15","","","","101.51","","","","-16","","NA"
"2015-01-10 20:00","2015","01","10","20:00","-9.8","","-11.7","","86","","27","","20","","","","101.55","","","","-18","","NA"
"2015-01-10 21:00","2015","01","10","21:00","-9.7","","-12.5","","80","","26","","19","","","","101.59","","","","-17","","NA"
"2015-01-10 22:00","2015","01","10","22:00","-9.6","","-13.8","","71","","26","","22","","","","101.66","","","","-18","","NA"
"2015-01-10 23:00","2015","01","10","23:00","-9.3","","-13.0","","74","","26","","18","","","","101.73","","","","-17","","NA"
"2015-01-11 00:00","2015","01","11","00:00","-9.6","","-13.0","","76","","26","","15","","","","101.78","","","","-16","","NA"
"2015-01-11 01:00","2015","01","11","01:00","-9.9","","-13.3","","76","","26","","11","","","","101.80","","","","-15","","NA"
"2015-01-11 02:00","2015","01","11","02:00","-10.7","","-13.7","","79","","27","","10","","","","101.85","","","","-16","","NA"
"2015-01-11 03:00","2015","01","11","03:00","-10.6","","-14.3","","74","","27","","13","","","","101.90","","","","-17","","NA"
"2015-01-11 04:00","2015","01","11","04:00","-9.3","","-14.9","","64","","25","","14","","","","101.88","","","","-16","","NA"
"2015-01-11 05:00","2015","01","11","05:00","-7.7","","-13.8","","62","","24","","17","","","","101.86","","","","-14","","NA"
"2015-01-11 06:00","2015","01","11","06:00","-7.6","","-11.9","","71","","26","","10","","","","101.87","","","","-12","","NA"
"2015-01-11 07:00","2015","01","11","07:00","-7.2","","-10.0","","80","","22","","6","","","","101.82","","","","-10","","NA"
"2015-01-11 08:00","2015","01","11","08:00","-6.2","","-8.4","","84","","20","","5","","","","101.79","","","","-9","","NA"
"2015-01-11 09:00","2015","01","11","09:00","-4.7","","-9.4","","69","","21","","26","","","","101.84","","","","-12","","NA"
"2015-01-11 10:00","2015","01","11","10:00","-4.4","","-7.4","","79","","21","","26","","","","101.82","","","","-12","","NA"
"2015-01-11 11:00","2015","01","11","11:00","-3.6","","-9.0","","66","","21","","27","","","","101.80","","","","-11","","NA"
"2015-01-11 12:00","2015","01","11","12:00","-3.3","","-10.1","","60","","21","","31","","","","101.66","","","","-11","","NA"
"2015-01-11 13:00","2015","01","11","13:00","-2.9","","-9.0","","63","","21","","26","","","","101.61","","","","-10","","NA"
"2015-01-11 14:00","2015","01","11","14:00","-2.4","","-8.7","","62","","22","","24","","","","101.58","","","","-9","","NA"
"2015-01-11 15:00","2015","01","11","15:00","-2.2","","-8.5","","62","","21","","24","","","","101.63","","","","-9","","NA"
"2015-01-11 16:00","2015","01","11","16:00","-1.9","","-8.7","","60","","20","","26","","","","101.62","","","","-8","","NA"
"2015-01-11 17:00","2015","01","11","17:00","-1.9","","-8.8","","59","","21","","23","","","","101.62","","","","-8","","NA"
"2015-01-11 18:00","2015","01","11","18:00","-1.7","","-7.6","","64","","21","","15","","","","101.64","","","","-7","","NA"
"2015-01-11 19:00","2015","01","11","19:00","-0.7","","-7.2","","61","","21","","18","","","","101.64","","","","-6","","NA"
"2015-01-11 20:00","2015","01","11","20:00","-0.2","","-7.1","","60","","20","","19","","","","101.60","","","","-5","","NA"
"2015-01-11 21:00","2015","01","11","21:00","0.1","","-4.8","","69","","19","","20","","","","101.54","","","","","","NA"
"2015-01-11 22:00","2015","01","11","22:00","0.4","","-4.2","","72","","19","","20","","","","101.51","","","","","","NA"
"2015-01-11 23:00","2015","01","11","23:00","0.4","","-5.0","","67","","20","","16","","","","101.42","","","","","","NA"
"2015-01-12 00:00","2015","01","12","00:00","0.5","","-5.0","","67","","21","","13","","","","101.34","","","","","","NA"
"2015-01-12 01:00","2015","01","12","01:00","0.0","","-5.2","","68","","22","","11","","","","101.32","","","","-4","","NA"
"2015-01-12 02:00","2015","01","12","02:00","1.0","","-6.2","","59","","22","","26","","","","101.29","","","","","","NA"
"2015-01-12 03:00","2015","01","12","03:00","0.3","","-4.5","","70","","24","","21","","","","101.27","","","","","","NA"
"2015-01-12 04:00","2015","01","12","04:00","-0.6","","-3.1","","83","","23","","12","","","","101.16","","","","-5","","NA"
"2015-01-12 05:00","2015","01","12","05:00","-1.0","","-2.1","","92","","22","","12","","","","101.11","","","","-5","","NA"
"2015-01-12 06:00","2015","01","12","06:00","-0.7","","-2.0","","91","","25","","12","","","","101.08","","","","-5","","NA"
"2015-01-12 07:00","2015","01","12","07:00","-1.6","","-3.1","","89","","25","","5","","","","101.09","","","","-3","","NA"
"2015-01-12 08:00","2015","01","12","08:00","-2.2","","-3.8","","89","","30","","9","","","","101.07","","","","-6","","NA"
"2015-01-12 09:00","2015","01","12","09:00","-2.3","","-3.4","","92","","26","","6","","","","101.11","","","","-5","","NA"
"2015-01-12 10:00","2015","01","12","10:00","-1.9","","-3.2","","91","","25","","8","","","","101.13","","","","-5","","NA"
"2015-01-12 11:00","2015","01","12","11:00","-1.8","","-2.9","","92","","24","","8","","","","101.15","","","","-5","","NA"
"2015-01-12 12:00","2015","01","12","12:00","-1.4","","-2.7","","91","","24","","10","","","","101.08","","","","-5","","NA"
"2015-01-12 13:00","2015","01","12","13:00","-1.2","","-3.2","","86","","26","","11","","","","101.04","","","","-5","","NA"
"2015-01-12 14:00","2015","01","12","14:00","-1.1","","-3.2","","86","","25","","10","","","","101.01","","","","-5","","NA"
"2015-01-12 15:00","2015","01","12","15:00","-1.2","","-2.5","","91","","27","","8","","","","101.07","","","","-4","","NA"
"2015-01-12 16:00","2015","01","12","16:00","-1.0","","-2.6","","89","","32","","9","","","","101.14","","","","-4","","NA"
"2015-01-12 17:00","2015","01","12","17:00","-3.6","","-6.3","","81","","35","","23","","","","101.34","","","","-10","","NA"
"2015-01-12 18:00","2015","01","12","18:00","-5.1","","-9.3","","73","","36","","28","","","","101.52","","","","-13","","NA"
"2015-01-12 19:00","2015","01","12","19:00","-6.3","","-10.8","","70","","35","","23","","","","101.63","","","","-14","","NA"
"2015-01-12 20:00","2015","01","12","20:00","-8.6","","-14.4","","63","","35","","30","","","","101.81","","","","-18","","NA"
"2015-01-12 21:00","2015","01","12","21:00","-10.9","","-16.4","","64","","35","","29","","","","101.96","","","","-21","","NA"
"2015-01-12 22:00","2015","01","12","22:00","-12.5","","-17.5","","66","","1","","17","","","","102.09","","","","-20","","NA"
"2015-01-12 23:00","2015","01","12","23:00","-14.5","","-20.5","","60","","36","","26","","","","102.25","","","","-25","","NA"
"2015-01-13 00:00","2015","01","13","00:00","-16.3","","-22.3","","60","","36","","24","","","","102.34","","","","-27","","NA"
"2015-01-13 01:00","2015","01","13","01:00","-17.5","","-23.6","","59","","1","","24","","","","102.42","","","","-28","","NA"
"2015-01-13 02:00","2015","01","13","02:00","-18.8","","-25.2","","57","","1","","18","","","","102.59","","","","-28","","NA"
"2015-01-13 03:00","2015","01","13","03:00","-20.1","","-26.0","","59","","36","","18","","","","102.73","","","","-30","","NA"
"2015-01-13 04:00","2015","01","13","04:00","-21.0","","-26.3","","62","","36","","12","","","","102.78","","","","-29","","NA"
"2015-01-13 05:00","2015","01","13","05:00","-21.9","","-27.1","","63","","36","","13","","","","102.84","","","","-31","","NA"
"2015-01-13 06:00","2015","01","13","06:00","-22.2","","-26.9","","66","","36","","11","","","","102.98","","","","-30","","NA"
"2015-01-13 07:00","2015","01","13","07:00","-23.2","","-26.9","","72","","34","","10","","","","103.08","","","","-31","","NA"
"2015-01-13 08:00","2015","01","13","08:00","-23.5","","-27.1","","72","","35","","8","","","","103.16","","","","-30","","NA"
"2015-01-13 09:00","2015","01","13","09:00","-22.7","","-27.0","","68","","36","","10","","","","103.25","","","","-30","","NA"
"2015-01-13 10:00","2015","01","13","10:00","-20.8","","-26.0","","63","","1","","11","","","","103.29","","","","-29","","NA"
"2015-01-13 11:00","2015","01","13","11:00","-19.5","","-25.7","","58","","4","","8","","","","103.23","","","","-26","","NA"
"2015-01-13 12:00","2015","01","13","12:00","-18.3","","-24.8","","57","","7","","7","","","","103.15","","","","-24","","NA"
"2015-01-13 13:00","2015","01","13","13:00","-16.7","","-24.3","","52","","11","","5","","","","103.08","","","","-21","","NA"
"2015-01-13 14:00","2015","01","13","14:00","-16.2","","-25.0","","47","","36","","9","","","","103.02","","","","-22","","NA"
"2015-01-13 15:00","2015","01","13","15:00","-15.4","","-24.1","","47","","2","","6","","","","102.98","","","","-20","","NA"
"2015-01-13 16:00","2015","01","13","16:00","-15.4","","-23.7","","49","","9","","8","","","","102.92","","","","-21","","NA"
"2015-01-13 17:00","2015","01","13","17:00","-16.3","","-23.8","","53","","9","","8","","","","102.92","","","","-22","","NA"
"2015-01-13 18:00","2015","01","13","18:00","-16.9","","-23.9","","55","","6","","6","","","","102.92","","","","-21","","NA"
"2015-01-13 19:00","2015","01","13","19:00","-17.3","","-23.9","","57","","5","","8","","","","102.89","","","","-23","","NA"
"2015-01-13 20:00","2015","01","13","20:00","-19.6","","-23.5","","71","","3","","5","","","","102.82","","","","-24","","NA"
"2015-01-13 21:00","2015","01","13","21:00","-21.2","","-24.7","","74","","3","","6","","","","102.76","","","","-26","","NA"
"2015-01-13 22:00","2015","01","13","22:00","-21.9","","-24.9","","77","","2","","8","","","","102.71","","","","-28","","NA"
"2015-01-13 23:00","2015","01","13","23:00","-23.3","","-26.4","","76","","3","","7","","","","102.67","","","","-29","","NA"
"2015-01-14 00:00","2015","01","14","00:00","-23.3","","-26.3","","76","","4","","7","","","","102.57","","","","-29","","NA"
"2015-01-14 01:00","2015","01","14","01:00","-24.0","","-26.7","","78","","2","","7","","","","102.46","","","","-30","","NA"
"2015-01-14 02:00","2015","01","14","02:00","-24.5","","-27.3","","77","","2","","8","","","","102.36","","","","-32","","NA"
"2015-01-14 03:00","2015","01","14","03:00","-23.9","","-26.6","","78","","3","","5","","","","102.30","","","","-29","","NA"
"2015-01-14 04:00","2015","01","14","04:00","-24.0","","-26.6","","79","","2","","8","","","","102.21","","","","-31","","NA"
"2015-01-14 05:00","2015","01","14","05:00","-22.4","","-24.7","","82","","3","","8","","","","102.11","","","","-29","","NA"
"2015-01-14 06:00","2015","01","14","06:00","-21.9","","-24.3","","81","","3","","8","","","","102.03","","","","-28","","NA"
"2015-01-14 07:00","2015","01","14","07:00"
"2015-01-14 08:00","2015","01","14","08:00","-21.7","","-24.4","","78","","5","","11","","","","101.92","","","","-30","","NA"
"2015-01-14 09:00","2015","01","14","09:00","-20.0","","-23.1","","77","","3","","9","","","","101.84","","","","-27","","NA"
"2015-01-14 10:00","2015","01","14","10:00","-18.0","","-21.5","","74","","5","","11","","","","101.78","","","","-25","","NA"
"2015-01-14 11:00","2015","01","14","11:00","-14.6","","-19.1","","68","","5","","10","","","","101.70","","","","-21","","NA"
"2015-01-14 12:00","2015","01","14","12:00","-11.4","","-16.1","","68","","11","","11","","","","101.54","","","","-17","","NA"
"2015-01-14 13:00","2015","01","14","13:00","-9.6","","-13.6","","73","","6","","6","","","","101.42","","","","-13","","NA"
"2015-01-14 14:00","2015","01","14","14:00","-7.0","","-10.7","","75","","22","","15","","","","101.38","","","","-13","","NA"
"2015-01-14 15:00","2015","01","14","15:00","-6.6","","-10.4","","74","","18","","12","","","","101.32","","","","-12","","NA"
"2015-01-14 16:00","2015","01","14","16:00","-6.4","","-10.4","","73","","18","","15","","","","101.30","","","","-12","","NA"
"2015-01-14 17:00","2015","01","14","17:00","-7.5","","-11.1","","76","","23","","6","","","","101.27","","","","-11","","NA"
"2015-01-14 18:00","2015","01","14","18:00","-9.9","","-11.9","","85","","29","","1","","","","101.27","","","","-10","","NA"
"2015-01-14 19:00","2015","01","14","19:00","-11.2","","-12.5","","90","","30","","4","","","","101.28","","","","-14","","NA"
"2015-01-14 20:00","2015","01","14","20:00","-12.3","","-13.8","","89","","34","","9","","","","101.25","","","","-18","","NA"
"2015-01-14 21:00","2015","01","14","21:00","-13.4","","-15.0","","88","","34","","11","","","","101.27","","","","-20","","NA"
"2015-01-14 22:00","2015","01","14","22:00","-14.8","","-16.6","","87","","36","","7","","","","101.25","","","","-20","","NA"
"2015-01-14 23:00","2015","01","14","23:00","-17.0","","-19.1","","83","","1","","3","","","","101.26","","","","-19","","NA"
"2015-01-15 00:00","2015","01","15","00:00","-18.1","","-20.0","","85","","33","","10","","","","101.24","","","","-25","","NA"
"2015-01-15 01:00","2015","01","15","01:00","-16.9","","-18.9","","85","","3","","7","","","","101.18","","","","-22","","NA"
"2015-01-15 02:00","2015","01","15","02:00","-16.3","","-18.2","","85","","2","","6","","","","101.18","","","","-21","","NA"
"2015-01-15 03:00","2015","01","15","03:00","-14.4","","-16.1","","87","","2","","5","","","","101.12","","","","-18","","NA"
"2015-01-15 04:00","2015","01","15","04:00","-13.0","","-14.7","","87","","3","","7","","","","101.00","","","","-18","","NA"
"2015-01-15 05:00","2015","01","15","05:00","-12.5","","-14.2","","87","","2","","5","","","","100.96","","","","-16","","NA"
"2015-01-15 06:00","2015","01","15","06:00","-12.7","","-14.4","","87","","35","","9","","","","100.93","","","","-18","","NA"
"2015-01-15 07:00","2015","01","15","07:00","-11.7","","-13.5","","87","","1","","3","","","","100.86","","","","-14","","NA"
"2015-01-15 08:00","2015","01","15","08:00","-11.4","","-13.3","","86","","7","","4","","","","100.83","","","","-14","","NA"
"2015-01-15 09:00","2015","01","15","09:00","-6.4","","-9.4","","79","","21","","15","","","","100.78","","","","-12","","NA"
"2015-01-15 10:00","2015","01","15","10:00","-5.6","","-10.4","","69","","21","","25","","","","100.74","","","","-13","","NA"
"2015-01-15 11:00","2015","01","15","11:00","-5.3","","-8.5","","78","","22","","27","","","","100.64","","","","-13","","NA"
"2015-01-15 12:00","2015","01","15","12:00","-5.3","","-7.8","","82","","21","","26","","","","100.50","","","","-13","","NA"
"2015-01-15 13:00","2015","01","15","13:00","-5.1","","-7.4","","84","","21","","24","","","","100.38","","","","-12","","NA"
"2015-01-15 14:00","2015","01","15","14:00","-5.1","","-7.8","","81","","21","","25","","","","100.29","","","","-12","","NA"
"2015-01-15 15:00","2015","01","15","15:00","-5.2","","-8.0","","80","","22","","25","","","","100.22","","","","-13","","NA"
"2015-01-15 16:00","2015","01","15","16:00","-4.5","","-7.7","","79","","21","","24","","","","100.12","","","","-12","","NA"
"2015-01-15 17:00","2015","01","15","17:00","-4.3","","-8.9","","70","","21","","30","","","","100.04","","","","-12","","NA"
"2015-01-15 18:00","2015","01","15","18:00","-4.0","","-8.8","","69","","22","","28","","","","99.99","","","","-11","","NA"
"2015-01-15 19:00","2015","01","15","19:00","-3.6","","-8.7","","68","","21","","26","","","","99.89","","","","-11","","NA"
"2015-01-15 20:00","2015","01","15","20:00","-2.9","","-7.9","","69","","22","","33","","","","99.78","","","","-11","","NA"
"2015-01-15 21:00","2015","01","15","21:00","-2.6","","-6.7","","73","","22","","32","","","","99.68","","","","-10","","NA"
"2015-01-15 22:00","2015","01","15","22:00","-2.3","","-5.0","","82","","23","","32","","","","99.59","","","","-10","","NA"
"2015-01-15 23:00","2015","01","15","23:00","-2.4","","-4.0","","88","","23","","27","","","","99.53","","","","-9","","NA"
"2015-01-16 00:00","2015","01","16","00:00","-1.8","","-3.2","","90","","23","","30","","","","99.43","","","","-9","","NA"
"2015-01-16 01:00","2015","01","16","01:00","-1.4","","-3.1","","89","","24","","30","","","","99.35","","","","-8","","NA"
"2015-01-16 02:00","2015","01","16","02:00","-1.0","","-3.5","","84","","25","","24","","","","99.37","","","","-7","","NA"
"2015-01-16 03:00","2015","01","16","03:00","-1.1","","-4.1","","80","","25","","24","","","","99.35","","","","-7","","NA"
"2015-01-16 04:00","2015","01","16","04:00","-1.2","","-3.9","","82","","24","","27","","","","99.32","","","","-8","","NA"
"2015-01-16 05:00","2015","01","16","05:00","-1.6","","-6.4","","70","","27","","30","","","","99.36","","","","-9","","NA"
"2015-01-16 06:00","2015","01","16","06:00","-2.8","","-9.9","","58","","27","","27","","","","99.44","","","","-10","","NA"
"2015-01-16 07:00","2015","01","16","07:00","-4.4","","-11.7","","57","","28","","25","","","","99.60","","","","-12","","NA"
"2015-01-16 08:00","2015","01","16","08:00","-5.8","","-12.1","","61","","30","","25","","","","99.80","","","","-13","","NA"
"2015-01-16 09:00","2015","01","16","09:00","-7.8","","-12.3","","71","","32","","31","","","","100.02","","","","-17","","NA"
"2015-01-16 10:00","2015","01","16","10:00","-9.6","","-14.3","","69","","34","","31","","","","100.23","","","","-19","","NA"
"2015-01-16 11:00","2015","01","16","11:00","-10.1","","-17.0","","57","","34","","27","","","","100.36","","","","-19","","NA"
"2015-01-16 12:00","2015","01","16","12:00","-10.1","","-17.8","","53","","32","","25","","","","100.44","","","","-19","","NA"
"2015-01-16 13:00","2015","01","16","13:00","-10.0","","-19.0","","48","","31","","28","","","","100.47","","","","-19","","NA"
"2015-01-16 14:00","2015","01","16","14:00","-10.4","","-19.3","","48","","32","","27","","","","100.56","","","","-20","","NA"
"2015-01-16 15:00","2015","01","16","15:00","-10.3","","-20.1","","45","","32","","23","","","","100.66","","","","-19","","NA"
"2015-01-16 16:00","2015","01","16","16:00","-10.5","","-20.7","","43","","32","","21","","","","100.79","","","","-19","","NA"
"2015-01-16 17:00","2015","01","16","17:00","-11.1","","-21.5","","42","","31","","13","","","","100.90","","","","-18","","NA"
"2015-01-16 18:00","2015","01","16","18:00","-12.2","","-22.0","","44","","30","","12","","","","101.01","","","","-19","","NA"
"2015-01-16 19:00","2015","01","16","19:00","-13.0","","-22.1","","46","","29","","11","","","","101.12","","","","-19","","NA"
"2015-01-16 20:00","2015","01","16","20:00","-14.1","","-22.2","","50","","31","","10","","","","101.25","","","","-20","","NA"
"2015-01-16 21:00","2015","01","16","21:00","-15.8","","-22.9","","54","","33","","11","","","","101.34","","","","-23","","NA"
"2015-01-16 22:00","2015","01","16","22:00"
"2015-01-16 23:00","2015","01","16","23:00"
"2015-01-17 00:00","2015","01","17","00:00"
"2015-01-17 01:00","2015","01","17","01:00"
"2015-01-17 02:00","2015","01","17","02:00"
"2015-01-17 03:00","2015","01","17","03:00"
"2015-01-17 04:00","2015","01","17","04:00"
"2015-01-17 05:00","2015","01","17","05:00"
"2015-01-17 06:00","2015","01","17","06:00"
"2015-01-17 07:00","2015","01","17","07:00"
"2015-01-17 08:00","2015","01","17","08:00"
"2015-01-17 09:00","2015","01","17","09:00"
"2015-01-17 10:00","2015","01","17","10:00","-18.0","","-22.8","","66","","7","","13","","","","101.67","","","","-26","","NA"
"2015-01-17 11:00","2015","01","17","11:00","-16.1","","-21.4","","64","","8","","17","","","","101.50","","","","-25","","NA"
"2015-01-17 12:00","2015","01","17","12:00","-14.9","","-19.4","","68","","10","","16","","","","101.30","","","","-23","","NA"
"2015-01-17 13:00","2015","01","17","13:00","-13.2","","-17.6","","69","","10","","18","","","","101.13","","","","-21","","NA"
"2015-01-17 14:00","2015","01","17","14:00","-11.9","","-16.5","","69","","8","","16","","","","100.93","","","","-19","","NA"
"2015-01-17 15:00","2015","01","17","15:00","-11.4","","-16.6","","65","","7","","20","","","","100.75","","","","-20","","NA"
"2015-01-17 16:00","2015","01","17","16:00","-10.3","","-16.9","","58","","8","","17","","","","100.65","","","","-18","","NA"
"2015-01-17 17:00","2015","01","17","17:00","-10.2","","-16.9","","58","","7","","14","","","","100.55","","","","-17","","NA"
"2015-01-17 18:00","2015","01","17","18:00","-8.9","","-15.7","","58","","9","","14","","","","100.39","","","","-15","","NA"
"2015-01-17 19:00","2015","01","17","19:00","-8.5","","-14.3","","63","","9","","12","","","","100.21","","","","-14","","NA"
"2015-01-17 20:00","2015","01","17","20:00","-4.5","","-8.8","","72","","14","","27","","","","100.04","","","","-12","","NA"
"2015-01-17 21:00","2015","01","17","21:00","-2.7","","-7.4","","70","","17","","44","","","","99.98","","","","-11","","NA"
"2015-01-17 22:00","2015","01","17","22:00","-2.7","","-7.4","","70","","17","","40","","","","99.97","","","","-11","","NA"
"2015-01-17 23:00","2015","01","17","23:00","-2.5","","-6.5","","74","","17","","37","","","","99.89","","","","-10","","NA"
"2015-01-18 00:00","2015","01","18","00:00","-2.1","","-6.1","","74","","17","","39","","","","99.80","","","","-10","","NA"
"2015-01-18 01:00","2015","01","18","01:00","-1.9","","-5.9","","74","","17","","41","","","","99.70","","","","-10","","NA"
"2015-01-18 02:00","2015","01","18","02:00","-1.2","","-4.8","","77","","17","","36","","","","99.66","","","","-9","","NA"
"2015-01-18 03:00","2015","01","18","03:00","-0.7","","-4.2","","78","","17","","42","","","","99.59","","","","-8","","NA"
"2015-01-18 04:00","2015","01","18","04:00","-0.3","","-3.5","","79","","17","","36","","","","99.56","","","","-7","","NA"
"2015-01-18 05:00","2015","01","18","05:00","0.7","","-3.0","","76","","17","","37","","","","99.53","","","","","","NA"
"2015-01-18 06:00","2015","01","18","06:00","-0.2","","-3.2","","80","","17","","31","","","","99.55","","","","-7","","NA"
"2015-01-18 07:00","2015","01","18","07:00","0.3","","-2.8","","80","","17","","34","","","","99.54","","","","","","NA"
"2015-01-18 08:00","2015","01","18","08:00","0.6","","-2.5","","80","","17","","40","","","","99.51","","","","","","NA"
"2015-01-18 09:00","2015","01","18","09:00","0.7","","-2.3","","81","","17","","37","","","","99.56","","","","","","NA"
"2015-01-18 10:00","2015","01","18","10:00","1.0","","-2.0","","81","","17","","33","","","","99.53","","","","","","NA"
"2015-01-18 11:00","2015","01","18","11:00","1.3","","-1.4","","82","","17","","26","","","","99.50","","","","","","NA"
"2015-01-18 12:00","2015","01","18","12:00","1.7","","-1.2","","81","","18","","26","","","","99.45","","","","","","NA"
"2015-01-18 13:00","2015","01","18","13:00","2.0","","-1.0","","81","","17","","21","","","","99.48","","","","","","NA"
"2015-01-18 14:00","2015","01","18","14:00","1.4","","-0.7","","86","","18","","15","","","","99.41","","","","","","NA"
"2015-01-18 15:00","2015","01","18","15:00","1.4","","-0.4","","88","","18","","15","","","","99.49","","","","","","NA"
"2015-01-18 16:00","2015","01","18","16:00","1.6","","-0.3","","87","","17","","22","","","","99.49","","","","","","NA"
"2015-01-18 17:00","2015","01","18","17:00","1.3","","-0.3","","90","","18","","12","","","","99.46","","","","","","NA"
"2015-01-18 18:00","2015","01","18","18:00","0.8","","-0.3","","93","","18","","6","","","","99.47","","","","","","NA"
"2015-01-18 19:00","2015","01","18","19:00","0.7","","-0.2","","94","","15","","7","","","","99.48","","","","","","NA"
"2015-01-18 20:00","2015","01","18","20:00","0.8","","-0.1","","94","","19","","8","","","","99.51","","","","","","NA"
"2015-01-18 21:00","2015","01","18","21:00","1.5","","0.4","","93","","23","","13","","","","99.45","","","","","","NA"
"2015-01-18 22:00","2015","01","18","22:00","1.5","","0.2","","91","","23","","14","","","","99.42","","","","","","NA"
"2015-01-18 23:00","2015","01","18","23:00","1.3","","0.1","","92","","22","","9","","","","99.38","","","","","","NA"
"2015-01-19 00:00","2015","01","19","00:00","1.5","","0.4","","92","","23","","9","","","","99.33","","","","","","NA"
"2015-01-19 01:00","2015","01","19","01:00","1.1","","-0.1","","92","","24","","8","","","","99.32","","","","","","NA"
"2015-01-19 02:00","2015","01","19","02:00","1.6","","0.1","","90","","26","","14","","","","99.36","","","","","","NA"
"2015-01-19 03:00","2015","01","19","03:00","1.6","","-1.0","","83","","27","","18","","","","99.40","","","","","","NA"
"2015-01-19 04:00","2015","01","19","04:00","1.1","","-1.8","","81","","26","","18","","","","99.43","","","","","","NA"
"2015-01-19 05:00","2015","01","19","05:00","0.5","","-2.8","","79","","26","","18","","","","99.48","","","","","","NA"
"2015-01-19 06:00","2015","01","19","06:00","0.3","","-2.9","","79","","26","","21","","","","99.52","","","","","","NA"
"2015-01-19 07:00","2015","01","19","07:00","0.4","","-2.7","","80","","27","","19","","","","99.58","","","","","","NA"
"2015-01-19 08:00","2015","01","19","08:00","0.3","","-2.5","","82","","27","","20","","","","99.61","","","","","","NA"
"2015-01-19 09:00","2015","01","19","09:00","0.0","","-2.1","","85","","26","","20","","","","99.62","","","","-5","","NA"
"2015-01-19 10:00","2015","01","19","10:00","-0.2","","-3.2","","80","","27","","21","","","","99.69","","","","-6","","NA"
"2015-01-19 11:00","2015","01","19","11:00","-0.4","","-3.9","","77","","30","","15","","","","99.75","","","","-5","","NA"
"2015-01-19 12:00","2015","01","19","12:00","-1.0","","-5.6","","71","","31","","22","","","","99.76","","","","-7","","NA"
"2015-01-19 13:00","2015","01","19","13:00","-1.9","","-6.5","","71","","31","","18","","","","99.79","","","","-7","","NA"
"2015-01-19 14:00","2015","01","19","14:00","-2.0","","-6.8","","69","","28","","16","","","","99.80","","","","-7","","NA"
"2015-01-19 15:00","2015","01","19","15:00","-2.3","","-7.6","","67","","29","","17","","","","99.83","","","","-8","","NA"
"2015-01-19 16:00","2015","01","19","16:00","-3.0","","-8.1","","68","","30","","19","","","","99.88","","","","-9","","NA"
"2015-01-19 17:00","2015","01","19","17:00","-3.6","","-8.8","","67","","29","","15","","","","99.97","","","","-9","","NA"
"2015-01-19 18:00","2015","01","19","18:00","-4.6","","-9.5","","69","","29","","12","","","","100.03","","","","-9","","NA"
"2015-01-19 19:00","2015","01","19","19:00","-5.6","","-10.1","","71","","31","","12","","","","100.08","","","","-11","","NA"
"2015-01-19 20:00","2015","01","19","20:00","-6.3","","-11.0","","69","","31","","15","","","","100.11","","","","-12","","NA"
"2015-01-19 21:00","2015","01","19","21:00","-7.5","","-12.2","","69","","31","","15","","","","100.14","","","","-14","","NA"
"2015-01-19 22:00","2015","01","19","22:00","-7.9","","-12.5","","69","","29","","13","","","","100.21","","","","-14","","NA"
"2015-01-19 23:00","2015","01","19","23:00","-9.4","","-13.8","","71","","32","","14","","","","100.24","","","","-16","","NA"
"2015-01-20 00:00","2015","01","20","00:00","-11.4","","-14.9","","76","","33","","9","","","","100.24","","","","-17","","NA"
"2015-01-20 01:00","2015","01","20","01:00","-12.0","","-15.9","","73","","32","","13","","","","100.22","","","","-19","","NA"
"2015-01-20 02:00","2015","01","20","02:00","-13.1","","-16.6","","75","","32","","13","","","","100.24","","","","-20","","NA"
"2015-01-20 03:00","2015","01","20","03:00","-14.8","","-18.0","","77","","33","","8","","","","100.28","","","","-20","","NA"
"2015-01-20 04:00","2015","01","20","04:00","-15.2","","-18.2","","78","","33","","7","","","","100.31","","","","-20","","NA"
"2015-01-20 05:00","2015","01","20","05:00","-16.1","","-19.2","","77","","32","","9","","","","100.31","","","","-22","","NA"
"2015-01-20 06:00","2015","01","20","06:00","-16.8","","-19.6","","79","","33","","5","","","","100.36","","","","-21","","NA"
"2015-01-20 07:00","2015","01","20","07:00","-17.5","","-20.4","","79","","30","","7","","","","100.41","","","","-23","","NA"
"2015-01-20 08:00","2015","01","20","08:00","-18.1","","-20.7","","80","","32","","8","","","","100.48","","","","-24","","NA"
"2015-01-20 09:00","2015","01","20","09:00","-16.7","","-20.6","","72","","29","","6","","","","100.53","","","","-21","","NA"
"2015-01-20 10:00","2015","01","20","10:00","-15.5","","-20.3","","67","","34","","8","","","","100.51","","","","-21","","NA"
"2015-01-20 11:00","2015","01","20","11:00","-13.9","","-19.6","","62","","34","","5","","","","100.50","","","","-17","","NA"
"2015-01-20 12:00","2015","01","20","12:00","-11.1","","-17.5","","59","","1","","2","","","","100.47","","","","-12","","NA"
"2015-01-20 13:00","2015","01","20","13:00","-10.8","","-17.0","","60","","21","","5","","","","100.46","","","","-14","","NA"
"2015-01-20 14:00","2015","01","20","14:00","-9.8","","-15.9","","61","","17","","5","","","","100.48","","","","-13","","NA"
"2015-01-20 15:00","2015","01","20","15:00","-8.9","","-15.7","","58","","14","","7","","","","100.52","","","","-13","","NA"
"2015-01-20 16:00","2015","01","20","16:00","-8.4","","-15.8","","55","","21","","9","","","","100.56","","","","-13","","NA"
"2015-01-20 17:00","2015","01","20","17:00","-9.2","","-15.5","","60","","23","","12","","","","100.62","","","","-15","","NA"
"2015-01-20 18:00","2015","01","20","18:00","-9.6","","-15.6","","62","","23","","8","","","","100.68","","","","-14","","NA"
"2015-01-20 19:00","2015","01","20","19:00","-9.8","","-15.1","","65","","24","","5","","","","100.73","","","","-13","","NA"
"2015-01-20 20:00","2015","01","20","20:00","-11.6","","-16.6","","66","","27","","6","","","","100.77","","","","-15","","NA"
"2015-01-20 21:00","2015","01","20","21:00","-12.7","","-16.3","","74","","","","0","","","","100.78","","","","","","NA"
"2015-01-20 22:00","2015","01","20","22:00","-14.6","","-17.2","","80","","35","","2","","","","100.84","","","","-16","","NA"
"2015-01-20 23:00","2015","01","20","23:00","-16.1","","-18.3","","84","","2","","3","","","","100.86","","","","-18","","NA"
"2015-01-21 00:00","2015","01","21","00:00","-16.7","","-19.3","","80","","1","","11","","","","100.89","","","","-24","","NA"
"2015-01-21 01:00","2015","01","21","01:00","-17.3","","-19.7","","82","","35","","9","","","","100.95","","","","-24","","NA"
"2015-01-21 02:00","2015","01","21","02:00","-17.0","","-20.3","","75","","3","","6","","","","101.01","","","","-22","","NA"
"2015-01-21 03:00","2015","01","21","03:00","-14.3","","-17.9","","74","","4","","10","","","","101.00","","","","-20","","NA"
"2015-01-21 04:00","2015","01","21","04:00","-15.0","","-18.5","","75","","5","","11","","","","100.97","","","","-22","","NA"
"2015-01-21 05:00","2015","01","21","05:00","-15.2","","-18.7","","75","","4","","10","","","","100.98","","","","-21","","NA"
"2015-01-21 06:00","2015","01","21","06:00","-15.5","","-19.1","","74","","5","","11","","","","101.07","","","","-22","","NA"
"2015-01-21 07:00","2015","01","21","07:00","-16.3","","-19.4","","76","","3","","9","","","","101.12","","","","-22","","NA"
"2015-01-21 08:00","2015","01","21","08:00","-16.1","","-19.6","","75","","4","","12","","","","101.14","","","","-23","","NA"
"2015-01-21 09:00","2015","01","21","09:00","-15.3","","-19.0","","73","","4","","11","","","","101.16","","","","-22","","NA"
"2015-01-21 10:00","2015","01","21","10:00","-13.4","","-17.2","","73","","4","","9","","","","101.17","","","","-19","","NA"
"2015-01-21 11:00","2015","01","21","11:00","-11.6","","-16.0","","69","","5","","11","","","","101.13","","","","-18","","NA"
"2015-01-21 12:00","2015","01","21","12:00","-9.9","","-14.9","","67","","6","","7","","","","101.08","","","","-14","","NA"
"2015-01-21 13:00","2015","01","21","13:00","-8.5","","-13.7","","66","","5","","12","","","","101.00","","","","-14","","NA"
"2015-01-21 14:00","2015","01","21","14:00","-7.8","","-13.5","","64","","4","","9","","","","101.01","","","","-12","","NA"
"2015-01-21 15:00","2015","01","21","15:00","-7.7","","-13.3","","64","","5","","12","","","","101.00","","","","-13","","NA"
"2015-01-21 16:00","2015","01","21","16:00","-7.6","","-14.5","","58","","4","","13","","","","100.95","","","","-13","","NA"
"2015-01-21 17:00","2015","01","21","17:00","-8.0","","-15.0","","57","","4","","13","","","","100.97","","","","-14","","NA"
"2015-01-21 18:00","2015","01","21","18:00","-8.9","","-15.8","","58","","4","","13","","","","100.98","","","","-15","","NA"
"2015-01-21 19:00","2015","01","21","19:00","-9.5","","-16.0","","59","","3","","14","","","","100.97","","","","-16","","NA"
"2015-01-21 20:00","2015","01","21","20:00","-10.5","","-16.3","","62","","4","","13","","","","100.97","","","","-17","","NA"
"2015-01-21 21:00","2015","01","21","21:00","-11.3","","-16.5","","65","","3","","13","","","","100.97","","","","-18","","NA"
"2015-01-21 22:00","2015","01","21","22:00","-11.6","","-16.8","","66","","3","","14","","","","100.98","","","","-18","","NA"
"2015-01-21 23:00","2015","01","21","23:00","-12.2","","-17.1","","67","","2","","14","","","","101.01","","","","-19","","NA"
"2015-01-22 00:00","2015","01","22","00:00","-12.7","","-17.4","","68","","2","","14","","","","101.00","","","","-20","","NA"
"2015-01-22 01:00","2015","01","22","01:00","-13.1","","-17.3","","70","","3","","14","","","","101.00","","","","-20","","NA"
"2015-01-22 02:00","2015","01","22","02:00","-13.6","","-17.5","","72","","2","","11","","","","101.06","","","","-20","","NA"
"2015-01-22 03:00","2015","01","22","03:00","-14.6","","-18.2","","74","","2","","11","","","","101.09","","","","-21","","NA"
"2015-01-22 04:00","2015","01","22","04:00","-15.1","","-18.5","","75","","2","","13","","","","101.09","","","","-22","","NA"
"2015-01-22 05:00","2015","01","22","05:00","-15.3","","-18.5","","77","","2","","13","","","","101.10","","","","-23","","NA"
"2015-01-22 06:00","2015","01","22","06:00","-14.8","","-18.0","","77","","1","","13","","","","101.16","","","","-22","","NA"
"2015-01-22 07:00","2015","01","22","07:00","-14.9","","-18.2","","76","","1","","13","","","","101.23","","","","-22","","NA"
"2015-01-22 08:00","2015","01","22","08:00","-15.2","","-18.5","","76","","1","","8","","","","101.36","","","","-21","","NA"
"2015-01-22 09:00","2015","01","22","09:00","-14.1","","-18.0","","72","","2","","7","","","","101.44","","","","-19","","NA"
"2015-01-22 10:00","2015","01","22","10:00","-12.3","","-17.0","","68","","3","","10","","","","101.48","","","","-18","","NA"
"2015-01-22 11:00","2015","01","22","11:00","-10.5","","-15.9","","65","","31","","4","","","","101.46","","","","-13","","NA"
"2015-01-22 12:00","2015","01","22","12:00","-9.6","","-14.5","","67","","19","","8","","","","101.44","","","","-14","","NA"
"2015-01-22 13:00","2015","01","22","13:00","-8.9","","-14.6","","63","","21","","11","","","","101.45","","","","-14","","NA"
"2015-01-22 14:00","2015","01","22","14:00","-8.5","","-12.8","","71","","19","","15","","","","101.47","","","","-15","","NA"
"2015-01-22 15:00","2015","01","22","15:00","-8.1","","-12.3","","72","","18","","15","","","","101.48","","","","-14","","NA"
"2015-01-22 16:00","2015","01","22","16:00","-7.7","","-11.8","","73","","19","","14","","","","101.51","","","","-14","","NA"
"2015-01-22 17:00","2015","01","22","17:00","-7.1","","-10.3","","78","","18","","12","","","","101.54","","","","-12","","NA"
"2015-01-22 18:00","2015","01","22","18:00","-7.2","","-9.9","","81","","17","","7","","","","101.54","","","","-11","","NA"
"2015-01-22 19:00","2015","01","22","19:00","-7.0","","-10.8","","74","","21","","10","","","","101.57","","","","-12","","NA"
"2015-01-22 20:00","2015","01","22","20:00","-9.1","","-11.8","","81","","23","","6","","","","101.60","","","","-12","","NA"
"2015-01-22 21:00","2015","01","22","21:00","-7.7","","-11.2","","76","","26","","11","","","","101.59","","","","-13","","NA"
"2015-01-22 22:00","2015","01","22","22:00","-7.6","","-11.3","","75","","25","","8","","","","101.52","","","","-12","","NA"
"2015-01-22 23:00","2015","01","22","23:00","-9.6","","-12.5","","79","","20","","4","","","","101.44","","","","-12","","NA"
"2015-01-23 00:00","2015","01","23","00:00","-9.1","","-11.4","","83","","0","","1","","","","101.42","","","","-10","","NA"
"2015-01-23 01:00","2015","01","23","01:00","-5.9","","-9.0","","79","","24","","9","","","","101.41","","","","-10","","NA"
"2015-01-23 02:00","2015","01","23","02:00","-4.4","","-7.8","","77","","25","","9","","","","101.36","","","","-8","","NA"
"2015-01-23 03:00","2015","01","23","03:00","-3.7","","-7.3","","76","","26","","7","","","","101.32","","","","-7","","NA"
"2015-01-23 04:00","2015","01","23","04:00","-3.0","","-6.5","","77","","23","","12","","","","101.25","","","","-7","","NA"
"2015-01-23 05:00","2015","01","23","05:00","-2.3","","-7.0","","70","","24","","17","","","","101.20","","","","-8","","NA"
"2015-01-23 06:00","2015","01","23","06:00","-2.4","","-8.2","","65","","24","","20","","","","101.14","","","","-8","","NA"
"2015-01-23 07:00","2015","01","23","07:00","-2.8","","-8.0","","67","","22","","20","","","","101.10","","","","-9","","NA"
"2015-01-23 08:00","2015","01","23","08:00","-2.5","","-7.1","","71","","23","","15","","","","101.11","","","","-7","","NA"
"2015-01-23 09:00","2015","01","23","09:00","-2.5","","-6.7","","73","","23","","10","","","","101.07","","","","-6","","NA"
"2015-01-23 10:00","2015","01","23","10:00","-1.4","","-6.1","","71","","22","","20","","","","100.95","","","","-7","","NA"
"2015-01-23 11:00","2015","01","23","11:00","-1.3","","-5.4","","74","","22","","30","","","","100.88","","","","-8","","NA"
"2015-01-23 12:00","2015","01","23","12:00","-1.4","","-5.5","","74","","22","","35","","","","100.75","","","","-9","","NA"
"2015-01-23 13:00","2015","01","23","13:00","-1.6","","-5.4","","75","","22","","33","","","","100.64","","","","-9","","NA"
"2015-01-23 14:00","2015","01","23","14:00","-1.6","","-5.3","","76","","21","","33","","","","100.53","","","","-9","","NA"
"2015-01-23 15:00","2015","01","23","15:00","-1.1","","-4.7","","77","","21","","32","","","","100.46","","","","-8","","NA"
"2015-01-23 16:00","2015","01","23","16:00","-1.2","","-5.0","","76","","21","","36","","","","100.33","","","","-9","","NA"
"2015-01-23 17:00","2015","01","23","17:00","-1.2","","-5.3","","74","","22","","34","","","","100.33","","","","-8","","NA"
"2015-01-23 18:00","2015","01","23","18:00","-1.6","","-5.4","","75","","22","","21","","","","100.27","","","","-7","","NA"
"2015-01-23 19:00","2015","01","23","19:00","-2.1","","-5.5","","77","","22","","21","","","","100.23","","","","-8","","NA"
"2015-01-23 20:00","2015","01","23","20:00","-2.4","","-5.6","","79","","22","","16","","","","100.16","","","","-8","","NA"
"2015-01-23 21:00","2015","01","23","21:00","-2.7","","-5.6","","80","","21","","14","","","","100.04","","","","-8","","NA"
"2015-01-23 22:00","2015","01","23","22:00","-2.5","","-5.2","","82","","20","","19","","","","99.96","","","","-8","","NA"
"2015-01-23 23:00","2015","01","23","23:00","-2.3","","-4.4","","85","","21","","15","","","","99.92","","","","-7","","NA"
"2015-01-24 00:00","2015","01","24","00:00","-1.7","","-4.0","","84","","21","","22","","","","99.80","","","","-8","","NA"
"2015-01-24 01:00","2015","01","24","01:00","-1.6","","-4.4","","81","","22","","21","","","","99.69","","","","-7","","NA"
"2015-01-24 02:00","2015","01","24","02:00","-1.6","","-4.4","","81","","22","","17","","","","99.56","","","","-7","","NA"
"2015-01-24 03:00","2015","01","24","03:00","-1.5","","-4.1","","82","","21","","17","","","","99.50","","","","-7","","NA"
"2015-01-24 04:00","2015","01","24","04:00","-1.4","","-3.8","","84","","21","","16","","","","99.39","","","","-6","","NA"
"2015-01-24 05:00","2015","01","24","05:00","-1.0","","-3.8","","81","","20","","13","","","","99.35","","","","-5","","NA"
"2015-01-24 06:00","2015","01","24","06:00","-1.1","","-4.0","","81","","22","","19","","","","99.32","","","","-6","","NA"
"2015-01-24 07:00","2015","01","24","07:00","-1.3","","-4.1","","81","","22","","16","","","","99.24","","","","-6","","NA"
"2015-01-24 08:00","2015","01","24","08:00","-1.5","","-4.3","","81","","24","","8","","","","99.17","","","","-5","","NA"
"2015-01-24 09:00","2015","01","24","09:00","-1.9","","-4.7","","82","","23","","18","","","","99.10","","","","-7","","NA"
"2015-01-24 10:00","2015","01","24","10:00","-1.9","","-4.6","","81","","24","","19","","","","99.02","","","","-7","","NA"
"2015-01-24 11:00","2015","01","24","11:00","-2.2","","-5.0","","81","","25","","20","","","","98.98","","","","-8","","NA"
"2015-01-24 12:00","2015","01","24","12:00","-1.9","","-4.6","","81","","27","","14","","","","98.86","","","","-7","","NA"
"2015-01-24 13:00","2015","01","24","13:00","-1.8","","-4.6","","81","","25","","11","","","","98.74","","","","-6","","NA"
"2015-01-24 14:00","2015","01","24","14:00","-1.9","","-4.3","","83","","25","","9","","","","98.62","","","","-5","","NA"
"2015-01-24 15:00","2015","01","24","15:00","-1.9","","-3.2","","91","","24","","16","","","","98.56","","","","-7","","NA"
"2015-01-24 16:00","2015","01","24","16:00","-1.9","","-2.9","","93","","22","","12","","","","98.55","","","","-6","","NA"
"2015-01-24 17:00","2015","01","24","17:00","-1.8","","-2.7","","93","","22","","10","","","","98.51","","","","-5","","NA"
"2015-01-24 18:00","2015","01","24","18:00","-1.4","","-2.4","","93","","24","","13","","","","98.53","","","","-6","","NA"
"2015-01-24 19:00","2015","01","24","19:00","-1.6","","-2.6","","93","","24","","13","","","","98.54","","","","-6","","NA"
"2015-01-24 20:00","2015","01","24","20:00","-1.7","","-2.7","","93","","24","","14","","","","98.49","","","","-6","","NA"
"2015-01-24 21:00","2015","01","24","21:00","-1.4","","-2.6","","92","","25","","16","","","","98.45","","","","-6","","NA"
"2015-01-24 22:00","2015","01","24","22:00","-0.9","","-2.5","","89","","25","","15","","","","98.44","","","","-6","","NA"
"2015-01-24 23:00","2015","01","24","23:00","-0.4","","-2.2","","88","","26","","18","","","","98.44","","","","-5","","NA"
"2015-01-25 00:00","2015","01","25","00:00","-0.6","","-2.4","","87","","26","","19","","","","98.44","","","","-6","","NA"
"2015-01-25 01:00","2015","01","25","01:00","-0.5","","-2.5","","86","","27","","17","","","","98.46","","","","-5","","NA"
"2015-01-25 02:00","2015","01","25","02:00","-0.6","","-2.5","","87","","26","","17","","","","98.54","","","","-6","","NA"
"2015-01-25 03:00","2015","01","25","03:00","-2.9","","-5.8","","80","","33","","26","","","","98.81","","","","-10","","NA"
"2015-01-25 04:00","2015","01","25","04:00","-6.8","","-11.3","","71","","32","","31","","","","99.08","","","","-15","","NA"
"2015-01-25 05:00","2015","01","25","05:00","-9.8","","-15.0","","66","","32","","21","","","","99.33","","","","-18","","NA"
"2015-01-25 06:00","2015","01","25","06:00","-12.1","","-17.4","","65","","32","","21","","","","99.57","","","","-21","","NA"
"2015-01-25 07:00","2015","01","25","07:00","-13.4","","-19.1","","62","","34","","23","","","","99.78","","","","-23","","NA"
"2015-01-25 08:00","2015","01","25","08:00","-14.2","","-19.9","","62","","33","","23","","","","99.94","","","","-24","","NA"
"2015-01-25 09:00","2015","01","25","09:00","-13.9","","-19.6","","62","","33","","13","","","","100.03","","","","-21","","NA"
"2015-01-25 10:00","2015","01","25","10:00","-13.3","","-19.0","","62","","32","","17","","","","100.11","","","","-21","","NA"
"2015-01-25 11:00","2015","01","25","11:00","-12.4","","-18.6","","60","","34","","13","","","","100.19","","","","-19","","NA"
"2015-01-25 12:00","2015","01","25","12:00","-11.6","","-19.2","","53","","34","","13","","","","100.19","","","","-18","","NA"
"2015-01-25 13:00","2015","01","25","13:00","-10.5","","-19.3","","48","","34","","10","","","","100.19","","","","-16","","NA"
"2015-01-25 14:00","2015","01","25","14:00","-9.5","","-19.6","","44","","34","","10","","","","100.20","","","","-15","","NA"
"2015-01-25 15:00","2015","01","25","15:00","-8.7","","-19.9","","40","","32","","7","","","","100.30","","","","-13","","NA"
"2015-01-25 16:00","2015","01","25","16:00","-9.1","","-17.2","","52","","19","","11","","","","100.40","","","","-15","","NA"
"2015-01-25 17:00","2015","01","25","17:00","-9.5","","-15.8","","60","","14","","4","","","","100.45","","","","-12","","NA"
"2015-01-25 18:00","2015","01","25","18:00","-11.0","","-16.1","","66","","15","","2","","","","100.56","","","","-12","","NA"
"2015-01-25 19:00","2015","01","25","19:00","-12.4","","-16.8","","69","","32","","5","","","","100.65","","","","-16","","NA"
"2015-01-25 20:00","2015","01","25","20:00","-13.3","","-17.6","","70","","1","","10","","","","100.74","","","","-19","","NA"
"2015-01-25 21:00","2015","01","25","21:00","-12.9","","-20.2","","54","","4","","16","","","","100.81","","","","-21","","NA"
"2015-01-25 22:00","2015","01","25","22:00","-13.5","","-20.6","","55","","4","","15","","","","100.80","","","","-21","","NA"
"2015-01-25 23:00","2015","01","25","23:00","-14.4","","-20.8","","58","","4","","13","","","","100.82","","","","-22","","NA"
"2015-01-26 00:00","2015","01","26","00:00","-15.2","","-21.1","","61","","4","","13","","","","100.90","","","","-23","","NA"
"2015-01-26 01:00","2015","01","26","01:00","-15.5","","-20.9","","63","","4","","10","","","","100.92","","","","-22","","NA"
"2015-01-26 02:00","2015","01","26","02:00","-15.7","","-21.1","","63","","5","","15","","","","100.92","","","","-24","","NA"
"2015-01-26 03:00","2015","01","26","03:00","-16.3","","-21.1","","66","","5","","17","","","","100.86","","","","-25","","NA"
"2015-01-26 04:00","2015","01","26","04:00","-16.5","","-21.3","","67","","4","","18","","","","100.86","","","","-26","","NA"
"2015-01-26 05:00","2015","01","26","05:00","-16.8","","-21.3","","68","","5","","14","","","","100.85","","","","-25","","NA"
"2015-01-26 06:00","2015","01","26","06:00","-17.2","","-21.5","","70","","4","","14","","","","100.82","","","","-25","","NA"
"2015-01-26 07:00","2015","01","26","07:00","-17.3","","-21.6","","69","","4","","20","","","","100.80","","","","-27","","NA"
"2015-01-26 08:00","2015","01","26","08:00","-17.5","","-21.9","","69","","4","","18","","","","100.82","","","","-27","","NA"
"2015-01-26 09:00","2015","01","26","09:00","-17.0","","-21.8","","67","","5","","26","","","","100.83","","","","-28","","NA"
"2015-01-26 10:00","2015","01","26","10:00","-15.8","","-21.1","","63","","3","","23","","","","100.86","","","","-26","","NA"
"2015-01-26 11:00","2015","01","26","11:00","-14.2","","-20.3","","60","","4","","25","","","","100.82","","","","-24","","NA"
"2015-01-26 12:00","2015","01","26","12:00","-12.9","","-19.8","","56","","3","","27","","","","100.74","","","","-23","","NA"
"2015-01-26 13:00","2015","01","26","13:00","-11.9","","-20.5","","49","","3","","23","","","","100.63","","","","-21","","NA"
"2015-01-26 14:00","2015","01","26","14:00","-11.4","","-20.7","","46","","4","","25","","","","100.58","","","","-21","","NA"
"2015-01-26 15:00","2015","01","26","15:00","-11.6","","-20.3","","49","","4","","27","","","","100.56","","","","-21","","NA"
"2015-01-26 16:00","2015","01","26","16:00","-12.3","","-20.7","","50","","3","","29","","","","100.60","","","","-22","","NA"
"2015-01-26 17:00","2015","01","26","17:00","-12.9","","-20.6","","53","","3","","30","","","","100.58","","","","-23","","NA"
"2015-01-26 18:00","2015","01","26","18:00","-13.0","","-20.1","","55","","4","","28","","","","100.68","","","","-23","","NA"
"2015-01-26 19:00","2015","01","26","19:00","-13.3","","-19.4","","60","","3","","24","","","","100.70","","","","-23","","NA"
"2015-01-26 20:00","2015","01","26","20:00","-13.5","","-19.2","","62","","3","","27","","","","100.71","","","","-24","","NA"
"2015-01-26 21:00","2015","01","26","21:00","-13.8","","-20.0","","59","","3","","28","","","","100.65","","","","-24","","NA"
"2015-01-26 22:00","2015","01","26","22:00","-14.3","","-19.3","","66","","3","","28","","","","100.62","","","","-25","","NA"
"2015-01-26 23:00","2015","01","26","23:00","-14.4","","-19.6","","64","","3","","27","","","","100.64","","","","-25","","NA"
"2015-01-27 00:00","2015","01","27","00:00","-14.4","","-19.9","","63","","3","","25","","","","100.61","","","","-24","","NA"
"2015-01-27 01:00","2015","01","27","01:00","-14.5","","-20.7","","59","","2","","27","","","","100.50","","","","-25","","NA"
"2015-01-27 02:00","2015","01","27","02:00","-14.9","","-21.4","","58","","3","","28","","","","100.49","","","","-26","","NA"
"2015-01-27 03:00","2015","01","27","03:00","-15.0","","-21.1","","60","","3","","25","","","","100.51","","","","-25","","NA"
"2015-01-27 04:00","2015","01","27","04:00","-15.0","","-21.4","","58","","3","","27","","","","100.47","","","","-26","","NA"
"2015-01-27 05:00","2015","01","27","05:00","-15.1","","-21.4","","59","","3","","26","","","","100.52","","","","-25","","NA"
"2015-01-27 06:00","2015","01","27","06:00","-15.0","","-21.3","","59","","2","","24","","","","100.52","","","","-25","","NA"
"2015-01-27 07:00","2015","01","27","07:00","-14.7","","-21.1","","58","","3","","24","","","","100.55","","","","-25","","NA"
"2015-01-27 08:00","2015","01","27","08:00","-14.3","","-20.8","","58","","2","","28","","","","100.60","","","","-25","","NA"
"2015-01-27 09:00","2015","01","27","09:00","-14.1","","-20.9","","57","","2","","29","","","","100.62","","","","-25","","NA"
"2015-01-27 10:00","2015","01","27","10:00","-13.5","","-20.8","","54","","2","","28","","","","100.62","","","","-24","","NA"
"2015-01-27 11:00","2015","01","27","11:00","-12.9","","-20.9","","51","","2","","28","","","","100.61","","","","-23","","NA"
"2015-01-27 12:00","2015","01","27","12:00","-12.0","","-20.9","","48","","1","","29","","","","100.58","","","","-22","","NA"
"2015-01-27 13:00","2015","01","27","13:00","-11.0","","-20.9","","44","","1","","29","","","","100.53","","","","-21","","NA"
"2015-01-27 14:00","2015","01","27","14:00","-10.5","","-20.8","","43","","2","","28","","","","100.55","","","","-20","","NA"
"2015-01-27 15:00","2015","01","27","15:00","-9.8","","-20.0","","43","","2","","25","","","","100.59","","","","-19","","NA"
"2015-01-27 16:00","2015","01","27","16:00","-9.6","","-21.2","","38","","1","","24","","","","100.63","","","","-18","","NA"
"2015-01-27 17:00","2015","01","27","17:00","-9.8","","-21.5","","38","","1","","22","","","","100.70","","","","-18","","NA"
"2015-01-27 18:00","2015","01","27","18:00","-11.1","","-21.3","","43","","35","","12","","","","100.73","","","","-17","","NA"
"2015-01-27 19:00","2015","01","27","19:00","-12.0","","-21.5","","45","","33","","10","","","","100.75","","","","-18","","NA"
"2015-01-27 20:00","2015","01","27","20:00","-12.0","","-20.9","","48","","35","","14","","","","100.74","","","","-19","","NA"
"2015-01-27 21:00","2015","01","27","21:00","-12.3","","-20.4","","51","","33","","13","","","","100.69","","","","-19","","NA"
"2015-01-27 22:00","2015","01","27","22:00","-13.1","","-20.6","","54","","33","","10","","","","100.64","","","","-19","","NA"
"2015-01-27 23:00","2015","01","27","23:00","-13.0","","-20.7","","52","","31","","9","","","","100.66","","","","-18","","NA"
"2015-01-28 00:00","2015","01","28","00:00","-14.0","","-20.7","","57","","30","","5","","","","100.67","","","","-17","","NA"
"2015-01-28 01:00","2015","01","28","01:00","-13.3","","-20.5","","55","","29","","1","","","","100.71","","","","-14","","NA"
"2015-01-28 02:00","2015","01","28","02:00","-14.7","","-20.5","","61","","29","","5","","","","100.75","","","","-18","","NA"
"2015-01-28 03:00","2015","01","28","03:00","-14.7","","-20.5","","61","","30","","4","","","","100.79","","","","-18","","NA"
"2015-01-28 04:00","2015","01","28","04:00","-15.5","","-20.5","","66","","29","","4","","","","100.80","","","","-18","","NA"
"2015-01-28 05:00","2015","01","28","05:00","-16.5","","-20.9","","69","","31","","9","","","","100.86","","","","-23","","NA"
"2015-01-28 06:00","2015","01","28","06:00","-16.3","","-21.2","","66","","30","","9","","","","100.96","","","","-22","","NA"
"2015-01-28 07:00","2015","01","28","07:00","-16.7","","-21.5","","66","","30","","3","","","","101.09","","","","-19","","NA"
"2015-01-28 08:00","2015","01","28","08:00","-17.1","","-21.8","","67","","30","","6","","","","101.20","","","","-22","","NA"
"2015-01-28 09:00","2015","01","28","09:00","-14.5","","-21.0","","57","","31","","9","","","","101.25","","","","-20","","NA"
"2015-01-28 10:00","2015","01","28","10:00","-12.2","","-22.4","","42","","34","","10","","","","101.29","","","","-18","","NA"
"2015-01-28 11:00","2015","01","28","11:00","-10.2","","-22.5","","36","","33","","7","","","","101.33","","","","-14","","NA"
"2015-01-28 12:00","2015","01","28","12:00","-8.1","","-23.0","","29","","35","","12","","","","101.33","","","","-14","","NA"
"2015-01-28 13:00","2015","01","28","13:00","-6.4","","-23.3","","25","","33","","7","","","","101.28","","","","-10","","NA"
"2015-01-28 14:00","2015","01","28","14:00","-4.4","","-20.0","","28","","32","","10","","","","101.27","","","","-9","","NA"
"2015-01-28 15:00","2015","01","28","15:00","-4.7","","-16.2","","40","","18","","9","","","","101.32","","","","-9","","NA"
"2015-01-28 16:00","2015","01","28","16:00","-3.8","","-19.6","","28","","32","","4","","","","101.36","","","","-5","","NA"
"2015-01-28 17:00","2015","01","28","17:00","-5.4","","-16.2","","42","","25","","9","","","","101.41","","","","-9","","NA"
"2015-01-28 18:00","2015","01","28","18:00","-6.1","","-14.5","","52","","24","","9","","","","101.42","","","","-10","","NA"
"2015-01-28 19:00","2015","01","28","19:00","-7.6","","-16.9","","48","","23","","6","","","","101.42","","","","-11","","NA"
"2015-01-28 20:00","2015","01","28","20:00","-7.7","","-15.9","","52","","24","","10","","","","101.46","","","","-13","","NA"
"2015-01-28 21:00","2015","01","28","21:00","-10.7","","-16.0","","65","","23","","4","","","","101.47","","","","-13","","NA"
"2015-01-28 22:00","2015","01","28","22:00","-12.2","","-16.1","","73","","","","0","","","","101.47","","","","","","NA"
"2015-01-28 23:00","2015","01","28","23:00","-14.2","","-17.4","","76","","9","","4","","","","101.46","","","","-17","","NA"
"2015-01-29 00:00","2015","01","29","00:00","-15.9","","-19.6","","73","","","","0","","","","101.47","","","","","","NA"
"2015-01-29 01:00","2015","01","29","01:00","-16.1","","-19.6","","74","","3","","2","","","","101.45","","","","-18","","NA"
"2015-01-29 02:00","2015","01","29","02:00","-16.8","","-19.7","","78","","4","","5","","","","101.43","","","","-21","","NA"
"2015-01-29 03:00","2015","01","29","03:00","-15.8","","-18.6","","79","","9","","6","","","","101.38","","","","-20","","NA"
"2015-01-29 04:00","2015","01","29","04:00","-14.8","","-16.9","","84","","8","","5","","","","101.35","","","","-18","","NA"
"2015-01-29 05:00","2015","01","29","05:00","-12.6","","-13.9","","90","","9","","7","","","","101.29","","","","-17","","NA"
"2015-01-29 06:00","2015","01","29","06:00","","M","-8.2","","88","","16","","19","","","","101.22","","","","","","NA"
"2015-01-29 07:00","2015","01","29","07:00","-6.6","","-9.2","","82","","16","","19","","","","101.15","","","","-13","","NA"
"2015-01-29 08:00","2015","01","29","08:00","-6.5","","-9.4","","80","","14","","18","","","","101.09","","","","-13","","NA"
"2015-01-29 09:00","2015","01","29","09:00","-6.0","","-9.5","","76","","14","","19","","","","100.97","","","","-13","","NA"
"2015-01-29 10:00","2015","01","29","10:00","-5.6","","-9.6","","74","","13","","14","","","","100.82","","","","-11","","NA"
"2015-01-29 11:00","2015","01","29","11:00","-5.0","","-9.6","","70","","16","","17","","","","100.65","","","","-11","","NA"
"2015-01-29 12:00","2015","01","29","12:00","-5.1","","-10.3","","67","","10","","16","","","","100.41","","","","-11","","NA"
"2015-01-29 13:00","2015","01","29","13:00","-3.5","","-9.4","","64","","20","","8","","","","100.15","","","","-7","","NA"
"2015-01-29 14:00","2015","01","29","14:00","-1.6","","-5.6","","74","","13","","37","","","","99.91","","","","-9","","NA"
"2015-01-29 15:00","2015","01","29","15:00","-0.5","","-8.2","","56","","16","","34","","","","99.89","","","","-8","","NA"
"2015-01-29 16:00","2015","01","29","16:00","-1.2","","-6.1","","69","","19","","45","","","","99.83","","","","-9","","NA"
"2015-01-29 17:00","2015","01","29","17:00","-2.0","","-4.8","","81","","19","","42","","","","99.81","","","","-10","","NA"
"2015-01-29 18:00","2015","01","29","18:00","-2.0","","-2.9","","93","","18","","35","","","","99.77","","","","-10","","NA"
"2015-01-29 19:00","2015","01","29","19:00","-1.9","","-2.7","","95","","18","","33","","","","99.74","","","","-9","","NA"
"2015-01-29 20:00","2015","01","29","20:00","-1.5","","-2.2","","95","","17","","36","","","","99.69","","","","-9","","NA"
"2015-01-29 21:00","2015","01","29","21:00","-1.3","","-2.0","","95","","18","","33","","","","99.64","","","","-8","","NA"
"2015-01-29 22:00","2015","01","29","22:00","-1.2","","-2.0","","94","","18","","33","","","","99.62","","","","-8","","NA"
"2015-01-29 23:00","2015","01","29","23:00","-1.1","","-1.7","","95","","18","","29","","","","99.61","","","","-8","","NA"
"2015-01-30 00:00","2015","01","30","00:00","-1.0","","-1.6","","96","","19","","31","","","","99.58","","","","-8","","NA"
"2015-01-30 01:00","2015","01","30","01:00","-0.7","","-1.3","","96","","21","","20","","","","99.56","","","","-6","","NA"
"2015-01-30 02:00","2015","01","30","02:00","-1.7","","-2.4","","95","","30","","22","","","","99.64","","","","-8","","NA"
"2015-01-30 03:00","2015","01","30","03:00","-2.4","","-3.9","","89","","32","","21","","","","99.75","","","","-8","","NA"
"2015-01-30 04:00","2015","01","30","04:00","-2.9","","-5.0","","86","","32","","22","","","","99.88","","","","-9","","NA"
"2015-01-30 05:00","2015","01","30","05:00","-4.0","","-6.5","","82","","34","","31","","","","100.04","","","","-12","","NA"
"2015-01-30 06:00","2015","01","30","06:00","-4.4","","-7.3","","80","","34","","19","","","","100.11","","","","-11","","NA"
"2015-01-30 07:00","2015","01","30","07:00","-4.8","","-8.3","","76","","33","","21","","","","100.20","","","","-11","","NA"
"2015-01-30 08:00","2015","01","30","08:00","-7.2","","-11.0","","75","","33","","32","","","","100.39","","","","-16","","NA"
"2015-01-30 09:00","2015","01","30","09:00","-9.4","","-13.2","","74","","33","","35","","","","100.50","","","","-19","","NA"
"2015-01-30 10:00","2015","01","30","10:00","-10.4","","-15.0","","69","","35","","23","","","","100.66","","","","-19","","NA"
"2015-01-30 11:00","2015","01","30","11:00","-11.0","","-15.8","","68","","33","","29","","","","100.73","","","","-21","","NA"
"2015-01-30 12:00","2015","01","30","12:00","-10.8","","-15.9","","66","","32","","25","","","","100.76","","","","-20","","NA"
"2015-01-30 13:00","2015","01","30","13:00","-10.9","","-16.4","","64","","34","","25","","","","100.78","","","","-20","","NA"
"2015-01-30 14:00","2015","01","30","14:00","-10.2","","-16.7","","59","","33","","27","","","","100.83","","","","-19","","NA"
"2015-01-30 15:00","2015","01","30","15:00","-10.0","","-17.0","","57","","32","","27","","","","100.90","","","","-19","","NA"
"2015-01-30 16:00","2015","01","30","16:00","-10.1","","-17.5","","54","","34","","19","","","","100.98","","","","-18","","NA"
"2015-01-30 17:00","2015","01","30","17:00","-11.3","","-18.3","","56","","34","","18","","","","101.08","","","","-19","","NA"
"2015-01-30 18:00","2015","01","30","18:00","-12.5","","-19.4","","56","","32","","15","","","","101.20","","","","-20","","NA"
"2015-01-30 19:00","2015","01","30","19:00","-13.2","","-20.0","","56","","32","","17","","","","101.27","","","","-21","","NA"
"2015-01-30 20:00","2015","01","30","20:00","-14.3","","-21.2","","56","","33","","20","","","","101.36","","","","-23","","NA"
"2015-01-30 21:00","2015","01","30","21:00","-15.1","","-21.9","","56","","33","","19","","","","101.41","","","","-24","","NA"
"2015-01-30 22:00","2015","01","30","22:00","-16.9","","-22.4","","62","","31","","11","","","","101.45","","","","-24","","NA"
"2015-01-30 23:00","2015","01","30","23:00","-17.4","","-22.5","","65","","31","","15","","","","101.48","","","","-26","","NA"
"2015-01-31 00:00","2015","01","31","00:00","-18.2","","-23.5","","63","","33","","16","","","","101.49","","","","-27","","NA"
"2015-01-31 01:00","2015","01","31","01:00","-18.9","","-24.1","","64","","33","","15","","","","101.49","","","","-28","","NA"
"2015-01-31 02:00","2015","01","31","02:00","-19.8","","-24.8","","65","","33","","8","","","","101.55","","","","-26","","NA"
"2015-01-31 03:00","2015","01","31","03:00","-20.7","","-25.4","","66","","31","","7","","","","101.58","","","","-26","","NA"
"2015-01-31 04:00","2015","01","31","04:00","-21.2","","-25.8","","66","","31","","10","","","","101.57","","","","-29","","NA"
"2015-01-31 05:00","2015","01","31","05:00","-21.6","","-26.2","","66","","28","","8","","","","101.58","","","","-28","","NA"
"2015-01-31 06:00","2015","01","31","06:00","-22.2","","-26.6","","67","","30","","5","","","","101.55","","","","-27","","NA"
"2015-01-31 07:00","2015","01","31","07:00","-23.1","","-27.4","","68","","33","","8","","","","101.53","","","","-30","","NA"
"2015-01-31 08:00","2015","01","31","08:00","-23.7","","-27.6","","70","","31","","8","","","","101.56","","","","-31","","NA"
"2015-01-31 09:00","2015","01","31","09:00","-21.4","","-25.9","","67","","27","","9","","","","101.65","","","","-28","","NA"
"2015-01-31 10:00","2015","01","31","10:00","-19.1","","-25.0","","59","","28","","12","","","","101.64","","","","-27","","NA"
"2015-01-31 11:00","2015","01","31","11:00","-17.9","","-24.6","","56","","36","","4","","","","101.62","","","","-21","","NA"
"2015-01-31 12:00","2015","01","31","12:00","-16.7","","-23.3","","57","","19","","7","","","","101.52","","","","-22","","NA"
"2015-01-31 13:00","2015","01","31","13:00","-15.8","","-22.4","","57","","21","","11","","","","101.43","","","","-23","","NA"
"2015-01-31 14:00","2015","01","31","14:00","-15.2","","-21.5","","59","","20","","11","","","","101.35","","","","-22","","NA"
"2015-01-31 15:00","2015","01","31","15:00","-14.5","","-20.7","","60","","21","","8","","","","101.28","","","","-20","","NA"
"2015-01-31 16:00","2015","01","31","16:00","-13.8","","-19.4","","63","","23","","10","","","","101.27","","","","-20","","NA"
"2015-01-31 17:00","2015","01","31","17:00","-13.5","","-18.7","","65","","22","","5","","","","101.18","","","","-17","","NA"
"2015-01-31 18:00","2015","01","31","18:00","-13.7","","-18.1","","69","","29","","2","","","","101.16","","","","-15","","NA"
"2015-01-31 19:00","2015","01","31","19:00","-14.7","","-17.9","","76","","2","","2","","","","101.18","","","","-16","","NA"
"2015-01-31 20:00","2015","01","31","20:00","-13.3","","-16.3","","78","","4","","3","","","","101.11","","","","-15","","NA"
"2015-01-31 21:00","2015","01","31","21:00","-12.4","","-14.6","","83","","6","","5","","","","101.01","","","","-16","","NA"
"2015-01-31 22:00","2015","01","31","22:00","-11.3","","-13.1","","87","","0","","1","","","","100.94","","","","-12","","NA"
"2015-01-31 23:00","2015","01","31","23:00","-7.0","","-8.4","","90","","18","","13","","","","100.89","","","","-13","","NA"
