"Station Name","KINGSTON CLIMATE"
"Province","ONTARIO"
"Current Station Operator","Environment and Climate Change Canada - Meteorological Service of Canada"
"Latitude","44.22"
"Longitude","-76.60"
"Elevation","93.00"
"Climate Identifier","6104142"
"WMO Identifier","71820"
"TC Identifier","TKG"
"All times are specified in Local Standard Time (LST). Add 1 hour to adjust for Daylight Saving Time where and when it is observed."

"Legend"
"E","Estimated"
"M","Missing"
"NA","Not Available"

"Date/Time","Year","Month","Day","Time","Temp (°C)","Temp Flag","Dew Point Temp (°C)","Dew Point Temp Flag","Rel Hum (%)","Rel Hum Flag","Wind Dir (10s deg)","Wind Dir Flag","Wind Spd (km/h)","Wind Spd Flag","Visibility (km)","Visibility Flag","Stn Press (kPa)","Stn Press Flag","Hmdx","Hmdx Flag","Wind Chill","Wind Chill Flag","Weather"
"2018-04-01 00:00","2018","04","01","00:00","5.8","","3.8","","87","","22","","29","","","","99.54","","","","","","NA"
"2018-04-01 01:00","2018","04","01","01:00","5.5","","3.3","","86","","23","","27","","","","99.51","","","","","","NA"
"2018-04-01 02:00","2018","04","01","02:00","4.9","","2.7","","86","","24","","24","","","","99.54","","","","","","NA"
"2018-04-01 03:00","2018","04","01","03:00","1.4","","-2.8","","73","","26","","29","","","","99.70","","","","","","NA"
"2018-04-01 04:00","2018","04","01","04:00","0.4","","-4.3","","71","","26","","30","","","","99.89","","","","","","NA"
"2018-04-01 05:00","2018","04","01","05:00","-0.7","","-5.7","","69","","26","","31","","","","100.06","","","","-7","","NA"
"2018-04-01 06:00","2018","04","01","06:00","-1.7","","-6.8","","68","","26","","27","","","","100.22","","","","-8","","NA"
"2018-04-01 07:00","2018","04","01","07:00","-1.8","","-8.9","","58","","27","","33","","","","100.39","","","","-9","","NA"
"2018-04-01 08:00","2018","04","01","08:00","-1.5","","-8.9","","57","","27","","26","","","","100.53","","","","-8","","NA"
"2018-04-01 09:00","2018","04","01","09:00","-1.4","","-10.1","","51","","27","","24","","","","100.64","","","","-8","","NA"
"2018-04-01 10:00","2018","04","01","10:00","0.0","","-10.2","","46","","28","","22","","","","100.72","","","","-6","","NA"
"2018-04-01 11:00","2018","04","01","11:00","0.5","","-10.1","","45","","25","","18","","","","100.74","","","","","","NA"
"2018-04-01 12:00","2018","04","01","12:00","0.9","","-9.1","","47","","24","","21","","","","100.72","","","","","","NA"
"2018-04-01 13:00","2018","04","01","13:00","2.6","","-8.7","","43","","24","","27","","","","100.71","","","","","","NA"
"2018-04-01 14:00","2018","04","01","14:00","3.1","","-8.9","","41","","25","","26","","","","100.69","","","","","","NA"
"2018-04-01 15:00","2018","04","01","15:00","1.9","","-10.0","","41","","24","","24","","","","100.70","","","","","","NA"
"2018-04-01 16:00","2018","04","01","16:00","2.2","","-5.4","","57","","23","","26","","","","100.70","","","","","","NA"
"2018-04-01 17:00","2018","04","01","17:00","1.5","","-9.0","","46","","26","","21","","","","100.73","","","","","","NA"
"2018-04-01 18:00","2018","04","01","18:00","0.6","","-5.9","","62","","23","","28","","","","100.77","","","","","","NA"
"2018-04-01 19:00","2018","04","01","19:00","0.2","","-6.5","","61","","24","","22","","","","100.80","","","","","","NA"
"2018-04-01 20:00","2018","04","01","20:00","-1.3","","-7.2","","64","","26","","9","","","","100.80","","","","-5","","NA"
"2018-04-01 21:00","2018","04","01","21:00","-1.4","","-7.1","","65","","27","","6","","","","100.82","","","","-4","","NA"
"2018-04-01 22:00","2018","04","01","22:00","-1.6","","-7.9","","62","","30","","6","","","","100.80","","","","-4","","NA"
"2018-04-01 23:00","2018","04","01","23:00","-2.0","","-9.1","","58","","30","","7","","","","100.81","","","","-5","","NA"
"2018-04-02 00:00","2018","04","02","00:00","-2.4","","-9.5","","58","","30","","9","","","","100.84","","","","-6","","NA"
"2018-04-02 01:00","2018","04","02","01:00","-3.5","","-9.7","","62","","35","","3","","","","100.78","","","","-5","","NA"
"2018-04-02 02:00","2018","04","02","02:00","-3.7","","-9.7","","63","","34","","4","","","","100.74","","","","-5","","NA"
"2018-04-02 03:00","2018","04","02","03:00","-4.9","","-9.8","","68","","","","0","","","","100.76","","","","","","NA"
"2018-04-02 04:00","2018","04","02","04:00","-5.4","","-9.6","","72","","10","","2","","","","100.77","","","","-6","","NA"
"2018-04-02 05:00","2018","04","02","05:00","-6.4","","-8.5","","85","","1","","3","","","","100.80","","","","-8","","NA"
"2018-04-02 06:00","2018","04","02","06:00","-6.8","","-8.8","","86","","8","","4","","","","100.83","","","","-9","","NA"
"2018-04-02 07:00","2018","04","02","07:00","-1.3","","-7.6","","62","","14","","12","","","","100.86","","","","-5","","NA"
"2018-04-02 08:00","2018","04","02","08:00","0.0","","-6.9","","59","","15","","17","","","","100.83","","","","-5","","NA"
"2018-04-02 09:00","2018","04","02","09:00","0.6","","-6.7","","58","","16","","19","","","","100.85","","","","","","NA"
"2018-04-02 10:00","2018","04","02","10:00","1.4","","-5.2","","61","","17","","21","","","","100.87","","","","","","NA"
"2018-04-02 11:00","2018","04","02","11:00","2.2","","-4.3","","62","","18","","24","","","","100.88","","","","","","NA"
"2018-04-02 12:00","2018","04","02","12:00","2.8","","-2.9","","66","","18","","25","","","","100.84","","","","","","NA"
"2018-04-02 13:00","2018","04","02","13:00","1.8","","-3.8","","66","","18","","24","","","","100.80","","","","","","NA"
"2018-04-02 14:00","2018","04","02","14:00","2.2","","-3.5","","66","","18","","24","","","","100.76","","","","","","NA"
"2018-04-02 15:00","2018","04","02","15:00","3.2","","-2.8","","65","","18","","25","","","","100.69","","","","","","NA"
"2018-04-02 16:00","2018","04","02","16:00","2.9","","-3.5","","63","","18","","20","","","","100.67","","","","","","NA"
"2018-04-02 17:00","2018","04","02","17:00","2.1","","-3.2","","68","","18","","22","","","","100.70","","","","","","NA"
"2018-04-02 18:00","2018","04","02","18:00","1.4","","-2.4","","76","","18","","17","","","","100.70","","","","","","NA"
"2018-04-02 19:00","2018","04","02","19:00","1.2","","-2.3","","78","","20","","16","","","","100.71","","","","","","NA"
"2018-04-02 20:00","2018","04","02","20:00","0.8","","-2.7","","78","","22","","13","","","","100.75","","","","","","NA"
"2018-04-02 21:00","2018","04","02","21:00","0.8","","-2.9","","76","","23","","11","","","","100.78","","","","","","NA"
"2018-04-02 22:00","2018","04","02","22:00","0.4","","-2.3","","82","","20","","10","","","","100.75","","","","","","NA"
"2018-04-02 23:00","2018","04","02","23:00","0.4","","-1.7","","86","","20","","7","","","","100.77","","","","","","NA"
"2018-04-03 00:00","2018","04","03","00:00","0.9","","-1.9","","82","","19","","4","","","","100.76","","","","","","NA"
"2018-04-03 01:00","2018","04","03","01:00","0.8","","-0.9","","89","","18","","8","","","","100.79","","","","","","NA"
"2018-04-03 02:00","2018","04","03","02:00","1.2","","-0.8","","86","","20","","8","","","","100.81","","","","","","NA"
"2018-04-03 03:00","2018","04","03","03:00","-0.1","","-1.7","","89","","0","","1","","","","100.77","","","","0","","NA"
"2018-04-03 04:00","2018","04","03","04:00","0.1","","-0.9","","93","","10","","3","","","","100.74","","","","","","NA"
"2018-04-03 05:00","2018","04","03","05:00","-0.5","","-1.4","","93","","2","","5","","","","100.72","","","","-2","","NA"
"2018-04-03 06:00","2018","04","03","06:00","0.8","","-1.5","","85","","3","","9","","","","100.69","","","","","","NA"
"2018-04-03 07:00","2018","04","03","07:00","1.2","","-2.1","","78","","5","","10","","","","100.64","","","","","","NA"
"2018-04-03 08:00","2018","04","03","08:00","2.6","","-2.5","","69","","4","","13","","","","100.61","","","","","","NA"
"2018-04-03 09:00","2018","04","03","09:00","4.0","","-2.6","","62","","5","","18","","","","100.59","","","","","","NA"
"2018-04-03 10:00","2018","04","03","10:00","4.0","","-3.7","","57","","4","","20","","","","100.57","","","","","","NA"
"2018-04-03 11:00","2018","04","03","11:00","4.5","","-3.7","","55","","5","","22","","","","100.49","","","","","","NA"
"2018-04-03 12:00","2018","04","03","12:00","4.9","","-3.6","","54","","7","","20","","","","100.36","","","","","","NA"
"2018-04-03 13:00","2018","04","03","13:00","5.1","","-3.6","","54","","6","","14","","","","100.29","","","","","","NA"
"2018-04-03 14:00","2018","04","03","14:00","4.6","","-3.0","","58","","11","","15","","","","100.24","","","","","","NA"
"2018-04-03 15:00","2018","04","03","15:00","3.2","","0.5","","83","","9","","17","","","","100.12","","","","","","NA"
"2018-04-03 16:00","2018","04","03","16:00","3.5","","2.3","","92","","7","","14","","","","100.03","","","","","","NA"
"2018-04-03 17:00","2018","04","03","17:00","3.5","","2.3","","92","","6","","16","","","","100.00","","","","","","NA"
"2018-04-03 18:00","2018","04","03","18:00","3.0","","2.2","","94","","6","","18","","","","99.83","","","","","","NA"
"2018-04-03 19:00","2018","04","03","19:00","2.9","","2.0","","94","","7","","20","","","","99.73","","","","","","NA"
"2018-04-03 20:00","2018","04","03","20:00","2.9","","2.2","","95","","6","","21","","","","99.58","","","","","","NA"
"2018-04-03 21:00","2018","04","03","21:00","3.0","","2.3","","95","","7","","22","","","","99.44","","","","","","NA"
"2018-04-03 22:00","2018","04","03","22:00","2.5","","1.9","","96","","2","","12","","","","99.35","","","","","","NA"
"2018-04-03 23:00","2018","04","03","23:00","2.6","","2.0","","96","","4","","21","","","","99.15","","","","","","NA"
"2018-04-04 00:00","2018","04","04","00:00","2.7","","2.1","","96","","4","","15","","","","99.08","","","","","","NA"
"2018-04-04 01:00","2018","04","04","01:00","2.6","","1.9","","96","","4","","22","","","","98.86","","","","","","NA"
"2018-04-04 02:00","2018","04","04","02:00","2.6","","2.0","","96","","4","","16","","","","98.67","","","","","","NA"
"2018-04-04 03:00","2018","04","04","03:00","2.7","","2.2","","97","","5","","21","","","","98.46","","","","","","NA"
"2018-04-04 04:00","2018","04","04","04:00","2.8","","2.4","","97","","5","","17","","","","98.28","","","","","","NA"
"2018-04-04 05:00","2018","04","04","05:00","3.5","","3.2","","98","","7","","13","","","","98.08","","","","","","NA"
"2018-04-04 06:00","2018","04","04","06:00","6.4","","5.4","","93","","10","","15","","","","97.98","","","","","","NA"
"2018-04-04 07:00","2018","04","04","07:00","5.7","","4.9","","94","","19","","20","","","","97.96","","","","","","NA"
"2018-04-04 08:00","2018","04","04","08:00","5.7","","4.6","","92","","21","","40","","","","97.97","","","","","","NA"
"2018-04-04 09:00","2018","04","04","09:00","4.9","","3.2","","89","","23","","49","","","","98.06","","","","","","NA"
"2018-04-04 10:00","2018","04","04","10:00","5.2","","2.1","","80","","23","","38","","","","98.19","","","","","","NA"
"2018-04-04 11:00","2018","04","04","11:00","4.3","","0.5","","76","","23","","49","","","","98.28","","","","","","NA"
"2018-04-04 12:00","2018","04","04","12:00","4.4","","0.5","","76","","22","","46","","","","98.29","","","","","","NA"
"2018-04-04 13:00","2018","04","04","13:00","2.5","","0.7","","88","","23","","44","","","","98.33","","","","","","NA"
"2018-04-04 14:00","2018","04","04","14:00","2.9","","-2.9","","66","","23","","59","","","","98.37","","","","","","NA"
"2018-04-04 15:00","2018","04","04","15:00","2.2","","-4.2","","63","","23","","54","","","","98.39","","","","","","NA"
"2018-04-04 16:00","2018","04","04","16:00","0.2","","-5.5","","66","","24","","56","","","","98.48","","","","","","NA"
"2018-04-04 17:00","2018","04","04","17:00","-1.3","","-7.3","","64","","25","","49","","","","98.78","","","","-10","","NA"
"2018-04-04 18:00","2018","04","04","18:00","-2.4","","-9.5","","58","","26","","44","","","","99.03","","","","-11","","NA"
"2018-04-04 19:00","2018","04","04","19:00","-3.5","","-11.5","","54","","26","","40","","","","99.26","","","","-12","","NA"
"2018-04-04 20:00","2018","04","04","20:00","-4.5","","-13.0","","51","","28","","37","","","","99.59","","","","-13","","NA"
"2018-04-04 21:00","2018","04","04","21:00","-5.3","","-13.7","","51","","28","","40","","","","99.84","","","","-14","","NA"
"2018-04-04 22:00","2018","04","04","22:00","-5.3","","-13.1","","54","","28","","31","","","","100.02","","","","-14","","NA"
"2018-04-04 23:00","2018","04","04","23:00","-5.7","","-13.1","","56","","28","","37","","","","100.14","","","","-15","","NA"
"2018-04-05 00:00","2018","04","05","00:00","-6.0","","-13.5","","56","","28","","29","","","","100.29","","","","-14","","NA"
"2018-04-05 01:00","2018","04","05","01:00","-6.4","","-14.4","","53","","28","","20","","","","100.39","","","","-13","","NA"
"2018-04-05 02:00","2018","04","05","02:00","-6.7","","-14.2","","55","","28","","15","","","","100.40","","","","-13","","NA"
"2018-04-05 03:00","2018","04","05","03:00","-6.9","","-15.8","","49","","28","","20","","","","100.45","","","","-14","","NA"
"2018-04-05 04:00","2018","04","05","04:00","-7.6","","-16.4","","49","","29","","13","","","","100.48","","","","-13","","NA"
"2018-04-05 05:00","2018","04","05","05:00","-8.2","","-16.1","","53","","27","","13","","","","100.54","","","","-14","","NA"
"2018-04-05 06:00","2018","04","05","06:00","-8.5","","-16.2","","54","","28","","10","","","","100.58","","","","-13","","NA"
"2018-04-05 07:00","2018","04","05","07:00","-7.3","","-15.7","","51","","28","","17","","","","100.64","","","","-14","","NA"
"2018-04-05 08:00","2018","04","05","08:00","-6.4","","-18.2","","39","","29","","24","","","","100.67","","","","-14","","NA"
"2018-04-05 09:00","2018","04","05","09:00","-4.7","","-16.5","","39","","27","","20","","","","100.68","","","","-11","","NA"
"2018-04-05 10:00","2018","04","05","10:00","-3.6","","-17.5","","33","","28","","21","","","","100.70","","","","-10","","NA"
"2018-04-05 11:00","2018","04","05","11:00","-2.3","","-16.6","","33","","26","","26","","","","100.71","","","","-9","","NA"
"2018-04-05 12:00","2018","04","05","12:00","-1.1","","-15.7","","32","","29","","25","","","","100.72","","","","-7","","NA"
"2018-04-05 13:00","2018","04","05","13:00","-0.5","","-14.5","","34","","29","","27","","","","100.72","","","","-7","","NA"
"2018-04-05 14:00","2018","04","05","14:00","0.2","","-15.0","","31","","28","","22","","","","100.72","","","","","","NA"
"2018-04-05 15:00","2018","04","05","15:00","0.4","","-14.3","","32","","25","","18","","","","100.67","","","","","","NA"
"2018-04-05 16:00","2018","04","05","16:00","0.3","","-13.9","","34","","25","","23","","","","100.64","","","","","","NA"
"2018-04-05 17:00","2018","04","05","17:00","0.4","","-14.2","","33","","25","","20","","","","100.61","","","","","","NA"
"2018-04-05 18:00","2018","04","05","18:00","-0.5","","-13.2","","38","","26","","17","","","","100.60","","","","-5","","NA"
"2018-04-05 19:00","2018","04","05","19:00","-1.1","","-10.1","","50","","24","","16","","","","100.61","","","","-6","","NA"
"2018-04-05 20:00","2018","04","05","20:00","-1.2","","-8.7","","57","","23","","23","","","","100.66","","","","-7","","NA"
"2018-04-05 21:00","2018","04","05","21:00","-2.3","","-6.6","","73","","22","","25","","","","100.66","","","","-9","","NA"
"2018-04-05 22:00","2018","04","05","22:00","-3.5","","-5.2","","88","","22","","10","","","","100.63","","","","-7","","NA"
"2018-04-05 23:00","2018","04","05","23:00","-2.7","","-5.1","","83","","25","","9","","","","100.62","","","","-6","","NA"
"2018-04-06 00:00","2018","04","06","00:00","-3.3","","-7.4","","73","","26","","8","","","","100.59","","","","-7","","NA"
"2018-04-06 01:00","2018","04","06","01:00","-3.6","","-8.1","","71","","18","","8","","","","100.53","","","","-7","","NA"
"2018-04-06 02:00","2018","04","06","02:00","-1.3","","-7.0","","65","","20","","11","","","","100.47","","","","-5","","NA"
"2018-04-06 03:00","2018","04","06","03:00","-0.5","","-7.6","","59","","19","","17","","","","100.38","","","","-5","","NA"
"2018-04-06 04:00","2018","04","06","04:00","-0.3","","-3.7","","78","","18","","25","","","","100.32","","","","-6","","NA"
"2018-04-06 05:00","2018","04","06","05:00","-0.4","","-5.2","","70","","18","","27","","","","100.24","","","","-7","","NA"
"2018-04-06 06:00","2018","04","06","06:00","-0.1","","-5.2","","68","","17","","28","","","","100.15","","","","-6","","NA"
"2018-04-06 07:00","2018","04","06","07:00","-0.1","","-4.4","","73","","16","","31","","","","100.07","","","","-7","","NA"
"2018-04-06 08:00","2018","04","06","08:00","-0.2","","-4.3","","74","","16","","32","","","","99.95","","","","-7","","NA"
"2018-04-06 09:00","2018","04","06","09:00","1.0","","-4.3","","68","","17","","31","","","","99.87","","","","","","NA"
"2018-04-06 10:00","2018","04","06","10:00","0.5","","-2.2","","82","","18","","32","","","","99.78","","","","","","NA"
"2018-04-06 11:00","2018","04","06","11:00","0.1","","-0.5","","95","","17","","25","","","","99.62","","","","","","NA"
"2018-04-06 12:00","2018","04","06","12:00","-0.3","","-0.9","","96","","14","","19","","","","99.43","","","","-5","","NA"
"2018-04-06 13:00","2018","04","06","13:00","-0.1","","-0.6","","97","","13","","14","","","","99.29","","","","-4","","NA"
"2018-04-06 14:00","2018","04","06","14:00","-0.1","","-0.4","","97","","15","","5","","","","99.20","","","","-2","","NA"
"2018-04-06 15:00","2018","04","06","15:00","0.4","","0.0","","97","","15","","7","","","","99.13","","","","","","NA"
"2018-04-06 16:00","2018","04","06","16:00","0.9","","0.1","","94","","21","","9","","","","99.14","","","","","","NA"
"2018-04-06 17:00","2018","04","06","17:00","1.2","","0.2","","93","","22","","13","","","","99.16","","","","","","NA"
"2018-04-06 18:00","2018","04","06","18:00","1.2","","-0.3","","90","","21","","18","","","","99.16","","","","","","NA"
"2018-04-06 19:00","2018","04","06","19:00","1.5","","-0.1","","89","","23","","15","","","","99.19","","","","","","NA"
"2018-04-06 20:00","2018","04","06","20:00","1.4","","-0.4","","88","","24","","21","","","","99.20","","","","","","NA"
"2018-04-06 21:00","2018","04","06","21:00","0.9","","-2.8","","76","","25","","24","","","","99.28","","","","","","NA"
"2018-04-06 22:00","2018","04","06","22:00","0.0","","-4.6","","71","","27","","27","","","","99.31","","","","-6","","NA"
"2018-04-06 23:00","2018","04","06","23:00","-0.6","","-5.5","","70","","26","","20","","","","99.35","","","","-6","","NA"
"2018-04-07 00:00","2018","04","07","00:00","-1.1","","-5.8","","71","","25","","24","","","","99.40","","","","-7","","NA"
"2018-04-07 01:00","2018","04","07","01:00","-1.5","","-7.4","","64","","26","","26","","","","99.48","","","","-8","","NA"
"2018-04-07 02:00","2018","04","07","02:00","-2.1","","-8.0","","64","","26","","27","","","","99.56","","","","-9","","NA"
"2018-04-07 03:00","2018","04","07","03:00","-2.5","","-7.9","","67","","26","","28","","","","99.66","","","","-10","","NA"
"2018-04-07 04:00","2018","04","07","04:00","-2.6","","-8.2","","65","","27","","25","","","","99.76","","","","-9","","NA"
"2018-04-07 05:00","2018","04","07","05:00","-3.5","","-8.8","","66","","27","","23","","","","99.83","","","","-10","","NA"
"2018-04-07 06:00","2018","04","07","06:00","-3.7","","-8.8","","68","","26","","21","","","","99.92","","","","-10","","NA"
"2018-04-07 07:00","2018","04","07","07:00","-3.3","","-8.9","","65","","27","","25","","","","100.01","","","","-10","","NA"
"2018-04-07 08:00","2018","04","07","08:00","-2.7","","-9.1","","61","","27","","27","","","","100.07","","","","-10","","NA"
"2018-04-07 09:00","2018","04","07","09:00","-1.4","","-9.6","","53","","26","","25","","","","100.12","","","","-8","","NA"
"2018-04-07 10:00","2018","04","07","10:00","-0.4","","-11.2","","44","","26","","23","","","","100.12","","","","-6","","NA"
"2018-04-07 11:00","2018","04","07","11:00","0.6","","-10.8","","42","","27","","23","","","","100.10","","","","","","NA"
"2018-04-07 12:00","2018","04","07","12:00","1.3","","-10.9","","40","","26","","26","","","","100.06","","","","","","NA"
"2018-04-07 13:00","2018","04","07","13:00","2.3","","-9.5","","41","","26","","23","","","","100.07","","","","","","NA"
"2018-04-07 14:00","2018","04","07","14:00","1.8","","-10.4","","40","","24","","25","","","","100.05","","","","","","NA"
"2018-04-07 15:00","2018","04","07","15:00","1.7","","-10.3","","41","","24","","24","","","","100.02","","","","","","NA"
"2018-04-07 16:00","2018","04","07","16:00","2.5","","-11.3","","35","","25","","22","","","","100.06","","","","","","NA"
"2018-04-07 17:00","2018","04","07","17:00","1.3","","-11.0","","40","","24","","27","","","","100.15","","","","","","NA"
"2018-04-07 18:00","2018","04","07","18:00","0.8","","-10.6","","42","","25","","23","","","","100.21","","","","","","NA"
"2018-04-07 19:00","2018","04","07","19:00","-0.5","","-11.0","","45","","26","","22","","","","100.27","","","","-6","","NA"
"2018-04-07 20:00","2018","04","07","20:00","-1.4","","-10.7","","49","","26","","14","","","","100.34","","","","-6","","NA"
"2018-04-07 21:00","2018","04","07","21:00","-1.3","","-6.6","","68","","26","","11","","","","100.37","","","","-5","","NA"
"2018-04-07 22:00","2018","04","07","22:00","-1.3","","-6.0","","71","","26","","9","","","","100.32","","","","-5","","NA"
"2018-04-07 23:00","2018","04","07","23:00","-1.3","","-6.6","","67","","25","","9","","","","100.29","","","","-5","","NA"
"2018-04-08 00:00","2018","04","08","00:00","-1.5","","-7.8","","62","","25","","7","","","","100.26","","","","-4","","NA"
"2018-04-08 01:00","2018","04","08","01:00","-1.7","","-8.0","","62","","24","","10","","","","100.21","","","","-5","","NA"
"2018-04-08 02:00","2018","04","08","02:00","-2.0","","-7.7","","65","","25","","12","","","","100.17","","","","-6","","NA"
"2018-04-08 03:00","2018","04","08","03:00","-2.2","","-7.9","","65","","27","","14","","","","100.18","","","","-7","","NA"
"2018-04-08 04:00","2018","04","08","04:00","-2.4","","-8.0","","66","","25","","11","","","","100.21","","","","-6","","NA"
"2018-04-08 05:00","2018","04","08","05:00","-2.6","","-8.0","","66","","28","","11","","","","100.21","","","","-7","","NA"
"2018-04-08 06:00","2018","04","08","06:00","-2.6","","-8.2","","65","","28","","13","","","","100.23","","","","-7","","NA"
"2018-04-08 07:00","2018","04","08","07:00","-2.4","","-8.3","","64","","28","","13","","","","100.25","","","","-7","","NA"
"2018-04-08 08:00","2018","04","08","08:00","-1.8","","-9.9","","54","","28","","16","","","","100.24","","","","-7","","NA"
"2018-04-08 09:00","2018","04","08","09:00","-0.3","","-10.2","","47","","28","","17","","","","100.23","","","","-5","","NA"
"2018-04-08 10:00","2018","04","08","10:00","0.0","","-11.2","","43","","27","","20","","","","100.23","","","","-5","","NA"
"2018-04-08 11:00","2018","04","08","11:00","0.5","","-11.1","","42","","26","","18","","","","100.23","","","","","","NA"
"2018-04-08 12:00","2018","04","08","12:00","0.6","","-9.6","","46","","28","","19","","","","100.21","","","","","","NA"
"2018-04-08 13:00","2018","04","08","13:00","0.1","","-9.9","","47","","27","","15","","","","100.22","","","","","","NA"
"2018-04-08 14:00","2018","04","08","14:00","0.1","","-8.8","","51","","31","","19","","","","100.24","","","","","","NA"
"2018-04-08 15:00","2018","04","08","15:00","0.7","","-10.6","","43","","31","","18","","","","100.26","","","","","","NA"
"2018-04-08 16:00","2018","04","08","16:00","1.6","","-10.9","","39","","33","","20","","","","100.30","","","","","","NA"
"2018-04-08 17:00","2018","04","08","17:00","1.1","","-12.6","","35","","30","","17","","","","100.35","","","","","","NA"
"2018-04-08 18:00","2018","04","08","18:00","0.4","","-13.5","","35","","30","","13","","","","100.39","","","","","","NA"
"2018-04-08 19:00","2018","04","08","19:00","-1.3","","-13.2","","40","","28","","8","","","","100.44","","","","-4","","NA"
"2018-04-08 20:00","2018","04","08","20:00","-2.0","","-12.9","","43","","28","","9","","","","100.54","","","","-5","","NA"
"2018-04-08 21:00","2018","04","08","21:00","-3.0","","-12.3","","49","","32","","10","","","","100.63","","","","-7","","NA"
"2018-04-08 22:00","2018","04","08","22:00","-3.3","","-12.7","","48","","33","","10","","","","100.71","","","","-7","","NA"
"2018-04-08 23:00","2018","04","08","23:00","-3.9","","-12.8","","50","","33","","8","","","","100.74","","","","-7","","NA"
"2018-04-09 00:00","2018","04","09","00:00","-5.4","","-12.6","","57","","34","","4","","","","100.75","","","","-7","","NA"
"2018-04-09 01:00","2018","04","09","01:00","-5.2","","-11.7","","60","","28","","7","","","","100.82","","","","-8","","NA"
"2018-04-09 02:00","2018","04","09","02:00","-5.3","","-11.1","","64","","31","","4","","","","100.88","","","","-7","","NA"
"2018-04-09 03:00","2018","04","09","03:00","-4.7","","-11.0","","61","","31","","4","","","","100.92","","","","-6","","NA"
"2018-04-09 04:00","2018","04","09","04:00","-4.8","","-9.5","","69","","35","","1","","","","100.96","","","","-5","","NA"
"2018-04-09 05:00","2018","04","09","05:00","-5.1","","-10.3","","66","","32","","6","","","","100.98","","","","-8","","NA"
"2018-04-09 06:00","2018","04","09","06:00","-5.4","","-9.6","","72","","32","","8","","","","101.02","","","","-9","","NA"
"2018-04-09 07:00","2018","04","09","07:00","-4.0","","-9.0","","68","","33","","8","","","","101.09","","","","-7","","NA"
"2018-04-09 08:00","2018","04","09","08:00","-1.3","","-10.4","","50","","13","","2","","","","101.12","","","","-2","","NA"
"2018-04-09 09:00","2018","04","09","09:00","-1.2","","-9.4","","54","","15","","9","","","","101.15","","","","-4","","NA"
"2018-04-09 10:00","2018","04","09","10:00","-0.1","","-7.6","","57","","16","","13","","","","101.15","","","","-4","","NA"
"2018-04-09 11:00","2018","04","09","11:00","-0.1","","-8.3","","54","","17","","19","","","","101.16","","","","-5","","NA"
"2018-04-09 12:00","2018","04","09","12:00","0.3","","-7.8","","54","","18","","18","","","","101.12","","","","","","NA"
"2018-04-09 13:00","2018","04","09","13:00","1.3","","-6.3","","57","","18","","20","","","","101.08","","","","","","NA"
"2018-04-09 14:00","2018","04","09","14:00","0.9","","-5.6","","62","","18","","21","","","","101.04","","","","","","NA"
"2018-04-09 15:00","2018","04","09","15:00","0.5","","-5.4","","65","","18","","21","","","","101.01","","","","","","NA"
"2018-04-09 16:00","2018","04","09","16:00","0.8","","-5.2","","64","","18","","18","","","","100.99","","","","","","NA"
"2018-04-09 17:00","2018","04","09","17:00","0.6","","-4.7","","67","","18","","16","","","","100.97","","","","","","NA"
"2018-04-09 18:00","2018","04","09","18:00","0.3","","-4.4","","71","","19","","16","","","","100.99","","","","","","NA"
"2018-04-09 19:00","2018","04","09","19:00","-0.1","","-4.8","","71","","21","","11","","","","101.02","","","","-4","","NA"
"2018-04-09 20:00","2018","04","09","20:00","-0.3","","-4.7","","72","","20","","10","","","","101.06","","","","-4","","NA"
"2018-04-09 21:00","2018","04","09","21:00","-0.6","","-5.5","","70","","22","","8","","","","101.08","","","","-3","","NA"
"2018-04-09 22:00","2018","04","09","22:00","-0.8","","-5.3","","72","","24","","7","","","","101.03","","","","-3","","NA"
"2018-04-09 23:00","2018","04","09","23:00","-1.0","","-5.3","","73","","26","","5","","","","101.02","","","","-3","","NA"
"2018-04-10 00:00","2018","04","10","00:00","-0.9","","-4.7","","75","","24","","5","","","","101.01","","","","-3","","NA"
"2018-04-10 01:00","2018","04","10","01:00","-1.2","","-4.8","","77","","24","","5","","","","101.01","","","","-3","","NA"
"2018-04-10 02:00","2018","04","10","02:00","-1.2","","-5.9","","70","","28","","5","","","","100.99","","","","-3","","NA"
"2018-04-10 03:00","2018","04","10","03:00","-1.5","","-6.2","","70","","30","","6","","","","100.99","","","","-4","","NA"
"2018-04-10 04:00","2018","04","10","04:00","-2.0","","-6.4","","72","","30","","7","","","","101.01","","","","-5","","NA"
"2018-04-10 05:00","2018","04","10","05:00","-1.6","","-6.1","","71","","26","","5","","","","101.02","","","","-3","","NA"
"2018-04-10 06:00","2018","04","10","06:00","-1.4","","-6.1","","71","","27","","8","","","","101.06","","","","-4","","NA"
"2018-04-10 07:00","2018","04","10","07:00","-0.7","","-5.7","","69","","26","","9","","","","101.11","","","","-4","","NA"
"2018-04-10 08:00","2018","04","10","08:00","1.0","","-5.8","","61","","24","","9","","","","101.12","","","","","","NA"
"2018-04-10 09:00","2018","04","10","09:00","1.6","","-6.7","","54","","25","","12","","","","101.14","","","","","","NA"
"2018-04-10 10:00","2018","04","10","10:00","2.6","","-6.4","","52","","22","","17","","","","101.14","","","","","","NA"
"2018-04-10 11:00","2018","04","10","11:00","3.2","","-5.6","","52","","21","","19","","","","101.09","","","","","","NA"
"2018-04-10 12:00","2018","04","10","12:00","2.1","","-2.8","","70","","18","","27","","","","101.07","","","","","","NA"
"2018-04-10 13:00","2018","04","10","13:00","3.3","","-1.0","","74","","19","","29","","","","101.02","","","","","","NA"
"2018-04-10 14:00","2018","04","10","14:00","3.5","","-1.8","","68","","20","","26","","","","100.98","","","","","","NA"
"2018-04-10 15:00","2018","04","10","15:00","3.7","","-0.9","","72","","19","","25","","","","100.94","","","","","","NA"
"2018-04-10 16:00","2018","04","10","16:00","3.5","","-3.6","","60","","20","","22","","","","100.92","","","","","","NA"
"2018-04-10 17:00","2018","04","10","17:00","4.1","","-4.5","","53","","23","","19","","","","100.91","","","","","","NA"
"2018-04-10 18:00","2018","04","10","18:00","3.2","","-4.5","","57","","23","","19","","","","100.92","","","","","","NA"
"2018-04-10 19:00","2018","04","10","19:00","1.7","","-4.2","","65","","22","","11","","","","100.94","","","","","","NA"
"2018-04-10 20:00","2018","04","10","20:00","1.1","","-4.9","","65","","23","","10","","","","100.95","","","","","","NA"
"2018-04-10 21:00","2018","04","10","21:00","0.4","","-3.9","","73","","22","","12","","","","100.98","","","","","","NA"
"2018-04-10 22:00","2018","04","10","22:00","0.0","","-3.1","","79","","22","","13","","","","100.98","","","","-4","","NA"
"2018-04-10 23:00","2018","04","10","23:00","0.1","","-1.8","","87","","23","","12","","","","100.97","","","","","","NA"
"2018-04-11 00:00","2018","04","11","00:00","-0.4","","-2.1","","89","","21","","12","","","","100.96","","","","-4","","NA"
"2018-04-11 01:00","2018","04","11","01:00","-0.1","","-0.9","","94","","21","","8","","","","100.96","","","","-3","","NA"
"2018-04-11 02:00","2018","04","11","02:00","-0.1","","-1.5","","90","","20","","8","","","","100.93","","","","-3","","NA"
"2018-04-11 03:00","2018","04","11","03:00","0.3","","-1.4","","89","","20","","6","","","","100.87","","","","","","NA"
"2018-04-11 04:00","2018","04","11","04:00","-0.3","","-1.2","","93","","17","","7","","","","100.84","","","","-3","","NA"
"2018-04-11 05:00","2018","04","11","05:00","-0.3","","-2.0","","89","","19","","11","","","","100.79","","","","-4","","NA"
"2018-04-11 06:00","2018","04","11","06:00","-0.3","","-2.1","","88","","19","","9","","","","100.82","","","","-3","","NA"
"2018-04-11 07:00","2018","04","11","07:00","1.6","","-1.0","","83","","19","","13","","","","100.81","","","","","","NA"
"2018-04-11 08:00","2018","04","11","08:00","2.2","","-0.6","","81","","18","","17","","","","100.76","","","","","","NA"
"2018-04-11 09:00","2018","04","11","09:00","3.2","","-0.9","","75","","18","","21","","","","100.77","","","","","","NA"
"2018-04-11 10:00","2018","04","11","10:00","3.3","","-0.1","","78","","17","","23","","","","100.72","","","","","","NA"
"2018-04-11 11:00","2018","04","11","11:00","3.8","","0.2","","78","","17","","22","","","","100.64","","","","","","NA"
"2018-04-11 12:00","2018","04","11","12:00","5.1","","0.1","","70","","18","","26","","","","100.56","","","","","","NA"
"2018-04-11 13:00","2018","04","11","13:00","4.6","","-0.3","","70","","18","","25","","","","100.50","","","","","","NA"
"2018-04-11 14:00","2018","04","11","14:00","4.1","","-0.5","","72","","18","","26","","","","100.44","","","","","","NA"
"2018-04-11 15:00","2018","04","11","15:00","5.0","","-2.6","","58","","20","","28","","","","100.41","","","","","","NA"
"2018-04-11 16:00","2018","04","11","16:00","3.6","","0.1","","78","","22","","20","","","","100.42","","","","","","NA"
"2018-04-11 17:00","2018","04","11","17:00","3.3","","0.3","","81","","23","","22","","","","100.43","","","","","","NA"
"2018-04-11 18:00","2018","04","11","18:00","2.9","","1.1","","88","","22","","24","","","","100.44","","","","","","NA"
"2018-04-11 19:00","2018","04","11","19:00","2.5","","0.9","","89","","23","","21","","","","100.46","","","","","","NA"
"2018-04-11 20:00","2018","04","11","20:00","2.3","","1.1","","92","","21","","14","","","","100.50","","","","","","NA"
"2018-04-11 21:00","2018","04","11","21:00","2.3","","1.1","","91","","22","","11","","","","100.54","","","","","","NA"
"2018-04-11 22:00","2018","04","11","22:00","1.9","","0.9","","93","","22","","11","","","","100.54","","","","","","NA"
"2018-04-11 23:00","2018","04","11","23:00","1.6","","0.7","","94","","20","","8","","","","100.52","","","","","","NA"
"2018-04-12 00:00","2018","04","12","00:00","2.0","","1.3","","95","","19","","10","","","","100.55","","","","","","NA"
"2018-04-12 01:00","2018","04","12","01:00","1.5","","0.9","","96","","19","","10","","","","100.51","","","","","","NA"
"2018-04-12 02:00","2018","04","12","02:00","0.7","","0.2","","96","","20","","9","","","","100.48","","","","","","NA"
"2018-04-12 03:00","2018","04","12","03:00","1.1","","0.7","","97","","19","","6","","","","100.47","","","","","","NA"
"2018-04-12 04:00","2018","04","12","04:00","0.4","","0.0","","98","","18","","6","","","","100.46","","","","","","NA"
"2018-04-12 05:00","2018","04","12","05:00","0.0","","-0.3","","98","","26","","3","","","","100.51","","","","-1","","NA"
"2018-04-12 06:00","2018","04","12","06:00","-1.4","","-1.7","","98","","11","","2","","","","100.48","","","","-2","","NA"
"2018-04-12 07:00","2018","04","12","07:00","0.0","","-0.3","","98","","9","","2","","","","100.48","","","","-1","","NA"
"2018-04-12 08:00","2018","04","12","08:00","2.5","","2.3","","98","","12","","10","","","","100.37","","","","","","NA"
"2018-04-12 09:00","2018","04","12","09:00","2.8","","1.9","","94","","15","","12","","","","100.31","","","","","","NA"
"2018-04-12 10:00","2018","04","12","10:00","4.0","","1.6","","84","","12","","12","","","","100.18","","","","","","NA"
"2018-04-12 11:00","2018","04","12","11:00","4.5","","1.4","","80","","15","","8","","","","100.04","","","","","","NA"
"2018-04-12 12:00","2018","04","12","12:00","5.9","","3.4","","84","","10","","13","","","","99.85","","","","","","NA"
"2018-04-12 13:00","2018","04","12","13:00","5.7","","3.3","","84","","12","","15","","","","99.68","","","","","","NA"
"2018-04-12 14:00","2018","04","12","14:00","6.2","","4.7","","90","","10","","18","","","","99.47","","","","","","NA"
"2018-04-12 15:00","2018","04","12","15:00","6.2","","5.0","","92","","11","","18","","","","99.29","","","","","","NA"
"2018-04-12 16:00","2018","04","12","16:00","5.4","","4.5","","94","","14","","21","","","","99.26","","","","","","NA"
"2018-04-12 17:00","2018","04","12","17:00","5.7","","5.1","","96","","13","","24","","","","99.08","","","","","","NA"
"2018-04-12 18:00","2018","04","12","18:00","5.9","","4.8","","93","","17","","22","","","","99.06","","","","","","NA"
"2018-04-12 19:00","2018","04","12","19:00","6.2","","5.3","","94","","20","","17","","","","99.12","","","","","","NA"
"2018-04-12 20:00","2018","04","12","20:00","5.4","","4.4","","94","","19","","13","","","","99.11","","","","","","NA"
"2018-04-12 21:00","2018","04","12","21:00","7.2","","6.1","","92","","23","","15","","","","99.17","","","","","","NA"
"2018-04-12 22:00","2018","04","12","22:00","6.7","","6.2","","97","","27","","10","","","","99.22","","","","","","NA"
"2018-04-12 23:00","2018","04","12","23:00","7.6","","5.9","","89","","27","","16","","","","99.37","","","","","","NA"
"2018-04-13 00:00","2018","04","13","00:00","7.2","","5.1","","87","","28","","16","","","","99.54","","","","","","NA"
"2018-04-13 01:00","2018","04","13","01:00","6.2","","4.2","","87","","29","","14","","","","99.72","","","","","","NA"
"2018-04-13 02:00","2018","04","13","02:00","4.3","","1.7","","83","","33","","24","","","","99.77","","","","","","NA"
"2018-04-13 03:00","2018","04","13","03:00","3.5","","1.1","","84","","33","","18","","","","99.91","","","","","","NA"
"2018-04-13 04:00","2018","04","13","04:00","2.8","","0.3","","84","","34","","7","","","","100.06","","","","","","NA"
"2018-04-13 05:00","2018","04","13","05:00","2.6","","0.7","","87","","25","","7","","","","100.18","","","","","","NA"
"2018-04-13 06:00","2018","04","13","06:00","2.4","","0.9","","90","","23","","8","","","","100.23","","","","","","NA"
"2018-04-13 07:00","2018","04","13","07:00","3.2","","1.2","","87","","32","","6","","","","100.30","","","","","","NA"
"2018-04-13 08:00","2018","04","13","08:00","4.7","","1.5","","80","","35","","9","","","","100.33","","","","","","NA"
"2018-04-13 09:00","2018","04","13","09:00","4.9","","1.4","","78","","2","","11","","","","100.34","","","","","","NA"
"2018-04-13 10:00","2018","04","13","10:00","5.9","","2.5","","79","","2","","10","","","","100.39","","","","","","NA"
"2018-04-13 11:00","2018","04","13","11:00","5.3","","1.4","","76","","6","","12","","","","100.35","","","","","","NA"
"2018-04-13 12:00","2018","04","13","12:00","5.2","","2.0","","80","","5","","9","","","","100.34","","","","","","NA"
"2018-04-13 13:00","2018","04","13","13:00","5.1","","2.4","","83","","5","","10","","","","100.33","","","","","","NA"
"2018-04-13 14:00","2018","04","13","14:00","5.1","","2.6","","84","","3","","15","","","","100.26","","","","","","NA"
"2018-04-13 15:00","2018","04","13","15:00","5.0","","2.4","","84","","2","","12","","","","100.30","","","","","","NA"
"2018-04-13 16:00","2018","04","13","16:00","4.9","","3.1","","89","","5","","15","","","","100.12","","","","","","NA"
"2018-04-13 17:00","2018","04","13","17:00","4.7","","3.5","","92","","34","","19","","","","100.41","","","","","","NA"
"2018-04-13 18:00","2018","04","13","18:00","4.6","","3.7","","94","","35","","17","","","","100.38","","","","","","NA"
"2018-04-13 19:00","2018","04","13","19:00","4.6","","3.8","","95","","3","","11","","","","100.30","","","","","","NA"
"2018-04-13 20:00","2018","04","13","20:00","4.6","","3.9","","96","","5","","9","","","","100.35","","","","","","NA"
"2018-04-13 21:00","2018","04","13","21:00","4.6","","3.9","","95","","36","","13","","","","100.47","","","","","","NA"
"2018-04-13 22:00","2018","04","13","22:00","4.5","","3.6","","94","","36","","12","","","","100.50","","","","","","NA"
"2018-04-13 23:00","2018","04","13","23:00","4.2","","3.3","","94","","2","","13","","","","100.33","","","","","","NA"
"2018-04-14 00:00","2018","04","14","00:00","3.9","","2.8","","92","","1","","19","","","","100.32","","","","","","NA"
"2018-04-14 01:00","2018","04","14","01:00","3.5","","2.3","","92","","36","","19","","","","100.48","","","","","","NA"
"2018-04-14 02:00","2018","04","14","02:00","3.2","","2.1","","92","","36","","20","","","","100.53","","","","","","NA"
"2018-04-14 03:00","2018","04","14","03:00","2.7","","1.2","","90","","1","","26","","","","100.64","","","","","","NA"
"2018-04-14 04:00","2018","04","14","04:00","1.7","","0.4","","91","","36","","25","","","","100.79","","","","","","NA"
"2018-04-14 05:00","2018","04","14","05:00","1.1","","-0.7","","88","","1","","28","","","","100.85","","","","","","NA"
"2018-04-14 06:00","2018","04","14","06:00","1.2","","-1.9","","80","","2","","23","","","","100.83","","","","","","NA"
"2018-04-14 07:00","2018","04","14","07:00","1.5","","-4.1","","66","","2","","20","","","","100.96","","","","","","NA"
"2018-04-14 08:00","2018","04","14","08:00","1.3","","-5.3","","61","","2","","30","","","","101.00","","","","","","NA"
"2018-04-14 09:00","2018","04","14","09:00","0.3","","-5.5","","65","","2","","29","","","","101.11","","","","","","NA"
"2018-04-14 10:00","2018","04","14","10:00","-1.0","","-6.9","","64","","1","","35","","","","101.30","","","","-8","","NA"
"2018-04-14 11:00","2018","04","14","11:00","-2.1","","-5.7","","77","","2","","36","","","","101.20","","","","-10","","NA"
"2018-04-14 12:00","2018","04","14","12:00","-2.6","","-5.6","","80","","2","","34","","","","101.33","","","","-10","","NA"
"2018-04-14 13:00","2018","04","14","13:00","-3.4","","-5.7","","84","","2","","35","","","","101.31","","","","-11","","NA"
"2018-04-14 14:00","2018","04","14","14:00","-3.4","","-5.9","","83","","1","","30","","","","101.43","","","","-11","","NA"
"2018-04-14 15:00","2018","04","14","15:00","-4.1","","-7.3","","79","","3","","36","","","","101.45","","","","-12","","NA"
"2018-04-14 16:00","2018","04","14","16:00","-4.2","","-6.6","","83","","3","","32","","","","101.30","","","","-12","","NA"
"2018-04-14 17:00","2018","04","14","17:00","-4.4","","-6.7","","84","","3","","29","","","","101.38","","","","-12","","NA"
"2018-04-14 18:00","2018","04","14","18:00","-4.4","","-6.8","","84","","3","","32","","","","101.45","","","","-12","","NA"
"2018-04-14 19:00","2018","04","14","19:00","-4.1","","-6.8","","81","","4","","33","","","","101.39","","","","-12","","NA"
"2018-04-14 20:00","2018","04","14","20:00","-3.9","","-6.8","","80","","3","","33","","","","101.62","","","","-12","","NA"
"2018-04-14 21:00","2018","04","14","21:00","-4.2","","-6.7","","82","","3","","29","","","","101.73","","","","-12","","NA"
"2018-04-14 22:00","2018","04","14","22:00","-4.1","","-6.6","","83","","4","","38","","","","101.54","","","","-13","","NA"
"2018-04-14 23:00","2018","04","14","23:00","-4.3","","-6.6","","84","","4","","37","","","","101.54","","","","-13","","NA"
"2018-04-15 00:00","2018","04","15","00:00","-4.4","","-6.8","","83","","3","","34","","","","101.58","","","","-13","","NA"
"2018-04-15 01:00","2018","04","15","01:00","-4.5","","-7.1","","82","","3","","34","","","","101.59","","","","-13","","NA"
"2018-04-15 02:00","2018","04","15","02:00","-4.4","","-6.3","","87","","4","","24","","","","101.55","","","","-11","","NA"
"2018-04-15 03:00","2018","04","15","03:00","-4.3","","-6.2","","86","","4","","21","","","","101.54","","","","-11","","NA"
"2018-04-15 04:00","2018","04","15","04:00","-4.0","","-6.0","","86","","4","","18","","","","101.60","","","","-10","","NA"
"2018-04-15 05:00","2018","04","15","05:00","-4.2","","-6.4","","85","","4","","18","","","","101.55","","","","-10","","NA"
"2018-04-15 06:00","2018","04","15","06:00","-4.3","","-6.7","","84","","4","","19","","","","101.57","","","","-10","","NA"
"2018-04-15 07:00","2018","04","15","07:00","-4.1","","-7.0","","80","","5","","20","","","","101.56","","","","-10","","NA"
"2018-04-15 08:00","2018","04","15","08:00","-4.1","","-6.6","","83","","5","","16","","","","101.59","","","","-10","","NA"
"2018-04-15 09:00","2018","04","15","09:00","-4.2","","-6.4","","84","","4","","13","","","","101.56","","","","-9","","NA"
"2018-04-15 10:00","2018","04","15","10:00","-4.3","","-7.0","","82","","4","","14","","","","101.55","","","","-9","","NA"
"2018-04-15 11:00","2018","04","15","11:00","-4.3","","-6.5","","85","","4","","12","","","","101.45","","","","-9","","NA"
"2018-04-15 12:00","2018","04","15","12:00","-3.8","","-5.8","","86","","4","","12","","","","101.38","","","","-8","","NA"
"2018-04-15 13:00","2018","04","15","13:00","-3.5","","-5.3","","87","","5","","22","","","","101.31","","","","-10","","NA"
"2018-04-15 14:00","2018","04","15","14:00","-3.2","","-4.8","","88","","4","","27","","","","101.25","","","","-10","","NA"
"2018-04-15 15:00","2018","04","15","15:00","-2.9","","-4.4","","89","","4","","25","","","","101.13","","","","-10","","NA"
"2018-04-15 16:00","2018","04","15","16:00","-2.5","","-3.9","","90","","5","","21","","","","101.05","","","","-9","","NA"
"2018-04-15 17:00","2018","04","15","17:00","-2.0","","-3.4","","90","","5","","17","","","","100.98","","","","-7","","NA"
"2018-04-15 18:00","2018","04","15","18:00","-1.8","","-3.1","","91","","5","","17","","","","100.92","","","","-7","","NA"
"2018-04-15 19:00","2018","04","15","19:00","-1.4","","-2.7","","91","","5","","16","","","","100.87","","","","-6","","NA"
"2018-04-15 20:00","2018","04","15","20:00","-1.1","","-2.5","","91","","5","","17","","","","100.83","","","","-6","","NA"
"2018-04-15 21:00","2018","04","15","21:00","-0.9","","-2.4","","90","","5","","17","","","","100.74","","","","-6","","NA"
"2018-04-15 22:00","2018","04","15","22:00","-0.7","","-2.0","","91","","5","","12","","","","100.66","","","","-5","","NA"
"2018-04-15 23:00","2018","04","15","23:00","-0.4","","-1.4","","93","","5","","7","","","","100.56","","","","-3","","NA"
"2018-04-16 00:00","2018","04","16","00:00","-0.1","","-0.9","","94","","5","","4","","","","100.46","","","","-1","","NA"
"2018-04-16 01:00","2018","04","16","01:00","0.1","","-1.0","","93","","5","","5","","","","100.29","","","","","","NA"
"2018-04-16 02:00","2018","04","16","02:00","0.2","","-0.9","","93","","5","","4","","","","100.09","","","","","","NA"
"2018-04-16 03:00","2018","04","16","03:00","0.4","","-0.8","","92","","5","","12","","","","99.94","","","","","","NA"
"2018-04-16 04:00","2018","04","16","04:00","0.6","","-0.6","","92","","5","","30","","","","99.74","","","","","","NA"
"2018-04-16 05:00","2018","04","16","05:00","0.9","","-0.5","","91","","5","","32","","","","99.59","","","","","","NA"
"2018-04-16 06:00","2018","04","16","06:00","1.1","","-0.3","","90","","5","","31","","","","99.49","","","","","","NA"
"2018-04-16 07:00","2018","04","16","07:00","1.1","","0.0","","93","","4","","26","","","","99.46","","","","","","NA"
"2018-04-16 08:00","2018","04","16","08:00","1.3","","0.2","","92","","4","","21","","","","99.47","","","","","","NA"
"2018-04-16 09:00","2018","04","16","09:00","1.2","","0.3","","93","","5","","19","","","","99.33","","","","","","NA"
"2018-04-16 10:00","2018","04","16","10:00","1.7","","0.7","","94","","3","","16","","","","99.19","","","","","","NA"
"2018-04-16 11:00","2018","04","16","11:00","2.7","","1.5","","92","","4","","23","","","","99.00","","","","","","NA"
"2018-04-16 12:00","2018","04","16","12:00","2.9","","2.1","","94","","4","","20","","","","99.04","","","","","","NA"
"2018-04-16 13:00","2018","04","16","13:00","3.0","","2.3","","95","","30","","7","","","","98.98","","","","","","NA"
"2018-04-16 14:00","2018","04","16","14:00","3.1","","2.4","","95","","2","","14","","","","98.88","","","","","","NA"
"2018-04-16 15:00","2018","04","16","15:00","2.7","","2.0","","95","","4","","11","","","","98.79","","","","","","NA"
"2018-04-16 16:00","2018","04","16","16:00","2.5","","1.8","","95","","5","","13","","","","98.77","","","","","","NA"
"2018-04-16 17:00","2018","04","16","17:00","2.4","","1.8","","96","","8","","7","","","","98.82","","","","","","NA"
"2018-04-16 18:00","2018","04","16","18:00","2.0","","1.3","","95","","21","","14","","","","98.83","","","","","","NA"
"2018-04-16 19:00","2018","04","16","19:00","1.7","","0.8","","93","","23","","16","","","","98.80","","","","","","NA"
"2018-04-16 20:00","2018","04","16","20:00","1.4","","0.5","","94","","19","","11","","","","98.81","","","","","","NA"
"2018-04-16 21:00","2018","04","16","21:00","1.1","","0.4","","95","","20","","11","","","","98.79","","","","","","NA"
"2018-04-16 22:00","2018","04","16","22:00","0.8","","0.2","","96","","24","","18","","","","98.79","","","","","","NA"
"2018-04-16 23:00","2018","04","16","23:00","1.1","","0.3","","95","","24","","22","","","","98.85","","","","","","NA"
"2018-04-17 00:00","2018","04","17","00:00","1.2","","0.4","","94","","24","","25","","","","98.83","","","","","","NA"
"2018-04-17 01:00","2018","04","17","01:00","1.4","","0.2","","92","","24","","24","","","","98.84","","","","","","NA"
"2018-04-17 02:00","2018","04","17","02:00","0.8","","0.0","","95","","23","","22","","","","98.86","","","","","","NA"
"2018-04-17 03:00","2018","04","17","03:00","1.1","","-0.2","","91","","24","","24","","","","98.87","","","","","","NA"
"2018-04-17 04:00","2018","04","17","04:00","0.9","","-0.5","","90","","24","","24","","","","98.89","","","","","","NA"
"2018-04-17 05:00","2018","04","17","05:00","0.7","","-1.5","","85","","25","","21","","","","98.93","","","","","","NA"
"2018-04-17 06:00","2018","04","17","06:00","0.5","","-1.8","","84","","25","","21","","","","98.99","","","","","","NA"
"2018-04-17 07:00","2018","04","17","07:00","0.7","","-1.2","","87","","24","","18","","","","98.99","","","","","","NA"
"2018-04-17 08:00","2018","04","17","08:00","1.1","","-1.4","","83","","24","","23","","","","98.98","","","","","","NA"
"2018-04-17 09:00","2018","04","17","09:00","0.1","","-1.1","","92","","24","","18","","","","99.01","","","","","","NA"
"2018-04-17 10:00","2018","04","17","10:00","0.0","","-2.0","","86","","25","","21","","","","99.04","","","","-5","","NA"
"2018-04-17 11:00","2018","04","17","11:00","0.8","","-3.5","","73","","24","","22","","","","99.04","","","","","","NA"
"2018-04-17 12:00","2018","04","17","12:00","1.1","","-3.7","","71","","24","","16","","","","99.05","","","","","","NA"
"2018-04-17 13:00","2018","04","17","13:00","1.2","","-4.1","","68","","25","","23","","","","99.05","","","","","","NA"
"2018-04-17 14:00","2018","04","17","14:00","1.5","","-4.2","","66","","26","","17","","","","99.07","","","","","","NA"
"2018-04-17 15:00","2018","04","17","15:00","1.2","","-5.2","","62","","25","","21","","","","99.09","","","","","","NA"
"2018-04-17 16:00","2018","04","17","16:00","1.4","","-4.5","","65","","24","","19","","","","99.09","","","","","","NA"
"2018-04-17 17:00","2018","04","17","17:00","1.3","","-3.4","","71","","23","","24","","","","99.12","","","","","","NA"
"2018-04-17 18:00","2018","04","17","18:00","0.9","","-3.0","","75","","24","","21","","","","99.18","","","","","","NA"
"2018-04-17 19:00","2018","04","17","19:00","0.6","","-3.1","","76","","25","","20","","","","99.23","","","","","","NA"
"2018-04-17 20:00","2018","04","17","20:00","0.5","","-3.0","","77","","24","","23","","","","99.29","","","","","","NA"
"2018-04-17 21:00","2018","04","17","21:00","0.5","","-2.7","","79","","25","","19","","","","99.32","","","","","","NA"
"2018-04-17 22:00","2018","04","17","22:00","0.6","","-2.5","","80","","24","","17","","","","99.31","","","","","","NA"
"2018-04-17 23:00","2018","04","17","23:00","0.9","","-2.5","","78","","24","","19","","","","99.27","","","","","","NA"
"2018-04-18 00:00","2018","04","18","00:00","0.9","","-2.3","","79","","24","","18","","","","99.27","","","","","","NA"
"2018-04-18 01:00","2018","04","18","01:00","0.7","","-1.8","","83","","24","","15","","","","99.27","","","","","","NA"
"2018-04-18 02:00","2018","04","18","02:00","0.6","","-1.3","","88","","25","","15","","","","99.28","","","","","","NA"
"2018-04-18 03:00","2018","04","18","03:00","0.6","","-0.9","","90","","25","","16","","","","99.27","","","","","","NA"
"2018-04-18 04:00","2018","04","18","04:00","0.9","","-0.4","","91","","26","","13","","","","99.30","","","","","","NA"
"2018-04-18 05:00","2018","04","18","05:00","1.1","","-0.2","","91","","26","","15","","","","99.34","","","","","","NA"
"2018-04-18 06:00","2018","04","18","06:00","1.4","","-0.1","","90","","26","","16","","","","99.39","","","","","","NA"
"2018-04-18 07:00","2018","04","18","07:00","1.8","","-0.1","","87","","25","","16","","","","99.42","","","","","","NA"
"2018-04-18 08:00","2018","04","18","08:00","3.1","","-0.3","","79","","25","","20","","","","99.40","","","","","","NA"
"2018-04-18 09:00","2018","04","18","09:00","3.7","","0.3","","78","","24","","23","","","","99.38","","","","","","NA"
"2018-04-18 10:00","2018","04","18","10:00","4.4","","0.0","","73","","25","","23","","","","99.41","","","","","","NA"
"2018-04-18 11:00","2018","04","18","11:00","4.6","","-0.6","","69","","25","","26","","","","99.45","","","","","","NA"
"2018-04-18 12:00","2018","04","18","12:00","4.2","","-0.2","","73","","24","","26","","","","99.49","","","","","","NA"
"2018-04-18 13:00","2018","04","18","13:00","5.7","","-0.6","","64","","26","","24","","","","99.52","","","","","","NA"
"2018-04-18 14:00","2018","04","18","14:00","5.8","","-1.5","","59","","26","","21","","","","99.55","","","","","","NA"
"2018-04-18 15:00","2018","04","18","15:00","5.5","","-1.1","","62","","27","","21","","","","99.54","","","","","","NA"
"2018-04-18 16:00","2018","04","18","16:00","4.9","","-1.1","","65","","25","","20","","","","99.57","","","","","","NA"
"2018-04-18 17:00","2018","04","18","17:00","4.1","","-0.2","","73","","23","","21","","","","99.58","","","","","","NA"
"2018-04-18 18:00","2018","04","18","18:00","3.3","","-0.1","","79","","24","","22","","","","99.57","","","","","","NA"
"2018-04-18 19:00","2018","04","18","19:00","2.8","","-0.1","","81","","24","","23","","","","99.62","","","","","","NA"
"2018-04-18 20:00","2018","04","18","20:00","2.6","","-0.5","","80","","25","","14","","","","99.62","","","","","","NA"
"2018-04-18 21:00","2018","04","18","21:00","2.5","","-0.3","","81","","24","","14","","","","99.63","","","","","","NA"
"2018-04-18 22:00","2018","04","18","22:00","2.3","","-0.5","","81","","25","","14","","","","99.68","","","","","","NA"
"2018-04-18 23:00","2018","04","18","23:00","2.3","","-1.3","","77","","25","","13","","","","99.68","","","","","","NA"
"2018-04-19 00:00","2018","04","19","00:00","1.8","","-1.2","","80","","32","","6","","","","99.63","","","","","","NA"
"2018-04-19 01:00","2018","04","19","01:00","1.2","","-1.5","","82","","34","","17","","","","99.53","","","","","","NA"
"2018-04-19 02:00","2018","04","19","02:00","0.8","","-2.0","","82","","34","","14","","","","99.51","","","","","","NA"
"2018-04-19 03:00","2018","04","19","03:00","0.8","","-2.6","","78","","29","","7","","","","99.65","","","","","","NA"
"2018-04-19 04:00","2018","04","19","04:00","0.4","","-2.6","","80","","32","","11","","","","99.63","","","","","","NA"
"2018-04-19 05:00","2018","04","19","05:00","0.4","","-3.2","","77","","32","","15","","","","99.68","","","","","","NA"
"2018-04-19 06:00","2018","04","19","06:00","0.2","","-3.0","","79","","32","","13","","","","99.71","","","","","","NA"
"2018-04-19 07:00","2018","04","19","07:00","0.4","","-2.9","","79","","33","","17","","","","99.75","","","","","","NA"
"2018-04-19 08:00","2018","04","19","08:00","0.5","","-4.0","","72","","33","","16","","","","99.77","","","","","","NA"
"2018-04-19 09:00","2018","04","19","09:00","1.0","","-3.5","","72","","32","","15","","","","99.81","","","","","","NA"
"2018-04-19 10:00","2018","04","19","10:00","1.1","","-3.0","","74","","32","","15","","","","99.86","","","","","","NA"
"2018-04-19 11:00","2018","04","19","11:00","1.6","","-3.4","","70","","31","","16","","","","99.91","","","","","","NA"
"2018-04-19 12:00","2018","04","19","12:00","2.0","","-3.2","","68","","31","","14","","","","99.95","","","","","","NA"
"2018-04-19 13:00","2018","04","19","13:00","2.1","","-2.6","","71","","32","","25","","","","100.04","","","","","","NA"
"2018-04-19 14:00","2018","04","19","14:00","2.9","","-3.6","","62","","32","","27","","","","100.08","","","","","","NA"
"2018-04-19 15:00","2018","04","19","15:00","3.0","","-4.1","","60","","31","","25","","","","100.14","","","","","","NA"
"2018-04-19 16:00","2018","04","19","16:00","2.7","","-4.8","","58","","33","","26","","","","100.20","","","","","","NA"
"2018-04-19 17:00","2018","04","19","17:00","2.2","","-5.2","","58","","33","","27","","","","100.31","","","","","","NA"
"2018-04-19 18:00","2018","04","19","18:00","1.0","","-3.8","","70","","32","","25","","","","100.44","","","","","","NA"
"2018-04-19 19:00","2018","04","19","19:00","0.6","","-3.6","","73","","32","","18","","","","100.56","","","","","","NA"
"2018-04-19 20:00","2018","04","19","20:00","-0.3","","-2.5","","85","","31","","20","","","","100.69","","","","-6","","NA"
"2018-04-19 21:00","2018","04","19","21:00","-0.5","","-2.9","","84","","30","","15","","","","100.72","","","","-5","","NA"
"2018-04-19 22:00","2018","04","19","22:00","-0.1","","-4.0","","75","","31","","19","","","","100.75","","","","-5","","NA"
"2018-04-19 23:00","2018","04","19","23:00","-0.1","","-4.4","","73","","30","","20","","","","100.77","","","","-5","","NA"
"2018-04-20 00:00","2018","04","20","00:00","-0.7","","-5.3","","71","","30","","15","","","","100.83","","","","-5","","NA"
"2018-04-20 01:00","2018","04","20","01:00","-0.5","","-5.2","","71","","29","","14","","","","100.85","","","","-5","","NA"
"2018-04-20 02:00","2018","04","20","02:00","0.0","","-5.7","","66","","32","","17","","","","100.91","","","","-5","","NA"
"2018-04-20 03:00","2018","04","20","03:00","-0.1","","-5.8","","65","","31","","17","","","","100.96","","","","-5","","NA"
"2018-04-20 04:00","2018","04","20","04:00","-0.3","","-6.0","","66","","31","","17","","","","101.01","","","","-5","","NA"
"2018-04-20 05:00","2018","04","20","05:00","-0.6","","-6.3","","65","","30","","16","","","","101.09","","","","-5","","NA"
"2018-04-20 06:00","2018","04","20","06:00","-0.4","","-5.9","","66","","31","","16","","","","101.19","","","","-5","","NA"
"2018-04-20 07:00","2018","04","20","07:00","-0.2","","-5.6","","67","","32","","19","","","","101.27","","","","-5","","NA"
"2018-04-20 08:00","2018","04","20","08:00","-0.1","","-5.3","","68","","33","","22","","","","101.36","","","","-6","","NA"
"2018-04-20 09:00","2018","04","20","09:00","0.4","","-4.7","","68","","31","","20","","","","101.43","","","","","","NA"
"2018-04-20 10:00","2018","04","20","10:00","1.4","","-5.0","","62","","31","","17","","","","101.48","","","","","","NA"
"2018-04-20 11:00","2018","04","20","11:00","3.9","","-3.2","","60","","32","","14","","","","101.48","","","","","","NA"
"2018-04-20 12:00","2018","04","20","12:00","5.3","","-2.8","","56","","30","","15","","","","101.47","","","","","","NA"
"2018-04-20 13:00","2018","04","20","13:00","7.1","","-2.3","","51","","32","","18","","","","101.45","","","","","","NA"
"2018-04-20 14:00","2018","04","20","14:00","5.5","","-1.5","","61","","18","","20","","","","101.41","","","","","","NA"
"2018-04-20 15:00","2018","04","20","15:00","8.4","","-4.1","","41","","32","","16","","","","101.43","","","","","","NA"
"2018-04-20 16:00","2018","04","20","16:00","9.1","","-4.2","","39","","31","","20","","","","101.45","","","","","","NA"
"2018-04-20 17:00","2018","04","20","17:00","9.5","","-4.4","","37","","31","","18","","","","101.48","","","","","","NA"
"2018-04-20 18:00","2018","04","20","18:00","8.8","","-5.2","","37","","31","","18","","","","101.49","","","","","","NA"
"2018-04-20 19:00","2018","04","20","19:00","5.1","","-1.0","","65","","23","","17","","","","101.53","","","","","","NA"
"2018-04-20 20:00","2018","04","20","20:00","3.6","","-0.5","","75","","24","","16","","","","101.60","","","","","","NA"
"2018-04-20 21:00","2018","04","20","21:00","2.8","","-1.1","","75","","24","","12","","","","101.63","","","","","","NA"
"2018-04-20 22:00","2018","04","20","22:00","2.4","","-1.9","","73","","25","","14","","","","101.65","","","","","","NA"
"2018-04-20 23:00","2018","04","20","23:00","1.7","","-3.3","","69","","28","","10","","","","101.65","","","","","","NA"
"2018-04-21 00:00","2018","04","21","00:00","1.2","","-3.1","","73","","26","","12","","","","101.70","","","","","","NA"
"2018-04-21 01:00","2018","04","21","01:00","0.7","","-4.0","","71","","31","","12","","","","101.73","","","","","","NA"
"2018-04-21 02:00","2018","04","21","02:00","-0.6","","-5.0","","72","","32","","14","","","","101.74","","","","-5","","NA"
"2018-04-21 03:00","2018","04","21","03:00","-0.7","","-5.5","","70","","32","","13","","","","101.75","","","","-5","","NA"
"2018-04-21 04:00","2018","04","21","04:00","-0.7","","-5.8","","69","","31","","12","","","","101.79","","","","-5","","NA"
"2018-04-21 05:00","2018","04","21","05:00","-1.2","","-6.1","","70","","31","","11","","","","101.79","","","","-5","","NA"
"2018-04-21 06:00","2018","04","21","06:00","-1.0","","-5.0","","74","","33","","11","","","","101.80","","","","-5","","NA"
"2018-04-21 07:00","2018","04","21","07:00","2.7","","-5.2","","56","","31","","10","","","","101.85","","","","","","NA"
"2018-04-21 08:00","2018","04","21","08:00","6.1","","-5.6","","43","","28","","7","","","","101.90","","","","","","NA"
"2018-04-21 09:00","2018","04","21","09:00","7.2","","-2.5","","50","","22","","9","","","","101.91","","","","","","NA"
"2018-04-21 10:00","2018","04","21","10:00","8.6","","-2.4","","46","","22","","17","","","","101.88","","","","","","NA"
"2018-04-21 11:00","2018","04","21","11:00","6.5","","0.6","","66","","19","","19","","","","101.81","","","","","","NA"
"2018-04-21 12:00","2018","04","21","12:00","6.2","","0.8","","68","","18","","22","","","","101.75","","","","","","NA"
"2018-04-21 13:00","2018","04","21","13:00","6.4","","2.4","","76","","17","","21","","","","101.70","","","","","","NA"
"2018-04-21 14:00","2018","04","21","14:00","6.9","","1.2","","67","","18","","25","","","","101.63","","","","","","NA"
"2018-04-21 15:00","2018","04","21","15:00","8.6","","1.9","","63","","19","","25","","","","101.55","","","","","","NA"
"2018-04-21 16:00","2018","04","21","16:00","11.1","","-1.0","","43","","21","","19","","","","101.51","","","","","","NA"
"2018-04-21 17:00","2018","04","21","17:00","10.3","","-0.9","","46","","22","","18","","","","101.52","","","","","","NA"
"2018-04-21 18:00","2018","04","21","18:00","9.1","","-2.3","","45","","25","","10","","","","101.55","","","","","","NA"
"2018-04-21 19:00","2018","04","21","19:00","6.7","","-1.5","","56","","24","","16","","","","101.57","","","","","","NA"
"2018-04-21 20:00","2018","04","21","20:00","5.4","","-1.2","","63","","26","","8","","","","101.62","","","","","","NA"
"2018-04-21 21:00","2018","04","21","21:00","5.1","","-2.7","","57","","27","","5","","","","101.65","","","","","","NA"
"2018-04-21 22:00","2018","04","21","22:00","2.3","","-1.1","","78","","31","","6","","","","101.68","","","","","","NA"
"2018-04-21 23:00","2018","04","21","23:00","1.2","","-2.3","","77","","4","","4","","","","101.70","","","","","","NA"
"2018-04-22 00:00","2018","04","22","00:00","-0.2","","-2.5","","84","","33","","4","","","","101.73","","","","-1","","NA"
"2018-04-22 01:00","2018","04","22","01:00","-0.2","","-2.4","","85","","33","","9","","","","101.72","","","","-3","","NA"
"2018-04-22 02:00","2018","04","22","02:00","0.6","","-4.7","","68","","33","","12","","","","101.72","","","","","","NA"
"2018-04-22 03:00","2018","04","22","03:00","1.1","","-4.2","","68","","33","","5","","","","101.71","","","","","","NA"
"2018-04-22 04:00","2018","04","22","04:00","-0.9","","-2.1","","92","","16","","3","","","","101.72","","","","-2","","NA"
"2018-04-22 05:00","2018","04","22","05:00","-2.1","","-2.9","","95","","10","","5","","","","101.77","","","","-4","","NA"
"2018-04-22 06:00","2018","04","22","06:00","-1.9","","-3.7","","88","","3","","6","","","","101.83","","","","-4","","NA"
"2018-04-22 07:00","2018","04","22","07:00","3.3","","-2.7","","65","","5","","7","","","","101.88","","","","","","NA"
"2018-04-22 08:00","2018","04","22","08:00","4.5","","0.1","","73","","12","","6","","","","101.93","","","","","","NA"
"2018-04-22 09:00","2018","04","22","09:00","6.4","","-0.4","","62","","16","","9","","","","101.95","","","","","","NA"
"2018-04-22 10:00","2018","04","22","10:00","5.7","","1.3","","73","","16","","13","","","","101.98","","","","","","NA"
"2018-04-22 11:00","2018","04","22","11:00","6.2","","2.6","","78","","18","","12","","","","101.99","","","","","","NA"
"2018-04-22 12:00","2018","04","22","12:00","7.2","","2.7","","73","","17","","14","","","","101.96","","","","","","NA"
"2018-04-22 13:00","2018","04","22","13:00","7.7","","0.3","","59","","17","","13","","","","101.91","","","","","","NA"
"2018-04-22 14:00","2018","04","22","14:00","8.3","","-2.9","","45","","17","","13","","","","101.85","","","","","","NA"
"2018-04-22 15:00","2018","04","22","15:00","7.0","","-1.3","","56","","16","","14","","","","101.79","","","","","","NA"
"2018-04-22 16:00","2018","04","22","16:00","6.9","","-1.7","","54","","18","","15","","","","101.76","","","","","","NA"
"2018-04-22 17:00","2018","04","22","17:00","10.1","","-4.3","","36","","21","","13","","","","101.74","","","","","","NA"
"2018-04-22 18:00","2018","04","22","18:00","8.9","","-4.1","","39","","23","","9","","","","101.74","","","","","","NA"
"2018-04-22 19:00","2018","04","22","19:00","7.2","","-5.6","","40","","24","","8","","","","101.78","","","","","","NA"
"2018-04-22 20:00","2018","04","22","20:00","5.6","","-7.4","","39","","24","","9","","","","101.82","","","","","","NA"
"2018-04-22 21:00","2018","04","22","21:00","4.3","","-6.0","","47","","26","","8","","","","101.83","","","","","","NA"
"2018-04-22 22:00","2018","04","22","22:00","2.3","","-7.8","","47","","27","","8","","","","101.85","","","","","","NA"
"2018-04-22 23:00","2018","04","22","23:00","3.8","","-4.7","","54","","32","","5","","","","101.85","","","","","","NA"
"2018-04-23 00:00","2018","04","23","00:00","2.5","","-4.2","","61","","13","","5","","","","101.86","","","","","","NA"
"2018-04-23 01:00","2018","04","23","01:00","1.5","","-3.5","","69","","5","","2","","","","101.86","","","","","","NA"
"2018-04-23 02:00","2018","04","23","02:00","0.3","","-2.5","","82","","","","0","","","","101.86","","","","","","NA"
"2018-04-23 03:00","2018","04","23","03:00","-0.7","","-2.1","","91","","1","","2","","","","101.87","","","","-1","","NA"
"2018-04-23 04:00","2018","04","23","04:00","-0.9","","-1.9","","93","","34","","6","","","","101.88","","","","-3","","NA"
"2018-04-23 05:00","2018","04","23","05:00"
"2018-04-23 06:00","2018","04","23","06:00"
"2018-04-23 07:00","2018","04","23","07:00"
"2018-04-23 08:00","2018","04","23","08:00"
"2018-04-23 09:00","2018","04","23","09:00"
"2018-04-23 10:00","2018","04","23","10:00"
"2018-04-23 11:00","2018","04","23","11:00"
"2018-04-23 12:00","2018","04","23","12:00"
"2018-04-23 13:00","2018","04","23","13:00"
"2018-04-23 14:00","2018","04","23","14:00"
"2018-04-23 15:00","2018","04","23","15:00"
"2018-04-23 16:00","2018","04","23","16:00"
"2018-04-23 17:00","2018","04","23","17:00"
"2018-04-23 18:00","2018","04","23","18:00"
"2018-04-23 19:00","2018","04","23","19:00"
"2018-04-23 20:00","2018","04","23","20:00"
"2018-04-23 21:00","2018","04","23","21:00"
"2018-04-23 22:00","2018","04","23","22:00"
"2018-04-23 23:00","2018","04","23","23:00"
"2018-04-24 00:00","2018","04","24","00:00"
"2018-04-24 01:00","2018","04","24","01:00"
"2018-04-24 02:00","2018","04","24","02:00"
"2018-04-24 03:00","2018","04","24","03:00"
"2018-04-24 04:00","2018","04","24","04:00"
"2018-04-24 05:00","2018","04","24","05:00"
"2018-04-24 06:00","2018","04","24","06:00"
"2018-04-24 07:00","2018","04","24","07:00"
"2018-04-24 08:00","2018","04","24","08:00"
"2018-04-24 09:00","2018","04","24","09:00"
"2018-04-24 10:00","2018","04","24","10:00"
"2018-04-24 11:00","2018","04","24","11:00"
"2018-04-24 12:00","2018","04","24","12:00"
"2018-04-24 13:00","2018","04","24","13:00"
"2018-04-24 14:00","2018","04","24","14:00"
"2018-04-24 15:00","2018","04","24","15:00"
"2018-04-24 16:00","2018","04","24","16:00"
"2018-04-24 17:00","2018","04","24","17:00"
"2018-04-24 18:00","2018","04","24","18:00"
"2018-04-24 19:00","2018","04","24","19:00"
"2018-04-24 20:00","2018","04","24","20:00"
"2018-04-24 21:00","2018","04","24","21:00"
"2018-04-24 22:00","2018","04","24","22:00"
"2018-04-24 23:00","2018","04","24","23:00"
"2018-04-25 00:00","2018","04","25","00:00"
"2018-04-25 01:00","2018","04","25","01:00"
"2018-04-25 02:00","2018","04","25","02:00"
"2018-04-25 03:00","2018","04","25","03:00"
"2018-04-25 04:00","2018","04","25","04:00"
"2018-04-25 05:00","2018","04","25","05:00"
"2018-04-25 06:00","2018","04","25","06:00"
"2018-04-25 07:00","2018","04","25","07:00"
"2018-04-25 08:00","2018","04","25","08:00"
"2018-04-25 09:00","2018","04","25","09:00"
"2018-04-25 10:00","2018","04","25","10:00"
"2018-04-25 11:00","2018","04","25","11:00"
"2018-04-25 12:00","2018","04","25","12:00"
"2018-04-25 13:00","2018","04","25","13:00"
"2018-04-25 14:00","2018","04","25","14:00"
"2018-04-25 15:00","2018","04","25","15:00"
"2018-04-25 16:00","2018","04","25","16:00"
"2018-04-25 17:00","2018","04","25","17:00"
"2018-04-25 18:00","2018","04","25","18:00"
"2018-04-25 19:00","2018","04","25","19:00"
"2018-04-25 20:00","2018","04","25","20:00"
"2018-04-25 21:00","2018","04","25","21:00"
"2018-04-25 22:00","2018","04","25","22:00"
"2018-04-25 23:00","2018","04","25","23:00"
"2018-04-26 00:00","2018","04","26","00:00"
"2018-04-26 01:00","2018","04","26","01:00"
"2018-04-26 02:00","2018","04","26","02:00"
"2018-04-26 03:00","2018","04","26","03:00"
"2018-04-26 04:00","2018","04","26","04:00"
"2018-04-26 05:00","2018","04","26","05:00"
"2018-04-26 06:00","2018","04","26","06:00"
"2018-04-26 07:00","2018","04","26","07:00"
"2018-04-26 08:00","2018","04","26","08:00"
"2018-04-26 09:00","2018","04","26","09:00"
"2018-04-26 10:00","2018","04","26","10:00"
"2018-04-26 11:00","2018","04","26","11:00"
"2018-04-26 12:00","2018","04","26","12:00"
"2018-04-26 13:00","2018","04","26","13:00"
"2018-04-26 14:00","2018","04","26","14:00","10.9","","7.9","","82","","26","","16","","","","99.66","","","","","","NA"
"2018-04-26 15:00","2018","04","26","15:00","9.5","","6.2","","80","","23","","30","","","","99.67","","","","","","NA"
"2018-04-26 16:00","2018","04","26","16:00","13.0","","7.2","","68","","26","","20","","","","99.70","","","","","","NA"
"2018-04-26 17:00","2018","04","26","17:00","10.2","","5.0","","70","","24","","22","","","","99.76","","","","","","NA"
"2018-04-26 18:00","2018","04","26","18:00","10.4","","4.3","","66","","23","","20","","","","99.77","","","","","","NA"
"2018-04-26 19:00","2018","04","26","19:00","7.2","","3.4","","77","","20","","12","","","","99.82","","","","","","NA"
"2018-04-26 20:00","2018","04","26","20:00","7.5","","2.5","","70","","22","","12","","","","99.90","","","","","","NA"
"2018-04-26 21:00","2018","04","26","21:00","6.2","","1.6","","72","","24","","13","","","","99.92","","","","","","NA"
"2018-04-26 22:00","2018","04","26","22:00","6.0","","1.5","","73","","24","","14","","","","99.94","","","","","","NA"
"2018-04-26 23:00","2018","04","26","23:00","4.7","","1.8","","81","","22","","13","","","","99.97","","","","","","NA"
"2018-04-27 00:00","2018","04","27","00:00","4.4","","0.8","","78","","22","","9","","","","99.94","","","","","","NA"
"2018-04-27 01:00","2018","04","27","01:00","2.8","","1.1","","89","","23","","6","","","","99.92","","","","","","NA"
"2018-04-27 02:00","2018","04","27","02:00","3.1","","1.8","","91","","20","","2","","","","99.85","","","","","","NA"
"2018-04-27 03:00","2018","04","27","03:00","2.5","","1.6","","94","","16","","4","","","","99.85","","","","","","NA"
"2018-04-27 04:00","2018","04","27","04:00","1.9","","1.5","","97","","11","","5","","","","99.85","","","","","","NA"
"2018-04-27 05:00","2018","04","27","05:00","2.7","","2.1","","95","","15","","9","","","","99.83","","","","","","NA"
"2018-04-27 06:00","2018","04","27","06:00","4.0","","2.7","","91","","18","","7","","","","99.93","","","","","","NA"
"2018-04-27 07:00","2018","04","27","07:00","4.7","","3.2","","90","","18","","7","","","","99.93","","","","","","NA"
"2018-04-27 08:00","2018","04","27","08:00"
"2018-04-27 09:00","2018","04","27","09:00"
"2018-04-27 10:00","2018","04","27","10:00"
"2018-04-27 11:00","2018","04","27","11:00","10.2","","3.7","","64","","18","","7","","","","99.75","","","","","","NA"
"2018-04-27 12:00","2018","04","27","12:00","11.7","","3.6","","57","","16","","6","","","","99.68","","","","","","NA"
"2018-04-27 13:00","2018","04","27","13:00","11.3","","2.3","","54","","16","","10","","","","99.68","","","","","","NA"
"2018-04-27 14:00","2018","04","27","14:00","12.2","","2.8","","53","","15","","8","","","","99.61","","","","","","NA"
"2018-04-27 15:00","2018","04","27","15:00","11.8","","3.5","","57","","15","","8","","","","99.55","","","","","","NA"
"2018-04-27 16:00","2018","04","27","16:00","12.2","","4.8","","60","","16","","6","","","","99.48","","","","","","NA"
"2018-04-27 17:00","2018","04","27","17:00","12.4","","5.1","","61","","17","","6","","","","99.48","","","","","","NA"
"2018-04-27 18:00","2018","04","27","18:00","11.9","","5.0","","63","","13","","3","","","","99.44","","","","","","NA"
"2018-04-27 19:00","2018","04","27","19:00","10.6","","4.9","","68","","13","","1","","","","99.42","","","","","","NA"
"2018-04-27 20:00","2018","04","27","20:00","9.6","","5.4","","75","","36","","5","","","","99.42","","","","","","NA"
"2018-04-27 21:00","2018","04","27","21:00","9.1","","5.0","","75","","5","","4","","","","99.41","","","","","","NA"
"2018-04-27 22:00","2018","04","27","22:00","8.9","","4.6","","75","","5","","6","","","","99.37","","","","","","NA"
"2018-04-27 23:00","2018","04","27","23:00","8.0","","5.5","","84","","5","","3","","","","99.36","","","","","","NA"
"2018-04-28 00:00","2018","04","28","00:00","10.4","","6.8","","78","","14","","10","","","","99.35","","","","","","NA"
"2018-04-28 01:00","2018","04","28","01:00","9.4","","6.4","","81","","23","","8","","","","99.34","","","","","","NA"
"2018-04-28 02:00","2018","04","28","02:00","8.1","","6.1","","87","","15","","10","","","","99.28","","","","","","NA"
"2018-04-28 03:00","2018","04","28","03:00","6.3","","5.7","","96","","17","","8","","","","99.30","","","","","","NA"
"2018-04-28 04:00","2018","04","28","04:00","6.3","","5.7","","96","","22","","19","","","","99.37","","","","","","NA"
"2018-04-28 05:00","2018","04","28","05:00","7.4","","6.5","","94","","28","","7","","","","99.38","","","","","","NA"
"2018-04-28 06:00","2018","04","28","06:00","5.5","","4.9","","95","","18","","8","","","","99.43","","","","","","NA"
"2018-04-28 07:00","2018","04","28","07:00","6.2","","4.8","","91","","23","","12","","","","99.56","","","","","","NA"
"2018-04-28 08:00","2018","04","28","08:00","8.1","","5.8","","86","","20","","5","","","","99.60","","","","","","NA"
"2018-04-28 09:00","2018","04","28","09:00","5.5","","4.4","","93","","15","","19","","","","99.65","","","","","","NA"
"2018-04-28 10:00","2018","04","28","10:00","5.1","","3.9","","92","","18","","12","","","","99.67","","","","","","NA"
"2018-04-28 11:00","2018","04","28","11:00","6.5","","4.4","","86","","14","","9","","","","99.67","","","","","","NA"
"2018-04-28 12:00","2018","04","28","12:00","4.8","","3.7","","93","","17","","15","","","","99.72","","","","","","NA"
"2018-04-28 13:00","2018","04","28","13:00","8.5","","7.6","","94","","24","","12","","","","99.75","","","","","","NA"
"2018-04-28 14:00","2018","04","28","14:00","10.0","","7.4","","84","","25","","10","","","","99.75","","","","","","NA"
"2018-04-28 15:00","2018","04","28","15:00","9.9","","7.4","","84","","24","","10","","","","99.79","","","","","","NA"
"2018-04-28 16:00","2018","04","28","16:00","9.0","","6.9","","87","","24","","12","","","","99.85","","","","","","NA"
"2018-04-28 17:00","2018","04","28","17:00","7.8","","6.1","","89","","23","","13","","","","99.94","","","","","","NA"
"2018-04-28 18:00","2018","04","28","18:00","6.4","","5.9","","96","","21","","9","","","","99.97","","","","","","NA"
"2018-04-28 19:00","2018","04","28","19:00","6.7","","5.6","","93","","26","","14","","","","100.02","","","","","","NA"
"2018-04-28 20:00","2018","04","28","20:00","6.9","","5.7","","92","","2","","14","","","","100.13","","","","","","NA"
"2018-04-28 21:00","2018","04","28","21:00","5.6","","4.6","","93","","36","","20","","","","100.21","","","","","","NA"
"2018-04-28 22:00","2018","04","28","22:00","5.4","","4.4","","93","","35","","17","","","","100.22","","","","","","NA"
"2018-04-28 23:00","2018","04","28","23:00","5.3","","4.2","","93","","34","","16","","","","100.28","","","","","","NA"
"2018-04-29 00:00","2018","04","29","00:00","4.9","","3.8","","93","","35","","18","","","","100.30","","","","","","NA"
"2018-04-29 01:00","2018","04","29","01:00","4.4","","3.4","","93","","34","","17","","","","100.29","","","","","","NA"
"2018-04-29 02:00","2018","04","29","02:00","3.9","","2.9","","93","","34","","15","","","","100.30","","","","","","NA"
"2018-04-29 03:00","2018","04","29","03:00","3.5","","2.6","","94","","34","","17","","","","100.32","","","","","","NA"
"2018-04-29 04:00","2018","04","29","04:00","3.3","","2.4","","94","","33","","14","","","","100.32","","","","","","NA"
"2018-04-29 05:00","2018","04","29","05:00","2.6","","1.4","","92","","34","","20","","","","100.36","","","","","","NA"
"2018-04-29 06:00","2018","04","29","06:00","2.0","","1.0","","93","","33","","16","","","","100.44","","","","","","NA"
"2018-04-29 07:00","2018","04","29","07:00","3.3","","0.1","","80","","33","","15","","","","100.49","","","","","","NA"
"2018-04-29 08:00","2018","04","29","08:00","3.3","","-0.5","","76","","33","","21","","","","100.51","","","","","","NA"
"2018-04-29 09:00","2018","04","29","09:00","4.2","","-1.9","","65","","33","","22","","","","100.50","","","","","","NA"
"2018-04-29 10:00","2018","04","29","10:00","6.5","","-0.6","","60","","32","","21","","","","100.48","","","","","","NA"
"2018-04-29 11:00","2018","04","29","11:00","7.7","","0.4","","60","","34","","21","","","","100.49","","","","","","NA"
"2018-04-29 12:00","2018","04","29","12:00","7.2","","-0.5","","58","","32","","16","","","","100.47","","","","","","NA"
"2018-04-29 13:00","2018","04","29","13:00","7.7","","2.2","","68","","33","","22","","","","100.47","","","","","","NA"
"2018-04-29 14:00","2018","04","29","14:00","6.3","","1.1","","70","","33","","19","","","","100.50","","","","","","NA"
"2018-04-29 15:00","2018","04","29","15:00","7.7","","0.8","","62","","31","","17","","","","100.44","","","","","","NA"
"2018-04-29 16:00","2018","04","29","16:00","6.1","","1.8","","74","","35","","19","","","","100.53","","","","","","NA"
"2018-04-29 17:00","2018","04","29","17:00","6.2","","2.0","","74","","36","","9","","","","100.51","","","","","","NA"
"2018-04-29 18:00","2018","04","29","18:00","6.2","","2.1","","75","","32","","6","","","","100.52","","","","","","NA"
"2018-04-29 19:00","2018","04","29","19:00","4.7","","2.8","","88","","20","","14","","","","100.53","","","","","","NA"
"2018-04-29 20:00","2018","04","29","20:00","4.7","","2.6","","86","","21","","15","","","","100.55","","","","","","NA"
"2018-04-29 21:00","2018","04","29","21:00","4.6","","2.9","","89","","23","","17","","","","100.52","","","","","","NA"
"2018-04-29 22:00","2018","04","29","22:00","5.0","","2.7","","85","","31","","5","","","","100.54","","","","","","NA"
"2018-04-29 23:00","2018","04","29","23:00","6.8","","-1.6","","55","","36","","28","","","","100.59","","","","","","NA"
"2018-04-30 00:00","2018","04","30","00:00","6.8","","-4.0","","46","","29","","18","","","","100.52","","","","","","NA"
"2018-04-30 01:00","2018","04","30","01:00","6.5","","-5.2","","43","","30","","21","","","","100.48","","","","","","NA"
"2018-04-30 02:00","2018","04","30","02:00","6.2","","-5.3","","44","","31","","14","","","","100.45","","","","","","NA"
"2018-04-30 03:00","2018","04","30","03:00","6.3","","-6.1","","41","","32","","14","","","","100.47","","","","","","NA"
"2018-04-30 04:00","2018","04","30","04:00","6.4","","-6.3","","40","","31","","16","","","","100.46","","","","","","NA"
"2018-04-30 05:00","2018","04","30","05:00","6.5","","-6.3","","39","","31","","19","","","","100.50","","","","","","NA"
"2018-04-30 06:00","2018","04","30","06:00","6.8","","-6.5","","38","","32","","22","","","","100.54","","","","","","NA"
"2018-04-30 07:00","2018","04","30","07:00","7.6","","-5.1","","40","","33","","20","","","","100.57","","","","","","NA"
"2018-04-30 08:00","2018","04","30","08:00","9.1","","-4.2","","39","","33","","21","","","","100.57","","","","","","NA"
"2018-04-30 09:00","2018","04","30","09:00","11.1","","-2.3","","39","","33","","22","","","","100.58","","","","","","NA"
"2018-04-30 10:00","2018","04","30","10:00","13.9","","-0.5","","37","","34","","28","","","","100.56","","","","","","NA"
"2018-04-30 11:00","2018","04","30","11:00","15.4","","1.3","","38","","33","","30","","","","100.54","","","","","","NA"
"2018-04-30 12:00","2018","04","30","12:00","16.7","","1.4","","36","","32","","26","","","","100.45","","","","","","NA"
"2018-04-30 13:00","2018","04","30","13:00","17.2","","1.8","","35","","35","","20","","","","100.42","","","","","","NA"
"2018-04-30 14:00","2018","04","30","14:00","17.0","","0.2","","32","","34","","28","","","","100.38","","","","","","NA"
"2018-04-30 15:00","2018","04","30","15:00","18.4","","-1.1","","27","","35","","22","","","","100.35","","","","","","NA"
"2018-04-30 16:00","2018","04","30","16:00","18.7","","-2.2","","24","","34","","25","","","","100.35","","","","","","NA"
"2018-04-30 17:00","2018","04","30","17:00","14.4","","4.8","","52","","7","","20","","","","100.36","","","","","","NA"
"2018-04-30 18:00","2018","04","30","18:00","12.3","","5.4","","62","","9","","18","","","","100.45","","","","","","NA"
"2018-04-30 19:00","2018","04","30","19:00","10.1","","4.4","","68","","11","","14","","","","100.49","","","","","","NA"
"2018-04-30 20:00","2018","04","30","20:00","8.4","","4.4","","76","","9","","6","","","","100.49","","","","","","NA"
"2018-04-30 21:00","2018","04","30","21:00","7.6","","3.3","","74","","16","","5","","","","100.52","","","","","","NA"
"2018-04-30 22:00","2018","04","30","22:00","6.0","","2.1","","76","","7","","11","","","","100.53","","","","","","NA"
"2018-04-30 23:00","2018","04","30","23:00","5.5","","1.6","","76","","26","","7","","","","100.48","","","","","","NA"
