"Station Name","KINGSTON CLIMATE"
"Province","ONTARIO"
"Latitude","44.22"
"Longitude","-76.60"
"Elevation","93.00"
"Climate Identifier","6104142"
"WMO Identifier","71820"
"TC Identifier","TKG"
"All times are specified in Local Standard Time (LST). Add 1 hour to adjust for Daylight Saving Time where and when it is observed."

"Legend"
"E","Estimated"
"M","Missing"
"NA","Not Available"

"Date/Time","Year","Month","Day","Time","Temp (°C)","Temp Flag","Dew Point Temp (°C)","Dew Point Temp Flag","Rel Hum (%)","Rel Hum Flag","Wind Dir (10s deg)","Wind Dir Flag","Wind Spd (km/h)","Wind Spd Flag","Visibility (km)","Visibility Flag","Stn Press (kPa)","Stn Press Flag","Hmdx","Hmdx Flag","Wind Chill","Wind Chill Flag","Weather"
"2015-11-01 00:00","2015","11","01","00:00","8.1","","4.9","","80","","12","","15","","","","99.98","","","","","","NA"
"2015-11-01 01:00","2015","11","01","01:00","9.8","","4.6","","70","","15","","31","","","","99.85","","","","","","NA"
"2015-11-01 02:00","2015","11","01","02:00","9.9","","4.8","","70","","16","","32","","","","99.74","","","","","","NA"
"2015-11-01 03:00","2015","11","01","03:00","9.6","","5.9","","78","","18","","37","","","","99.61","","","","","","NA"
"2015-11-01 04:00","2015","11","01","04:00","9.6","","6.8","","82","","18","","39","","","","99.54","","","","","","NA"
"2015-11-01 05:00","2015","11","01","05:00","9.4","","7.3","","87","","17","","39","","","","99.41","","","","","","NA"
"2015-11-01 06:00","2015","11","01","06:00","9.7","","7.8","","88","","18","","39","","","","99.34","","","","","","NA"
"2015-11-01 07:00","2015","11","01","07:00","9.8","","8.0","","89","","19","","44","","","","99.30","","","","","","NA"
"2015-11-01 08:00","2015","11","01","08:00","10.5","","8.6","","88","","19","","40","","","","99.33","","","","","","NA"
"2015-11-01 09:00","2015","11","01","09:00","10.9","","8.7","","86","","20","","35","","","","99.34","","","","","","NA"
"2015-11-01 10:00","2015","11","01","10:00","11.3","","9.2","","87","","20","","27","","","","99.31","","","","","","NA"
"2015-11-01 11:00","2015","11","01","11:00","12.8","","9.5","","80","","23","","31","","","","99.31","","","","","","NA"
"2015-11-01 12:00","2015","11","01","12:00","13.8","","9.2","","74","","23","","34","","","","99.33","","","","","","NA"
"2015-11-01 13:00","2015","11","01","13:00","13.7","","7.3","","65","","24","","33","","","","99.33","","","","","","NA"
"2015-11-01 14:00","2015","11","01","14:00","12.8","","6.6","","66","","25","","39","","","","99.40","","","","","","NA"
"2015-11-01 15:00","2015","11","01","15:00","13.2","","6.6","","64","","25","","37","","","","99.51","","","","","","NA"
"2015-11-01 16:00","2015","11","01","16:00","12.1","","6.6","","69","","27","","24","","","","99.66","","","","","","NA"
"2015-11-01 17:00","2015","11","01","17:00","10.8","","5.8","","71","","26","","20","","","","99.78","","","","","","NA"
"2015-11-01 18:00","2015","11","01","18:00","10.6","","6.2","","74","","24","","15","","","","99.86","","","","","","NA"
"2015-11-01 19:00","2015","11","01","19:00","10.7","","6.0","","73","","25","","16","","","","99.94","","","","","","NA"
"2015-11-01 20:00","2015","11","01","20:00","10.0","","6.1","","77","","22","","13","","","","100.01","","","","","","NA"
"2015-11-01 21:00","2015","11","01","21:00","10.2","","6.0","","75","","23","","17","","","","100.07","","","","","","NA"
"2015-11-01 22:00","2015","11","01","22:00","9.8","","6.0","","78","","22","","13","","","","100.16","","","","","","NA"
"2015-11-01 23:00","2015","11","01","23:00","10.5","","5.9","","73","","24","","17","","","","100.23","","","","","","NA"
"2015-11-02 00:00","2015","11","02","00:00","10.3","","5.2","","70","","25","","18","","","","100.28","","","","","","NA"
"2015-11-02 01:00","2015","11","02","01:00","9.7","","5.0","","72","","24","","13","","","","100.27","","","","","","NA"
"2015-11-02 02:00","2015","11","02","02:00","9.5","","5.4","","76","","25","","14","","","","100.33","","","","","","NA"
"2015-11-02 03:00","2015","11","02","03:00","9.0","","4.6","","74","","26","","14","","","","100.40","","","","","","NA"
"2015-11-02 04:00","2015","11","02","04:00","8.0","","4.4","","78","","26","","13","","","","100.44","","","","","","NA"
"2015-11-02 05:00","2015","11","02","05:00","7.3","","4.1","","80","","26","","13","","","","100.50","","","","","","NA"
"2015-11-02 06:00","2015","11","02","06:00","7.0","","4.1","","82","","26","","14","","","","100.58","","","","","","NA"
"2015-11-02 07:00","2015","11","02","07:00","6.6","","4.1","","84","","28","","10","","","","100.66","","","","","","NA"
"2015-11-02 08:00","2015","11","02","08:00","8.4","","5.1","","80","","27","","13","","","","100.73","","","","","","NA"
"2015-11-02 09:00","2015","11","02","09:00","9.4","","5.5","","77","","29","","13","","","","100.77","","","","","","NA"
"2015-11-02 10:00","2015","11","02","10:00","11.3","","5.7","","68","","27","","14","","","","100.74","","","","","","NA"
"2015-11-02 11:00","2015","11","02","11:00","12.2","","4.5","","59","","27","","15","","","","100.76","","","","","","NA"
"2015-11-02 12:00","2015","11","02","12:00","12.0","","3.6","","56","","29","","15","","","","100.75","","","","","","NA"
"2015-11-02 13:00","2015","11","02","13:00","12.9","","4.1","","55","","30","","9","","","","100.68","","","","","","NA"
"2015-11-02 14:00","2015","11","02","14:00","13.6","","4.9","","56","","23","","10","","","","100.67","","","","","","NA"
"2015-11-02 15:00","2015","11","02","15:00","11.7","","7.7","","77","","19","","20","","","","100.71","","","","","","NA"
"2015-11-02 16:00","2015","11","02","16:00","10.9","","7.5","","80","","19","","19","","","","100.69","","","","","","NA"
"2015-11-02 17:00","2015","11","02","17:00","10.7","","7.9","","83","","20","","20","","","","100.73","","","","","","NA"
"2015-11-02 18:00","2015","11","02","18:00","10.4","","7.8","","84","","19","","16","","","","100.77","","","","","","NA"
"2015-11-02 19:00","2015","11","02","19:00","10.4","","7.8","","84","","20","","11","","","","100.78","","","","","","NA"
"2015-11-02 20:00","2015","11","02","20:00","10.2","","6.8","","79","","18","","9","","","","100.79","","","","","","NA"
"2015-11-02 21:00","2015","11","02","21:00","10.1","","7.5","","84","","17","","10","","","","100.76","","","","","","NA"
"2015-11-02 22:00","2015","11","02","22:00","10.6","","7.5","","81","","17","","9","","","","100.72","","","","","","NA"
"2015-11-02 23:00","2015","11","02","23:00","10.8","","7.6","","81","","18","","13","","","","100.66","","","","","","NA"
"2015-11-03 00:00","2015","11","03","00:00","10.6","","7.6","","82","","18","","14","","","","100.63","","","","","","NA"
"2015-11-03 01:00","2015","11","03","01:00","10.5","","7.5","","82","","18","","17","","","","100.60","","","","","","NA"
"2015-11-03 02:00","2015","11","03","02:00","10.5","","7.5","","82","","18","","16","","","","100.58","","","","","","NA"
"2015-11-03 03:00","2015","11","03","03:00","10.1","","7.8","","86","","20","","14","","","","100.58","","","","","","NA"
"2015-11-03 04:00","2015","11","03","04:00","10.0","","7.8","","86","","20","","13","","","","100.61","","","","","","NA"
"2015-11-03 05:00","2015","11","03","05:00","10.1","","7.4","","83","","21","","15","","","","100.62","","","","","","NA"
"2015-11-03 06:00","2015","11","03","06:00","9.6","","6.8","","83","","21","","13","","","","100.64","","","","","","NA"
"2015-11-03 07:00","2015","11","03","07:00","9.3","","7.1","","87","","22","","7","","","","100.73","","","","","","NA"
"2015-11-03 08:00","2015","11","03","08:00","11.0","","7.9","","81","","22","","7","","","","100.79","","","","","","NA"
"2015-11-03 09:00","2015","11","03","09:00","12.6","","8.7","","77","","23","","12","","","","100.87","","","","","","NA"
"2015-11-03 10:00","2015","11","03","10:00","14.9","","8.8","","67","","26","","13","","","","100.91","","","","","","NA"
"2015-11-03 11:00","2015","11","03","11:00","16.4","","8.9","","61","","27","","14","","","","100.94","","","","","","NA"
"2015-11-03 12:00","2015","11","03","12:00","16.0","","9.1","","63","","22","","15","","","","100.95","","","","","","NA"
"2015-11-03 13:00","2015","11","03","13:00","17.4","","9.7","","60","","22","","14","","","","100.93","","","","","","NA"
"2015-11-03 14:00","2015","11","03","14:00","18.1","","9.7","","58","","23","","15","","","","100.94","","","","","","NA"
"2015-11-03 15:00","2015","11","03","15:00","14.5","","10.4","","77","","19","","13","","","","100.99","","","","","","NA"
"2015-11-03 16:00","2015","11","03","16:00","14.3","","10.2","","77","","19","","9","","","","101.05","","","","","","NA"
"2015-11-03 17:00","2015","11","03","17:00","12.4","","9.4","","82","","19","","11","","","","101.12","","","","","","NA"
"2015-11-03 18:00","2015","11","03","18:00","10.9","","8.9","","88","","14","","7","","","","101.20","","","","","","NA"
"2015-11-03 19:00","2015","11","03","19:00","10.1","","8.3","","89","","13","","7","","","","101.27","","","","","","NA"
"2015-11-03 20:00","2015","11","03","20:00","9.9","","8.9","","94","","4","","15","","","","101.34","","","","","","NA"
"2015-11-03 21:00","2015","11","03","21:00","10.4","","7.1","","80","","4","","16","","","","101.41","","","","","","NA"
"2015-11-03 22:00","2015","11","03","22:00","9.6","","6.4","","81","","5","","15","","","","101.45","","","","","","NA"
"2015-11-03 23:00","2015","11","03","23:00","9.1","","6.2","","82","","5","","17","","","","101.43","","","","","","NA"
"2015-11-04 00:00","2015","11","04","00:00","8.3","","5.8","","84","","5","","13","","","","101.44","","","","","","NA"
"2015-11-04 01:00","2015","11","04","01:00","8.3","","5.8","","84","","5","","12","","","","101.43","","","","","","NA"
"2015-11-04 02:00","2015","11","04","02:00","8.0","","5.5","","84","","5","","14","","","","101.44","","","","","","NA"
"2015-11-04 03:00","2015","11","04","03:00","7.5","","4.8","","83","","6","","12","","","","101.45","","","","","","NA"
"2015-11-04 04:00","2015","11","04","04:00","7.6","","4.7","","82","","5","","11","","","","101.46","","","","","","NA"
"2015-11-04 05:00","2015","11","04","05:00","7.1","","4.5","","84","","4","","12","","","","101.47","","","","","","NA"
"2015-11-04 06:00","2015","11","04","06:00","7.0","","4.7","","85","","5","","13","","","","101.47","","","","","","NA"
"2015-11-04 07:00","2015","11","04","07:00","6.9","","4.8","","86","","4","","13","","","","101.46","","","","","","NA"
"2015-11-04 08:00","2015","11","04","08:00","8.1","","5.6","","84","","5","","12","","","","101.46","","","","","","NA"
"2015-11-04 09:00","2015","11","04","09:00","10.4","","6.9","","79","","5","","10","","","","101.45","","","","","","NA"
"2015-11-04 10:00","2015","11","04","10:00","13.0","","7.9","","71","","6","","8","","","","101.42","","","","","","NA"
"2015-11-04 11:00","2015","11","04","11:00","15.4","","7.8","","61","","16","","6","","","","101.40","","","","","","NA"
"2015-11-04 12:00","2015","11","04","12:00","16.4","","8.3","","59","","14","","6","","","","101.32","","","","","","NA"
"2015-11-04 13:00","2015","11","04","13:00","17.2","","8.2","","55","","12","","10","","","","101.22","","","","","","NA"
"2015-11-04 14:00","2015","11","04","14:00","18.1","","8.5","","53","","13","","8","","","","101.17","","","","","","NA"
"2015-11-04 15:00","2015","11","04","15:00","17.9","","8.4","","54","","16","","6","","","","101.12","","","","","","NA"
"2015-11-04 16:00","2015","11","04","16:00","17.0","","8.1","","56","","18","","5","","","","101.06","","","","","","NA"
"2015-11-04 17:00","2015","11","04","17:00","14.0","","7.3","","64","","24","","3","","","","101.04","","","","","","NA"
"2015-11-04 18:00","2015","11","04","18:00","12.8","","7.4","","69","","20","","3","","","","101.04","","","","","","NA"
"2015-11-04 19:00","2015","11","04","19:00","11.0","","6.5","","74","","20","","3","","","","101.02","","","","","","NA"
"2015-11-04 20:00","2015","11","04","20:00","10.0","","6.9","","81","","0","","1","","","","101.00","","","","","","NA"
"2015-11-04 21:00","2015","11","04","21:00","9.3","","6.2","","81","","35","","7","","","","100.99","","","","","","NA"
"2015-11-04 22:00","2015","11","04","22:00","8.4","","6.2","","86","","5","","5","","","","101.00","","","","","","NA"
"2015-11-04 23:00","2015","11","04","23:00","8.4","","6.3","","87","","","","0","","","","100.97","","","","","","NA"
"2015-11-05 00:00","2015","11","05","00:00","7.9","","6.1","","88","","8","","4","","","","100.98","","","","","","NA"
"2015-11-05 01:00","2015","11","05","01:00","10.1","","7.8","","86","","14","","4","","","","100.98","","","","","","NA"
"2015-11-05 02:00","2015","11","05","02:00","11.3","","9.1","","86","","17","","9","","","","100.99","","","","","","NA"
"2015-11-05 03:00","2015","11","05","03:00","10.7","","9.0","","90","","17","","6","","","","100.97","","","","","","NA"
"2015-11-05 04:00","2015","11","05","04:00","10.8","","8.9","","88","","16","","5","","","","100.97","","","","","","NA"
"2015-11-05 05:00","2015","11","05","05:00","11.9","","9.3","","84","","15","","14","","","","100.96","","","","","","NA"
"2015-11-05 06:00","2015","11","05","06:00","12.1","","9.2","","82","","16","","16","","","","100.97","","","","","","NA"
"2015-11-05 07:00","2015","11","05","07:00","12.1","","9.5","","84","","15","","10","","","","100.98","","","","","","NA"
"2015-11-05 08:00","2015","11","05","08:00","12.5","","9.5","","82","","17","","8","","","","101.01","","","","","","NA"
"2015-11-05 09:00","2015","11","05","09:00","13.3","","9.4","","78","","18","","10","","","","100.99","","","","","","NA"
"2015-11-05 10:00","2015","11","05","10:00","13.7","","8.7","","72","","21","","13","","","","100.99","","","","","","NA"
"2015-11-05 11:00","2015","11","05","11:00","14.2","","9.4","","73","","19","","11","","","","100.97","","","","","","NA"
"2015-11-05 12:00","2015","11","05","12:00","13.9","","9.7","","76","","19","","13","","","","100.88","","","","","","NA"
"2015-11-05 13:00","2015","11","05","13:00","13.5","","10.1","","80","","16","","10","","","","100.79","","","","","","NA"
"2015-11-05 14:00","2015","11","05","14:00","14.3","","9.9","","75","","19","","11","","","","100.74","","","","","","NA"
"2015-11-05 15:00","2015","11","05","15:00","15.0","","9.7","","70","","18","","11","","","","100.71","","","","","","NA"
"2015-11-05 16:00","2015","11","05","16:00","13.5","","9.9","","79","","17","","8","","","","100.65","","","","","","NA"
"2015-11-05 17:00","2015","11","05","17:00","12.8","","9.5","","81","","15","","8","","","","100.55","","","","","","NA"
"2015-11-05 18:00","2015","11","05","18:00","12.2","","9.6","","84","","19","","3","","","","100.57","","","","","","NA"
"2015-11-05 19:00","2015","11","05","19:00","11.5","","9.3","","86","","21","","3","","","","100.60","","","","","","NA"
"2015-11-05 20:00","2015","11","05","20:00","13.5","","9.3","","76","","14","","7","","","","100.48","","","","","","NA"
"2015-11-05 21:00","2015","11","05","21:00","13.4","","9.8","","79","","18","","2","","","","100.48","","","","","","NA"
"2015-11-05 22:00","2015","11","05","22:00","14.6","","10.5","","76","","19","","17","","","","100.47","","","","","","NA"
"2015-11-05 23:00","2015","11","05","23:00","14.2","","10.5","","78","","20","","12","","","","100.41","","","","","","NA"
"2015-11-06 00:00","2015","11","06","00:00","14.0","","10.5","","79","","19","","10","","","","100.32","","","","","","NA"
"2015-11-06 01:00","2015","11","06","01:00","14.1","","10.9","","81","","16","","9","","","","100.21","","","","","","NA"
"2015-11-06 02:00","2015","11","06","02:00","14.3","","11.0","","81","","19","","16","","","","100.15","","","","","","NA"
"2015-11-06 03:00","2015","11","06","03:00","13.8","","10.8","","82","","18","","12","","","","100.03","","","","","","NA"
"2015-11-06 04:00","2015","11","06","04:00","13.7","","11.0","","84","","28","","4","","","","100.01","","","","","","NA"
"2015-11-06 05:00","2015","11","06","05:00","14.0","","11.2","","83","","19","","10","","","","99.90","","","","","","NA"
"2015-11-06 06:00","2015","11","06","06:00","13.7","","11.1","","84","","17","","5","","","","99.76","","","","","","NA"
"2015-11-06 07:00","2015","11","06","07:00","14.0","","11.4","","84","","18","","21","","","","99.61","","","","","","NA"
"2015-11-06 08:00","2015","11","06","08:00","14.5","","11.9","","84","","19","","30","","","","99.56","","","","","","NA"
"2015-11-06 09:00","2015","11","06","09:00","14.9","","12.1","","83","","18","","31","","","","99.43","","","","","","NA"
"2015-11-06 10:00","2015","11","06","10:00","15.4","","12.7","","84","","17","","43","","","","99.19","","","","","","NA"
"2015-11-06 11:00","2015","11","06","11:00","14.6","","12.6","","88","","19","","34","","","","99.28","","","","","","NA"
"2015-11-06 12:00","2015","11","06","12:00","14.9","","13.0","","89","","20","","32","","","","99.24","","","","","","NA"
"2015-11-06 13:00","2015","11","06","13:00","16.3","","13.0","","81","","24","","31","","","","99.26","","","","","","NA"
"2015-11-06 14:00","2015","11","06","14:00","15.7","","11.8","","78","","24","","25","","","","99.31","","","","","","NA"
"2015-11-06 15:00","2015","11","06","15:00","16.3","","11.1","","71","","23","","25","","","","99.44","","","","","","NA"
"2015-11-06 16:00","2015","11","06","16:00","16.1","","10.5","","69","","22","","24","","","","99.53","","","","","","NA"
"2015-11-06 17:00","2015","11","06","17:00","15.1","","9.6","","70","","23","","27","","","","99.64","","","","","","NA"
"2015-11-06 18:00","2015","11","06","18:00","14.7","","8.0","","64","","28","","23","","","","99.83","","","","","","NA"
"2015-11-06 19:00","2015","11","06","19:00","12.9","","6.9","","67","","28","","18","","","","99.97","","","","","","NA"
"2015-11-06 20:00","2015","11","06","20:00","11.7","","6.5","","70","","28","","19","","","","100.04","","","","","","NA"
"2015-11-06 21:00","2015","11","06","21:00","11.1","","5.9","","70","","29","","19","","","","100.12","","","","","","NA"
"2015-11-06 22:00","2015","11","06","22:00"
"2015-11-06 23:00","2015","11","06","23:00","10.3","","5.1","","70","","29","","21","","","","100.22","","","","","","NA"
"2015-11-07 00:00","2015","11","07","00:00","10.0","","5.3","","73","","28","","13","","","","100.30","","","","","","NA"
"2015-11-07 01:00","2015","11","07","01:00","9.8","","4.4","","69","","25","","14","","","","100.27","","","","","","NA"
"2015-11-07 02:00","2015","11","07","02:00","9.4","","4.1","","69","","27","","15","","","","100.34","","","","","","NA"
"2015-11-07 03:00","2015","11","07","03:00","9.1","","3.7","","69","","28","","17","","","","100.36","","","","","","NA"
"2015-11-07 04:00","2015","11","07","04:00","8.2","","2.6","","68","","29","","17","","","","100.39","","","","","","NA"
"2015-11-07 05:00","2015","11","07","05:00","7.9","","2.3","","68","","28","","18","","","","100.48","","","","","","NA"
"2015-11-07 06:00","2015","11","07","06:00","6.6","","2.0","","73","","28","","14","","","","100.51","","","","","","NA"
"2015-11-07 07:00","2015","11","07","07:00","5.7","","1.8","","76","","26","","10","","","","100.60","","","","","","NA"
"2015-11-07 08:00","2015","11","07","08:00","6.5","","2.1","","74","","25","","9","","","","100.67","","","","","","NA"
"2015-11-07 09:00","2015","11","07","09:00","8.0","","2.8","","70","","27","","12","","","","100.70","","","","","","NA"
"2015-11-07 10:00","2015","11","07","10:00","9.2","","2.9","","65","","27","","16","","","","100.68","","","","","","NA"
"2015-11-07 11:00","2015","11","07","11:00","10.5","","1.8","","55","","25","","16","","","","100.65","","","","","","NA"
"2015-11-07 12:00","2015","11","07","12:00","10.4","","1.6","","55","","25","","17","","","","100.56","","","","","","NA"
"2015-11-07 13:00","2015","11","07","13:00","10.5","","1.2","","52","","25","","15","","","","100.50","","","","","","NA"
"2015-11-07 14:00","2015","11","07","14:00","10.8","","1.9","","54","","24","","23","","","","100.46","","","","","","NA"
"2015-11-07 15:00","2015","11","07","15:00","8.4","","3.1","","69","","28","","14","","","","100.46","","","","","","NA"
"2015-11-07 16:00","2015","11","07","16:00","7.6","","3.7","","77","","28","","21","","","","100.52","","","","","","NA"
"2015-11-07 17:00","2015","11","07","17:00","7.4","","3.0","","74","","26","","16","","","","100.55","","","","","","NA"
"2015-11-07 18:00","2015","11","07","18:00","6.9","","2.8","","75","","26","","13","","","","100.63","","","","","","NA"
"2015-11-07 19:00","2015","11","07","19:00","6.6","","2.7","","76","","27","","15","","","","100.70","","","","","","NA"
"2015-11-07 20:00","2015","11","07","20:00","5.6","","2.1","","78","","28","","10","","","","100.79","","","","","","NA"
"2015-11-07 21:00","2015","11","07","21:00","5.1","","1.9","","80","","28","","17","","","","100.87","","","","","","NA"
"2015-11-07 22:00","2015","11","07","22:00","4.5","","1.3","","80","","29","","14","","","","100.94","","","","","","NA"
"2015-11-07 23:00","2015","11","07","23:00","4.0","","1.1","","81","","29","","15","","","","100.95","","","","","","NA"
"2015-11-08 00:00","2015","11","08","00:00","3.4","","0.6","","82","","30","","14","","","","101.01","","","","","","NA"
"2015-11-08 01:00","2015","11","08","01:00","2.6","","-0.1","","83","","30","","10","","","","101.06","","","","","","NA"
"2015-11-08 02:00","2015","11","08","02:00","2.3","","0.0","","85","","26","","10","","","","101.12","","","","","","NA"
"2015-11-08 03:00","2015","11","08","03:00","2.4","","0.2","","86","","29","","12","","","","101.18","","","","","","NA"
"2015-11-08 04:00","2015","11","08","04:00","2.0","","0.3","","88","","28","","11","","","","101.28","","","","","","NA"
"2015-11-08 05:00","2015","11","08","05:00","1.1","","-0.2","","91","","32","","10","","","","101.37","","","","","","NA"
"2015-11-08 06:00","2015","11","08","06:00","1.3","","0.1","","92","","32","","12","","","","101.41","","","","","","NA"
"2015-11-08 07:00","2015","11","08","07:00","1.1","","-0.1","","92","","30","","11","","","","101.51","","","","","","NA"
"2015-11-08 08:00","2015","11","08","08:00","1.8","","0.3","","90","","28","","10","","","","101.64","","","","","","NA"
"2015-11-08 09:00","2015","11","08","09:00","3.8","","0.9","","82","","29","","9","","","","101.69","","","","","","NA"
"2015-11-08 10:00","2015","11","08","10:00","5.3","","1.6","","77","","29","","7","","","","101.70","","","","","","NA"
"2015-11-08 11:00","2015","11","08","11:00","6.4","","1.8","","72","","23","","12","","","","101.68","","","","","","NA"
"2015-11-08 12:00","2015","11","08","12:00","7.4","","1.5","","67","","23","","18","","","","101.65","","","","","","NA"
"2015-11-08 13:00","2015","11","08","13:00","8.2","","2.5","","67","","22","","18","","","","101.60","","","","","","NA"
"2015-11-08 14:00","2015","11","08","14:00","9.0","","1.3","","59","","21","","18","","","","101.60","","","","","","NA"
"2015-11-08 15:00","2015","11","08","15:00","9.3","","0.0","","52","","23","","19","","","","101.56","","","","","","NA"
"2015-11-08 16:00","2015","11","08","16:00","8.5","","1.7","","62","","24","","21","","","","101.57","","","","","","NA"
"2015-11-08 17:00","2015","11","08","17:00","7.4","","1.8","","68","","24","","23","","","","101.58","","","","","","NA"
"2015-11-08 18:00","2015","11","08","18:00","7.1","","2.7","","74","","24","","22","","","","101.62","","","","","","NA"
"2015-11-08 19:00","2015","11","08","19:00","6.9","","3.0","","76","","25","","18","","","","101.63","","","","","","NA"
"2015-11-08 20:00","2015","11","08","20:00","6.8","","3.3","","78","","25","","16","","","","101.62","","","","","","NA"
"2015-11-08 21:00","2015","11","08","21:00","7.5","","3.3","","75","","24","","17","","","","101.62","","","","","","NA"
"2015-11-08 22:00","2015","11","08","22:00","6.4","","3.1","","79","","24","","9","","","","101.64","","","","","","NA"
"2015-11-08 23:00","2015","11","08","23:00","6.8","","3.6","","80","","23","","13","","","","101.66","","","","","","NA"
"2015-11-09 00:00","2015","11","09","00:00","6.1","","3.6","","84","","24","","9","","","","101.66","","","","","","NA"
"2015-11-09 01:00","2015","11","09","01:00","6.4","","3.9","","84","","23","","13","","","","101.70","","","","","","NA"
"2015-11-09 02:00","2015","11","09","02:00","5.7","","2.8","","82","","25","","10","","","","101.72","","","","","","NA"
"2015-11-09 03:00","2015","11","09","03:00","6.0","","2.1","","76","","25","","10","","","","101.69","","","","","","NA"
"2015-11-09 04:00","2015","11","09","04:00","5.6","","2.2","","78","","26","","8","","","","101.68","","","","","","NA"
"2015-11-09 05:00","2015","11","09","05:00","5.8","","2.6","","80","","22","","14","","","","101.66","","","","","","NA"
"2015-11-09 06:00","2015","11","09","06:00","6.0","","2.8","","80","","23","","14","","","","101.67","","","","","","NA"
"2015-11-09 07:00","2015","11","09","07:00","2.8","","1.6","","92","","26","","3","","","","101.70","","","","","","NA"
"2015-11-09 08:00","2015","11","09","08:00","7.0","","3.6","","79","","23","","10","","","","101.75","","","","","","NA"
"2015-11-09 09:00","2015","11","09","09:00","8.3","","3.5","","72","","22","","15","","","","101.74","","","","","","NA"
"2015-11-09 10:00","2015","11","09","10:00","9.3","","4.7","","73","","22","","21","","","","101.72","","","","","","NA"
"2015-11-09 11:00","2015","11","09","11:00","9.2","","3.8","","69","","22","","19","","","","101.71","","","","","","NA"
"2015-11-09 12:00","2015","11","09","12:00","9.4","","4.0","","69","","19","","25","","","","101.64","","","","","","NA"
"2015-11-09 13:00","2015","11","09","13:00","10.0","","4.0","","66","","19","","23","","","","101.59","","","","","","NA"
"2015-11-09 14:00","2015","11","09","14:00","9.9","","4.4","","69","","18","","17","","","","101.49","","","","","","NA"
"2015-11-09 15:00","2015","11","09","15:00","9.4","","3.5","","66","","19","","20","","","","101.49","","","","","","NA"
"2015-11-09 16:00","2015","11","09","16:00","8.9","","3.5","","69","","20","","18","","","","101.50","","","","","","NA"
"2015-11-09 17:00","2015","11","09","17:00","7.3","","3.3","","76","","23","","10","","","","101.48","","","","","","NA"
"2015-11-09 18:00","2015","11","09","18:00","6.1","","3.7","","85","","9","","1","","","","101.44","","","","","","NA"
"2015-11-09 19:00","2015","11","09","19:00","4.3","","2.7","","90","","21","","2","","","","101.44","","","","","","NA"
"2015-11-09 20:00","2015","11","09","20:00","3.1","","2.0","","92","","34","","3","","","","101.42","","","","","","NA"
"2015-11-09 21:00","2015","11","09","21:00","2.1","","1.4","","95","","4","","4","","","","101.40","","","","","","NA"
"2015-11-09 22:00","2015","11","09","22:00","0.7","","-0.1","","95","","3","","6","","","","101.39","","","","","","NA"
"2015-11-09 23:00","2015","11","09","23:00","-0.7","","-1.4","","95","","3","","7","","","","101.36","","","","-3","","NA"
"2015-11-10 00:00","2015","11","10","00:00","-1.2","","-1.8","","95","","3","","7","","","","101.32","","","","-4","","NA"
"2015-11-10 01:00","2015","11","10","01:00","-1.3","","-2.0","","95","","3","","9","","","","101.26","","","","-5","","NA"
"2015-11-10 02:00","2015","11","10","02:00","1.2","","0.6","","96","","4","","8","","","","101.25","","","","","","NA"
"2015-11-10 03:00","2015","11","10","03:00","1.3","","0.6","","95","","4","","9","","","","101.20","","","","","","NA"
"2015-11-10 04:00","2015","11","10","04:00","0.8","","0.1","","95","","4","","10","","","","101.14","","","","","","NA"
"2015-11-10 05:00","2015","11","10","05:00","1.2","","0.1","","92","","4","","13","","","","101.14","","","","","","NA"
"2015-11-10 06:00","2015","11","10","06:00","1.5","","0.2","","91","","4","","11","","","","101.13","","","","","","NA"
"2015-11-10 07:00","2015","11","10","07:00","3.2","","1.2","","87","","4","","14","","","","101.07","","","","","","NA"
"2015-11-10 08:00","2015","11","10","08:00","3.8","","1.7","","86","","4","","12","","","","101.07","","","","","","NA"
"2015-11-10 09:00","2015","11","10","09:00","5.2","","2.4","","83","","4","","12","","","","101.01","","","","","","NA"
"2015-11-10 10:00","2015","11","10","10:00","6.5","","3.3","","80","","3","","7","","","","100.98","","","","","","NA"
"2015-11-10 11:00","2015","11","10","11:00","7.9","","4.5","","79","","1","","9","","","","100.91","","","","","","NA"
"2015-11-10 12:00","2015","11","10","12:00","10.1","","5.4","","73","","2","","7","","","","100.80","","","","","","NA"
"2015-11-10 13:00","2015","11","10","13:00","10.0","","3.6","","64","","3","","11","","","","100.68","","","","","","NA"
"2015-11-10 14:00","2015","11","10","14:00","8.3","","6.6","","90","","1","","10","","","","100.64","","","","","","NA"
"2015-11-10 15:00","2015","11","10","15:00","8.5","","7.3","","92","","3","","12","","","","100.56","","","","","","NA"
"2015-11-10 16:00","2015","11","10","16:00","7.9","","6.1","","88","","2","","14","","","","100.52","","","","","","NA"
"2015-11-10 17:00","2015","11","10","17:00","8.1","","5.6","","84","","1","","15","","","","100.49","","","","","","NA"
"2015-11-10 18:00","2015","11","10","18:00","7.9","","5.1","","83","","1","","15","","","","100.44","","","","","","NA"
"2015-11-10 19:00","2015","11","10","19:00","8.3","","5.2","","81","","2","","12","","","","100.42","","","","","","NA"
"2015-11-10 20:00","2015","11","10","20:00","8.3","","5.3","","81","","2","","11","","","","100.37","","","","","","NA"
"2015-11-10 21:00","2015","11","10","21:00","8.5","","5.4","","81","","1","","12","","","","100.31","","","","","","NA"
"2015-11-10 22:00","2015","11","10","22:00","8.7","","5.2","","78","","2","","12","","","","100.24","","","","","","NA"
"2015-11-10 23:00","2015","11","10","23:00","8.7","","5.1","","78","","3","","11","","","","100.20","","","","","","NA"
"2015-11-11 00:00","2015","11","11","00:00","8.3","","4.9","","79","","3","","11","","","","100.16","","","","","","NA"
"2015-11-11 01:00","2015","11","11","01:00","7.9","","4.5","","79","","1","","9","","","","100.14","","","","","","NA"
"2015-11-11 02:00","2015","11","11","02:00","8.4","","4.9","","78","","36","","10","","","","100.13","","","","","","NA"
"2015-11-11 03:00","2015","11","11","03:00","8.6","","4.4","","75","","2","","10","","","","100.11","","","","","","NA"
"2015-11-11 04:00","2015","11","11","04:00","8.1","","4.0","","75","","2","","9","","","","100.09","","","","","","NA"
"2015-11-11 05:00","2015","11","11","05:00","8.1","","3.9","","75","","2","","8","","","","100.12","","","","","","NA"
"2015-11-11 06:00","2015","11","11","06:00","7.9","","3.9","","75","","2","","7","","","","100.13","","","","","","NA"
"2015-11-11 07:00","2015","11","11","07:00","8.0","","3.8","","75","","3","","8","","","","100.16","","","","","","NA"
"2015-11-11 08:00","2015","11","11","08:00","8.2","","4.1","","76","","1","","6","","","","100.23","","","","","","NA"
"2015-11-11 09:00","2015","11","11","09:00","8.9","","4.3","","73","","3","","8","","","","100.25","","","","","","NA"
"2015-11-11 10:00","2015","11","11","10:00","9.9","","4.5","","69","","13","","2","","","","100.26","","","","","","NA"
"2015-11-11 11:00","2015","11","11","11:00","9.8","","5.0","","72","","19","","7","","","","100.25","","","","","","NA"
"2015-11-11 12:00","2015","11","11","12:00","10.2","","5.2","","71","","21","","9","","","","100.25","","","","","","NA"
"2015-11-11 13:00","2015","11","11","13:00","10.9","","6.1","","72","","22","","11","","","","100.18","","","","","","NA"
"2015-11-11 14:00","2015","11","11","14:00","10.5","","6.9","","78","","19","","15","","","","100.19","","","","","","NA"
"2015-11-11 15:00","2015","11","11","15:00","9.7","","8.1","","90","","24","","11","","","","100.18","","","","","","NA"
"2015-11-11 16:00","2015","11","11","16:00","9.5","","8.3","","92","","25","","8","","","","100.21","","","","","","NA"
"2015-11-11 17:00","2015","11","11","17:00","9.4","","8.2","","93","","26","","6","","","","100.23","","","","","","NA"
"2015-11-11 18:00","2015","11","11","18:00","9.5","","8.4","","93","","25","","5","","","","100.25","","","","","","NA"
"2015-11-11 19:00","2015","11","11","19:00","9.7","","8.7","","93","","25","","7","","","","100.27","","","","","","NA"
"2015-11-11 20:00","2015","11","11","20:00","9.8","","8.7","","93","","24","","10","","","","100.25","","","","","","NA"
"2015-11-11 21:00","2015","11","11","21:00","9.8","","8.7","","93","","23","","13","","","","100.25","","","","","","NA"
"2015-11-11 22:00","2015","11","11","22:00","9.9","","8.7","","93","","24","","10","","","","100.25","","","","","","NA"
"2015-11-11 23:00","2015","11","11","23:00","9.6","","8.5","","93","","22","","8","","","","100.15","","","","","","NA"
"2015-11-12 00:00","2015","11","12","00:00","9.5","","8.4","","93","","21","","9","","","","100.10","","","","","","NA"
"2015-11-12 01:00","2015","11","12","01:00","9.5","","8.5","","93","","21","","11","","","","100.10","","","","","","NA"
"2015-11-12 02:00","2015","11","12","02:00","9.7","","8.5","","92","","17","","12","","","","100.00","","","","","","NA"
"2015-11-12 03:00","2015","11","12","03:00","10.0","","8.0","","87","","17","","14","","","","99.89","","","","","","NA"
"2015-11-12 04:00","2015","11","12","04:00","10.3","","8.2","","87","","17","","20","","","","99.85","","","","","","NA"
"2015-11-12 05:00","2015","11","12","05:00","10.0","","8.0","","88","","15","","21","","","","99.66","","","","","","NA"
"2015-11-12 06:00","2015","11","12","06:00","10.0","","8.0","","88","","12","","14","","","","99.52","","","","","","NA"
"2015-11-12 07:00","2015","11","12","07:00","10.2","","8.1","","86","","12","","11","","","","99.55","","","","","","NA"
"2015-11-12 08:00","2015","11","12","08:00","10.6","","8.0","","84","","12","","21","","","","99.26","","","","","","NA"
"2015-11-12 09:00","2015","11","12","09:00","11.1","","8.1","","82","","13","","21","","","","99.10","","","","","","NA"
"2015-11-12 10:00","2015","11","12","10:00","10.9","","8.6","","86","","15","","20","","","","98.99","","","","","","NA"
"2015-11-12 11:00","2015","11","12","11:00","10.8","","9.0","","89","","14","","23","","","","98.83","","","","","","NA"
"2015-11-12 12:00","2015","11","12","12:00","10.6","","9.3","","92","","15","","21","","","","98.62","","","","","","NA"
"2015-11-12 13:00","2015","11","12","13:00","11.1","","9.4","","90","","14","","17","","","","98.44","","","","","","NA"
"2015-11-12 14:00","2015","11","12","14:00","12.2","","9.1","","81","","17","","27","","","","98.30","","","","","","NA"
"2015-11-12 15:00","2015","11","12","15:00","11.9","","9.3","","84","","18","","31","","","","98.19","","","","","","NA"
"2015-11-12 16:00","2015","11","12","16:00","11.0","","8.2","","83","","20","","46","","","","98.27","","","","","","NA"
"2015-11-12 17:00","2015","11","12","17:00","9.9","","7.8","","87","","23","","28","","","","98.31","","","","","","NA"
"2015-11-12 18:00","2015","11","12","18:00","10.2","","6.5","","78","","23","","44","","","","98.32","","","","","","NA"
"2015-11-12 19:00","2015","11","12","19:00","9.9","","7.0","","82","","24","","36","","","","98.34","","","","","","NA"
"2015-11-12 20:00","2015","11","12","20:00","9.6","","7.2","","85","","23","","34","","","","98.31","","","","","","NA"
"2015-11-12 21:00","2015","11","12","21:00","9.4","","7.7","","89","","21","","30","","","","98.26","","","","","","NA"
"2015-11-12 22:00","2015","11","12","22:00","9.4","","7.9","","90","","22","","36","","","","98.19","","","","","","NA"
"2015-11-12 23:00","2015","11","12","23:00","10.2","","7.2","","82","","23","","41","","","","98.15","","","","","","NA"
"2015-11-13 00:00","2015","11","13","00:00","10.0","","7.1","","83","","24","","43","","","","98.10","","","","","","NA"
"2015-11-13 01:00","2015","11","13","01:00","10.3","","6.8","","79","","25","","36","","","","98.11","","","","","","NA"
"2015-11-13 02:00","2015","11","13","02:00","10.3","","6.8","","79","","25","","45","","","","98.14","","","","","","NA"
"2015-11-13 03:00","2015","11","13","03:00","10.3","","6.5","","77","","25","","40","","","","98.19","","","","","","NA"
"2015-11-13 04:00","2015","11","13","04:00","9.4","","6.6","","83","","26","","29","","","","98.26","","","","","","NA"
"2015-11-13 05:00","2015","11","13","05:00","9.3","","6.3","","82","","25","","28","","","","98.36","","","","","","NA"
"2015-11-13 06:00","2015","11","13","06:00","9.5","","4.6","","71","","26","","33","","","","98.43","","","","","","NA"
"2015-11-13 07:00","2015","11","13","07:00","9.3","","4.4","","72","","25","","30","","","","98.54","","","","","","NA"
"2015-11-13 08:00","2015","11","13","08:00","9.1","","5.3","","77","","25","","29","","","","98.64","","","","","","NA"
"2015-11-13 09:00","2015","11","13","09:00","8.7","","4.5","","75","","24","","40","","","","98.68","","","","","","NA"
"2015-11-13 10:00","2015","11","13","10:00","8.5","","4.1","","74","","25","","39","","","","98.73","","","","","","NA"
"2015-11-13 11:00","2015","11","13","11:00","8.5","","3.3","","70","","25","","44","","","","98.78","","","","","","NA"
"2015-11-13 12:00","2015","11","13","12:00","8.4","","3.0","","69","","25","","39","","","","98.80","","","","","","NA"
"2015-11-13 13:00","2015","11","13","13:00","8.2","","2.3","","66","","24","","45","","","","98.80","","","","","","NA"
"2015-11-13 14:00","2015","11","13","14:00","8.2","","2.6","","68","","25","","36","","","","98.83","","","","","","NA"
"2015-11-13 15:00","2015","11","13","15:00","8.3","","1.7","","63","","25","","28","","","","98.91","","","","","","NA"
"2015-11-13 16:00","2015","11","13","16:00","8.1","","2.7","","69","","24","","32","","","","98.95","","","","","","NA"
"2015-11-13 17:00","2015","11","13","17:00","7.9","","1.7","","65","","25","","36","","","","99.01","","","","","","NA"
"2015-11-13 18:00","2015","11","13","18:00","6.2","","1.8","","73","","26","","29","","","","99.12","","","","","","NA"
"2015-11-13 19:00","2015","11","13","19:00","5.7","","2.4","","79","","25","","30","","","","99.19","","","","","","NA"
"2015-11-13 20:00","2015","11","13","20:00","5.4","","2.1","","79","","26","","27","","","","99.24","","","","","","NA"
"2015-11-13 21:00","2015","11","13","21:00","5.0","","2.1","","82","","26","","24","","","","99.31","","","","","","NA"
"2015-11-13 22:00","2015","11","13","22:00","4.8","","2.4","","84","","26","","19","","","","99.37","","","","","","NA"
"2015-11-13 23:00","2015","11","13","23:00","3.4","","1.4","","87","","32","","21","","","","99.50","","","","","","NA"
"2015-11-14 00:00","2015","11","14","00:00","2.6","","-0.4","","81","","31","","18","","","","99.62","","","","","","NA"
"2015-11-14 01:00","2015","11","14","01:00","1.9","","-1.0","","81","","32","","24","","","","99.77","","","","","","NA"
"2015-11-14 02:00","2015","11","14","02:00","0.8","","-2.4","","79","","33","","23","","","","99.94","","","","","","NA"
"2015-11-14 03:00","2015","11","14","03:00","0.2","","-4.4","","71","","30","","21","","","","100.09","","","","","","NA"
"2015-11-14 04:00","2015","11","14","04:00","0.4","","-4.1","","72","","32","","23","","","","100.21","","","","","","NA"
"2015-11-14 05:00","2015","11","14","05:00","0.4","","-3.6","","74","","31","","20","","","","100.37","","","","","","NA"
"2015-11-14 06:00","2015","11","14","06:00","0.1","","-4.0","","74","","31","","12","","","","100.50","","","","","","NA"
"2015-11-14 07:00","2015","11","14","07:00","0.1","","-3.6","","76","","28","","12","","","","100.60","","","","","","NA"
"2015-11-14 08:00","2015","11","14","08:00","0.7","","-4.2","","70","","28","","15","","","","100.71","","","","","","NA"
"2015-11-14 09:00","2015","11","14","09:00","1.2","","-4.1","","68","","29","","17","","","","100.77","","","","","","NA"
"2015-11-14 10:00","2015","11","14","10:00","1.7","","-3.3","","69","","27","","19","","","","100.80","","","","","","NA"
"2015-11-14 11:00","2015","11","14","11:00","1.8","","-4.1","","65","","29","","18","","","","100.84","","","","","","NA"
"2015-11-14 12:00","2015","11","14","12:00","1.9","","-3.3","","68","","27","","19","","","","100.82","","","","","","NA"
"2015-11-14 13:00","2015","11","14","13:00","2.5","","-3.2","","66","","29","","19","","","","100.85","","","","","","NA"
"2015-11-14 14:00","2015","11","14","14:00","2.6","","-3.1","","66","","27","","22","","","","100.87","","","","","","NA"
"2015-11-14 15:00","2015","11","14","15:00","3.4","","-3.6","","60","","29","","18","","","","100.92","","","","","","NA"
"2015-11-14 16:00","2015","11","14","16:00","3.5","","-3.5","","60","","28","","18","","","","100.97","","","","","","NA"
"2015-11-14 17:00","2015","11","14","17:00","2.8","","-3.5","","63","","27","","16","","","","101.04","","","","","","NA"
"2015-11-14 18:00","2015","11","14","18:00","3.3","","-2.9","","64","","27","","14","","","","101.08","","","","","","NA"
"2015-11-14 19:00","2015","11","14","19:00","3.3","","-2.8","","64","","26","","13","","","","101.13","","","","","","NA"
"2015-11-14 20:00","2015","11","14","20:00","3.0","","-2.0","","70","","26","","11","","","","101.11","","","","","","NA"
"2015-11-14 21:00","2015","11","14","21:00","3.6","","-1.4","","70","","26","","17","","","","101.16","","","","","","NA"
"2015-11-14 22:00","2015","11","14","22:00","3.4","","-1.4","","71","","27","","11","","","","101.16","","","","","","NA"
"2015-11-14 23:00","2015","11","14","23:00","2.6","","-1.2","","76","","26","","9","","","","101.12","","","","","","NA"
"2015-11-15 00:00","2015","11","15","00:00","3.6","","-0.5","","75","","26","","18","","","","101.12","","","","","","NA"
"2015-11-15 01:00","2015","11","15","01:00","3.6","","-0.1","","77","","26","","13","","","","101.07","","","","","","NA"
"2015-11-15 02:00","2015","11","15","02:00","4.5","","0.8","","77","","25","","12","","","","101.05","","","","","","NA"
"2015-11-15 03:00","2015","11","15","03:00","4.6","","1.9","","83","","21","","12","","","","101.00","","","","","","NA"
"2015-11-15 04:00","2015","11","15","04:00","5.8","","2.7","","80","","22","","17","","","","100.95","","","","","","NA"
"2015-11-15 05:00","2015","11","15","05:00","6.2","","3.5","","83","","22","","18","","","","100.93","","","","","","NA"
"2015-11-15 06:00","2015","11","15","06:00","6.0","","3.5","","84","","22","","15","","","","100.89","","","","","","NA"
"2015-11-15 07:00","2015","11","15","07:00","6.6","","3.9","","83","","23","","20","","","","100.87","","","","","","NA"
"2015-11-15 08:00","2015","11","15","08:00","7.3","","4.7","","84","","23","","18","","","","100.89","","","","","","NA"
"2015-11-15 09:00","2015","11","15","09:00","8.8","","4.8","","76","","24","","23","","","","100.87","","","","","","NA"
"2015-11-15 10:00","2015","11","15","10:00","9.9","","4.1","","67","","25","","20","","","","100.87","","","","","","NA"
"2015-11-15 11:00","2015","11","15","11:00","10.8","","3.0","","59","","25","","20","","","","100.84","","","","","","NA"
"2015-11-15 12:00","2015","11","15","12:00","11.0","","3.3","","59","","23","","19","","","","100.80","","","","","","NA"
"2015-11-15 13:00","2015","11","15","13:00","11.7","","4.0","","59","","23","","18","","","","100.79","","","","","","NA"
"2015-11-15 14:00","2015","11","15","14:00","11.8","","3.7","","58","","22","","16","","","","100.77","","","","","","NA"
"2015-11-15 15:00","2015","11","15","15:00","11.2","","4.4","","63","","23","","16","","","","100.77","","","","","","NA"
"2015-11-15 16:00","2015","11","15","16:00","10.7","","4.5","","66","","23","","12","","","","100.79","","","","","","NA"
"2015-11-15 17:00","2015","11","15","17:00","9.5","","3.8","","68","","25","","13","","","","100.83","","","","","","NA"
"2015-11-15 18:00","2015","11","15","18:00","8.9","","3.9","","71","","24","","11","","","","100.87","","","","","","NA"
"2015-11-15 19:00","2015","11","15","19:00","8.1","","3.2","","71","","27","","8","","","","100.91","","","","","","NA"
"2015-11-15 20:00","2015","11","15","20:00","7.6","","3.2","","73","","25","","6","","","","100.93","","","","","","NA"
"2015-11-15 21:00","2015","11","15","21:00","8.1","","3.4","","72","","29","","4","","","","100.95","","","","","","NA"
"2015-11-15 22:00","2015","11","15","22:00","7.7","","3.9","","77","","23","","6","","","","100.94","","","","","","NA"
"2015-11-15 23:00","2015","11","15","23:00","8.1","","4.7","","79","","24","","7","","","","100.95","","","","","","NA"
"2015-11-16 00:00","2015","11","16","00:00","7.4","","3.4","","76","","27","","6","","","","100.95","","","","","","NA"
"2015-11-16 01:00","2015","11","16","01:00","7.1","","3.5","","78","","27","","5","","","","100.94","","","","","","NA"
"2015-11-16 02:00","2015","11","16","02:00","6.9","","3.8","","81","","25","","10","","","","100.99","","","","","","NA"
"2015-11-16 03:00","2015","11","16","03:00","6.5","","3.6","","82","","28","","10","","","","101.03","","","","","","NA"
"2015-11-16 04:00","2015","11","16","04:00","5.5","","3.3","","86","","32","","8","","","","101.05","","","","","","NA"
"2015-11-16 05:00","2015","11","16","05:00","5.4","","3.4","","87","","30","","5","","","","101.14","","","","","","NA"
"2015-11-16 06:00","2015","11","16","06:00","5.2","","3.5","","89","","33","","9","","","","101.20","","","","","","NA"
"2015-11-16 07:00","2015","11","16","07:00","5.3","","3.7","","89","","34","","10","","","","101.25","","","","","","NA"
"2015-11-16 08:00","2015","11","16","08:00","6.1","","4.1","","87","","1","","8","","","","101.32","","","","","","NA"
"2015-11-16 09:00","2015","11","16","09:00","7.3","","1.4","","66","","3","","12","","","","101.36","","","","","","NA"
"2015-11-16 10:00","2015","11","16","10:00","8.3","","0.8","","59","","1","","11","","","","101.40","","","","","","NA"
"2015-11-16 11:00","2015","11","16","11:00","9.1","","-0.7","","50","","2","","11","","","","101.42","","","","","","NA"
"2015-11-16 12:00","2015","11","16","12:00","9.7","","-1.1","","47","","4","","11","","","","101.40","","","","","","NA"
"2015-11-16 13:00","2015","11","16","13:00","10.5","","-2.4","","40","","1","","11","","","","101.39","","","","","","NA"
"2015-11-16 14:00","2015","11","16","14:00","11.0","","-2.8","","38","","35","","10","","","","101.44","","","","","","NA"
"2015-11-16 15:00","2015","11","16","15:00","10.7","","-1.9","","41","","35","","12","","","","101.46","","","","","","NA"
"2015-11-16 16:00","2015","11","16","16:00","9.7","","-3.1","","41","","2","","11","","","","101.51","","","","","","NA"
"2015-11-16 17:00","2015","11","16","17:00","7.6","","-5.3","","40","","2","","11","","","","101.58","","","","","","NA"
"2015-11-16 18:00","2015","11","16","18:00","6.3","","-4.5","","46","","4","","16","","","","101.64","","","","","","NA"
"2015-11-16 19:00","2015","11","16","19:00","4.7","","-3.6","","55","","3","","14","","","","101.72","","","","","","NA"
"2015-11-16 20:00","2015","11","16","20:00","3.6","","-3.2","","61","","3","","10","","","","101.80","","","","","","NA"
"2015-11-16 21:00","2015","11","16","21:00","3.1","","-3.0","","64","","5","","16","","","","101.84","","","","","","NA"
"2015-11-16 22:00","2015","11","16","22:00","2.4","","-3.3","","66","","4","","16","","","","101.91","","","","","","NA"
"2015-11-16 23:00","2015","11","16","23:00","1.2","","-3.8","","69","","5","","13","","","","101.95","","","","","","NA"
"2015-11-17 00:00","2015","11","17","00:00","0.2","","-4.4","","71","","1","","10","","","","102.03","","","","","","NA"
"2015-11-17 01:00","2015","11","17","01:00","0.3","","-4.4","","71","","4","","15","","","","102.02","","","","","","NA"
"2015-11-17 02:00","2015","11","17","02:00","-0.2","","-4.5","","73","","4","","13","","","","102.04","","","","-4","","NA"
"2015-11-17 03:00","2015","11","17","03:00","-1.2","","-4.8","","77","","4","","11","","","","102.03","","","","-5","","NA"
"2015-11-17 04:00","2015","11","17","04:00","-1.3","","-4.6","","78","","4","","12","","","","102.02","","","","-5","","NA"
"2015-11-17 05:00","2015","11","17","05:00","-2.0","","-4.8","","81","","4","","9","","","","102.07","","","","-5","","NA"
"2015-11-17 06:00","2015","11","17","06:00","-2.1","","-4.8","","81","","2","","9","","","","102.12","","","","-6","","NA"
"2015-11-17 07:00","2015","11","17","07:00","-1.8","","-4.6","","81","","3","","13","","","","102.14","","","","-6","","NA"
"2015-11-17 08:00","2015","11","17","08:00","-0.6","","-4.1","","77","","5","","14","","","","102.19","","","","-5","","NA"
"2015-11-17 09:00","2015","11","17","09:00","0.9","","-3.3","","74","","6","","17","","","","102.23","","","","","","NA"
"2015-11-17 10:00","2015","11","17","10:00","2.7","","-2.2","","70","","6","","13","","","","102.17","","","","","","NA"
"2015-11-17 11:00","2015","11","17","11:00","4.6","","-1.7","","64","","7","","7","","","","102.20","","","","","","NA"
"2015-11-17 12:00","2015","11","17","12:00","6.3","","-2.0","","55","","6","","14","","","","102.06","","","","","","NA"
"2015-11-17 13:00","2015","11","17","13:00","7.3","","-2.6","","49","","7","","14","","","","101.99","","","","","","NA"
"2015-11-17 14:00","2015","11","17","14:00","8.3","","-3.5","","43","","4","","4","","","","102.00","","","","","","NA"
"2015-11-17 15:00","2015","11","17","15:00","7.8","","-2.5","","48","","5","","17","","","","101.95","","","","","","NA"
"2015-11-17 16:00","2015","11","17","16:00","6.2","","-2.5","","54","","6","","15","","","","101.89","","","","","","NA"
"2015-11-17 17:00","2015","11","17","17:00","4.0","","-3.1","","60","","6","","14","","","","101.86","","","","","","NA"
"2015-11-17 18:00","2015","11","17","18:00","4.2","","-3.1","","59","","6","","20","","","","101.86","","","","","","NA"
"2015-11-17 19:00","2015","11","17","19:00","3.0","","-3.1","","64","","5","","21","","","","101.90","","","","","","NA"
"2015-11-17 20:00","2015","11","17","20:00","2.5","","-3.1","","67","","6","","18","","","","101.89","","","","","","NA"
"2015-11-17 21:00","2015","11","17","21:00","1.8","","-2.8","","72","","6","","17","","","","101.86","","","","","","NA"
"2015-11-17 22:00","2015","11","17","22:00","0.9","","-2.7","","77","","6","","16","","","","101.81","","","","","","NA"
"2015-11-17 23:00","2015","11","17","23:00","0.8","","-2.5","","79","","6","","9","","","","101.80","","","","","","NA"
"2015-11-18 00:00","2015","11","18","00:00","","M","0.2","","59","","14","","30","","","","101.73","","","","","","NA"
"2015-11-18 01:00","2015","11","18","01:00","7.4","","0.4","","61","","14","","33","","","","101.62","","","","","","NA"
"2015-11-18 02:00","2015","11","18","02:00","7.3","","1.0","","64","","14","","33","","","","101.60","","","","","","NA"
"2015-11-18 03:00","2015","11","18","03:00","7.1","","1.5","","67","","15","","33","","","","101.59","","","","","","NA"
"2015-11-18 04:00","2015","11","18","04:00","7.1","","2.2","","71","","16","","35","","","","101.54","","","","","","NA"
"2015-11-18 05:00","2015","11","18","05:00","7.0","","2.7","","74","","16","","36","","","","101.53","","","","","","NA"
"2015-11-18 06:00","2015","11","18","06:00","6.9","","3.0","","76","","15","","34","","","","101.50","","","","","","NA"
"2015-11-18 07:00","2015","11","18","07:00","7.1","","3.2","","76","","16","","38","","","","101.52","","","","","","NA"
"2015-11-18 08:00","2015","11","18","08:00","7.1","","3.4","","77","","16","","39","","","","101.53","","","","","","NA"
"2015-11-18 09:00","2015","11","18","09:00","7.6","","3.8","","77","","16","","37","","","","101.49","","","","","","NA"
"2015-11-18 10:00","2015","11","18","10:00","8.2","","3.9","","74","","15","","35","","","","101.48","","","","","","NA"
"2015-11-18 11:00","2015","11","18","11:00","9.4","","4.5","","71","","15","","32","","","","101.45","","","","","","NA"
"2015-11-18 12:00","2015","11","18","12:00","9.2","","4.5","","73","","15","","30","","","","101.32","","","","","","NA"
"2015-11-18 13:00","2015","11","18","13:00","10.3","","4.9","","69","","14","","28","","","","101.24","","","","","","NA"
"2015-11-18 14:00","2015","11","18","14:00","11.0","","4.7","","65","","13","","22","","","","101.14","","","","","","NA"
"2015-11-18 15:00","2015","11","18","15:00","11.8","","6.3","","69","","14","","24","","","","101.07","","","","","","NA"
"2015-11-18 16:00","2015","11","18","16:00","11.6","","7.3","","75","","14","","23","","","","100.99","","","","","","NA"
"2015-11-18 17:00","2015","11","18","17:00","11.7","","7.5","","76","","14","","23","","","","100.97","","","","","","NA"
"2015-11-18 18:00","2015","11","18","18:00","11.7","","7.6","","76","","14","","23","","","","100.96","","","","","","NA"
"2015-11-18 19:00","2015","11","18","19:00","11.7","","7.9","","78","","14","","21","","","","100.87","","","","","","NA"
"2015-11-18 20:00","2015","11","18","20:00","11.6","","7.7","","77","","14","","23","","","","100.79","","","","","","NA"
"2015-11-18 21:00","2015","11","18","21:00","11.9","","8.0","","77","","15","","25","","","","100.74","","","","","","NA"
"2015-11-18 22:00","2015","11","18","22:00","11.9","","8.1","","78","","15","","22","","","","100.70","","","","","","NA"
"2015-11-18 23:00","2015","11","18","23:00","11.9","","8.4","","79","","15","","19","","","","100.70","","","","","","NA"
"2015-11-19 00:00","2015","11","19","00:00","12.1","","8.6","","80","","14","","25","","","","100.60","","","","","","NA"
"2015-11-19 01:00","2015","11","19","01:00","12.1","","8.9","","81","","14","","19","","","","100.53","","","","","","NA"
"2015-11-19 02:00","2015","11","19","02:00","12.5","","9.0","","79","","15","","23","","","","100.50","","","","","","NA"
"2015-11-19 03:00","2015","11","19","03:00","12.6","","9.2","","80","","16","","29","","","","100.46","","","","","","NA"
"2015-11-19 04:00","2015","11","19","04:00","12.7","","9.4","","80","","16","","29","","","","100.39","","","","","","NA"
"2015-11-19 05:00","2015","11","19","05:00","12.2","","9.4","","83","","16","","30","","","","100.32","","","","","","NA"
"2015-11-19 06:00","2015","11","19","06:00","12.1","","9.5","","85","","16","","29","","","","100.29","","","","","","NA"
"2015-11-19 07:00","2015","11","19","07:00","12.4","","9.5","","83","","16","","29","","","","100.24","","","","","","NA"
"2015-11-19 08:00","2015","11","19","08:00","12.3","","9.6","","84","","14","","29","","","","100.20","","","","","","NA"
"2015-11-19 09:00","2015","11","19","09:00","12.4","","9.9","","85","","15","","30","","","","100.17","","","","","","NA"
"2015-11-19 10:00","2015","11","19","10:00","12.1","","10.5","","90","","16","","41","","","","100.11","","","","","","NA"
"2015-11-19 11:00","2015","11","19","11:00","12.1","","10.8","","92","","15","","35","","","","100.00","","","","","","NA"
"2015-11-19 12:00","2015","11","19","12:00","12.7","","10.9","","89","","15","","30","","","","99.89","","","","","","NA"
"2015-11-19 13:00","2015","11","19","13:00","13.1","","11.7","","91","","15","","29","","","","99.82","","","","","","NA"
"2015-11-19 14:00","2015","11","19","14:00","13.0","","10.6","","85","","17","","24","","","","99.75","","","","","","NA"
"2015-11-19 15:00","2015","11","19","15:00","12.9","","10.7","","86","","24","","18","","","","99.83","","","","","","NA"
"2015-11-19 16:00","2015","11","19","16:00","11.8","","9.6","","87","","24","","15","","","","99.86","","","","","","NA"
"2015-11-19 17:00","2015","11","19","17:00","11.5","","9.2","","86","","21","","9","","","","99.89","","","","","","NA"
"2015-11-19 18:00","2015","11","19","18:00","10.9","","8.8","","87","","20","","11","","","","99.94","","","","","","NA"
"2015-11-19 19:00","2015","11","19","19:00","10.8","","8.1","","83","","22","","11","","","","99.99","","","","","","NA"
"2015-11-19 20:00","2015","11","19","20:00","11.7","","6.2","","69","","25","","24","","","","100.01","","","","","","NA"
"2015-11-19 21:00","2015","11","19","21:00","11.6","","5.6","","66","","25","","25","","","","100.05","","","","","","NA"
"2015-11-19 22:00","2015","11","19","22:00","11.2","","4.3","","62","","24","","31","","","","100.11","","","","","","NA"
"2015-11-19 23:00","2015","11","19","23:00","9.9","","3.3","","64","","24","","33","","","","100.17","","","","","","NA"
"2015-11-20 00:00","2015","11","20","00:00","9.4","","1.6","","58","","25","","38","","","","100.25","","","","","","NA"
"2015-11-20 01:00","2015","11","20","01:00","8.9","","-0.6","","51","","24","","36","","","","100.34","","","","","","NA"
"2015-11-20 02:00","2015","11","20","02:00","8.2","","0.5","","58","","24","","33","","","","100.46","","","","","","NA"
"2015-11-20 03:00","2015","11","20","03:00","5.8","","-3.7","","50","","26","","16","","","","100.58","","","","","","NA"
"2015-11-20 04:00","2015","11","20","04:00","4.7","","-4.1","","53","","26","","14","","","","100.67","","","","","","NA"
"2015-11-20 05:00","2015","11","20","05:00","3.8","","-4.8","","54","","25","","9","","","","100.69","","","","","","NA"
"2015-11-20 06:00","2015","11","20","06:00","4.0","","-2.6","","62","","23","","14","","","","100.70","","","","","","NA"
"2015-11-20 07:00","2015","11","20","07:00","4.1","","-2.6","","62","","22","","16","","","","100.71","","","","","","NA"
"2015-11-20 08:00","2015","11","20","08:00","4.8","","-1.5","","64","","22","","17","","","","100.74","","","","","","NA"
"2015-11-20 09:00","2015","11","20","09:00","5.9","","-1.7","","58","","23","","24","","","","100.75","","","","","","NA"
"2015-11-20 10:00","2015","11","20","10:00","6.7","","-2.5","","52","","24","","26","","","","100.78","","","","","","NA"
"2015-11-20 11:00","2015","11","20","11:00","6.9","","-4.3","","45","","24","","29","","","","100.79","","","","","","NA"
"2015-11-20 12:00","2015","11","20","12:00","6.6","","-3.4","","49","","23","","36","","","","100.78","","","","","","NA"
"2015-11-20 13:00","2015","11","20","13:00","6.1","","-3.8","","49","","24","","40","","","","100.78","","","","","","NA"
"2015-11-20 14:00","2015","11","20","14:00","6.3","","-6.4","","40","","24","","36","","","","100.81","","","","","","NA"
"2015-11-20 15:00","2015","11","20","15:00","6.1","","-4.2","","48","","26","","28","","","","100.89","","","","","","NA"
"2015-11-20 16:00","2015","11","20","16:00","5.7","","-3.4","","52","","25","","24","","","","100.95","","","","","","NA"
"2015-11-20 17:00","2015","11","20","17:00","5.3","","-4.2","","50","","25","","29","","","","101.02","","","","","","NA"
"2015-11-20 18:00","2015","11","20","18:00","5.3","","-3.2","","54","","24","","29","","","","101.13","","","","","","NA"
"2015-11-20 19:00","2015","11","20","19:00","4.4","","-3.9","","55","","26","","19","","","","101.20","","","","","","NA"
"2015-11-20 20:00","2015","11","20","20:00","3.0","","-5.2","","55","","27","","10","","","","101.24","","","","","","NA"
"2015-11-20 21:00","2015","11","20","21:00","2.2","","-5.5","","57","","28","","10","","","","101.24","","","","","","NA"
"2015-11-20 22:00","2015","11","20","22:00","2.3","","-5.4","","57","","26","","8","","","","101.26","","","","","","NA"
"2015-11-20 23:00","2015","11","20","23:00","2.0","","-4.7","","61","","26","","9","","","","101.29","","","","","","NA"
"2015-11-21 00:00","2015","11","21","00:00","2.0","","-4.5","","62","","28","","9","","","","101.29","","","","","","NA"
"2015-11-21 01:00","2015","11","21","01:00","0.8","","-4.7","","67","","31","","6","","","","101.29","","","","","","NA"
"2015-11-21 02:00","2015","11","21","02:00","-1.1","","-4.7","","76","","34","","9","","","","101.33","","","","-4","","NA"
"2015-11-21 03:00","2015","11","21","03:00","-0.6","","-4.7","","74","","27","","6","","","","101.40","","","","-3","","NA"
"2015-11-21 04:00","2015","11","21","04:00","0.9","","-4.8","","66","","28","","7","","","","101.40","","","","","","NA"
"2015-11-21 05:00","2015","11","21","05:00","-0.5","","-3.6","","80","","2","","3","","","","101.37","","","","-1","","NA"
"2015-11-21 06:00","2015","11","21","06:00","-1.0","","-3.9","","81","","4","","5","","","","101.33","","","","-3","","NA"
"2015-11-21 07:00","2015","11","21","07:00","0.0","","-3.6","","77","","3","","5","","","","101.34","","","","-2","","NA"
"2015-11-21 08:00","2015","11","21","08:00","1.9","","-1.5","","78","","11","","10","","","","101.36","","","","","","NA"
"2015-11-21 09:00","2015","11","21","09:00","4.4","","-2.1","","62","","12","","17","","","","101.34","","","","","","NA"
"2015-11-21 10:00","2015","11","21","10:00","5.2","","-0.6","","66","","10","","13","","","","101.27","","","","","","NA"
"2015-11-21 11:00","2015","11","21","11:00","5.7","","1.0","","72","","11","","12","","","","101.21","","","","","","NA"
"2015-11-21 12:00","2015","11","21","12:00","6.2","","-0.7","","61","","14","","18","","","","101.02","","","","","","NA"
"2015-11-21 13:00","2015","11","21","13:00","6.1","","-2.0","","56","","14","","15","","","","100.90","","","","","","NA"
"2015-11-21 14:00","2015","11","21","14:00","5.9","","-2.4","","55","","9","","13","","","","100.75","","","","","","NA"
"2015-11-21 15:00","2015","11","21","15:00","5.8","","-2.8","","54","","8","","18","","","","100.62","","","","","","NA"
"2015-11-21 16:00","2015","11","21","16:00","5.1","","-3.8","","52","","8","","20","","","","100.42","","","","","","NA"
"2015-11-21 17:00","2015","11","21","17:00","5.2","","-2.6","","57","","8","","22","","","","100.30","","","","","","NA"
"2015-11-21 18:00","2015","11","21","18:00","4.8","","-2.5","","59","","7","","18","","","","100.18","","","","","","NA"
"2015-11-21 19:00","2015","11","21","19:00","5.2","","-2.6","","57","","9","","20","","","","100.06","","","","","","NA"
"2015-11-21 20:00","2015","11","21","20:00","5.4","","-2.7","","56","","10","","19","","","","99.91","","","","","","NA"
"2015-11-21 21:00","2015","11","21","21:00","7.5","","-1.1","","55","","13","","27","","","","99.72","","","","","","NA"
"2015-11-21 22:00","2015","11","21","22:00","7.8","","-1.2","","53","","14","","41","","","","99.51","","","","","","NA"
"2015-11-21 23:00","2015","11","21","23:00","7.9","","0.0","","57","","17","","45","","","","99.53","","","","","","NA"
"2015-11-22 00:00","2015","11","22","00:00","7.8","","1.0","","62","","16","","41","","","","99.43","","","","","","NA"
"2015-11-22 01:00","2015","11","22","01:00","8.1","","2.9","","69","","16","","36","","","","99.27","","","","","","NA"
"2015-11-22 02:00","2015","11","22","02:00","9.1","","3.4","","68","","17","","46","","","","99.15","","","","","","NA"
"2015-11-22 03:00","2015","11","22","03:00","9.1","","2.7","","64","","20","","52","","","","99.15","","","","","","NA"
"2015-11-22 04:00","2015","11","22","04:00","7.2","","0.7","","64","","22","","52","","","","99.23","","","","","","NA"
"2015-11-22 05:00","2015","11","22","05:00","5.7","","1.2","","73","","23","","46","","","","99.44","","","","","","NA"
"2015-11-22 06:00","2015","11","22","06:00","5.3","","0.3","","70","","24","","45","","","","99.63","","","","","","NA"
"2015-11-22 07:00","2015","11","22","07:00","4.4","","-0.6","","70","","25","","36","","","","99.78","","","","","","NA"
"2015-11-22 08:00","2015","11","22","08:00","3.6","","-1.5","","69","","26","","26","","","","99.90","","","","","","NA"
"2015-11-22 09:00","2015","11","22","09:00","4.1","","-2.0","","65","","26","","29","","","","100.05","","","","","","NA"
"2015-11-22 10:00","2015","11","22","10:00","4.2","","-1.9","","65","","25","","25","","","","100.18","","","","","","NA"
"2015-11-22 11:00","2015","11","22","11:00","5.0","","-1.1","","64","","24","","28","","","","100.25","","","","","","NA"
"2015-11-22 12:00","2015","11","22","12:00","5.3","","-2.1","","59","","24","","23","","","","100.29","","","","","","NA"
"2015-11-22 13:00","2015","11","22","13:00","4.7","","-3.4","","56","","24","","24","","","","100.30","","","","","","NA"
"2015-11-22 14:00","2015","11","22","14:00","3.8","","-3.5","","59","","25","","25","","","","100.34","","","","","","NA"
"2015-11-22 15:00","2015","11","22","15:00","2.3","","-1.6","","75","","26","","15","","","","100.40","","","","","","NA"
"2015-11-22 16:00","2015","11","22","16:00","2.4","","-3.5","","65","","26","","19","","","","100.45","","","","","","NA"
"2015-11-22 17:00","2015","11","22","17:00","1.7","","-3.7","","67","","26","","15","","","","100.49","","","","","","NA"
"2015-11-22 18:00","2015","11","22","18:00","0.7","","-3.9","","71","","27","","13","","","","100.52","","","","","","NA"
"2015-11-22 19:00","2015","11","22","19:00","0.0","","-4.0","","74","","28","","21","","","","100.54","","","","-5","","NA"
"2015-11-22 20:00","2015","11","22","20:00","-1.6","","-4.3","","82","","30","","8","","","","100.60","","","","-5","","NA"
"2015-11-22 21:00","2015","11","22","21:00","-2.0","","-4.1","","86","","31","","7","","","","100.63","","","","-5","","NA"
"2015-11-22 22:00","2015","11","22","22:00","-2.5","","-4.1","","89","","33","","10","","","","100.63","","","","-6","","NA"
"2015-11-22 23:00","2015","11","22","23:00","-1.5","","-3.5","","86","","36","","8","","","","100.66","","","","-5","","NA"
"2015-11-23 00:00","2015","11","23","00:00","-1.8","","-3.7","","87","","32","","9","","","","100.65","","","","-5","","NA"
"2015-11-23 01:00","2015","11","23","01:00","-3.1","","-4.7","","89","","34","","8","","","","100.65","","","","-6","","NA"
"2015-11-23 02:00","2015","11","23","02:00","-3.0","","-4.3","","91","","2","","6","","","","100.66","","","","-5","","NA"
"2015-11-23 03:00","2015","11","23","03:00","-3.8","","-5.4","","89","","36","","5","","","","100.72","","","","-6","","NA"
"2015-11-23 04:00","2015","11","23","04:00","-4.3","","-6.2","","87","","35","","8","","","","100.79","","","","-8","","NA"
"2015-11-23 05:00","2015","11","23","05:00","-4.9","","-6.3","","90","","1","","7","","","","100.80","","","","-8","","NA"
"2015-11-23 06:00","2015","11","23","06:00","-6.4","","-7.8","","89","","34","","9","","","","100.86","","","","-11","","NA"
"2015-11-23 07:00","2015","11","23","07:00","-6.1","","-7.1","","92","","34","","9","","","","100.91","","","","-10","","NA"
"2015-11-23 08:00","2015","11","23","08:00","-6.2","","-7.4","","91","","34","","10","","","","100.94","","","","-11","","NA"
"2015-11-23 09:00","2015","11","23","09:00","-3.1","","-5.4","","84","","34","","8","","","","100.97","","","","-6","","NA"
"2015-11-23 10:00","2015","11","23","10:00","-1.6","","-5.9","","72","","36","","4","","","","100.97","","","","-3","","NA"
"2015-11-23 11:00","2015","11","23","11:00","-0.9","","-7.4","","61","","14","","2","","","","100.94","","","","-2","","NA"
"2015-11-23 12:00","2015","11","23","12:00","0.2","","-8.2","","53","","22","","6","","","","100.88","","","","","","NA"
"2015-11-23 13:00","2015","11","23","13:00","1.3","","-8.5","","48","","24","","9","","","","100.85","","","","","","NA"
"2015-11-23 14:00","2015","11","23","14:00","1.6","","-8.9","","46","","23","","16","","","","100.84","","","","","","NA"
"2015-11-23 15:00","2015","11","23","15:00","1.6","","-7.6","","50","","25","","16","","","","100.82","","","","","","NA"
"2015-11-23 16:00","2015","11","23","16:00","0.2","","-7.2","","57","","29","","11","","","","100.84","","","","","","NA"
"2015-11-23 17:00","2015","11","23","17:00","-0.4","","-7.2","","60","","28","","7","","","","100.85","","","","-3","","NA"
"2015-11-23 18:00","2015","11","23","18:00","-1.7","","-7.1","","66","","27","","4","","","","100.89","","","","-3","","NA"
"2015-11-23 19:00","2015","11","23","19:00","-0.9","","-6.2","","67","","29","","4","","","","100.94","","","","-2","","NA"
"2015-11-23 20:00","2015","11","23","20:00","0.1","","-6.0","","64","","26","","10","","","","100.95","","","","","","NA"
"2015-11-23 21:00","2015","11","23","21:00","0.5","","-6.5","","60","","27","","8","","","","100.95","","","","","","NA"
"2015-11-23 22:00","2015","11","23","22:00","0.6","","-6.1","","61","","27","","10","","","","100.96","","","","","","NA"
"2015-11-23 23:00","2015","11","23","23:00","0.8","","-5.4","","63","","22","","7","","","","100.94","","","","","","NA"
"2015-11-24 00:00","2015","11","24","00:00","1.6","","-4.1","","66","","23","","11","","","","100.93","","","","","","NA"
"2015-11-24 01:00","2015","11","24","01:00","1.7","","-2.5","","74","","23","","22","","","","100.91","","","","","","NA"
"2015-11-24 02:00","2015","11","24","02:00","1.8","","-2.1","","75","","23","","21","","","","100.92","","","","","","NA"
"2015-11-24 03:00","2015","11","24","03:00","2.3","","-3.0","","68","","23","","17","","","","100.92","","","","","","NA"
"2015-11-24 04:00","2015","11","24","04:00","2.1","","-2.3","","73","","24","","11","","","","100.96","","","","","","NA"
"2015-11-24 05:00","2015","11","24","05:00","1.7","","-1.8","","78","","29","","6","","","","100.99","","","","","","NA"
"2015-11-24 06:00","2015","11","24","06:00","1.3","","-1.0","","85","","29","","10","","","","101.05","","","","","","NA"
"2015-11-24 07:00","2015","11","24","07:00","1.1","","-0.8","","87","","29","","8","","","","101.14","","","","","","NA"
"2015-11-24 08:00","2015","11","24","08:00","0.3","","-1.4","","89","","34","","6","","","","101.22","","","","","","NA"
"2015-11-24 09:00","2015","11","24","09:00","-0.4","","-1.9","","90","","34","","11","","","","101.28","","","","-4","","NA"
"2015-11-24 10:00","2015","11","24","10:00","1.4","","-1.6","","81","","34","","2","","","","101.35","","","","","","NA"
"2015-11-24 11:00","2015","11","24","11:00","2.1","","-1.1","","79","","35","","4","","","","101.38","","","","","","NA"
"2015-11-24 12:00","2015","11","24","12:00","2.9","","-1.2","","74","","23","","3","","","","101.39","","","","","","NA"
"2015-11-24 13:00","2015","11","24","13:00","4.1","","-0.2","","74","","21","","11","","","","101.41","","","","","","NA"
"2015-11-24 14:00","2015","11","24","14:00","3.6","","-1.4","","70","","22","","12","","","","101.43","","","","","","NA"
"2015-11-24 15:00","2015","11","24","15:00","4.5","","-1.5","","65","","23","","11","","","","101.49","","","","","","NA"
"2015-11-24 16:00","2015","11","24","16:00","3.9","","-2.0","","65","","25","","8","","","","101.56","","","","","","NA"
"2015-11-24 17:00","2015","11","24","17:00","3.2","","-2.0","","69","","23","","4","","","","101.62","","","","","","NA"
"2015-11-24 18:00","2015","11","24","18:00","2.9","","-1.6","","72","","28","","8","","","","101.73","","","","","","NA"
"2015-11-24 19:00","2015","11","24","19:00","1.6","","-1.7","","78","","35","","5","","","","101.79","","","","","","NA"
"2015-11-24 20:00","2015","11","24","20:00","1.8","","-1.2","","81","","35","","7","","","","101.87","","","","","","NA"
"2015-11-24 21:00","2015","11","24","21:00","1.2","","-0.5","","88","","4","","10","","","","101.92","","","","","","NA"
"2015-11-24 22:00","2015","11","24","22:00","1.1","","-0.5","","89","","4","","13","","","","101.97","","","","","","NA"
"2015-11-24 23:00","2015","11","24","23:00","0.4","","-1.3","","89","","4","","17","","","","102.02","","","","","","NA"
"2015-11-25 00:00","2015","11","25","00:00","0.3","","-1.3","","89","","5","","16","","","","102.07","","","","","","NA"
"2015-11-25 01:00","2015","11","25","01:00","0.1","","-1.5","","89","","5","","16","","","","102.10","","","","","","NA"
"2015-11-25 02:00","2015","11","25","02:00","0.2","","-1.5","","89","","4","","14","","","","102.19","","","","","","NA"
"2015-11-25 03:00","2015","11","25","03:00","0.1","","-1.5","","89","","4","","14","","","","102.27","","","","","","NA"
"2015-11-25 04:00","2015","11","25","04:00","0.1","","-1.7","","87","","3","","11","","","","102.34","","","","","","NA"
"2015-11-25 05:00","2015","11","25","05:00","0.0","","-2.0","","86","","3","","8","","","","102.40","","","","-3","","NA"
"2015-11-25 06:00","2015","11","25","06:00","0.1","","-2.1","","85","","4","","9","","","","102.49","","","","","","NA"
"2015-11-25 07:00","2015","11","25","07:00","0.1","","-1.9","","86","","5","","11","","","","102.54","","","","","","NA"
"2015-11-25 08:00","2015","11","25","08:00","0.7","","-1.4","","85","","4","","7","","","","102.62","","","","","","NA"
"2015-11-25 09:00","2015","11","25","09:00","1.5","","-0.6","","86","","5","","10","","","","102.65","","","","","","NA"
"2015-11-25 10:00","2015","11","25","10:00","2.6","","0.2","","84","","5","","9","","","","102.69","","","","","","NA"
"2015-11-25 11:00","2015","11","25","11:00","4.5","","1.5","","81","","8","","12","","","","102.68","","","","","","NA"
"2015-11-25 12:00","2015","11","25","12:00","6.5","","1.9","","72","","17","","18","","","","102.63","","","","","","NA"
"2015-11-25 13:00","2015","11","25","13:00","6.7","","2.0","","72","","16","","21","","","","102.55","","","","","","NA"
"2015-11-25 14:00","2015","11","25","14:00","7.1","","1.0","","65","","16","","21","","","","102.51","","","","","","NA"
"2015-11-25 15:00","2015","11","25","15:00","7.2","","0.1","","60","","15","","22","","","","102.48","","","","","","NA"
"2015-11-25 16:00","2015","11","25","16:00","7.4","","-0.6","","57","","15","","26","","","","102.46","","","","","","NA"
"2015-11-25 17:00","2015","11","25","17:00","7.7","","-0.6","","56","","15","","29","","","","102.43","","","","","","NA"
"2015-11-25 18:00","2015","11","25","18:00","7.8","","0.6","","60","","15","","29","","","","102.38","","","","","","NA"
"2015-11-25 19:00","2015","11","25","19:00","7.6","","1.0","","63","","15","","27","","","","102.39","","","","","","NA"
"2015-11-25 20:00","2015","11","25","20:00","8.0","","0.6","","60","","16","","35","","","","102.36","","","","","","NA"
"2015-11-25 21:00","2015","11","25","21:00","7.8","","1.4","","64","","16","","39","","","","102.33","","","","","","NA"
"2015-11-25 22:00","2015","11","25","22:00","7.5","","0.7","","62","","17","","40","","","","102.32","","","","","","NA"
"2015-11-25 23:00","2015","11","25","23:00","7.2","","1.1","","65","","17","","38","","","","102.31","","","","","","NA"
"2015-11-26 00:00","2015","11","26","00:00","7.1","","0.9","","65","","17","","34","","","","102.35","","","","","","NA"
"2015-11-26 01:00","2015","11","26","01:00","6.9","","1.1","","67","","17","","33","","","","102.34","","","","","","NA"
"2015-11-26 02:00","2015","11","26","02:00","7.2","","1.9","","69","","17","","34","","","","102.35","","","","","","NA"
"2015-11-26 03:00","2015","11","26","03:00","7.0","","1.8","","69","","17","","36","","","","102.32","","","","","","NA"
"2015-11-26 04:00","2015","11","26","04:00","7.1","","2.0","","70","","17","","38","","","","102.28","","","","","","NA"
"2015-11-26 05:00","2015","11","26","05:00","7.0","","2.2","","72","","17","","43","","","","102.28","","","","","","NA"
"2015-11-26 06:00","2015","11","26","06:00","7.3","","2.6","","72","","18","","32","","","","102.35","","","","","","NA"
"2015-11-26 07:00","2015","11","26","07:00","7.2","","3.1","","75","","18","","32","","","","102.39","","","","","","NA"
"2015-11-26 08:00","2015","11","26","08:00","7.8","","3.3","","74","","18","","32","","","","102.38","","","","","","NA"
"2015-11-26 09:00","2015","11","26","09:00","8.0","","3.8","","75","","17","","32","","","","102.38","","","","","","NA"
"2015-11-26 10:00","2015","11","26","10:00","9.1","","3.8","","70","","18","","33","","","","102.36","","","","","","NA"
"2015-11-26 11:00","2015","11","26","11:00","9.5","","4.2","","69","","18","","32","","","","102.31","","","","","","NA"
"2015-11-26 12:00","2015","11","26","12:00","9.6","","4.5","","71","","19","","28","","","","102.26","","","","","","NA"
"2015-11-26 13:00","2015","11","26","13:00","9.8","","5.3","","74","","18","","24","","","","102.13","","","","","","NA"
"2015-11-26 14:00","2015","11","26","14:00","10.3","","5.4","","72","","18","","25","","","","102.04","","","","","","NA"
"2015-11-26 15:00","2015","11","26","15:00","10.4","","5.9","","74","","17","","25","","","","102.00","","","","","","NA"
"2015-11-26 16:00","2015","11","26","16:00","10.7","","6.0","","73","","17","","25","","","","101.94","","","","","","NA"
"2015-11-26 17:00","2015","11","26","17:00","10.7","","6.1","","73","","18","","26","","","","101.93","","","","","","NA"
"2015-11-26 18:00","2015","11","26","18:00","11.0","","5.7","","70","","18","","34","","","","101.87","","","","","","NA"
"2015-11-26 19:00","2015","11","26","19:00","10.8","","6.0","","72","","18","","31","","","","101.85","","","","","","NA"
"2015-11-26 20:00","2015","11","26","20:00","10.9","","5.8","","71","","18","","33","","","","101.83","","","","","","NA"
"2015-11-26 21:00","2015","11","26","21:00","10.7","","5.9","","72","","18","","33","","","","101.76","","","","","","NA"
"2015-11-26 22:00","2015","11","26","22:00","10.8","","6.0","","72","","18","","34","","","","101.73","","","","","","NA"
"2015-11-26 23:00","2015","11","26","23:00","10.6","","5.9","","73","","18","","35","","","","101.69","","","","","","NA"
"2015-11-27 00:00","2015","11","27","00:00","10.4","","6.0","","74","","18","","36","","","","101.62","","","","","","NA"
"2015-11-27 01:00","2015","11","27","01:00","10.4","","6.3","","76","","18","","33","","","","101.56","","","","","","NA"
"2015-11-27 02:00","2015","11","27","02:00","10.7","","6.2","","74","","20","","25","","","","101.57","","","","","","NA"
"2015-11-27 03:00","2015","11","27","03:00","10.6","","6.3","","75","","19","","31","","","","101.47","","","","","","NA"
"2015-11-27 04:00","2015","11","27","04:00","10.7","","6.5","","75","","19","","30","","","","101.43","","","","","","NA"
"2015-11-27 05:00","2015","11","27","05:00","10.7","","6.5","","75","","18","","32","","","","101.34","","","","","","NA"
"2015-11-27 06:00","2015","11","27","06:00","10.5","","6.7","","77","","19","","29","","","","101.31","","","","","","NA"
"2015-11-27 07:00","2015","11","27","07:00","10.5","","6.7","","77","","19","","29","","","","101.28","","","","","","NA"
"2015-11-27 08:00","2015","11","27","08:00","10.5","","6.8","","78","","19","","26","","","","101.23","","","","","","NA"
"2015-11-27 09:00","2015","11","27","09:00","10.4","","6.9","","79","","19","","25","","","","101.22","","","","","","NA"
"2015-11-27 10:00","2015","11","27","10:00","10.8","","7.0","","77","","19","","26","","","","101.16","","","","","","NA"
"2015-11-27 11:00","2015","11","27","11:00","11.0","","7.0","","76","","20","","25","","","","101.12","","","","","","NA"
"2015-11-27 12:00","2015","11","27","12:00","11.7","","7.2","","74","","20","","26","","","","101.02","","","","","","NA"
"2015-11-27 13:00","2015","11","27","13:00","12.3","","7.3","","71","","21","","29","","","","100.98","","","","","","NA"
"2015-11-27 14:00","2015","11","27","14:00","11.2","","9.1","","87","","24","","26","","","","100.96","","","","","","NA"
"2015-11-27 15:00","2015","11","27","15:00","10.8","","9.3","","90","","23","","23","","","","100.92","","","","","","NA"
"2015-11-27 16:00","2015","11","27","16:00","11.0","","9.6","","91","","24","","27","","","","100.90","","","","","","NA"
"2015-11-27 17:00","2015","11","27","17:00","10.9","","9.6","","91","","24","","25","","","","100.90","","","","","","NA"
"2015-11-27 18:00","2015","11","27","18:00","10.7","","9.2","","91","","26","","19","","","","100.97","","","","","","NA"
"2015-11-27 19:00","2015","11","27","19:00","","M","3.3","","92","","36","","24","","","","101.16","","","","","","NA"
"2015-11-27 20:00","2015","11","27","20:00","2.8","","1.7","","92","","35","","26","","","","101.23","","","","","","NA"
"2015-11-27 21:00","2015","11","27","21:00","2.0","","0.8","","92","","36","","19","","","","101.33","","","","","","NA"
"2015-11-27 22:00","2015","11","27","22:00","1.6","","0.3","","91","","1","","17","","","","101.42","","","","","","NA"
"2015-11-27 23:00","2015","11","27","23:00","1.2","","-0.2","","90","","1","","15","","","","101.44","","","","","","NA"
"2015-11-28 00:00","2015","11","28","00:00","1.0","","-0.8","","88","","1","","18","","","","101.50","","","","","","NA"
"2015-11-28 01:00","2015","11","28","01:00","0.8","","-0.9","","89","","2","","12","","","","101.45","","","","","","NA"
"2015-11-28 02:00","2015","11","28","02:00","0.6","","-1.4","","86","","1","","14","","","","101.49","","","","","","NA"
"2015-11-28 03:00","2015","11","28","03:00","0.6","","-1.8","","85","","1","","18","","","","101.55","","","","","","NA"
"2015-11-28 04:00","2015","11","28","04:00","0.3","","-2.0","","85","","36","","17","","","","101.57","","","","","","NA"
"2015-11-28 05:00","2015","11","28","05:00","0.0","","-2.2","","85","","36","","14","","","","101.51","","","","-4","","NA"
"2015-11-28 06:00","2015","11","28","06:00","-0.2","","-2.6","","84","","1","","15","","","","101.58","","","","-5","","NA"
"2015-11-28 07:00","2015","11","28","07:00","-0.9","","-3.3","","84","","1","","18","","","","101.56","","","","-6","","NA"
"2015-11-28 08:00","2015","11","28","08:00","-1.2","","-3.6","","84","","1","","15","","","","101.58","","","","-6","","NA"
"2015-11-28 09:00","2015","11","28","09:00","-1.0","","-3.4","","84","","2","","12","","","","101.61","","","","-5","","NA"
"2015-11-28 10:00","2015","11","28","10:00","-0.9","","-3.3","","83","","5","","12","","","","101.66","","","","-5","","NA"
"2015-11-28 11:00","2015","11","28","11:00","-1.0","","-3.2","","85","","35","","17","","","","101.61","","","","-6","","NA"
"2015-11-28 12:00","2015","11","28","12:00","-0.5","","-2.8","","85","","2","","7","","","","101.51","","","","-3","","NA"
"2015-11-28 13:00","2015","11","28","13:00","-0.6","","-2.8","","85","","35","","11","","","","101.49","","","","-4","","NA"
"2015-11-28 14:00","2015","11","28","14:00","-0.9","","-3.2","","84","","35","","12","","","","101.49","","","","-5","","NA"
"2015-11-28 15:00","2015","11","28","15:00","-1.2","","-3.8","","82","","1","","7","","","","101.48","","","","-4","","NA"
"2015-11-28 16:00","2015","11","28","16:00","-1.7","","-4.6","","80","","30","","8","","","","101.47","","","","-5","","NA"
"2015-11-28 17:00","2015","11","28","17:00","-1.7","","-4.4","","82","","35","","6","","","","101.46","","","","-4","","NA"
"2015-11-28 18:00","2015","11","28","18:00","-2.1","","-4.2","","85","","35","","7","","","","101.46","","","","-5","","NA"
"2015-11-28 19:00","2015","11","28","19:00","-2.7","","-5.0","","84","","32","","9","","","","101.54","","","","-6","","NA"
"2015-11-28 20:00","2015","11","28","20:00","-3.4","","-5.1","","88","","25","","2","","","","101.54","","","","-4","","NA"
"2015-11-28 21:00","2015","11","28","21:00"
"2015-11-28 22:00","2015","11","28","22:00"
"2015-11-28 23:00","2015","11","28","23:00"
"2015-11-29 00:00","2015","11","29","00:00"
"2015-11-29 01:00","2015","11","29","01:00"
"2015-11-29 02:00","2015","11","29","02:00","-3.0","","-5.5","","83","","27","","8","","","","101.48","","","","-6","","NA"
"2015-11-29 03:00","2015","11","29","03:00","-5.0","","-6.7","","88","","31","","10","","","","101.49","","","","-9","","NA"
"2015-11-29 04:00","2015","11","29","04:00","-7.2","","-8.5","","90","","33","","10","","","","101.48","","","","-12","","NA"
"2015-11-29 05:00","2015","11","29","05:00","-7.4","","-8.5","","92","","34","","13","","","","101.48","","","","-13","","NA"
"2015-11-29 06:00","2015","11","29","06:00","-7.3","","-8.8","","89","","35","","12","","","","101.53","","","","-13","","NA"
"2015-11-29 07:00","2015","11","29","07:00","-7.4","","-8.5","","92","","34","","10","","","","101.59","","","","-12","","NA"
"2015-11-29 08:00","2015","11","29","08:00","-6.8","","-8.1","","91","","35","","7","","","","101.64","","","","-10","","NA"
"2015-11-29 09:00","2015","11","29","09:00","-3.9","","-5.4","","89","","34","","6","","","","101.67","","","","-7","","NA"
"2015-11-29 10:00","2015","11","29","10:00","-1.9","","-4.7","","82","","34","","7","","","","101.68","","","","-5","","NA"
"2015-11-29 11:00","2015","11","29","11:00","-0.2","","-4.0","","76","","32","","5","","","","101.66","","","","-2","","NA"
"2015-11-29 12:00","2015","11","29","12:00","1.3","","-3.7","","70","","32","","6","","","","101.61","","","","","","NA"
"2015-11-29 13:00","2015","11","29","13:00","1.6","","-3.3","","70","","33","","9","","","","101.69","","","","","","NA"
"2015-11-29 14:00","2015","11","29","14:00","0.9","","-3.5","","72","","35","","13","","","","101.70","","","","","","NA"
"2015-11-29 15:00","2015","11","29","15:00","0.4","","-3.5","","75","","36","","13","","","","101.72","","","","","","NA"
"2015-11-29 16:00","2015","11","29","16:00","0.0","","-3.9","","75","","36","","16","","","","101.76","","","","-5","","NA"
"2015-11-29 17:00","2015","11","29","17:00","-0.5","","-4.7","","73","","3","","13","","","","101.80","","","","-5","","NA"
"2015-11-29 18:00","2015","11","29","18:00","-1.3","","-6.0","","70","","1","","15","","","","101.88","","","","-6","","NA"
"2015-11-29 19:00","2015","11","29","19:00","-1.4","","-6.7","","67","","1","","18","","","","101.91","","","","-7","","NA"
"2015-11-29 20:00","2015","11","29","20:00","-1.3","","-6.8","","66","","2","","15","","","","101.98","","","","-6","","NA"
"2015-11-29 21:00","2015","11","29","21:00","-1.1","","-6.2","","68","","3","","12","","","","102.00","","","","-5","","NA"
"2015-11-29 22:00","2015","11","29","22:00","-1.2","","-7.0","","65","","4","","15","","","","102.00","","","","-6","","NA"
"2015-11-29 23:00","2015","11","29","23:00","-1.6","","-6.6","","69","","3","","10","","","","102.02","","","","-5","","NA"
"2015-11-30 00:00","2015","11","30","00:00","-1.8","","-6.3","","71","","3","","10","","","","102.02","","","","-5","","NA"
"2015-11-30 01:00","2015","11","30","01:00","-2.0","","-6.7","","70","","5","","13","","","","101.96","","","","-6","","NA"
"2015-11-30 02:00","2015","11","30","02:00","-2.4","","-6.7","","72","","5","","13","","","","101.98","","","","-7","","NA"
"2015-11-30 03:00","2015","11","30","03:00","-2.5","","-6.6","","73","","3","","12","","","","102.00","","","","-7","","NA"
"2015-11-30 04:00","2015","11","30","04:00","-2.6","","-6.3","","76","","3","","9","","","","102.00","","","","-6","","NA"
"2015-11-30 05:00","2015","11","30","05:00","-2.7","","-6.2","","77","","36","","10","","","","101.98","","","","-7","","NA"
"2015-11-30 06:00","2015","11","30","06:00","-2.7","","-6.3","","76","","3","","7","","","","101.98","","","","-6","","NA"
"2015-11-30 07:00","2015","11","30","07:00","-2.9","","-6.2","","78","","5","","12","","","","101.98","","","","-7","","NA"
"2015-11-30 08:00","2015","11","30","08:00","-2.5","","-6.0","","77","","5","","10","","","","101.98","","","","-6","","NA"
"2015-11-30 09:00","2015","11","30","09:00","-1.6","","-5.3","","76","","8","","12","","","","101.94","","","","-6","","NA"
"2015-11-30 10:00","2015","11","30","10:00","-1.1","","-5.3","","73","","6","","11","","","","101.96","","","","-5","","NA"
"2015-11-30 11:00","2015","11","30","11:00","-0.5","","-4.3","","75","","7","","12","","","","101.91","","","","-4","","NA"
"2015-11-30 12:00","2015","11","30","12:00","-0.3","","-4.4","","74","","8","","12","","","","101.82","","","","-4","","NA"
"2015-11-30 13:00","2015","11","30","13:00","0.2","","-4.4","","71","","3","","13","","","","101.76","","","","","","NA"
"2015-11-30 14:00","2015","11","30","14:00","0.4","","-4.5","","70","","4","","10","","","","101.69","","","","","","NA"
"2015-11-30 15:00","2015","11","30","15:00","0.7","","-4.9","","67","","4","","7","","","","101.61","","","","","","NA"
"2015-11-30 16:00","2015","11","30","16:00","0.1","","-4.9","","69","","2","","9","","","","101.58","","","","","","NA"
"2015-11-30 17:00","2015","11","30","17:00","-1.3","","-5.3","","74","","2","","11","","","","101.59","","","","-5","","NA"
"2015-11-30 18:00","2015","11","30","18:00","-1.6","","-5.3","","76","","2","","9","","","","101.62","","","","-5","","NA"
"2015-11-30 19:00","2015","11","30","19:00","-2.3","","-5.5","","78","","4","","11","","","","101.61","","","","-6","","NA"
"2015-11-30 20:00","2015","11","30","20:00","-2.1","","-5.5","","77","","5","","17","","","","101.58","","","","-7","","NA"
"2015-11-30 21:00","2015","11","30","21:00","-2.7","","-5.7","","80","","5","","14","","","","101.56","","","","-8","","NA"
"2015-11-30 22:00","2015","11","30","22:00","-3.0","","-5.6","","83","","5","","13","","","","101.53","","","","-8","","NA"
"2015-11-30 23:00","2015","11","30","23:00","-3.0","","-5.5","","82","","5","","20","","","","101.50","","","","-9","","NA"
