"Station Name","KINGSTON CLIMATE"
"Province","ONTARIO"
"Latitude","44.22"
"Longitude","-76.60"
"Elevation","93.00"
"Climate Identifier","6104142"
"WMO Identifier","71820"
"TC Identifier","TKG"
"All times are specified in Local Standard Time (LST). Add 1 hour to adjust for Daylight Saving Time where and when it is observed."

"Legend"
"E","Estimated"
"M","Missing"
"NA","Not Available"

"Date/Time","Year","Month","Day","Time","Temp (°C)","Temp Flag","Dew Point Temp (°C)","Dew Point Temp Flag","Rel Hum (%)","Rel Hum Flag","Wind Dir (10s deg)","Wind Dir Flag","Wind Spd (km/h)","Wind Spd Flag","Visibility (km)","Visibility Flag","Stn Press (kPa)","Stn Press Flag","Hmdx","Hmdx Flag","Wind Chill","Wind Chill Flag","Weather"
"2017-02-01 00:00","2017","02","01","00:00","-6.9","","-8.4","","89","","4","","14","","","","99.50","","","","-13","","NA"
"2017-02-01 01:00","2017","02","01","01:00","-6.9","","-8.2","","91","","3","","15","","","","99.47","","","","-13","","NA"
"2017-02-01 02:00","2017","02","01","02:00","-6.8","","-8.1","","91","","3","","15","","","","99.48","","","","-13","","NA"
"2017-02-01 03:00","2017","02","01","03:00","-6.8","","-8.3","","89","","3","","15","","","","99.48","","","","-13","","NA"
"2017-02-01 04:00","2017","02","01","04:00","-6.9","","-8.4","","89","","1","","9","","","","99.53","","","","-11","","NA"
"2017-02-01 05:00","2017","02","01","05:00","-7.1","","-8.5","","90","","35","","9","","","","99.58","","","","-11","","NA"
"2017-02-01 06:00","2017","02","01","06:00","-8.1","","-9.5","","89","","","","0","","","","99.62","","","","","","NA"
"2017-02-01 07:00","2017","02","01","07:00","-8.4","","-9.6","","91","","3","","2","","","","99.69","","","","-9","","NA"
"2017-02-01 08:00","2017","02","01","08:00","-7.7","","-9.3","","89","","3","","4","","","","99.73","","","","-10","","NA"
"2017-02-01 09:00","2017","02","01","09:00","-7.3","","-9.0","","88","","1","","3","","","","99.77","","","","-9","","NA"
"2017-02-01 10:00","2017","02","01","10:00","-6.7","","-8.5","","87","","34","","3","","","","99.79","","","","-8","","NA"
"2017-02-01 11:00","2017","02","01","11:00","-4.8","","-7.1","","84","","21","","4","","","","99.83","","","","-7","","NA"
"2017-02-01 12:00","2017","02","01","12:00","-2.9","","-5.8","","81","","27","","12","","","","99.81","","","","-7","","NA"
"2017-02-01 13:00","2017","02","01","13:00","-1.9","","-5.1","","78","","27","","14","","","","99.83","","","","-7","","NA"
"2017-02-01 14:00","2017","02","01","14:00","-1.0","","-4.7","","76","","26","","16","","","","99.83","","","","-6","","NA"
"2017-02-01 15:00","2017","02","01","15:00","-0.5","","-4.5","","75","","21","","10","","","","99.89","","","","-4","","NA"
"2017-02-01 16:00","2017","02","01","16:00","0.5","","-3.7","","74","","25","","14","","","","99.95","","","","","","NA"
"2017-02-01 17:00","2017","02","01","17:00","0.8","","-5.8","","61","","25","","12","","","","100.05","","","","","","NA"
"2017-02-01 18:00","2017","02","01","18:00","-0.4","","-7.9","","57","","25","","14","","","","100.14","","","","-5","","NA"
"2017-02-01 19:00","2017","02","01","19:00","-0.3","","-7.8","","57","","26","","14","","","","100.22","","","","-5","","NA"
"2017-02-01 20:00","2017","02","01","20:00","-0.3","","-6.4","","63","","24","","14","","","","100.24","","","","-5","","NA"
"2017-02-01 21:00","2017","02","01","21:00","-1.0","","-5.9","","69","","22","","16","","","","100.23","","","","-6","","NA"
"2017-02-01 22:00","2017","02","01","22:00","-0.8","","-5.9","","69","","26","","22","","","","100.22","","","","-7","","NA"
"2017-02-01 23:00","2017","02","01","23:00","-1.5","","-6.1","","71","","26","","17","","","","100.26","","","","-7","","NA"
"2017-02-02 00:00","2017","02","02","00:00","-2.0","","-6.6","","71","","26","","15","","","","100.27","","","","-7","","NA"
"2017-02-02 01:00","2017","02","02","01:00","-2.5","","-7.5","","69","","27","","16","","","","100.30","","","","-8","","NA"
"2017-02-02 02:00","2017","02","02","02:00","-3.1","","-8.5","","66","","29","","16","","","","100.35","","","","-8","","NA"
"2017-02-02 03:00","2017","02","02","03:00","-3.7","","-10.4","","59","","28","","17","","","","100.38","","","","-9","","NA"
"2017-02-02 04:00","2017","02","02","04:00","-4.2","","-11.0","","59","","27","","13","","","","100.39","","","","-9","","NA"
"2017-02-02 05:00","2017","02","02","05:00","-5.5","","-11.3","","64","","29","","11","","","","100.43","","","","-10","","NA"
"2017-02-02 06:00","2017","02","02","06:00","-6.3","","-11.3","","68","","27","","9","","","","100.49","","","","-11","","NA"
"2017-02-02 07:00","2017","02","02","07:00","-7.9","","-11.9","","73","","30","","9","","","","100.58","","","","-12","","NA"
"2017-02-02 08:00","2017","02","02","08:00","-9.2","","-12.1","","80","","34","","9","","","","100.63","","","","-14","","NA"
"2017-02-02 09:00","2017","02","02","09:00","-8.7","","-12.2","","76","","36","","5","","","","100.65","","","","-11","","NA"
"2017-02-02 10:00","2017","02","02","10:00","-6.2","","-11.0","","69","","16","","8","","","","100.65","","","","-10","","NA"
"2017-02-02 11:00","2017","02","02","11:00","-5.1","","-11.0","","63","","22","","12","","","","100.63","","","","-10","","NA"
"2017-02-02 12:00","2017","02","02","12:00","-4.0","","-10.7","","59","","24","","17","","","","100.55","","","","-10","","NA"
"2017-02-02 13:00","2017","02","02","13:00","-2.7","","-12.9","","45","","26","","27","","","","100.46","","","","-10","","NA"
"2017-02-02 14:00","2017","02","02","14:00","-2.4","","-10.2","","55","","25","","30","","","","100.43","","","","-10","","NA"
"2017-02-02 15:00","2017","02","02","15:00","-2.6","","-12.0","","48","","27","","32","","","","100.44","","","","-10","","NA"
"2017-02-02 16:00","2017","02","02","16:00","-3.0","","-12.5","","48","","26","","30","","","","100.52","","","","-10","","NA"
"2017-02-02 17:00","2017","02","02","17:00","-3.6","","-13.0","","48","","26","","28","","","","100.61","","","","-11","","NA"
"2017-02-02 18:00","2017","02","02","18:00","-4.4","","-12.6","","53","","27","","21","","","","100.71","","","","-11","","NA"
"2017-02-02 19:00","2017","02","02","19:00","-4.8","","-12.4","","55","","26","","24","","","","100.79","","","","-12","","NA"
"2017-02-02 20:00","2017","02","02","20:00","-5.3","","-11.8","","60","","27","","20","","","","100.84","","","","-12","","NA"
"2017-02-02 21:00","2017","02","02","21:00","-4.8","","-11.6","","59","","26","","24","","","","100.89","","","","-12","","NA"
"2017-02-02 22:00","2017","02","02","22:00","-5.0","","-11.0","","63","","24","","29","","","","100.90","","","","-13","","NA"
"2017-02-02 23:00","2017","02","02","23:00","-5.0","","-11.5","","60","","25","","29","","","","100.92","","","","-13","","NA"
"2017-02-03 00:00","2017","02","03","00:00","-5.0","","-11.6","","60","","24","","29","","","","100.87","","","","-13","","NA"
"2017-02-03 01:00","2017","02","03","01:00","-4.7","","-10.9","","62","","24","","27","","","","100.82","","","","-12","","NA"
"2017-02-03 02:00","2017","02","03","02:00","-4.9","","-11.3","","61","","25","","23","","","","100.83","","","","-12","","NA"
"2017-02-03 03:00","2017","02","03","03:00","-5.2","","-11.5","","61","","26","","20","","","","100.82","","","","-12","","NA"
"2017-02-03 04:00","2017","02","03","04:00","-5.5","","-11.4","","63","","26","","20","","","","100.78","","","","-12","","NA"
"2017-02-03 05:00","2017","02","03","05:00","-5.8","","-11.5","","64","","26","","21","","","","100.80","","","","-13","","NA"
"2017-02-03 06:00","2017","02","03","06:00","-6.2","","-11.5","","66","","26","","20","","","","100.79","","","","-13","","NA"
"2017-02-03 07:00","2017","02","03","07:00","-6.8","","-12.0","","66","","27","","17","","","","100.80","","","","-13","","NA"
"2017-02-03 08:00","2017","02","03","08:00","-7.0","","-12.0","","68","","27","","17","","","","100.85","","","","-13","","NA"
"2017-02-03 09:00","2017","02","03","09:00","-7.2","","-12.7","","65","","28","","18","","","","100.93","","","","-14","","NA"
"2017-02-03 10:00","2017","02","03","10:00","-6.8","","-12.4","","64","","28","","16","","","","100.94","","","","-13","","NA"
"2017-02-03 11:00","2017","02","03","11:00","-5.9","","-12.2","","61","","26","","15","","","","100.91","","","","-12","","NA"
"2017-02-03 12:00","2017","02","03","12:00","-5.1","","-11.3","","62","","25","","20","","","","100.83","","","","-12","","NA"
"2017-02-03 13:00","2017","02","03","13:00","-4.8","","-11.7","","59","","26","","19","","","","100.75","","","","-11","","NA"
"2017-02-03 14:00","2017","02","03","14:00","-4.3","","-11.9","","56","","25","","17","","","","100.70","","","","-10","","NA"
"2017-02-03 15:00","2017","02","03","15:00","-4.5","","-12.4","","54","","26","","19","","","","100.72","","","","-11","","NA"
"2017-02-03 16:00","2017","02","03","16:00","-4.8","","-11.5","","59","","26","","17","","","","100.74","","","","-11","","NA"
"2017-02-03 17:00","2017","02","03","17:00","-4.6","","-11.3","","60","","26","","17","","","","100.76","","","","-10","","NA"
"2017-02-03 18:00","2017","02","03","18:00","-5.2","","-11.2","","63","","27","","16","","","","100.80","","","","-11","","NA"
"2017-02-03 19:00","2017","02","03","19:00","-5.9","","-11.3","","65","","27","","16","","","","100.86","","","","-12","","NA"
"2017-02-03 20:00","2017","02","03","20:00","-6.2","","-11.5","","66","","26","","17","","","","100.89","","","","-12","","NA"
"2017-02-03 21:00","2017","02","03","21:00","-5.8","","-11.6","","64","","26","","20","","","","100.92","","","","-13","","NA"
"2017-02-03 22:00","2017","02","03","22:00","-5.9","","-11.9","","63","","26","","27","","","","100.96","","","","-14","","NA"
"2017-02-03 23:00","2017","02","03","23:00","-6.2","","-12.0","","64","","27","","21","","","","101.01","","","","-13","","NA"
"2017-02-04 00:00","2017","02","04","00:00","-7.8","","-12.5","","69","","27","","14","","","","101.09","","","","-14","","NA"
"2017-02-04 01:00","2017","02","04","01:00","-8.1","","-12.2","","72","","26","","16","","","","101.12","","","","-15","","NA"
"2017-02-04 02:00","2017","02","04","02:00","-8.3","","-11.9","","75","","25","","18","","","","101.15","","","","-15","","NA"
"2017-02-04 03:00","2017","02","04","03:00","-9.0","","-12.2","","77","","26","","15","","","","101.18","","","","-16","","NA"
"2017-02-04 04:00","2017","02","04","04:00","-9.0","","-12.1","","79","","27","","15","","","","101.20","","","","-16","","NA"
"2017-02-04 05:00","2017","02","04","05:00","-8.6","","-11.8","","78","","26","","14","","","","101.24","","","","-15","","NA"
"2017-02-04 06:00","2017","02","04","06:00","-6.9","","-10.7","","74","","26","","14","","","","101.24","","","","-13","","NA"
"2017-02-04 07:00","2017","02","04","07:00","-6.4","","-10.5","","73","","26","","17","","","","101.27","","","","-13","","NA"
"2017-02-04 08:00","2017","02","04","08:00","-6.0","","-10.3","","71","","25","","20","","","","101.29","","","","-13","","NA"
"2017-02-04 09:00","2017","02","04","09:00","-5.6","","-10.5","","68","","24","","20","","","","101.30","","","","-12","","NA"
"2017-02-04 10:00","2017","02","04","10:00","-5.3","","-10.7","","66","","25","","24","","","","101.31","","","","-13","","NA"
"2017-02-04 11:00","2017","02","04","11:00","-4.5","","-11.1","","60","","25","","29","","","","101.30","","","","-12","","NA"
"2017-02-04 12:00","2017","02","04","12:00","-3.7","","-11.2","","56","","25","","21","","","","101.19","","","","-10","","NA"
"2017-02-04 13:00","2017","02","04","13:00","-3.4","","-10.7","","57","","24","","31","","","","101.12","","","","-11","","NA"
"2017-02-04 14:00","2017","02","04","14:00","-3.1","","-10.3","","58","","24","","28","","","","101.07","","","","-10","","NA"
"2017-02-04 15:00","2017","02","04","15:00","-3.2","","-9.4","","62","","23","","30","","","","101.05","","","","-11","","NA"
"2017-02-04 16:00","2017","02","04","16:00","-3.8","","-9.7","","64","","23","","32","","","","101.04","","","","-12","","NA"
"2017-02-04 17:00","2017","02","04","17:00","-4.0","","-9.9","","64","","24","","26","","","","101.08","","","","-11","","NA"
"2017-02-04 18:00","2017","02","04","18:00","-4.2","","-9.5","","66","","23","","28","","","","101.06","","","","-12","","NA"
"2017-02-04 19:00","2017","02","04","19:00","-4.7","","-10.6","","64","","25","","19","","","","101.06","","","","-11","","NA"
"2017-02-04 20:00","2017","02","04","20:00","-4.7","","-10.4","","65","","26","","13","","","","101.03","","","","-10","","NA"
"2017-02-04 21:00","2017","02","04","21:00","-4.5","","-10.1","","65","","25","","10","","","","100.91","","","","-9","","NA"
"2017-02-04 22:00","2017","02","04","22:00","-4.5","","-8.8","","71","","22","","8","","","","100.86","","","","-8","","NA"
"2017-02-04 23:00","2017","02","04","23:00","-5.5","","-10.0","","71","","33","","5","","","","100.81","","","","-8","","NA"
"2017-02-05 00:00","2017","02","05","00:00","-5.6","","-10.8","","67","","33","","3","","","","100.70","","","","-7","","NA"
"2017-02-05 01:00","2017","02","05","01:00","-2.1","","-6.2","","73","","22","","15","","","","100.54","","","","-7","","NA"
"2017-02-05 02:00","2017","02","05","02:00","-1.7","","-7.4","","65","","21","","20","","","","100.41","","","","-7","","NA"
"2017-02-05 03:00","2017","02","05","03:00","-1.2","","-7.9","","60","","21","","23","","","","100.31","","","","-7","","NA"
"2017-02-05 04:00","2017","02","05","04:00","-0.8","","-6.7","","64","","20","","26","","","","100.15","","","","-7","","NA"
"2017-02-05 05:00","2017","02","05","05:00","-1.2","","-7.2","","63","","21","","24","","","","100.11","","","","-7","","NA"
"2017-02-05 06:00","2017","02","05","06:00","-1.4","","-7.5","","63","","22","","19","","","","99.99","","","","-7","","NA"
"2017-02-05 07:00","2017","02","05","07:00","-1.4","","-7.9","","62","","20","","19","","","","99.88","","","","-7","","NA"
"2017-02-05 08:00","2017","02","05","08:00","-0.8","","-7.5","","60","","22","","22","","","","99.81","","","","-7","","NA"
"2017-02-05 09:00","2017","02","05","09:00","-0.6","","-6.8","","63","","21","","23","","","","99.73","","","","-6","","NA"
"2017-02-05 10:00","2017","02","05","10:00","-0.1","","-6.3","","63","","22","","30","","","","99.67","","","","-7","","NA"
"2017-02-05 11:00","2017","02","05","11:00","-1.3","","-3.1","","87","","22","","25","","","","99.63","","","","-8","","NA"
"2017-02-05 12:00","2017","02","05","12:00","-1.0","","-3.1","","86","","24","","28","","","","99.57","","","","-8","","NA"
"2017-02-05 13:00","2017","02","05","13:00","-0.7","","-2.2","","90","","23","","21","","","","99.47","","","","-6","","NA"
"2017-02-05 14:00","2017","02","05","14:00","0.0","","-2.6","","83","","24","","27","","","","99.41","","","","-6","","NA"
"2017-02-05 15:00","2017","02","05","15:00","-0.1","","-2.7","","83","","25","","24","","","","99.42","","","","-6","","NA"
"2017-02-05 16:00","2017","02","05","16:00","-0.2","","-2.8","","83","","24","","26","","","","99.47","","","","-6","","NA"
"2017-02-05 17:00","2017","02","05","17:00","0.0","","-2.8","","82","","24","","27","","","","99.52","","","","-6","","NA"
"2017-02-05 18:00","2017","02","05","18:00","0.4","","-2.8","","79","","25","","29","","","","99.61","","","","","","NA"
"2017-02-05 19:00","2017","02","05","19:00","0.1","","-3.2","","78","","26","","29","","","","99.70","","","","","","NA"
"2017-02-05 20:00","2017","02","05","20:00","-0.4","","-5.5","","68","","27","","21","","","","99.84","","","","-6","","NA"
"2017-02-05 21:00","2017","02","05","21:00","-1.1","","-7.8","","60","","26","","22","","","","99.94","","","","-7","","NA"
"2017-02-05 22:00","2017","02","05","22:00","-1.8","","-7.6","","64","","27","","22","","","","100.07","","","","-8","","NA"
"2017-02-05 23:00","2017","02","05","23:00","-3.8","","-6.4","","82","","31","","25","","","","100.24","","","","-11","","NA"
"2017-02-06 00:00","2017","02","06","00:00","-5.6","","-13.0","","56","","30","","20","","","","100.39","","","","-12","","NA"
"2017-02-06 01:00","2017","02","06","01:00","-7.9","","-13.4","","65","","34","","9","","","","100.51","","","","-12","","NA"
"2017-02-06 02:00","2017","02","06","02:00","-8.8","","-13.9","","67","","33","","7","","","","100.63","","","","-13","","NA"
"2017-02-06 03:00","2017","02","06","03:00","-8.9","","-13.8","","68","","34","","5","","","","100.75","","","","-12","","NA"
"2017-02-06 04:00","2017","02","06","04:00","-9.0","","-14.5","","64","","32","","7","","","","100.80","","","","-13","","NA"
"2017-02-06 05:00","2017","02","06","05:00","-9.4","","-14.3","","68","","34","","4","","","","100.76","","","","-12","","NA"
"2017-02-06 06:00","2017","02","06","06:00","-9.3","","-14.1","","68","","34","","12","","","","100.85","","","","-15","","NA"
"2017-02-06 07:00","2017","02","06","07:00","-9.5","","-14.2","","69","","35","","10","","","","100.88","","","","-15","","NA"
"2017-02-06 08:00","2017","02","06","08:00","-9.7","","-13.3","","75","","2","","8","","","","100.88","","","","-14","","NA"
"2017-02-06 09:00","2017","02","06","09:00","-10.0","","-13.2","","77","","5","","4","","","","100.93","","","","-12","","NA"
"2017-02-06 10:00","2017","02","06","10:00","-8.2","","-12.6","","70","","","","0","","","","100.90","","","","","","NA"
"2017-02-06 11:00","2017","02","06","11:00","-7.5","","-11.4","","74","","19","","7","","","","100.90","","","","-11","","NA"
"2017-02-06 12:00","2017","02","06","12:00","-6.9","","-12.2","","66","","21","","7","","","","100.87","","","","-10","","NA"
"2017-02-06 13:00","2017","02","06","13:00","-6.5","","-11.2","","69","","19","","8","","","","100.78","","","","-10","","NA"
"2017-02-06 14:00","2017","02","06","14:00","-6.2","","-10.6","","71","","19","","9","","","","100.73","","","","-10","","NA"
"2017-02-06 15:00","2017","02","06","15:00","-5.8","","-8.5","","82","","0","","1","","","","100.70","","","","-6","","NA"
"2017-02-06 16:00","2017","02","06","16:00","-5.7","","-8.0","","84","","16","","2","","","","100.65","","","","-7","","NA"
"2017-02-06 17:00","2017","02","06","17:00","-5.6","","-7.5","","86","","6","","7","","","","100.63","","","","-9","","NA"
"2017-02-06 18:00","2017","02","06","18:00","-5.2","","-7.2","","86","","5","","7","","","","100.56","","","","-8","","NA"
"2017-02-06 19:00","2017","02","06","19:00","-5.2","","-7.0","","87","","6","","8","","","","100.55","","","","-9","","NA"
"2017-02-06 20:00","2017","02","06","20:00","-5.0","","-6.8","","87","","4","","9","","","","100.52","","","","-9","","NA"
"2017-02-06 21:00","2017","02","06","21:00","-4.8","","-6.6","","87","","4","","8","","","","100.46","","","","-8","","NA"
"2017-02-06 22:00","2017","02","06","22:00","-4.8","","-6.8","","86","","4","","6","","","","100.48","","","","-8","","NA"
"2017-02-06 23:00","2017","02","06","23:00","-4.7","","-6.8","","86","","4","","7","","","","100.48","","","","-8","","NA"
"2017-02-07 00:00","2017","02","07","00:00","-4.7","","-6.7","","86","","5","","8","","","","100.45","","","","-8","","NA"
"2017-02-07 01:00","2017","02","07","01:00","-4.5","","-6.7","","85","","4","","12","","","","100.37","","","","-9","","NA"
"2017-02-07 02:00","2017","02","07","02:00","-5.1","","-7.3","","84","","5","","19","","","","100.34","","","","-12","","NA"
"2017-02-07 03:00","2017","02","07","03:00","-5.3","","-7.4","","85","","4","","19","","","","100.38","","","","-12","","NA"
"2017-02-07 04:00","2017","02","07","04:00","-5.8","","-7.9","","85","","3","","19","","","","100.34","","","","-12","","NA"
"2017-02-07 05:00","2017","02","07","05:00","-6.2","","-8.3","","86","","4","","21","","","","100.33","","","","-13","","NA"
"2017-02-07 06:00","2017","02","07","06:00","-6.5","","-8.4","","86","","3","","22","","","","100.26","","","","-14","","NA"
"2017-02-07 07:00","2017","02","07","07:00","-6.5","","-8.4","","87","","4","","21","","","","100.21","","","","-14","","NA"
"2017-02-07 08:00","2017","02","07","08:00","-6.4","","-8.5","","85","","3","","24","","","","100.24","","","","-14","","NA"
"2017-02-07 09:00","2017","02","07","09:00","-6.6","","-8.8","","85","","3","","28","","","","100.13","","","","-15","","NA"
"2017-02-07 10:00","2017","02","07","10:00","-6.9","","-9.4","","82","","4","","30","","","","100.06","","","","-15","","NA"
"2017-02-07 11:00","2017","02","07","11:00","-7.1","","-9.9","","80","","4","","28","","","","99.98","","","","-15","","NA"
"2017-02-07 12:00","2017","02","07","12:00","-6.7","","-9.7","","79","","4","","33","","","","99.82","","","","-16","","NA"
"2017-02-07 13:00","2017","02","07","13:00","-6.3","","-9.4","","78","","4","","31","","","","99.63","","","","-15","","NA"
"2017-02-07 14:00","2017","02","07","14:00","-6.2","","-9.3","","78","","4","","31","","","","99.45","","","","-15","","NA"
"2017-02-07 15:00","2017","02","07","15:00","-5.9","","-8.0","","85","","4","","26","","","","99.29","","","","-14","","NA"
"2017-02-07 16:00","2017","02","07","16:00","-6.6","","-8.2","","88","","4","","26","","","","99.13","","","","-15","","NA"
"2017-02-07 17:00","2017","02","07","17:00","-6.7","","-8.0","","90","","5","","24","","","","98.94","","","","-14","","NA"
"2017-02-07 18:00","2017","02","07","18:00","-4.8","","-5.7","","94","","5","","20","","","","98.75","","","","-11","","NA"
"2017-02-07 19:00","2017","02","07","19:00","-3.2","","-4.1","","94","","5","","17","","","","98.54","","","","-9","","NA"
"2017-02-07 20:00","2017","02","07","20:00","-2.3","","-3.1","","95","","6","","7","","","","98.34","","","","-5","","NA"
"2017-02-07 21:00","2017","02","07","21:00","-0.9","","-1.5","","96","","10","","4","","","","98.17","","","","-2","","NA"
"2017-02-07 22:00","2017","02","07","22:00","3.3","","2.2","","93","","16","","45","","","","97.93","","","","","","NA"
"2017-02-07 23:00","2017","02","07","23:00","3.3","","2.6","","95","","16","","42","","","","97.85","","","","","","NA"
"2017-02-08 00:00","2017","02","08","00:00","4.2","","3.6","","96","","18","","38","","","","97.86","","","","","","NA"
"2017-02-08 01:00","2017","02","08","01:00","4.6","","3.9","","96","","18","","39","","","","97.80","","","","","","NA"
"2017-02-08 02:00","2017","02","08","02:00","6.3","","5.2","","93","","21","","33","","","","97.87","","","","","","NA"
"2017-02-08 03:00","2017","02","08","03:00","5.0","","3.7","","91","","24","","28","","","","97.99","","","","","","NA"
"2017-02-08 04:00","2017","02","08","04:00","3.8","","2.4","","91","","24","","26","","","","98.16","","","","","","NA"
"2017-02-08 05:00","2017","02","08","05:00","3.3","","1.9","","90","","25","","23","","","","98.37","","","","","","NA"
"2017-02-08 06:00","2017","02","08","06:00","3.2","","1.1","","86","","24","","21","","","","98.59","","","","","","NA"
"2017-02-08 07:00","2017","02","08","07:00","2.5","","0.0","","84","","26","","23","","","","98.84","","","","","","NA"
"2017-02-08 08:00","2017","02","08","08:00","0.8","","-4.1","","70","","26","","31","","","","99.09","","","","","","NA"
"2017-02-08 09:00","2017","02","08","09:00","0.6","","-5.2","","65","","27","","26","","","","99.32","","","","","","NA"
"2017-02-08 10:00","2017","02","08","10:00","0.2","","-5.4","","66","","26","","26","","","","99.43","","","","","","NA"
"2017-02-08 11:00","2017","02","08","11:00","-0.1","","-6.3","","63","","26","","22","","","","99.57","","","","-6","","NA"
"2017-02-08 12:00","2017","02","08","12:00","-0.7","","-7.6","","60","","27","","25","","","","99.63","","","","-7","","NA"
"2017-02-08 13:00","2017","02","08","13:00","-0.9","","-7.7","","60","","26","","26","","","","99.64","","","","-7","","NA"
"2017-02-08 14:00","2017","02","08","14:00","-0.5","","-8.7","","54","","26","","23","","","","99.72","","","","-6","","NA"
"2017-02-08 15:00","2017","02","08","15:00","-0.9","","-8.7","","55","","26","","22","","","","99.77","","","","-7","","NA"
"2017-02-08 16:00","2017","02","08","16:00","-1.6","","-9.1","","56","","25","","19","","","","99.81","","","","-7","","NA"
"2017-02-08 17:00","2017","02","08","17:00","-2.2","","-8.9","","60","","25","","21","","","","99.85","","","","-8","","NA"
"2017-02-08 18:00","2017","02","08","18:00","-3.1","","-9.7","","60","","27","","14","","","","99.93","","","","-8","","NA"
"2017-02-08 19:00","2017","02","08","19:00","-3.7","","-10.9","","58","","27","","8","","","","99.96","","","","-7","","NA"
"2017-02-08 20:00","2017","02","08","20:00","-4.1","","-10.7","","60","","28","","15","","","","100.03","","","","-9","","NA"
"2017-02-08 21:00","2017","02","08","21:00","-4.8","","-12.0","","57","","30","","18","","","","100.05","","","","-11","","NA"
"2017-02-08 22:00","2017","02","08","22:00","-5.3","","-11.9","","60","","32","","15","","","","100.03","","","","-11","","NA"
"2017-02-08 23:00","2017","02","08","23:00","-5.6","","-11.3","","64","","33","","14","","","","100.02","","","","-11","","NA"
"2017-02-09 00:00","2017","02","09","00:00","-6.6","","-12.2","","64","","2","","18","","","","100.03","","","","-13","","NA"
"2017-02-09 01:00","2017","02","09","01:00","-8.5","","-14.9","","60","","2","","21","","","","100.09","","","","-16","","NA"
"2017-02-09 02:00","2017","02","09","02:00","-9.7","","-14.8","","66","","1","","21","","","","100.06","","","","-18","","NA"
"2017-02-09 03:00","2017","02","09","03:00","-10.9","","-16.3","","64","","1","","23","","","","100.01","","","","-20","","NA"
"2017-02-09 04:00","2017","02","09","04:00","-11.7","","-17.7","","61","","2","","19","","","","100.10","","","","-20","","NA"
"2017-02-09 05:00","2017","02","09","05:00","-12.2","","-17.9","","63","","1","","20","","","","100.23","","","","-21","","NA"
"2017-02-09 06:00","2017","02","09","06:00","-12.9","","-18.6","","62","","36","","19","","","","100.19","","","","-21","","NA"
"2017-02-09 07:00","2017","02","09","07:00","-13.4","","-18.5","","66","","34","","19","","","","100.22","","","","-22","","NA"
"2017-02-09 08:00","2017","02","09","08:00","-14.1","","-18.5","","70","","35","","20","","","","100.25","","","","-23","","NA"
"2017-02-09 09:00","2017","02","09","09:00","-13.9","","-18.9","","66","","36","","21","","","","100.26","","","","-23","","NA"
"2017-02-09 10:00","2017","02","09","10:00","-12.9","","-19.0","","60","","1","","17","","","","100.26","","","","-21","","NA"
"2017-02-09 11:00","2017","02","09","11:00","-12.0","","-19.7","","53","","36","","15","","","","100.29","","","","-19","","NA"
"2017-02-09 12:00","2017","02","09","12:00","-10.6","","-19.7","","47","","34","","18","","","","100.25","","","","-18","","NA"
"2017-02-09 13:00","2017","02","09","13:00","-9.7","","-18.3","","49","","35","","17","","","","100.27","","","","-17","","NA"
"2017-02-09 14:00","2017","02","09","14:00","-9.0","","-17.9","","49","","32","","21","","","","100.22","","","","-17","","NA"
"2017-02-09 15:00","2017","02","09","15:00","-8.9","","-19.0","","44","","31","","22","","","","100.26","","","","-17","","NA"
"2017-02-09 16:00","2017","02","09","16:00","-8.3","","-19.1","","42","","33","","16","","","","100.29","","","","-15","","NA"
"2017-02-09 17:00","2017","02","09","17:00","-8.6","","-19.2","","42","","32","","16","","","","100.33","","","","-15","","NA"
"2017-02-09 18:00","2017","02","09","18:00","-9.0","","-19.5","","42","","29","","5","","","","100.35","","","","-12","","NA"
"2017-02-09 19:00","2017","02","09","19:00","-9.2","","-19.1","","45","","28","","6","","","","100.38","","","","-13","","NA"
"2017-02-09 20:00","2017","02","09","20:00","-9.2","","-16.9","","54","","27","","14","","","","100.37","","","","-16","","NA"
"2017-02-09 21:00","2017","02","09","21:00","-8.7","","-16.1","","55","","27","","18","","","","100.38","","","","-16","","NA"
"2017-02-09 22:00","2017","02","09","22:00","-8.4","","-14.7","","61","","27","","15","","","","100.38","","","","-15","","NA"
"2017-02-09 23:00","2017","02","09","23:00","-9.2","","-14.5","","65","","28","","15","","","","100.42","","","","-16","","NA"
"2017-02-10 00:00","2017","02","10","00:00","-9.7","","-14.0","","71","","28","","14","","","","100.49","","","","-16","","NA"
"2017-02-10 01:00","2017","02","10","01:00","-9.7","","-13.7","","72","","28","","16","","","","100.54","","","","-17","","NA"
"2017-02-10 02:00","2017","02","10","02:00","-10.4","","-14.2","","74","","29","","14","","","","100.69","","","","-17","","NA"
"2017-02-10 03:00","2017","02","10","03:00","-11.0","","-13.6","","82","","31","","12","","","","100.79","","","","-17","","NA"
"2017-02-10 04:00","2017","02","10","04:00","-11.3","","-15.4","","71","","30","","13","","","","100.90","","","","-18","","NA"
"2017-02-10 05:00","2017","02","10","05:00","-11.1","","-15.4","","70","","30","","16","","","","101.03","","","","-18","","NA"
"2017-02-10 06:00","2017","02","10","06:00","-11.9","","-18.1","","60","","33","","17","","","","101.13","","","","-20","","NA"
"2017-02-10 07:00","2017","02","10","07:00","-12.7","","-21.8","","47","","33","","22","","","","101.24","","","","-22","","NA"
"2017-02-10 08:00","2017","02","10","08:00","-13.0","","-21.1","","50","","35","","14","","","","101.31","","","","-20","","NA"
"2017-02-10 09:00","2017","02","10","09:00","-12.8","","-20.8","","51","","35","","11","","","","101.33","","","","-19","","NA"
"2017-02-10 10:00","2017","02","10","10:00","-12.2","","-20.6","","50","","33","","12","","","","101.39","","","","-19","","NA"
"2017-02-10 11:00","2017","02","10","11:00","-11.0","","-19.8","","49","","31","","8","","","","101.37","","","","-16","","NA"
"2017-02-10 12:00","2017","02","10","12:00","-10.9","","-20.2","","46","","4","","4","","","","101.20","","","","-13","","NA"
"2017-02-10 13:00","2017","02","10","13:00","-9.7","","-18.4","","49","","36","","11","","","","101.14","","","","-15","","NA"
"2017-02-10 14:00","2017","02","10","14:00","-8.8","","-18.3","","46","","36","","5","","","","101.04","","","","-12","","NA"
"2017-02-10 15:00","2017","02","10","15:00","-8.8","","-16.2","","55","","13","","10","","","","101.01","","","","-14","","NA"
"2017-02-10 16:00","2017","02","10","16:00","-8.8","","-15.9","","56","","13","","13","","","","100.91","","","","-15","","NA"
"2017-02-10 17:00","2017","02","10","17:00","-9.3","","-13.6","","71","","11","","13","","","","100.80","","","","-15","","NA"
"2017-02-10 18:00","2017","02","10","18:00","-9.5","","-12.2","","81","","10","","16","","","","100.70","","","","-16","","NA"
"2017-02-10 19:00","2017","02","10","19:00","-9.1","","-10.7","","89","","8","","13","","","","100.60","","","","-15","","NA"
"2017-02-10 20:00","2017","02","10","20:00","-8.4","","-9.8","","89","","9","","18","","","","100.41","","","","-15","","NA"
"2017-02-10 21:00","2017","02","10","21:00","-7.3","","-8.6","","90","","10","","19","","","","100.24","","","","-14","","NA"
"2017-02-10 22:00","2017","02","10","22:00","-4.5","","-5.5","","93","","13","","24","","","","100.14","","","","-12","","NA"
"2017-02-10 23:00","2017","02","10","23:00","-3.7","","-4.9","","91","","15","","31","","","","100.11","","","","-11","","NA"
"2017-02-11 00:00","2017","02","11","00:00","-2.6","","-4.1","","89","","17","","34","","","","99.97","","","","-10","","NA"
"2017-02-11 01:00","2017","02","11","01:00","-2.4","","-4.1","","88","","17","","33","","","","99.89","","","","-10","","NA"
"2017-02-11 02:00","2017","02","11","02:00","-2.5","","-4.5","","86","","16","","35","","","","99.80","","","","-10","","NA"
"2017-02-11 03:00","2017","02","11","03:00","-2.2","","-4.3","","86","","16","","31","","","","99.76","","","","-9","","NA"
"2017-02-11 04:00","2017","02","11","04:00","-1.9","","-4.5","","82","","16","","25","","","","99.73","","","","-8","","NA"
"2017-02-11 05:00","2017","02","11","05:00","-1.2","","-4.2","","80","","17","","24","","","","99.73","","","","-7","","NA"
"2017-02-11 06:00","2017","02","11","06:00","-1.1","","-3.5","","84","","17","","19","","","","99.77","","","","-6","","NA"
"2017-02-11 07:00","2017","02","11","07:00","-5.3","","-7.1","","87","","5","","15","","","","99.82","","","","-11","","NA"
"2017-02-11 08:00","2017","02","11","08:00","-6.9","","-8.7","","87","","4","","13","","","","99.87","","","","-12","","NA"
"2017-02-11 09:00","2017","02","11","09:00","-7.2","","-9.2","","85","","5","","12","","","","99.94","","","","-13","","NA"
"2017-02-11 10:00","2017","02","11","10:00","-7.1","","-9.6","","83","","3","","14","","","","100.02","","","","-13","","NA"
"2017-02-11 11:00","2017","02","11","11:00","-6.6","","-9.2","","82","","3","","13","","","","100.08","","","","-12","","NA"
"2017-02-11 12:00","2017","02","11","12:00","-5.8","","-8.6","","81","","4","","11","","","","100.13","","","","-11","","NA"
"2017-02-11 13:00","2017","02","11","13:00","-5.2","","-8.2","","79","","4","","11","","","","100.16","","","","-10","","NA"
"2017-02-11 14:00","2017","02","11","14:00","-4.9","","-7.9","","79","","3","","11","","","","100.25","","","","-9","","NA"
"2017-02-11 15:00","2017","02","11","15:00","-5.3","","-7.0","","88","","2","","10","","","","100.33","","","","-10","","NA"
"2017-02-11 16:00","2017","02","11","16:00","-5.8","","-7.4","","89","","1","","12","","","","100.44","","","","-11","","NA"
"2017-02-11 17:00","2017","02","11","17:00","-6.3","","-7.9","","88","","3","","14","","","","100.54","","","","-12","","NA"
"2017-02-11 18:00","2017","02","11","18:00","-6.8","","-8.4","","88","","1","","14","","","","100.68","","","","-13","","NA"
"2017-02-11 19:00","2017","02","11","19:00","-7.4","","-9.2","","87","","1","","14","","","","100.74","","","","-13","","NA"
"2017-02-11 20:00","2017","02","11","20:00","-8.2","","-9.9","","87","","2","","18","","","","100.85","","","","-15","","NA"
"2017-02-11 21:00","2017","02","11","21:00","-8.8","","-10.6","","87","","3","","18","","","","100.89","","","","-16","","NA"
"2017-02-11 22:00","2017","02","11","22:00","-9.4","","-11.3","","86","","2","","15","","","","100.89","","","","-16","","NA"
"2017-02-11 23:00","2017","02","11","23:00","-9.5","","-11.3","","87","","3","","19","","","","100.89","","","","-17","","NA"
"2017-02-12 00:00","2017","02","12","00:00","-9.4","","-10.8","","90","","3","","20","","","","100.88","","","","-17","","NA"
"2017-02-12 01:00","2017","02","12","01:00","-9.4","","-10.3","","93","","3","","16","","","","100.86","","","","-16","","NA"
"2017-02-12 02:00","2017","02","12","02:00","-9.3","","-10.4","","92","","3","","14","","","","100.82","","","","-16","","NA"
"2017-02-12 03:00","2017","02","12","03:00","-9.2","","-10.3","","92","","3","","15","","","","100.76","","","","-16","","NA"
"2017-02-12 04:00","2017","02","12","04:00","-9.2","","-10.4","","91","","4","","18","","","","100.69","","","","-16","","NA"
"2017-02-12 05:00","2017","02","12","05:00","-9.1","","-10.5","","90","","4","","16","","","","100.56","","","","-16","","NA"
"2017-02-12 06:00","2017","02","12","06:00","-8.8","","-10.5","","87","","3","","15","","","","100.56","","","","-15","","NA"
"2017-02-12 07:00","2017","02","12","07:00","-8.8","","-10.5","","88","","5","","18","","","","100.35","","","","-16","","NA"
"2017-02-12 08:00","2017","02","12","08:00","-9.0","","-10.4","","89","","4","","13","","","","100.29","","","","-15","","NA"
"2017-02-12 09:00","2017","02","12","09:00","-8.7","","-10.2","","89","","3","","18","","","","100.20","","","","-16","","NA"
"2017-02-12 10:00","2017","02","12","10:00","-8.4","","-10.1","","88","","3","","21","","","","100.01","","","","-16","","NA"
"2017-02-12 11:00","2017","02","12","11:00","-8.0","","-9.6","","89","","4","","19","","","","99.88","","","","-15","","NA"
"2017-02-12 12:00","2017","02","12","12:00","-7.6","","-8.9","","90","","3","","19","","","","99.72","","","","-15","","NA"
"2017-02-12 13:00","2017","02","12","13:00","-7.1","","-8.4","","91","","3","","18","","","","99.64","","","","-14","","NA"
"2017-02-12 14:00","2017","02","12","14:00","-7.2","","-8.4","","91","","3","","17","","","","99.52","","","","-14","","NA"
"2017-02-12 15:00","2017","02","12","15:00","-7.0","","-8.2","","91","","3","","13","","","","99.40","","","","-13","","NA"
"2017-02-12 16:00","2017","02","12","16:00","-6.9","","-8.1","","91","","4","","14","","","","99.30","","","","-13","","NA"
"2017-02-12 17:00","2017","02","12","17:00","-6.7","","-8.0","","91","","36","","13","","","","99.25","","","","-12","","NA"
"2017-02-12 18:00","2017","02","12","18:00","-7.3","","-8.8","","90","","35","","19","","","","99.21","","","","-14","","NA"
"2017-02-12 19:00","2017","02","12","19:00","-7.8","","-9.5","","88","","35","","18","","","","99.21","","","","-15","","NA"
"2017-02-12 20:00","2017","02","12","20:00","-8.1","","-9.7","","88","","31","","8","","","","99.22","","","","-12","","NA"
"2017-02-12 21:00","2017","02","12","21:00","-8.2","","-9.7","","89","","30","","8","","","","99.19","","","","-12","","NA"
"2017-02-12 22:00","2017","02","12","22:00","-8.1","","-9.5","","89","","32","","7","","","","99.15","","","","-12","","NA"
"2017-02-12 23:00","2017","02","12","23:00","-7.9","","-9.3","","89","","31","","6","","","","99.14","","","","-11","","NA"
"2017-02-13 00:00","2017","02","13","00:00","-7.5","","-8.9","","90","","28","","7","","","","99.22","","","","-11","","NA"
"2017-02-13 01:00","2017","02","13","01:00","-7.3","","-8.8","","90","","30","","8","","","","99.29","","","","-11","","NA"
"2017-02-13 02:00","2017","02","13","02:00","-6.9","","-8.7","","87","","30","","15","","","","99.45","","","","-13","","NA"
"2017-02-13 03:00","2017","02","13","03:00","-6.3","","-9.2","","80","","31","","21","","","","99.59","","","","-13","","NA"
"2017-02-13 04:00","2017","02","13","04:00","-6.3","","-9.8","","76","","31","","22","","","","99.70","","","","-14","","NA"
"2017-02-13 05:00","2017","02","13","05:00","-5.7","","-9.1","","77","","31","","25","","","","99.84","","","","-13","","NA"
"2017-02-13 06:00","2017","02","13","06:00","-6.0","","-9.4","","77","","30","","21","","","","99.98","","","","-13","","NA"
"2017-02-13 07:00","2017","02","13","07:00","-6.1","","-9.4","","78","","30","","16","","","","100.13","","","","-12","","NA"
"2017-02-13 08:00","2017","02","13","08:00","-6.0","","-9.2","","78","","29","","14","","","","100.22","","","","-12","","NA"
"2017-02-13 09:00","2017","02","13","09:00","-4.6","","-8.9","","72","","31","","20","","","","100.33","","","","-11","","NA"
"2017-02-13 10:00","2017","02","13","10:00","-4.0","","-9.3","","67","","31","","27","","","","100.42","","","","-11","","NA"
"2017-02-13 11:00","2017","02","13","11:00","-3.6","","-8.9","","67","","32","","24","","","","100.45","","","","-10","","NA"
"2017-02-13 12:00","2017","02","13","12:00","-3.4","","-9.6","","62","","33","","28","","","","100.45","","","","-11","","NA"
"2017-02-13 13:00","2017","02","13","13:00","-2.2","","-9.0","","60","","32","","21","","","","100.48","","","","-8","","NA"
"2017-02-13 14:00","2017","02","13","14:00","-1.8","","-7.7","","64","","31","","17","","","","100.46","","","","-7","","NA"
"2017-02-13 15:00","2017","02","13","15:00","-1.6","","-8.0","","62","","30","","16","","","","100.49","","","","-7","","NA"
"2017-02-13 16:00","2017","02","13","16:00","-1.6","","-8.6","","59","","31","","19","","","","100.57","","","","-7","","NA"
"2017-02-13 17:00","2017","02","13","17:00","-1.8","","-7.7","","64","","30","","12","","","","100.57","","","","-6","","NA"
"2017-02-13 18:00","2017","02","13","18:00","-3.0","","-8.1","","67","","27","","6","","","","100.59","","","","-5","","NA"
"2017-02-13 19:00","2017","02","13","19:00","-3.3","","-8.3","","68","","29","","9","","","","100.59","","","","-7","","NA"
"2017-02-13 20:00","2017","02","13","20:00","-4.1","","-8.9","","69","","29","","7","","","","100.53","","","","-7","","NA"
"2017-02-13 21:00","2017","02","13","21:00","-4.5","","-8.6","","73","","28","","10","","","","100.55","","","","-9","","NA"
"2017-02-13 22:00","2017","02","13","22:00","-4.8","","-8.8","","74","","26","","9","","","","100.55","","","","-9","","NA"
"2017-02-13 23:00","2017","02","13","23:00","-5.8","","-9.6","","74","","27","","12","","","","100.50","","","","-11","","NA"
"2017-02-14 00:00","2017","02","14","00:00","-7.0","","-10.0","","79","","27","","10","","","","100.46","","","","-12","","NA"
"2017-02-14 01:00","2017","02","14","01:00","-8.2","","-10.7","","82","","30","","8","","","","100.40","","","","-12","","NA"
"2017-02-14 02:00","2017","02","14","02:00","-8.9","","-10.8","","86","","33","","7","","","","100.35","","","","-13","","NA"
"2017-02-14 03:00","2017","02","14","03:00","-11.4","","-12.9","","89","","30","","6","","","","100.29","","","","-15","","NA"
"2017-02-14 04:00","2017","02","14","04:00","-12.3","","-13.5","","91","","1","","8","","","","100.20","","","","-17","","NA"
"2017-02-14 05:00","2017","02","14","05:00","-12.7","","-14.3","","88","","7","","8","","","","100.11","","","","-18","","NA"
"2017-02-14 06:00","2017","02","14","06:00","-12.2","","-13.4","","91","","7","","3","","","","100.10","","","","-14","","NA"
"2017-02-14 07:00","2017","02","14","07:00","-12.5","","-13.9","","90","","6","","8","","","","100.01","","","","-17","","NA"
"2017-02-14 08:00","2017","02","14","08:00","-9.7","","-10.8","","92","","6","","7","","","","99.97","","","","-14","","NA"
"2017-02-14 09:00","2017","02","14","09:00","-6.4","","-7.6","","92","","9","","12","","","","99.86","","","","-12","","NA"
"2017-02-14 10:00","2017","02","14","10:00","-1.3","","-3.5","","85","","17","","27","","","","99.76","","","","-8","","NA"
"2017-02-14 11:00","2017","02","14","11:00","-1.4","","-4.2","","81","","15","","29","","","","99.65","","","","-8","","NA"
"2017-02-14 12:00","2017","02","14","12:00","-0.8","","-4.0","","79","","16","","26","","","","99.50","","","","-7","","NA"
"2017-02-14 13:00","2017","02","14","13:00","-0.3","","-4.2","","75","","17","","29","","","","99.33","","","","-7","","NA"
"2017-02-14 14:00","2017","02","14","14:00","0.2","","-3.3","","77","","16","","27","","","","99.25","","","","","","NA"
"2017-02-14 15:00","2017","02","14","15:00","0.9","","-2.5","","79","","16","","25","","","","99.19","","","","","","NA"
"2017-02-14 16:00","2017","02","14","16:00","1.1","","-2.3","","78","","16","","22","","","","99.13","","","","","","NA"
"2017-02-14 17:00","2017","02","14","17:00","1.4","","-2.1","","78","","17","","19","","","","99.09","","","","","","NA"
"2017-02-14 18:00","2017","02","14","18:00","1.9","","-1.7","","77","","17","","19","","","","99.07","","","","","","NA"
"2017-02-14 19:00","2017","02","14","19:00","1.9","","-0.8","","82","","18","","18","","","","99.04","","","","","","NA"
"2017-02-14 20:00","2017","02","14","20:00","1.3","","-0.5","","88","","18","","14","","","","99.01","","","","","","NA"
"2017-02-14 21:00","2017","02","14","21:00","2.5","","-0.7","","80","","23","","15","","","","98.98","","","","","","NA"
"2017-02-14 22:00","2017","02","14","22:00","1.6","","-0.4","","87","","25","","9","","","","98.94","","","","","","NA"
"2017-02-14 23:00","2017","02","14","23:00","1.6","","-0.4","","87","","22","","8","","","","98.86","","","","","","NA"
"2017-02-15 00:00","2017","02","15","00:00","1.1","","-0.5","","89","","20","","8","","","","98.78","","","","","","NA"
"2017-02-15 01:00","2017","02","15","01:00","0.6","","-0.5","","93","","20","","11","","","","98.72","","","","","","NA"
"2017-02-15 02:00","2017","02","15","02:00","1.6","","0.2","","91","","21","","15","","","","98.70","","","","","","NA"
"2017-02-15 03:00","2017","02","15","03:00","0.8","","0.0","","94","","20","","5","","","","98.57","","","","","","NA"
"2017-02-15 04:00","2017","02","15","04:00","0.5","","-0.1","","96","","19","","11","","","","98.58","","","","","","NA"
"2017-02-15 05:00","2017","02","15","05:00","0.5","","0.0","","96","","23","","15","","","","98.53","","","","","","NA"
"2017-02-15 06:00","2017","02","15","06:00","0.8","","0.3","","97","","24","","9","","","","98.51","","","","","","NA"
"2017-02-15 07:00","2017","02","15","07:00","1.0","","0.5","","97","","26","","10","","","","98.51","","","","","","NA"
"2017-02-15 08:00","2017","02","15","08:00","1.0","","0.2","","94","","26","","8","","","","98.49","","","","","","NA"
"2017-02-15 09:00","2017","02","15","09:00","0.7","","-0.7","","91","","29","","12","","","","98.48","","","","","","NA"
"2017-02-15 10:00","2017","02","15","10:00","0.8","","-0.9","","88","","32","","14","","","","98.46","","","","","","NA"
"2017-02-15 11:00","2017","02","15","11:00","1.8","","-1.0","","81","","31","","13","","","","98.46","","","","","","NA"
"2017-02-15 12:00","2017","02","15","12:00","2.3","","-1.3","","77","","33","","10","","","","98.47","","","","","","NA"
"2017-02-15 13:00","2017","02","15","13:00","2.7","","-2.5","","68","","25","","17","","","","98.43","","","","","","NA"
"2017-02-15 14:00","2017","02","15","14:00","2.5","","-3.6","","64","","27","","19","","","","98.43","","","","","","NA"
"2017-02-15 15:00","2017","02","15","15:00","2.5","","-3.7","","63","","30","","16","","","","98.45","","","","","","NA"
"2017-02-15 16:00","2017","02","15","16:00","2.2","","-3.2","","68","","26","","7","","","","98.48","","","","","","NA"
"2017-02-15 17:00","2017","02","15","17:00","1.6","","-2.2","","76","","28","","7","","","","98.53","","","","","","NA"
"2017-02-15 18:00","2017","02","15","18:00","0.1","","-0.7","","94","","29","","12","","","","98.59","","","","","","NA"
"2017-02-15 19:00","2017","02","15","19:00","-0.7","","-1.9","","91","","32","","21","","","","98.69","","","","-6","","NA"
"2017-02-15 20:00","2017","02","15","20:00","-1.3","","-3.5","","84","","32","","17","","","","98.74","","","","-6","","NA"
"2017-02-15 21:00","2017","02","15","21:00","-2.3","","-4.9","","82","","31","","19","","","","98.81","","","","-8","","NA"
"2017-02-15 22:00","2017","02","15","22:00","-3.6","","-5.1","","89","","31","","19","","","","98.85","","","","-10","","NA"
"2017-02-15 23:00","2017","02","15","23:00","-4.3","","-6.0","","88","","28","","15","","","","98.88","","","","-10","","NA"
"2017-02-16 00:00","2017","02","16","00:00","-5.2","","-6.9","","88","","29","","16","","","","98.91","","","","-11","","NA"
"2017-02-16 01:00","2017","02","16","01:00","-5.6","","-7.8","","85","","29","","15","","","","98.91","","","","-11","","NA"
"2017-02-16 02:00","2017","02","16","02:00","-5.8","","-8.5","","82","","30","","13","","","","98.93","","","","-11","","NA"
"2017-02-16 03:00","2017","02","16","03:00","-6.2","","-8.8","","82","","31","","14","","","","98.95","","","","-12","","NA"
"2017-02-16 04:00","2017","02","16","04:00","-6.7","","-9.5","","80","","31","","22","","","","98.97","","","","-14","","NA"
"2017-02-16 05:00","2017","02","16","05:00","-7.3","","-10.2","","79","","33","","21","","","","99.04","","","","-15","","NA"
"2017-02-16 06:00","2017","02","16","06:00","-7.8","","-10.7","","80","","31","","18","","","","99.13","","","","-15","","NA"
"2017-02-16 07:00","2017","02","16","07:00","-8.3","","-12.0","","74","","31","","18","","","","99.19","","","","-15","","NA"
"2017-02-16 08:00","2017","02","16","08:00","-8.8","","-12.6","","74","","31","","18","","","","99.27","","","","-16","","NA"
"2017-02-16 09:00","2017","02","16","09:00","-8.9","","-12.9","","73","","30","","19","","","","99.35","","","","-16","","NA"
"2017-02-16 10:00","2017","02","16","10:00","-7.8","","-12.5","","69","","32","","18","","","","99.39","","","","-15","","NA"
"2017-02-16 11:00","2017","02","16","11:00","-7.1","","-12.1","","67","","32","","15","","","","99.45","","","","-13","","NA"
"2017-02-16 12:00","2017","02","16","12:00","-7.0","","-12.3","","66","","33","","21","","","","99.48","","","","-14","","NA"
"2017-02-16 13:00","2017","02","16","13:00","-5.8","","-12.3","","60","","31","","15","","","","99.46","","","","-12","","NA"
"2017-02-16 14:00","2017","02","16","14:00","-4.1","","-11.7","","55","","30","","17","","","","99.46","","","","-10","","NA"
"2017-02-16 15:00","2017","02","16","15:00","-2.9","","-10.7","","55","","28","","17","","","","99.47","","","","-8","","NA"
"2017-02-16 16:00","2017","02","16","16:00","-2.3","","-10.3","","54","","28","","19","","","","99.49","","","","-8","","NA"
"2017-02-16 17:00","2017","02","16","17:00","-2.6","","-10.3","","56","","28","","14","","","","99.55","","","","-7","","NA"
"2017-02-16 18:00","2017","02","16","18:00","-3.4","","-10.1","","60","","26","","9","","","","99.65","","","","-7","","NA"
"2017-02-16 19:00","2017","02","16","19:00","-4.4","","-10.8","","61","","26","","15","","","","99.71","","","","-10","","NA"
"2017-02-16 20:00","2017","02","16","20:00","-5.8","","-11.2","","65","","27","","11","","","","99.80","","","","-11","","NA"
"2017-02-16 21:00","2017","02","16","21:00","-7.0","","-12.0","","68","","28","","10","","","","99.89","","","","-12","","NA"
"2017-02-16 22:00","2017","02","16","22:00","-7.9","","-12.0","","72","","29","","9","","","","99.92","","","","-12","","NA"
"2017-02-16 23:00","2017","02","16","23:00","-8.9","","-12.6","","74","","28","","11","","","","99.97","","","","-14","","NA"
"2017-02-17 00:00","2017","02","17","00:00","-9.5","","-12.7","","77","","30","","5","","","","99.99","","","","-12","","NA"
"2017-02-17 01:00","2017","02","17","01:00","-9.4","","-12.7","","77","","28","","9","","","","100.00","","","","-14","","NA"
"2017-02-17 02:00","2017","02","17","02:00","-10.4","","-13.3","","79","","26","","15","","","","100.03","","","","-17","","NA"
"2017-02-17 03:00","2017","02","17","03:00","-10.6","","-13.4","","80","","27","","18","","","","100.04","","","","-18","","NA"
"2017-02-17 04:00","2017","02","17","04:00","-11.1","","-13.8","","81","","27","","17","","","","100.08","","","","-19","","NA"
"2017-02-17 05:00","2017","02","17","05:00","-11.9","","-14.5","","81","","28","","12","","","","100.10","","","","-18","","NA"
"2017-02-17 06:00","2017","02","17","06:00","-11.8","","-14.2","","82","","29","","13","","","","100.13","","","","-18","","NA"
"2017-02-17 07:00","2017","02","17","07:00","-12.7","","-14.9","","83","","30","","15","","","","100.16","","","","-20","","NA"
"2017-02-17 08:00","2017","02","17","08:00","-12.3","","-15.0","","81","","31","","11","","","","100.26","","","","-18","","NA"
"2017-02-17 09:00","2017","02","17","09:00","-9.8","","-13.6","","74","","31","","11","","","","100.24","","","","-15","","NA"
"2017-02-17 10:00","2017","02","17","10:00","-6.4","","-12.2","","63","","26","","3","","","","100.23","","","","-8","","NA"
"2017-02-17 11:00","2017","02","17","11:00","-6.2","","-11.4","","67","","20","","7","","","","100.22","","","","-10","","NA"
"2017-02-17 12:00","2017","02","17","12:00","-5.6","","-11.0","","66","","22","","13","","","","100.21","","","","-11","","NA"
"2017-02-17 13:00","2017","02","17","13:00","-4.3","","-10.4","","62","","22","","15","","","","100.11","","","","-10","","NA"
"2017-02-17 14:00","2017","02","17","14:00","-3.2","","-10.0","","59","","22","","14","","","","100.07","","","","-8","","NA"
"2017-02-17 15:00","2017","02","17","15:00","-3.1","","-9.7","","60","","22","","13","","","","100.06","","","","-8","","NA"
"2017-02-17 16:00","2017","02","17","16:00","-3.1","","-8.7","","66","","20","","15","","","","100.04","","","","-8","","NA"
"2017-02-17 17:00","2017","02","17","17:00","-3.1","","-7.5","","71","","21","","15","","","","100.04","","","","-8","","NA"
"2017-02-17 18:00","2017","02","17","18:00","-3.2","","-6.6","","77","","21","","11","","","","100.02","","","","-7","","NA"
"2017-02-17 19:00","2017","02","17","19:00","-3.2","","-6.1","","80","","22","","14","","","","100.06","","","","-8","","NA"
"2017-02-17 20:00","2017","02","17","20:00","-4.1","","-6.8","","82","","22","","6","","","","100.00","","","","-7","","NA"
"2017-02-17 21:00","2017","02","17","21:00","-4.2","","-6.3","","85","","22","","7","","","","99.96","","","","-7","","NA"
"2017-02-17 22:00","2017","02","17","22:00","-2.3","","-4.8","","83","","18","","14","","","","99.88","","","","-7","","NA"
"2017-02-17 23:00","2017","02","17","23:00","-2.0","","-4.5","","83","","16","","18","","","","99.81","","","","-7","","NA"
"2017-02-18 00:00","2017","02","18","00:00","-1.4","","-4.5","","79","","16","","19","","","","99.75","","","","-7","","NA"
"2017-02-18 01:00","2017","02","18","01:00","-1.4","","-4.2","","81","","16","","16","","","","99.68","","","","-6","","NA"
"2017-02-18 02:00","2017","02","18","02:00","-1.0","","-3.8","","81","","15","","16","","","","99.58","","","","-6","","NA"
"2017-02-18 03:00","2017","02","18","03:00","-1.1","","-4.4","","78","","14","","14","","","","99.50","","","","-6","","NA"
"2017-02-18 04:00","2017","02","18","04:00","-3.0","","-5.7","","82","","12","","10","","","","99.37","","","","-7","","NA"
"2017-02-18 05:00","2017","02","18","05:00","-0.9","","-3.3","","84","","16","","15","","","","99.30","","","","-6","","NA"
"2017-02-18 06:00","2017","02","18","06:00","-0.1","","-3.1","","81","","17","","18","","","","99.25","","","","-5","","NA"
"2017-02-18 07:00","2017","02","18","07:00","-0.3","","-2.9","","83","","18","","17","","","","99.18","","","","-5","","NA"
"2017-02-18 08:00","2017","02","18","08:00","0.5","","-2.7","","79","","18","","25","","","","99.11","","","","","","NA"
"2017-02-18 09:00","2017","02","18","09:00","1.0","","-2.1","","80","","17","","24","","","","99.03","","","","","","NA"
"2017-02-18 10:00","2017","02","18","10:00","1.4","","-1.3","","83","","18","","22","","","","98.97","","","","","","NA"
"2017-02-18 11:00","2017","02","18","11:00","2.7","","-0.6","","79","","20","","19","","","","98.96","","","","","","NA"
"2017-02-18 12:00","2017","02","18","12:00","2.9","","0.0","","81","","19","","20","","","","98.86","","","","","","NA"
"2017-02-18 13:00","2017","02","18","13:00","3.7","","0.7","","81","","19","","22","","","","98.75","","","","","","NA"
"2017-02-18 14:00","2017","02","18","14:00","6.8","","1.8","","70","","23","","14","","","","98.69","","","","","","NA"
"2017-02-18 15:00","2017","02","18","15:00","7.2","","1.3","","66","","23","","31","","","","98.66","","","","","","NA"
"2017-02-18 16:00","2017","02","18","16:00","6.8","","1.5","","69","","24","","23","","","","98.71","","","","","","NA"
"2017-02-18 17:00","2017","02","18","17:00","6.9","","1.8","","70","","23","","26","","","","98.75","","","","","","NA"
"2017-02-18 18:00","2017","02","18","18:00","5.3","","1.2","","75","","23","","22","","","","98.82","","","","","","NA"
"2017-02-18 19:00","2017","02","18","19:00","4.9","","1.2","","77","","23","","20","","","","98.93","","","","","","NA"
"2017-02-18 20:00","2017","02","18","20:00","5.2","","1.3","","76","","23","","19","","","","98.99","","","","","","NA"
"2017-02-18 21:00","2017","02","18","21:00","4.2","","1.0","","80","","23","","16","","","","99.04","","","","","","NA"
"2017-02-18 22:00","2017","02","18","22:00","4.0","","0.9","","80","","24","","14","","","","99.10","","","","","","NA"
"2017-02-18 23:00","2017","02","18","23:00","3.7","","0.8","","81","","22","","15","","","","99.14","","","","","","NA"
"2017-02-19 00:00","2017","02","19","00:00","4.0","","0.9","","81","","24","","15","","","","99.21","","","","","","NA"
"2017-02-19 01:00","2017","02","19","01:00","4.3","","0.9","","79","","24","","17","","","","99.25","","","","","","NA"
"2017-02-19 02:00","2017","02","19","02:00","2.8","","0.2","","83","","23","","14","","","","99.30","","","","","","NA"
"2017-02-19 03:00","2017","02","19","03:00","3.3","","0.9","","84","","24","","13","","","","99.35","","","","","","NA"
"2017-02-19 04:00","2017","02","19","04:00","3.0","","0.7","","85","","25","","11","","","","99.40","","","","","","NA"
"2017-02-19 05:00","2017","02","19","05:00","3.4","","0.7","","82","","26","","13","","","","99.46","","","","","","NA"
"2017-02-19 06:00","2017","02","19","06:00","2.9","","0.2","","83","","27","","15","","","","99.52","","","","","","NA"
"2017-02-19 07:00","2017","02","19","07:00","2.5","","0.0","","84","","26","","13","","","","99.59","","","","","","NA"
"2017-02-19 08:00","2017","02","19","08:00","2.8","","0.0","","82","","26","","12","","","","99.69","","","","","","NA"
"2017-02-19 09:00","2017","02","19","09:00","4.2","","0.2","","75","","26","","17","","","","99.77","","","","","","NA"
"2017-02-19 10:00","2017","02","19","10:00","6.0","","0.4","","67","","27","","16","","","","99.82","","","","","","NA"
"2017-02-19 11:00","2017","02","19","11:00","6.7","","0.4","","64","","24","","15","","","","99.81","","","","","","NA"
"2017-02-19 12:00","2017","02","19","12:00","6.5","","0.6","","66","","24","","19","","","","99.82","","","","","","NA"
"2017-02-19 13:00","2017","02","19","13:00","7.8","","0.8","","61","","24","","18","","","","99.80","","","","","","NA"
"2017-02-19 14:00","2017","02","19","14:00","8.1","","0.5","","59","","24","","18","","","","99.82","","","","","","NA"
"2017-02-19 15:00","2017","02","19","15:00","7.0","","1.0","","66","","24","","17","","","","99.91","","","","","","NA"
"2017-02-19 16:00","2017","02","19","16:00","9.5","","0.8","","55","","27","","15","","","","100.01","","","","","","NA"
"2017-02-19 17:00","2017","02","19","17:00","9.0","","0.7","","56","","27","","13","","","","100.09","","","","","","NA"
"2017-02-19 18:00","2017","02","19","18:00","7.6","","0.5","","61","","26","","11","","","","100.22","","","","","","NA"
"2017-02-19 19:00","2017","02","19","19:00","7.4","","0.6","","62","","28","","17","","","","100.35","","","","","","NA"
"2017-02-19 20:00","2017","02","19","20:00","6.7","","0.5","","64","","28","","9","","","","100.43","","","","","","NA"
"2017-02-19 21:00","2017","02","19","21:00","5.7","","-0.7","","63","","34","","15","","","","100.57","","","","","","NA"
"2017-02-19 22:00","2017","02","19","22:00","4.5","","-1.1","","67","","36","","13","","","","100.68","","","","","","NA"
"2017-02-19 23:00","2017","02","19","23:00","3.8","","-1.4","","69","","1","","13","","","","100.76","","","","","","NA"
"2017-02-20 00:00","2017","02","20","00:00","2.3","","-2.4","","71","","36","","20","","","","100.81","","","","","","NA"
"2017-02-20 01:00","2017","02","20","01:00","1.2","","-3.6","","70","","36","","13","","","","100.89","","","","","","NA"
"2017-02-20 02:00","2017","02","20","02:00","0.3","","-4.4","","71","","1","","10","","","","100.94","","","","","","NA"
"2017-02-20 03:00","2017","02","20","03:00","-0.3","","-5.1","","70","","36","","13","","","","101.02","","","","-4","","NA"
"2017-02-20 04:00","2017","02","20","04:00","-1.0","","-6.1","","68","","36","","19","","","","101.14","","","","-6","","NA"
"2017-02-20 05:00","2017","02","20","05:00","-2.0","","-6.8","","69","","1","","16","","","","101.25","","","","-7","","NA"
"2017-02-20 06:00","2017","02","20","06:00","-2.7","","-7.1","","72","","33","","6","","","","101.38","","","","-5","","NA"
"2017-02-20 07:00","2017","02","20","07:00","-3.1","","-7.0","","74","","1","","8","","","","101.45","","","","-6","","NA"
"2017-02-20 08:00","2017","02","20","08:00","-2.7","","-6.3","","76","","33","","9","","","","101.55","","","","-6","","NA"
"2017-02-20 09:00","2017","02","20","09:00","-1.4","","-8.6","","58","","36","","19","","","","101.62","","","","-7","","NA"
"2017-02-20 10:00","2017","02","20","10:00","-0.8","","-9.1","","53","","35","","18","","","","101.68","","","","-6","","NA"
"2017-02-20 11:00","2017","02","20","11:00","0.0","","-10.5","","45","","1","","19","","","","101.71","","","","-5","","NA"
"2017-02-20 12:00","2017","02","20","12:00","0.5","","-11.0","","42","","34","","19","","","","101.72","","","","","","NA"
"2017-02-20 13:00","2017","02","20","13:00","1.4","","-11.1","","39","","3","","19","","","","101.69","","","","","","NA"
"2017-02-20 14:00","2017","02","20","14:00","2.6","","-11.2","","35","","1","","13","","","","101.62","","","","","","NA"
"2017-02-20 15:00","2017","02","20","15:00","2.9","","-14.8","","26","","3","","10","","","","101.67","","","","","","NA"
"2017-02-20 16:00","2017","02","20","16:00","2.2","","-9.7","","41","","18","","7","","","","101.72","","","","","","NA"
"2017-02-20 17:00","2017","02","20","17:00","0.5","","-6.4","","60","","20","","10","","","","101.72","","","","","","NA"
"2017-02-20 18:00","2017","02","20","18:00","-0.4","","-8.7","","54","","25","","3","","","","101.78","","","","-1","","NA"
"2017-02-20 19:00","2017","02","20","19:00","-2.3","","-7.4","","68","","4","","2","","","","101.80","","","","-3","","NA"
"2017-02-20 20:00","2017","02","20","20:00","-3.2","","-7.6","","71","","3","","5","","","","101.76","","","","-5","","NA"
"2017-02-20 21:00","2017","02","20","21:00","-1.9","","-10.7","","51","","4","","6","","","","101.75","","","","-4","","NA"
"2017-02-20 22:00","2017","02","20","22:00","-2.5","","-11.1","","52","","4","","5","","","","101.76","","","","-4","","NA"
"2017-02-20 23:00","2017","02","20","23:00","-3.9","","-10.1","","62","","6","","8","","","","101.71","","","","-7","","NA"
"2017-02-21 00:00","2017","02","21","00:00","-3.7","","-9.2","","66","","6","","13","","","","101.63","","","","-9","","NA"
"2017-02-21 01:00","2017","02","21","01:00","-3.7","","-9.1","","66","","6","","12","","","","101.54","","","","-8","","NA"
"2017-02-21 02:00","2017","02","21","02:00","-4.0","","-9.2","","67","","7","","10","","","","101.50","","","","-8","","NA"
"2017-02-21 03:00","2017","02","21","03:00","-5.2","","-9.0","","75","","5","","6","","","","101.49","","","","-8","","NA"
"2017-02-21 04:00","2017","02","21","04:00","-4.6","","-8.7","","73","","6","","6","","","","101.43","","","","-7","","NA"
"2017-02-21 05:00","2017","02","21","05:00","-5.1","","-8.7","","76","","7","","6","","","","101.28","","","","-8","","NA"
"2017-02-21 06:00","2017","02","21","06:00","-5.6","","-8.8","","78","","2","","3","","","","101.20","","","","-7","","NA"
"2017-02-21 07:00","2017","02","21","07:00","-4.3","","-8.1","","75","","5","","8","","","","101.16","","","","-8","","NA"
"2017-02-21 08:00","2017","02","21","08:00","-2.8","","-6.6","","75","","9","","6","","","","101.11","","","","-5","","NA"
"2017-02-21 09:00","2017","02","21","09:00","0.2","","-5.8","","64","","14","","11","","","","101.04","","","","","","NA"
"2017-02-21 10:00","2017","02","21","10:00","1.5","","-4.9","","63","","15","","28","","","","100.87","","","","","","NA"
"2017-02-21 11:00","2017","02","21","11:00","1.6","","-4.8","","62","","16","","29","","","","100.81","","","","","","NA"
"2017-02-21 12:00","2017","02","21","12:00","2.3","","-3.9","","64","","17","","16","","","","100.74","","","","","","NA"
"2017-02-21 13:00","2017","02","21","13:00","2.7","","-2.8","","67","","16","","16","","","","100.60","","","","","","NA"
"2017-02-21 14:00","2017","02","21","14:00","3.1","","-2.9","","64","","16","","14","","","","100.51","","","","","","NA"
"2017-02-21 15:00","2017","02","21","15:00","3.4","","-2.7","","64","","16","","12","","","","100.41","","","","","","NA"
"2017-02-21 16:00","2017","02","21","16:00","3.3","","-2.5","","66","","16","","15","","","","100.34","","","","","","NA"
"2017-02-21 17:00","2017","02","21","17:00","3.3","","-2.3","","67","","17","","11","","","","100.38","","","","","","NA"
"2017-02-21 18:00","2017","02","21","18:00","3.4","","-1.7","","69","","13","","8","","","","100.35","","","","","","NA"
"2017-02-21 19:00","2017","02","21","19:00","3.0","","-1.0","","75","","17","","12","","","","100.38","","","","","","NA"
"2017-02-21 20:00","2017","02","21","20:00","3.3","","-1.3","","71","","19","","15","","","","100.37","","","","","","NA"
"2017-02-21 21:00","2017","02","21","21:00","2.9","","-0.7","","77","","18","","18","","","","100.32","","","","","","NA"
"2017-02-21 22:00","2017","02","21","22:00","2.7","","-0.4","","80","","25","","7","","","","100.34","","","","","","NA"
"2017-02-21 23:00","2017","02","21","23:00","3.0","","0.4","","83","","20","","10","","","","100.33","","","","","","NA"
"2017-02-22 00:00","2017","02","22","00:00","3.6","","0.7","","81","","22","","8","","","","100.32","","","","","","NA"
"2017-02-22 01:00","2017","02","22","01:00","3.1","","0.6","","84","","20","","2","","","","100.28","","","","","","NA"
"2017-02-22 02:00","2017","02","22","02:00","3.0","","0.7","","85","","16","","7","","","","100.27","","","","","","NA"
"2017-02-22 03:00","2017","02","22","03:00","2.9","","0.8","","86","","15","","6","","","","100.23","","","","","","NA"
"2017-02-22 04:00","2017","02","22","04:00","3.0","","1.0","","86","","15","","6","","","","100.25","","","","","","NA"
"2017-02-22 05:00","2017","02","22","05:00","2.6","","0.8","","88","","13","","2","","","","100.22","","","","","","NA"
"2017-02-22 06:00","2017","02","22","06:00","2.5","","1.0","","90","","1","","3","","","","100.26","","","","","","NA"
"2017-02-22 07:00","2017","02","22","07:00","2.7","","1.0","","89","","15","","4","","","","100.25","","","","","","NA"
"2017-02-22 08:00","2017","02","22","08:00","3.1","","1.4","","89","","20","","2","","","","100.27","","","","","","NA"
"2017-02-22 09:00","2017","02","22","09:00","3.7","","1.9","","88","","35","","6","","","","100.29","","","","","","NA"
"2017-02-22 10:00","2017","02","22","10:00","4.3","","2.6","","89","","11","","5","","","","100.26","","","","","","NA"
"2017-02-22 11:00","2017","02","22","11:00","5.2","","2.3","","82","","8","","4","","","","100.18","","","","","","NA"
"2017-02-22 12:00","2017","02","22","12:00","6.5","","0.8","","67","","15","","7","","","","100.10","","","","","","NA"
"2017-02-22 13:00","2017","02","22","13:00","6.3","","0.9","","68","","21","","5","","","","100.02","","","","","","NA"
"2017-02-22 14:00","2017","02","22","14:00","8.4","","1.3","","61","","32","","2","","","","99.97","","","","","","NA"
"2017-02-22 15:00","2017","02","22","15:00","9.4","","1.2","","56","","17","","2","","","","99.89","","","","","","NA"
"2017-02-22 16:00","2017","02","22","16:00","9.3","","1.0","","56","","","","0","","","","99.88","","","","","","NA"
"2017-02-22 17:00","2017","02","22","17:00","7.8","","1.3","","64","","14","","3","","","","99.83","","","","","","NA"
"2017-02-22 18:00","2017","02","22","18:00","6.9","","1.5","","69","","10","","5","","","","99.78","","","","","","NA"
"2017-02-22 19:00","2017","02","22","19:00","7.2","","1.8","","68","","8","","7","","","","99.77","","","","","","NA"
"2017-02-22 20:00","2017","02","22","20:00","7.3","","1.2","","65","","13","","1","","","","99.78","","","","","","NA"
"2017-02-22 21:00","2017","02","22","21:00","6.4","","1.7","","72","","34","","5","","","","99.77","","","","","","NA"
"2017-02-22 22:00","2017","02","22","22:00","7.2","","2.6","","72","","17","","5","","","","99.74","","","","","","NA"
"2017-02-22 23:00","2017","02","22","23:00","7.2","","2.4","","72","","21","","7","","","","99.70","","","","","","NA"
"2017-02-23 00:00","2017","02","23","00:00","6.4","","2.3","","75","","16","","4","","","","99.62","","","","","","NA"
"2017-02-23 01:00","2017","02","23","01:00","5.2","","1.8","","79","","16","","5","","","","99.62","","","","","","NA"
"2017-02-23 02:00","2017","02","23","02:00","5.0","","2.8","","85","","17","","5","","","","99.56","","","","","","NA"
"2017-02-23 03:00","2017","02","23","03:00","5.2","","3.7","","90","","18","","5","","","","99.52","","","","","","NA"
"2017-02-23 04:00","2017","02","23","04:00","6.5","","5.0","","90","","20","","13","","","","99.48","","","","","","NA"
"2017-02-23 05:00","2017","02","23","05:00","6.4","","4.8","","89","","19","","14","","","","99.46","","","","","","NA"
"2017-02-23 06:00","2017","02","23","06:00","5.7","","3.8","","88","","25","","8","","","","99.42","","","","","","NA"
"2017-02-23 07:00","2017","02","23","07:00","5.0","","3.4","","89","","21","","13","","","","99.35","","","","","","NA"
"2017-02-23 08:00","2017","02","23","08:00","4.6","","2.9","","89","","23","","4","","","","99.33","","","","","","NA"
"2017-02-23 09:00","2017","02","23","09:00","4.3","","2.7","","90","","17","","18","","","","99.27","","","","","","NA"
"2017-02-23 10:00","2017","02","23","10:00","4.5","","3.0","","90","","20","","13","","","","99.23","","","","","","NA"
"2017-02-23 11:00","2017","02","23","11:00","7.0","","4.4","","83","","20","","28","","","","99.16","","","","","","NA"
"2017-02-23 12:00","2017","02","23","12:00","7.9","","5.6","","85","","23","","14","","","","99.18","","","","","","NA"
"2017-02-23 13:00","2017","02","23","13:00","7.6","","6.2","","91","","23","","18","","","","99.16","","","","","","NA"
"2017-02-23 14:00","2017","02","23","14:00","11.6","","8.3","","80","","24","","25","","","","99.12","","","","","","NA"
"2017-02-23 15:00","2017","02","23","15:00","11.6","","8.0","","79","","24","","26","","","","99.19","","","","","","NA"
"2017-02-23 16:00","2017","02","23","16:00","11.5","","7.8","","78","","24","","26","","","","99.31","","","","","","NA"
"2017-02-23 17:00","2017","02","23","17:00","11.1","","7.3","","77","","24","","20","","","","99.44","","","","","","NA"
"2017-02-23 18:00","2017","02","23","18:00","11.2","","5.3","","67","","27","","17","","","","99.58","","","","","","NA"
"2017-02-23 19:00","2017","02","23","19:00","8.4","","3.7","","72","","26","","12","","","","99.74","","","","","","NA"
"2017-02-23 20:00","2017","02","23","20:00","6.5","","3.3","","80","","30","","11","","","","99.85","","","","","","NA"
"2017-02-23 21:00","2017","02","23","21:00","3.3","","1.4","","88","","22","","9","","","","99.94","","","","","","NA"
"2017-02-23 22:00","2017","02","23","22:00","4.1","","2.3","","88","","26","","10","","","","100.00","","","","","","NA"
"2017-02-23 23:00","2017","02","23","23:00","2.1","","1.1","","93","","22","","7","","","","100.06","","","","","","NA"
"2017-02-24 00:00","2017","02","24","00:00","2.0","","1.4","","95","","31","","8","","","","100.05","","","","","","NA"
"2017-02-24 01:00","2017","02","24","01:00","2.7","","2.0","","95","","","","0","","","","100.12","","","","","","NA"
"2017-02-24 02:00","2017","02","24","02:00","2.3","","1.6","","96","","5","","6","","","","100.15","","","","","","NA"
"2017-02-24 03:00","2017","02","24","03:00","3.3","","1.8","","90","","3","","7","","","","100.19","","","","","","NA"
"2017-02-24 04:00","2017","02","24","04:00","3.2","","1.0","","86","","4","","10","","","","100.18","","","","","","NA"
"2017-02-24 05:00","2017","02","24","05:00","3.0","","0.7","","85","","5","","13","","","","100.15","","","","","","NA"
"2017-02-24 06:00","2017","02","24","06:00","3.1","","0.5","","83","","3","","15","","","","100.14","","","","","","NA"
"2017-02-24 07:00","2017","02","24","07:00","2.8","","0.2","","83","","4","","13","","","","100.09","","","","","","NA"
"2017-02-24 08:00","2017","02","24","08:00","2.6","","0.7","","87","","2","","14","","","","100.04","","","","","","NA"
"2017-02-24 09:00","2017","02","24","09:00","2.5","","1.1","","90","","4","","17","","","","99.99","","","","","","NA"
"2017-02-24 10:00","2017","02","24","10:00","2.8","","1.5","","91","","4","","20","","","","99.91","","","","","","NA"
"2017-02-24 11:00","2017","02","24","11:00","2.9","","1.3","","89","","4","","20","","","","99.88","","","","","","NA"
"2017-02-24 12:00","2017","02","24","12:00","2.8","","1.7","","93","","3","","23","","","","99.77","","","","","","NA"
"2017-02-24 13:00","2017","02","24","13:00","3.1","","1.7","","91","","3","","21","","","","99.74","","","","","","NA"
"2017-02-24 14:00","2017","02","24","14:00","3.0","","1.5","","90","","4","","26","","","","99.63","","","","","","NA"
"2017-02-24 15:00","2017","02","24","15:00","2.9","","1.4","","90","","4","","28","","","","99.59","","","","","","NA"
"2017-02-24 16:00","2017","02","24","16:00","3.1","","1.5","","90","","3","","20","","","","99.57","","","","","","NA"
"2017-02-24 17:00","2017","02","24","17:00","3.0","","1.7","","91","","5","","22","","","","99.49","","","","","","NA"
"2017-02-24 18:00","2017","02","24","18:00","2.7","","1.5","","92","","3","","21","","","","99.49","","","","","","NA"
"2017-02-24 19:00","2017","02","24","19:00","2.5","","1.5","","93","","4","","22","","","","99.42","","","","","","NA"
"2017-02-24 20:00","2017","02","24","20:00","2.6","","1.6","","93","","2","","17","","","","99.47","","","","","","NA"
"2017-02-24 21:00","2017","02","24","21:00","2.4","","1.6","","95","","4","","21","","","","99.36","","","","","","NA"
"2017-02-24 22:00","2017","02","24","22:00","2.2","","1.5","","96","","5","","22","","","","99.26","","","","","","NA"
"2017-02-24 23:00","2017","02","24","23:00","2.1","","1.5","","96","","4","","21","","","","99.25","","","","","","NA"
"2017-02-25 00:00","2017","02","25","00:00","1.9","","1.3","","96","","5","","17","","","","99.18","","","","","","NA"
"2017-02-25 01:00","2017","02","25","01:00","1.7","","1.2","","97","","4","","17","","","","99.10","","","","","","NA"
"2017-02-25 02:00","2017","02","25","02:00","1.5","","1.1","","97","","4","","15","","","","99.02","","","","","","NA"
"2017-02-25 03:00","2017","02","25","03:00","1.4","","1.0","","97","","2","","14","","","","98.99","","","","","","NA"
"2017-02-25 04:00","2017","02","25","04:00","1.7","","1.3","","97","","3","","12","","","","98.95","","","","","","NA"
"2017-02-25 05:00","2017","02","25","05:00","1.9","","1.5","","97","","7","","7","","","","98.91","","","","","","NA"
"2017-02-25 06:00","2017","02","25","06:00","2.7","","2.3","","97","","34","","10","","","","98.93","","","","","","NA"
"2017-02-25 07:00","2017","02","25","07:00","3.0","","2.5","","97","","6","","8","","","","98.83","","","","","","NA"
"2017-02-25 08:00","2017","02","25","08:00","3.5","","2.7","","94","","6","","9","","","","98.75","","","","","","NA"
"2017-02-25 09:00","2017","02","25","09:00","5.1","","4.0","","92","","6","","10","","","","98.64","","","","","","NA"
"2017-02-25 10:00","2017","02","25","10:00","7.7","","5.9","","88","","4","","6","","","","98.54","","","","","","NA"
"2017-02-25 11:00","2017","02","25","11:00","8.7","","6.9","","89","","20","","15","","","","98.45","","","","","","NA"
"2017-02-25 12:00","2017","02","25","12:00","8.3","","7.3","","94","","26","","19","","","","98.40","","","","","","NA"
"2017-02-25 13:00","2017","02","25","13:00","6.4","","5.1","","91","","25","","26","","","","98.42","","","","","","NA"
"2017-02-25 14:00","2017","02","25","14:00","4.9","","4.0","","94","","24","","21","","","","98.52","","","","","","NA"
"2017-02-25 15:00","2017","02","25","15:00","5.1","","2.6","","84","","25","","28","","","","98.70","","","","","","NA"
"2017-02-25 16:00","2017","02","25","16:00","4.0","","2.6","","91","","23","","13","","","","98.72","","","","","","NA"
"2017-02-25 17:00","2017","02","25","17:00","4.5","","1.5","","81","","23","","17","","","","98.76","","","","","","NA"
"2017-02-25 18:00","2017","02","25","18:00","4.4","","0.9","","78","","25","","18","","","","98.88","","","","","","NA"
"2017-02-25 19:00","2017","02","25","19:00","3.3","","0.8","","84","","24","","9","","","","99.10","","","","","","NA"
"2017-02-25 20:00","2017","02","25","20:00","3.3","","-2.7","","65","","27","","23","","","","99.11","","","","","","NA"
"2017-02-25 21:00","2017","02","25","21:00","2.3","","-3.5","","66","","24","","27","","","","99.14","","","","","","NA"
"2017-02-25 22:00","2017","02","25","22:00","1.7","","-3.8","","67","","25","","21","","","","99.25","","","","","","NA"
"2017-02-25 23:00","2017","02","25","23:00","0.4","","-4.2","","71","","26","","33","","","","99.34","","","","","","NA"
"2017-02-26 00:00","2017","02","26","00:00","-0.1","","-5.8","","66","","28","","25","","","","99.40","","","","-6","","NA"
"2017-02-26 01:00","2017","02","26","01:00","-1.0","","-6.6","","66","","27","","29","","","","99.48","","","","-8","","NA"
"2017-02-26 02:00","2017","02","26","02:00","-1.3","","-6.4","","68","","26","","19","","","","99.56","","","","-7","","NA"
"2017-02-26 03:00","2017","02","26","03:00","-1.9","","-6.0","","73","","26","","24","","","","99.63","","","","-8","","NA"
"2017-02-26 04:00","2017","02","26","04:00","-2.5","","-9.2","","60","","28","","30","","","","99.76","","","","-10","","NA"
"2017-02-26 05:00","2017","02","26","05:00","-3.0","","-9.3","","62","","28","","24","","","","99.89","","","","-10","","NA"
"2017-02-26 06:00","2017","02","26","06:00","-3.7","","-9.5","","64","","28","","21","","","","100.00","","","","-10","","NA"
"2017-02-26 07:00","2017","02","26","07:00","-4.1","","-11.2","","58","","28","","21","","","","100.13","","","","-11","","NA"
"2017-02-26 08:00","2017","02","26","08:00","-3.4","","-11.3","","55","","28","","22","","","","100.31","","","","-10","","NA"
"2017-02-26 09:00","2017","02","26","09:00","-2.9","","-10.4","","56","","26","","19","","","","100.39","","","","-9","","NA"
"2017-02-26 10:00","2017","02","26","10:00","-1.4","","-9.2","","55","","27","","20","","","","100.43","","","","-7","","NA"
"2017-02-26 11:00","2017","02","26","11:00","-0.7","","-7.7","","59","","25","","22","","","","100.45","","","","-6","","NA"
"2017-02-26 12:00","2017","02","26","12:00","-0.9","","-6.6","","65","","26","","24","","","","100.46","","","","-7","","NA"
"2017-02-26 13:00","2017","02","26","13:00","0.4","","-6.2","","61","","24","","23","","","","100.46","","","","","","NA"
"2017-02-26 14:00","2017","02","26","14:00","0.3","","-7.9","","54","","26","","22","","","","100.47","","","","","","NA"
"2017-02-26 15:00","2017","02","26","15:00","1.6","","-4.0","","66","","23","","22","","","","100.47","","","","","","NA"
"2017-02-26 16:00","2017","02","26","16:00","1.0","","-5.7","","61","","23","","23","","","","100.51","","","","","","NA"
"2017-02-26 17:00","2017","02","26","17:00","0.4","","-5.9","","63","","24","","30","","","","100.54","","","","","","NA"
"2017-02-26 18:00","2017","02","26","18:00","-0.4","","-5.6","","68","","23","","26","","","","100.58","","","","-7","","NA"
"2017-02-26 19:00","2017","02","26","19:00","-0.9","","-5.4","","71","","22","","20","","","","100.59","","","","-6","","NA"
"2017-02-26 20:00","2017","02","26","20:00","-0.2","","-5.0","","70","","22","","26","","","","100.61","","","","-6","","NA"
"2017-02-26 21:00","2017","02","26","21:00","0.3","","-5.2","","67","","22","","28","","","","100.64","","","","","","NA"
"2017-02-26 22:00","2017","02","26","22:00","0.4","","-4.3","","71","","22","","30","","","","100.65","","","","","","NA"
"2017-02-26 23:00","2017","02","26","23:00","0.7","","-3.7","","72","","21","","22","","","","100.58","","","","","","NA"
"2017-02-27 00:00","2017","02","27","00:00","1.3","","-3.7","","69","","20","","27","","","","100.55","","","","","","NA"
"2017-02-27 01:00","2017","02","27","01:00","1.4","","-3.1","","72","","20","","24","","","","100.53","","","","","","NA"
"2017-02-27 02:00","2017","02","27","02:00","1.9","","-3.9","","66","","22","","24","","","","100.51","","","","","","NA"
"2017-02-27 03:00","2017","02","27","03:00","2.5","","-2.9","","67","","23","","24","","","","100.53","","","","","","NA"
"2017-02-27 04:00","2017","02","27","04:00","2.7","","-2.8","","67","","24","","26","","","","100.56","","","","","","NA"
"2017-02-27 05:00","2017","02","27","05:00","2.6","","-2.5","","69","","23","","24","","","","100.64","","","","","","NA"
"2017-02-27 06:00","2017","02","27","06:00","2.5","","-2.5","","70","","24","","22","","","","100.70","","","","","","NA"
"2017-02-27 07:00","2017","02","27","07:00","2.3","","-2.5","","70","","22","","21","","","","100.81","","","","","","NA"
"2017-02-27 08:00","2017","02","27","08:00","3.1","","-2.0","","69","","23","","22","","","","100.92","","","","","","NA"
"2017-02-27 09:00","2017","02","27","09:00","4.2","","-1.6","","66","","23","","27","","","","100.96","","","","","","NA"
"2017-02-27 10:00","2017","02","27","10:00","4.9","","-1.2","","64","","23","","29","","","","101.03","","","","","","NA"
"2017-02-27 11:00","2017","02","27","11:00","5.7","","-0.6","","64","","23","","25","","","","101.09","","","","","","NA"
"2017-02-27 12:00","2017","02","27","12:00","5.7","","-0.6","","64","","23","","25","","","","101.13","","","","","","NA"
"2017-02-27 13:00","2017","02","27","13:00","5.2","","-1.0","","65","","22","","25","","","","101.13","","","","","","NA"
"2017-02-27 14:00","2017","02","27","14:00","6.8","","0.1","","62","","22","","24","","","","101.12","","","","","","NA"
"2017-02-27 15:00","2017","02","27","15:00","6.9","","-0.9","","58","","23","","21","","","","101.13","","","","","","NA"
"2017-02-27 16:00","2017","02","27","16:00","6.5","","-1.0","","59","","23","","20","","","","101.15","","","","","","NA"
"2017-02-27 17:00","2017","02","27","17:00","4.9","","-1.1","","65","","24","","15","","","","101.24","","","","","","NA"
"2017-02-27 18:00","2017","02","27","18:00","3.1","","-1.4","","72","","24","","9","","","","101.29","","","","","","NA"
"2017-02-27 19:00","2017","02","27","19:00","3.7","","-2.8","","62","","31","","8","","","","101.35","","","","","","NA"
"2017-02-27 20:00","2017","02","27","20:00","0.3","","-2.8","","80","","21","","6","","","","101.38","","","","","","NA"
"2017-02-27 21:00","2017","02","27","21:00","-1.8","","-3.8","","86","","33","","9","","","","101.42","","","","-5","","NA"
"2017-02-27 22:00","2017","02","27","22:00","-1.8","","-4.3","","83","","35","","7","","","","101.43","","","","-4","","NA"
"2017-02-27 23:00","2017","02","27","23:00","-0.8","","-3.3","","83","","14","","4","","","","101.47","","","","-2","","NA"
"2017-02-28 00:00","2017","02","28","00:00","0.6","","-0.8","","90","","14","","7","","","","101.50","","","","","","NA"
"2017-02-28 01:00","2017","02","28","01:00","0.5","","-1.4","","87","","12","","3","","","","101.51","","","","","","NA"
"2017-02-28 02:00","2017","02","28","02:00","-1.2","","-2.4","","91","","2","","4","","","","101.50","","","","-3","","NA"
"2017-02-28 03:00","2017","02","28","03:00","-2.4","","-3.6","","92","","4","","7","","","","101.47","","","","-5","","NA"
"2017-02-28 04:00","2017","02","28","04:00","-0.9","","-2.6","","88","","4","","4","","","","101.47","","","","-2","","NA"
"2017-02-28 05:00","2017","02","28","05:00","-1.0","","-2.6","","89","","8","","4","","","","101.48","","","","-2","","NA"
"2017-02-28 06:00","2017","02","28","06:00","-0.7","","-2.7","","86","","6","","9","","","","101.44","","","","-4","","NA"
"2017-02-28 07:00","2017","02","28","07:00","-1.1","","-3.6","","83","","8","","5","","","","101.43","","","","-3","","NA"
"2017-02-28 08:00","2017","02","28","08:00","1.4","","-0.9","","84","","7","","8","","","","101.42","","","","","","NA"
"2017-02-28 09:00","2017","02","28","09:00","4.9","","-0.9","","66","","8","","9","","","","101.34","","","","","","NA"
"2017-02-28 10:00","2017","02","28","10:00","5.8","","-0.4","","65","","14","","9","","","","101.30","","","","","","NA"
"2017-02-28 11:00","2017","02","28","11:00","5.7","","-0.5","","65","","15","","9","","","","101.25","","","","","","NA"
"2017-02-28 12:00","2017","02","28","12:00","6.2","","0.3","","66","","15","","9","","","","101.12","","","","","","NA"
"2017-02-28 13:00","2017","02","28","13:00","7.3","","0.5","","62","","13","","11","","","","100.91","","","","","","NA"
"2017-02-28 14:00","2017","02","28","14:00","7.6","","1.7","","66","","13","","9","","","","100.78","","","","","","NA"
"2017-02-28 15:00","2017","02","28","15:00","8.8","","2.4","","64","","11","","9","","","","100.64","","","","","","NA"
"2017-02-28 16:00","2017","02","28","16:00","8.9","","2.6","","65","","11","","10","","","","100.52","","","","","","NA"
"2017-02-28 17:00","2017","02","28","17:00","8.8","","2.5","","65","","9","","11","","","","100.38","","","","","","NA"
"2017-02-28 18:00","2017","02","28","18:00","8.0","","2.2","","67","","7","","11","","","","100.24","","","","","","NA"
"2017-02-28 19:00","2017","02","28","19:00","7.7","","2.5","","70","","11","","10","","","","100.16","","","","","","NA"
"2017-02-28 20:00","2017","02","28","20:00","7.8","","2.1","","67","","13","","9","","","","100.02","","","","","","NA"
"2017-02-28 21:00","2017","02","28","21:00","5.3","","1.6","","77","","15","","15","","","","99.90","","","","","","NA"
"2017-02-28 22:00","2017","02","28","22:00","6.1","","1.7","","73","","15","","21","","","","99.76","","","","","","NA"
"2017-02-28 23:00","2017","02","28","23:00","4.9","","1.6","","79","","18","","14","","","","99.75","","","","","","NA"
