"Station Name","KINGSTON CLIMATE"
"Province","ONTARIO"
"Latitude","44.22"
"Longitude","-76.60"
"Elevation","93.00"
"Climate Identifier","6104142"
"WMO Identifier","71820"
"TC Identifier","TKG"
"All times are specified in Local Standard Time (LST). Add 1 hour to adjust for Daylight Saving Time where and when it is observed."

"Legend"
"E","Estimated"
"M","Missing"
"NA","Not Available"

"Date/Time","Year","Month","Day","Time","Temp (°C)","Temp Flag","Dew Point Temp (°C)","Dew Point Temp Flag","Rel Hum (%)","Rel Hum Flag","Wind Dir (10s deg)","Wind Dir Flag","Wind Spd (km/h)","Wind Spd Flag","Visibility (km)","Visibility Flag","Stn Press (kPa)","Stn Press Flag","Hmdx","Hmdx Flag","Wind Chill","Wind Chill Flag","Weather"
"2015-04-01 00:00","2015","04","01","00:00","-4.6","","-7.5","","80","","33","","8","","","","100.29","","","","-8","","NA"
"2015-04-01 01:00","2015","04","01","01:00","-5.7","","-7.8","","85","","34","","12","","","","100.32","","","","-11","","NA"
"2015-04-01 02:00","2015","04","01","02:00","-5.3","","-9.7","","71","","35","","14","","","","100.35","","","","-11","","NA"
"2015-04-01 03:00","2015","04","01","03:00","-5.5","","-12.0","","60","","35","","11","","","","100.40","","","","-10","","NA"
"2015-04-01 04:00","2015","04","01","04:00","-5.7","","-11.9","","62","","35","","14","","","","100.46","","","","-11","","NA"
"2015-04-01 05:00","2015","04","01","05:00","-6.7","","-12.9","","61","","34","","12","","","","100.59","","","","-12","","NA"
"2015-04-01 06:00","2015","04","01","06:00","-6.2","","-12.9","","59","","33","","12","","","","100.73","","","","-11","","NA"
"2015-04-01 07:00","2015","04","01","07:00","-4.6","","-11.7","","57","","34","","10","","","","100.81","","","","-9","","NA"
"2015-04-01 08:00","2015","04","01","08:00","-2.6","","-12.5","","46","","34","","14","","","","100.86","","","","-7","","NA"
"2015-04-01 09:00","2015","04","01","09:00","-1.0","","-13.9","","37","","34","","16","","","","100.97","","","","-6","","NA"
"2015-04-01 10:00","2015","04","01","10:00","-0.5","","-13.7","","36","","35","","13","","","","101.03","","","","-5","","NA"
"2015-04-01 11:00","2015","04","01","11:00","0.5","","-14.4","","32","","35","","11","","","","101.04","","","","","","NA"
"2015-04-01 12:00","2015","04","01","12:00","1.4","","-13.5","","32","","32","","14","","","","101.04","","","","","","NA"
"2015-04-01 13:00","2015","04","01","13:00","2.0","","-14.9","","27","","35","","9","","","","101.01","","","","","","NA"
"2015-04-01 14:00","2015","04","01","14:00","0.8","","-8.0","","52","","19","","20","","","","101.05","","","","","","NA"
"2015-04-01 15:00","2015","04","01","15:00","0.2","","-7.6","","56","","19","","25","","","","101.07","","","","","","NA"
"2015-04-01 16:00","2015","04","01","16:00","0.0","","-7.2","","58","","19","","24","","","","101.08","","","","-6","","NA"
"2015-04-01 17:00","2015","04","01","17:00","-0.6","","-5.9","","67","","19","","19","","","","101.10","","","","-6","","NA"
"2015-04-01 18:00","2015","04","01","18:00","-1.2","","-5.4","","73","","17","","17","","","","101.06","","","","-6","","NA"
"2015-04-01 19:00","2015","04","01","19:00","-2.0","","-5.7","","76","","18","","15","","","","101.00","","","","-7","","NA"
"2015-04-01 20:00","2015","04","01","20:00","-2.3","","-5.7","","77","","18","","12","","","","101.01","","","","-7","","NA"
"2015-04-01 21:00","2015","04","01","21:00","-2.5","","-5.8","","78","","18","","9","","","","100.94","","","","-6","","NA"
"2015-04-01 22:00","2015","04","01","22:00","-2.5","","-6.4","","75","","17","","9","","","","100.94","","","","-6","","NA"
"2015-04-01 23:00","2015","04","01","23:00","-1.8","","-6.1","","72","","19","","5","","","","101.01","","","","-4","","NA"
"2015-04-02 00:00","2015","04","02","00:00","-1.2","","-5.1","","74","","18","","11","","","","100.93","","","","-5","","NA"
"2015-04-02 01:00","2015","04","02","01:00","-1.0","","-5.7","","70","","18","","9","","","","100.89","","","","-4","","NA"
"2015-04-02 02:00","2015","04","02","02:00","-0.8","","-5.5","","70","","17","","8","","","","100.89","","","","-4","","NA"
"2015-04-02 03:00","2015","04","02","03:00","-0.7","","-4.8","","74","","16","","4","","","","100.85","","","","-2","","NA"
"2015-04-02 04:00","2015","04","02","04:00","-0.4","","-4.8","","72","","10","","7","","","","100.78","","","","-3","","NA"
"2015-04-02 05:00","2015","04","02","05:00","0.4","","-5.2","","66","","12","","19","","","","100.52","","","","","","NA"
"2015-04-02 06:00","2015","04","02","06:00","1.2","","-4.2","","68","","12","","8","","","","100.66","","","","","","NA"
"2015-04-02 07:00","2015","04","02","07:00","1.1","","-3.1","","73","","15","","12","","","","100.58","","","","","","NA"
"2015-04-02 08:00","2015","04","02","08:00","1.2","","-3.0","","74","","16","","12","","","","100.50","","","","","","NA"
"2015-04-02 09:00","2015","04","02","09:00","2.3","","-1.8","","74","","16","","16","","","","100.38","","","","","","NA"
"2015-04-02 10:00","2015","04","02","10:00","4.1","","-2.2","","64","","16","","11","","","","100.30","","","","","","NA"
"2015-04-02 11:00","2015","04","02","11:00","4.7","","-0.6","","69","","19","","16","","","","100.10","","","","","","NA"
"2015-04-02 12:00","2015","04","02","12:00","6.5","","0.1","","63","","21","","14","","","","99.93","","","","","","NA"
"2015-04-02 13:00","2015","04","02","13:00","7.3","","0.5","","62","","18","","13","","","","99.81","","","","","","NA"
"2015-04-02 14:00","2015","04","02","14:00","6.0","","0.5","","68","","18","","19","","","","99.64","","","","","","NA"
"2015-04-02 15:00","2015","04","02","15:00","6.4","","-0.1","","63","","18","","23","","","","99.52","","","","","","NA"
"2015-04-02 16:00","2015","04","02","16:00","5.6","","-0.4","","65","","17","","16","","","","99.45","","","","","","NA"
"2015-04-02 17:00","2015","04","02","17:00","5.0","","0.3","","72","","19","","16","","","","99.36","","","","","","NA"
"2015-04-02 18:00","2015","04","02","18:00","4.6","","0.7","","76","","22","","10","","","","99.32","","","","","","NA"
"2015-04-02 19:00","2015","04","02","19:00","5.0","","2.9","","86","","19","","20","","","","99.32","","","","","","NA"
"2015-04-02 20:00","2015","04","02","20:00","3.9","","2.3","","89","","18","","10","","","","99.31","","","","","","NA"
"2015-04-02 21:00","2015","04","02","21:00","4.3","","3.3","","93","","25","","8","","","","99.37","","","","","","NA"
"2015-04-02 22:00","2015","04","02","22:00","3.7","","2.9","","95","","18","","8","","","","99.35","","","","","","NA"
"2015-04-02 23:00","2015","04","02","23:00","6.5","","5.7","","95","","24","","14","","","","99.35","","","","","","NA"
"2015-04-03 00:00","2015","04","03","00:00","4.8","","4.1","","95","","22","","10","","","","99.38","","","","","","NA"
"2015-04-03 01:00","2015","04","03","01:00","3.8","","3.1","","96","","22","","10","","","","99.50","","","","","","NA"
"2015-04-03 02:00","2015","04","03","02:00","4.3","","3.6","","95","","23","","8","","","","99.58","","","","","","NA"
"2015-04-03 03:00","2015","04","03","03:00","4.4","","3.7","","95","","24","","10","","","","99.57","","","","","","NA"
"2015-04-03 04:00","2015","04","03","04:00","4.0","","3.3","","95","","24","","12","","","","99.71","","","","","","NA"
"2015-04-03 05:00","2015","04","03","05:00","3.6","","2.9","","95","","24","","15","","","","99.71","","","","","","NA"
"2015-04-03 06:00","2015","04","03","06:00","1.8","","1.2","","96","","19","","4","","","","99.75","","","","","","NA"
"2015-04-03 07:00","2015","04","03","07:00","2.4","","1.8","","96","","21","","4","","","","99.79","","","","","","NA"
"2015-04-03 08:00","2015","04","03","08:00","4.4","","3.7","","95","","23","","10","","","","99.79","","","","","","NA"
"2015-04-03 09:00","2015","04","03","09:00","4.9","","2.9","","87","","18","","8","","","","99.78","","","","","","NA"
"2015-04-03 10:00","2015","04","03","10:00","7.9","","5.5","","85","","23","","13","","","","99.89","","","","","","NA"
"2015-04-03 11:00","2015","04","03","11:00","2.6","","1.6","","93","","16","","19","","","","99.90","","","","","","NA"
"2015-04-03 12:00","2015","04","03","12:00","2.1","","1.4","","95","","15","","18","","","","99.87","","","","","","NA"
"2015-04-03 13:00","2015","04","03","13:00","2.6","","2.0","","96","","17","","11","","","","99.85","","","","","","NA"
"2015-04-03 14:00","2015","04","03","14:00","2.4","","1.8","","96","","15","","13","","","","99.75","","","","","","NA"
"2015-04-03 15:00","2015","04","03","15:00","2.6","","2.0","","96","","14","","15","","","","99.64","","","","","","NA"
"2015-04-03 16:00","2015","04","03","16:00","2.5","","1.9","","96","","14","","10","","","","99.57","","","","","","NA"
"2015-04-03 17:00","2015","04","03","17:00","1.6","","1.0","","96","","16","","12","","","","99.68","","","","","","NA"
"2015-04-03 18:00","2015","04","03","18:00","2.0","","1.4","","96","","10","","3","","","","99.60","","","","","","NA"
"2015-04-03 19:00","2015","04","03","19:00","0.9","","0.4","","96","","10","","3","","","","99.58","","","","","","NA"
"2015-04-03 20:00","2015","04","03","20:00","1.3","","0.7","","96","","19","","5","","","","99.66","","","","","","NA"
"2015-04-03 21:00","2015","04","03","21:00","4.2","","3.6","","95","","34","","16","","","","99.60","","","","","","NA"
"2015-04-03 22:00","2015","04","03","22:00","4.4","","2.8","","90","","32","","14","","","","99.64","","","","","","NA"
"2015-04-03 23:00","2015","04","03","23:00","4.0","","2.9","","92","","31","","8","","","","99.50","","","","","","NA"
"2015-04-04 00:00","2015","04","04","00:00","3.8","","2.8","","94","","31","","7","","","","99.46","","","","","","NA"
"2015-04-04 01:00","2015","04","04","01:00","3.0","","2.2","","94","","25","","6","","","","99.44","","","","","","NA"
"2015-04-04 02:00","2015","04","04","02:00","3.5","","2.7","","94","","29","","13","","","","99.41","","","","","","NA"
"2015-04-04 03:00","2015","04","04","03:00","1.7","","0.8","","93","","33","","30","","","","99.52","","","","","","NA"
"2015-04-04 04:00","2015","04","04","04:00","0.5","","-0.3","","95","","34","","24","","","","99.63","","","","","","NA"
"2015-04-04 05:00","2015","04","04","05:00","-0.2","","-1.2","","93","","34","","33","","","","99.77","","","","-7","","NA"
"2015-04-04 06:00","2015","04","04","06:00","-1.1","","-2.1","","93","","34","","18","","","","99.94","","","","-6","","NA"
"2015-04-04 07:00","2015","04","04","07:00","-1.3","","-3.2","","87","","32","","21","","","","100.14","","","","-7","","NA"
"2015-04-04 08:00","2015","04","04","08:00","-0.5","","-3.7","","79","","33","","22","","","","100.25","","","","-6","","NA"
"2015-04-04 09:00","2015","04","04","09:00","-0.2","","-4.1","","75","","34","","25","","","","100.34","","","","-6","","NA"
"2015-04-04 10:00","2015","04","04","10:00","0.6","","-3.5","","74","","33","","17","","","","100.45","","","","","","NA"
"2015-04-04 11:00","2015","04","04","11:00","1.2","","-3.8","","69","","31","","18","","","","100.52","","","","","","NA"
"2015-04-04 12:00","2015","04","04","12:00","2.0","","-4.0","","65","","30","","19","","","","100.53","","","","","","NA"
"2015-04-04 13:00","2015","04","04","13:00","2.8","","-3.7","","62","","29","","20","","","","100.51","","","","","","NA"
"2015-04-04 14:00","2015","04","04","14:00","3.9","","-3.6","","58","","28","","23","","","","100.47","","","","","","NA"
"2015-04-04 15:00","2015","04","04","15:00","4.6","","-11.3","","30","","28","","24","","","","100.44","","","","","","NA"
"2015-04-04 16:00","2015","04","04","16:00","4.3","","-10.6","","33","","26","","26","","","","100.46","","","","","","NA"
"2015-04-04 17:00","2015","04","04","17:00","3.2","","-10.1","","37","","25","","32","","","","100.49","","","","","","NA"
"2015-04-04 18:00","2015","04","04","18:00","2.4","","-11.8","","34","","27","","28","","","","100.52","","","","","","NA"
"2015-04-04 19:00","2015","04","04","19:00","1.4","","-9.6","","44","","27","","17","","","","100.55","","","","","","NA"
"2015-04-04 20:00","2015","04","04","20:00","0.2","","-8.1","","54","","25","","12","","","","100.64","","","","","","NA"
"2015-04-04 21:00","2015","04","04","21:00","0.2","","-8.6","","51","","27","","17","","","","100.67","","","","","","NA"
"2015-04-04 22:00","2015","04","04","22:00","-0.2","","-7.2","","59","","23","","11","","","","100.60","","","","-4","","NA"
"2015-04-04 23:00","2015","04","04","23:00","-0.5","","-4.0","","77","","21","","17","","","","100.56","","","","-5","","NA"
"2015-04-05 00:00","2015","04","05","00:00","0.2","","-2.2","","84","","24","","20","","","","100.55","","","","","","NA"
"2015-04-05 01:00","2015","04","05","01:00","-0.1","","-1.8","","88","","24","","28","","","","100.54","","","","-6","","NA"
"2015-04-05 02:00","2015","04","05","02:00","-1.0","","-6.8","","65","","28","","28","","","","100.62","","","","-8","","NA"
"2015-04-05 03:00","2015","04","05","03:00","-2.0","","-7.9","","64","","28","","18","","","","100.66","","","","-7","","NA"
"2015-04-05 04:00","2015","04","05","04:00","-3.4","","-9.2","","64","","27","","10","","","","100.72","","","","-7","","NA"
"2015-04-05 05:00","2015","04","05","05:00","-3.6","","-8.6","","68","","25","","13","","","","100.81","","","","-8","","NA"
"2015-04-05 06:00","2015","04","05","06:00","-3.6","","-9.5","","63","","25","","12","","","","100.92","","","","-8","","NA"
"2015-04-05 07:00","2015","04","05","07:00","-2.2","","-8.6","","61","","25","","15","","","","101.01","","","","-7","","NA"
"2015-04-05 08:00","2015","04","05","08:00","-0.8","","-10.5","","48","","25","","19","","","","101.00","","","","-6","","NA"
"2015-04-05 09:00","2015","04","05","09:00","0.0","","-10.7","","44","","27","","22","","","","100.97","","","","-6","","NA"
"2015-04-05 10:00","2015","04","05","10:00","1.1","","-10.1","","43","","26","","22","","","","100.95","","","","","","NA"
"2015-04-05 11:00","2015","04","05","11:00","2.6","","-7.5","","47","","24","","21","","","","100.92","","","","","","NA"
"2015-04-05 12:00","2015","04","05","12:00","3.4","","-6.0","","50","","24","","17","","","","100.90","","","","","","NA"
"2015-04-05 13:00","2015","04","05","13:00","3.9","","-5.5","","50","","22","","21","","","","100.85","","","","","","NA"
"2015-04-05 14:00","2015","04","05","14:00","3.6","","-4.4","","56","","21","","28","","","","100.82","","","","","","NA"
"2015-04-05 15:00","2015","04","05","15:00","2.4","","-2.0","","72","","21","","34","","","","100.80","","","","","","NA"
"2015-04-05 16:00","2015","04","05","16:00","2.1","","-3.1","","68","","22","","27","","","","100.82","","","","","","NA"
"2015-04-05 17:00","2015","04","05","17:00","1.9","","-3.4","","68","","22","","26","","","","100.88","","","","","","NA"
"2015-04-05 18:00","2015","04","05","18:00","0.6","","-3.1","","76","","23","","19","","","","100.95","","","","","","NA"
"2015-04-05 19:00","2015","04","05","19:00","0.3","","-3.9","","73","","23","","22","","","","101.02","","","","","","NA"
"2015-04-05 20:00","2015","04","05","20:00","-0.2","","-3.8","","77","","23","","17","","","","101.10","","","","-5","","NA"
"2015-04-05 21:00","2015","04","05","21:00","-0.6","","-3.3","","82","","24","","15","","","","101.16","","","","-5","","NA"
"2015-04-05 22:00","2015","04","05","22:00","-0.8","","-2.6","","87","","24","","17","","","","101.19","","","","-6","","NA"
"2015-04-05 23:00","2015","04","05","23:00","-1.5","","-3.3","","88","","24","","8","","","","101.23","","","","-5","","NA"
"2015-04-06 00:00","2015","04","06","00:00","-1.3","","-2.9","","89","","27","","5","","","","101.23","","","","-3","","NA"
"2015-04-06 01:00","2015","04","06","01:00","-1.9","","-3.0","","92","","25","","4","","","","101.26","","","","-3","","NA"
"2015-04-06 02:00","2015","04","06","02:00","-2.4","","-3.5","","92","","16","","1","","","","101.27","","","","-3","","NA"
"2015-04-06 03:00","2015","04","06","03:00","-2.4","","-3.3","","93","","12","","2","","","","101.28","","","","-3","","NA"
"2015-04-06 04:00","2015","04","06","04:00","-1.9","","-2.9","","93","","12","","4","","","","101.31","","","","-3","","NA"
"2015-04-06 05:00","2015","04","06","05:00","-2.0","","-3.0","","93","","4","","3","","","","101.34","","","","-3","","NA"
"2015-04-06 06:00","2015","04","06","06:00","-0.8","","-1.4","","95","","13","","10","","","","101.34","","","","-4","","NA"
"2015-04-06 07:00","2015","04","06","07:00","-0.6","","-1.4","","94","","11","","5","","","","101.35","","","","-2","","NA"
"2015-04-06 08:00","2015","04","06","08:00","0.2","","-1.6","","87","","25","","1","","","","101.41","","","","","","NA"
"2015-04-06 09:00","2015","04","06","09:00","1.7","","-1.5","","79","","12","","6","","","","101.36","","","","","","NA"
"2015-04-06 10:00","2015","04","06","10:00","2.0","","-1.4","","78","","13","","6","","","","101.34","","","","","","NA"
"2015-04-06 11:00","2015","04","06","11:00","1.2","","-0.7","","87","","12","","6","","","","101.29","","","","","","NA"
"2015-04-06 12:00","2015","04","06","12:00","2.6","","0.8","","88","","3","","15","","","","101.20","","","","","","NA"
"2015-04-06 13:00","2015","04","06","13:00","3.5","","0.0","","78","","4","","16","","","","101.14","","","","","","NA"
"2015-04-06 14:00","2015","04","06","14:00","3.7","","-0.2","","76","","3","","20","","","","101.15","","","","","","NA"
"2015-04-06 15:00","2015","04","06","15:00","3.6","","-0.5","","75","","3","","20","","","","101.12","","","","","","NA"
"2015-04-06 16:00","2015","04","06","16:00","3.3","","-0.6","","76","","4","","19","","","","101.07","","","","","","NA"
"2015-04-06 17:00","2015","04","06","17:00","2.5","","-1.4","","75","","3","","18","","","","101.08","","","","","","NA"
"2015-04-06 18:00","2015","04","06","18:00","1.9","","-1.8","","76","","2","","21","","","","101.15","","","","","","NA"
"2015-04-06 19:00","2015","04","06","19:00","1.3","","-1.9","","79","","3","","15","","","","101.13","","","","","","NA"
"2015-04-06 20:00","2015","04","06","20:00","1.1","","-1.6","","82","","4","","9","","","","101.21","","","","","","NA"
"2015-04-06 21:00","2015","04","06","21:00","0.7","","-1.5","","85","","3","","13","","","","101.24","","","","","","NA"
"2015-04-06 22:00","2015","04","06","22:00","0.7","","-1.2","","87","","2","","14","","","","101.25","","","","","","NA"
"2015-04-06 23:00","2015","04","06","23:00","0.7","","-1.2","","87","","2","","11","","","","101.27","","","","","","NA"
"2015-04-07 00:00","2015","04","07","00:00","0.8","","-1.1","","87","","1","","13","","","","101.28","","","","","","NA"
"2015-04-07 01:00","2015","04","07","01:00","0.9","","-1.3","","85","","3","","13","","","","101.28","","","","","","NA"
"2015-04-07 02:00","2015","04","07","02:00","0.7","","-2.2","","81","","3","","15","","","","101.28","","","","","","NA"
"2015-04-07 03:00","2015","04","07","03:00","0.6","","-2.0","","83","","3","","14","","","","101.32","","","","","","NA"
"2015-04-07 04:00","2015","04","07","04:00","0.6","","-2.1","","82","","2","","14","","","","101.40","","","","","","NA"
"2015-04-07 05:00","2015","04","07","05:00","0.5","","-2.0","","83","","4","","15","","","","101.43","","","","","","NA"
"2015-04-07 06:00","2015","04","07","06:00","0.3","","-2.2","","83","","4","","15","","","","101.45","","","","","","NA"
"2015-04-07 07:00","2015","04","07","07:00","0.7","","-2.1","","82","","4","","18","","","","101.54","","","","","","NA"
"2015-04-07 08:00","2015","04","07","08:00","1.7","","-2.5","","74","","3","","18","","","","101.60","","","","","","NA"
"2015-04-07 09:00","2015","04","07","09:00","2.8","","-3.1","","65","","4","","25","","","","101.64","","","","","","NA"
"2015-04-07 10:00","2015","04","07","10:00","4.8","","-7.0","","42","","5","","26","","","","101.66","","","","","","NA"
"2015-04-07 11:00","2015","04","07","11:00","6.2","","-5.0","","45","","4","","22","","","","101.66","","","","","","NA"
"2015-04-07 12:00","2015","04","07","12:00","5.7","","-7.7","","38","","3","","26","","","","101.71","","","","","","NA"
"2015-04-07 13:00","2015","04","07","13:00","6.4","","-6.6","","39","","5","","27","","","","101.66","","","","","","NA"
"2015-04-07 14:00","2015","04","07","14:00","6.6","","-9.7","","30","","3","","23","","","","101.68","","","","","","NA"
"2015-04-07 15:00","2015","04","07","15:00","7.1","","-7.5","","35","","4","","23","","","","101.62","","","","","","NA"
"2015-04-07 16:00","2015","04","07","16:00","6.5","","-10.6","","28","","3","","21","","","","101.68","","","","","","NA"
"2015-04-07 17:00","2015","04","07","17:00","6.1","","-8.4","","34","","4","","20","","","","101.66","","","","","","NA"
"2015-04-07 18:00","2015","04","07","18:00","5.3","","-7.1","","40","","6","","19","","","","101.65","","","","","","NA"
"2015-04-07 19:00","2015","04","07","19:00","4.0","","-7.0","","45","","4","","11","","","","101.70","","","","","","NA"
"2015-04-07 20:00","2015","04","07","20:00","2.9","","-9.3","","40","","4","","12","","","","101.71","","","","","","NA"
"2015-04-07 21:00","2015","04","07","21:00","1.5","","-8.4","","48","","6","","15","","","","101.70","","","","","","NA"
"2015-04-07 22:00","2015","04","07","22:00","1.1","","-8.5","","49","","5","","13","","","","101.69","","","","","","NA"
"2015-04-07 23:00","2015","04","07","23:00","0.4","","-9.1","","49","","4","","13","","","","101.69","","","","","","NA"
"2015-04-08 00:00","2015","04","08","00:00","0.0","","-9.3","","49","","5","","14","","","","101.72","","","","-4","","NA"
"2015-04-08 01:00","2015","04","08","01:00","0.4","","-10.1","","45","","4","","17","","","","101.69","","","","","","NA"
"2015-04-08 02:00","2015","04","08","02:00","-0.1","","-10.0","","47","","6","","17","","","","101.67","","","","-5","","NA"
"2015-04-08 03:00","2015","04","08","03:00","0.3","","-10.7","","43","","5","","19","","","","101.68","","","","","","NA"
"2015-04-08 04:00","2015","04","08","04:00","0.0","","-11.0","","43","","5","","21","","","","101.61","","","","-5","","NA"
"2015-04-08 05:00","2015","04","08","05:00","0.0","","-11.0","","43","","5","","22","","","","101.58","","","","-6","","NA"
"2015-04-08 06:00","2015","04","08","06:00","-0.1","","-10.7","","45","","5","","24","","","","101.63","","","","-6","","NA"
"2015-04-08 07:00","2015","04","08","07:00","0.7","","-10.4","","43","","5","","25","","","","101.63","","","","","","NA"
"2015-04-08 08:00","2015","04","08","08:00","1.5","","-9.5","","44","","5","","28","","","","101.60","","","","","","NA"
"2015-04-08 09:00","2015","04","08","09:00","2.2","","-9.2","","43","","4","","25","","","","101.61","","","","","","NA"
"2015-04-08 10:00","2015","04","08","10:00","3.8","","-8.5","","40","","6","","23","","","","101.54","","","","","","NA"
"2015-04-08 11:00","2015","04","08","11:00","4.6","","-8.5","","38","","6","","25","","","","101.45","","","","","","NA"
"2015-04-08 12:00","2015","04","08","12:00","5.1","","-8.8","","36","","7","","23","","","","101.33","","","","","","NA"
"2015-04-08 13:00","2015","04","08","13:00","3.9","","-7.2","","44","","5","","23","","","","101.23","","","","","","NA"
"2015-04-08 14:00","2015","04","08","14:00","2.0","","-3.6","","66","","4","","17","","","","101.25","","","","","","NA"
"2015-04-08 15:00","2015","04","08","15:00","0.5","","-1.0","","90","","5","","22","","","","101.22","","","","","","NA"
"2015-04-08 16:00","2015","04","08","16:00","0.5","","-0.6","","92","","6","","24","","","","101.14","","","","","","NA"
"2015-04-08 17:00","2015","04","08","17:00","0.7","","-0.2","","94","","5","","24","","","","101.17","","","","","","NA"
"2015-04-08 18:00","2015","04","08","18:00","0.8","","-0.1","","94","","5","","25","","","","101.12","","","","","","NA"
"2015-04-08 19:00","2015","04","08","19:00","0.9","","0.0","","94","","5","","24","","","","101.11","","","","","","NA"
"2015-04-08 20:00","2015","04","08","20:00","0.9","","0.1","","94","","5","","23","","","","101.15","","","","","","NA"
"2015-04-08 21:00","2015","04","08","21:00","1.0","","0.2","","94","","5","","26","","","","101.12","","","","","","NA"
"2015-04-08 22:00","2015","04","08","22:00","0.9","","0.0","","94","","5","","24","","","","101.16","","","","","","NA"
"2015-04-08 23:00","2015","04","08","23:00","0.9","","0.0","","94","","6","","21","","","","101.12","","","","","","NA"
"2015-04-09 00:00","2015","04","09","00:00","0.9","","0.0","","94","","5","","19","","","","101.14","","","","","","NA"
"2015-04-09 01:00","2015","04","09","01:00","1.0","","0.1","","94","","5","","20","","","","101.15","","","","","","NA"
"2015-04-09 02:00","2015","04","09","02:00","1.0","","0.1","","94","","5","","18","","","","101.13","","","","","","NA"
"2015-04-09 03:00","2015","04","09","03:00","1.1","","0.3","","94","","5","","16","","","","101.14","","","","","","NA"
"2015-04-09 04:00","2015","04","09","04:00","1.2","","0.4","","94","","6","","16","","","","101.11","","","","","","NA"
"2015-04-09 05:00","2015","04","09","05:00","1.0","","0.2","","95","","5","","20","","","","101.05","","","","","","NA"
"2015-04-09 06:00","2015","04","09","06:00","1.0","","0.2","","95","","6","","18","","","","101.11","","","","","","NA"
"2015-04-09 07:00","2015","04","09","07:00","1.4","","0.6","","95","","5","","19","","","","101.07","","","","","","NA"
"2015-04-09 08:00","2015","04","09","08:00","2.2","","1.1","","92","","7","","16","","","","101.10","","","","","","NA"
"2015-04-09 09:00","2015","04","09","09:00","3.1","","1.9","","92","","7","","15","","","","101.13","","","","","","NA"
"2015-04-09 10:00","2015","04","09","10:00","4.4","","2.4","","87","","9","","11","","","","101.10","","","","","","NA"
"2015-04-09 11:00","2015","04","09","11:00","4.9","","2.7","","85","","9","","10","","","","101.06","","","","","","NA"
"2015-04-09 12:00","2015","04","09","12:00","5.9","","3.6","","85","","9","","15","","","","100.94","","","","","","NA"
"2015-04-09 13:00","2015","04","09","13:00","6.2","","2.8","","79","","10","","14","","","","100.81","","","","","","NA"
"2015-04-09 14:00","2015","04","09","14:00","6.4","","2.6","","77","","9","","10","","","","100.78","","","","","","NA"
"2015-04-09 15:00","2015","04","09","15:00","6.4","","2.9","","78","","10","","8","","","","100.70","","","","","","NA"
"2015-04-09 16:00","2015","04","09","16:00","6.0","","2.8","","80","","10","","11","","","","100.56","","","","","","NA"
"2015-04-09 17:00","2015","04","09","17:00","5.8","","2.5","","80","","13","","15","","","","100.52","","","","","","NA"
"2015-04-09 18:00","2015","04","09","18:00","4.8","","2.8","","87","","13","","13","","","","100.47","","","","","","NA"
"2015-04-09 19:00","2015","04","09","19:00","4.5","","2.5","","87","","14","","17","","","","100.39","","","","","","NA"
"2015-04-09 20:00","2015","04","09","20:00","3.3","","1.7","","89","","14","","26","","","","100.25","","","","","","NA"
"2015-04-09 21:00","2015","04","09","21:00","3.4","","2.0","","91","","15","","27","","","","100.16","","","","","","NA"
"2015-04-09 22:00","2015","04","09","22:00","3.4","","2.2","","91","","15","","22","","","","100.06","","","","","","NA"
"2015-04-09 23:00","2015","04","09","23:00","3.1","","2.0","","92","","14","","19","","","","99.97","","","","","","NA"
"2015-04-10 00:00","2015","04","10","00:00","3.2","","1.9","","91","","15","","17","","","","99.86","","","","","","NA"
"2015-04-10 01:00","2015","04","10","01:00","3.3","","1.9","","91","","16","","20","","","","99.81","","","","","","NA"
"2015-04-10 02:00","2015","04","10","02:00","3.3","","2.2","","93","","17","","28","","","","99.67","","","","","","NA"
"2015-04-10 03:00","2015","04","10","03:00","3.2","","2.1","","93","","16","","30","","","","99.58","","","","","","NA"
"2015-04-10 04:00","2015","04","10","04:00","3.6","","2.5","","92","","17","","17","","","","99.56","","","","","","NA"
"2015-04-10 05:00","2015","04","10","05:00","3.8","","2.5","","91","","16","","18","","","","99.50","","","","","","NA"
"2015-04-10 06:00","2015","04","10","06:00","3.8","","2.5","","91","","16","","14","","","","99.40","","","","","","NA"
"2015-04-10 07:00","2015","04","10","07:00","4.2","","2.9","","91","","15","","15","","","","99.24","","","","","","NA"
"2015-04-10 08:00","2015","04","10","08:00","4.5","","3.3","","92","","17","","18","","","","99.15","","","","","","NA"
"2015-04-10 09:00","2015","04","10","09:00","5.1","","3.8","","91","","17","","14","","","","99.09","","","","","","NA"
"2015-04-10 10:00","2015","04","10","10:00","5.8","","4.4","","91","","17","","32","","","","98.92","","","","","","NA"
"2015-04-10 11:00","2015","04","10","11:00","5.6","","4.3","","92","","16","","28","","","","98.81","","","","","","NA"
"2015-04-10 12:00","2015","04","10","12:00","5.1","","4.1","","94","","18","","23","","","","98.77","","","","","","NA"
"2015-04-10 13:00","2015","04","10","13:00","6.3","","5.2","","93","","20","","38","","","","98.88","","","","","","NA"
"2015-04-10 14:00","2015","04","10","14:00","9.2","","6.9","","86","","20","","39","","","","98.82","","","","","","NA"
"2015-04-10 15:00","2015","04","10","15:00","9.3","","5.3","","76","","23","","45","","","","98.86","","","","","","NA"
"2015-04-10 16:00","2015","04","10","16:00","7.8","","3.6","","75","","23","","46","","","","99.02","","","","","","NA"
"2015-04-10 17:00","2015","04","10","17:00","7.0","","2.2","","72","","23","","38","","","","99.14","","","","","","NA"
"2015-04-10 18:00","2015","04","10","18:00","6.5","","1.6","","71","","22","","38","","","","99.23","","","","","","NA"
"2015-04-10 19:00","2015","04","10","19:00","6.0","","1.4","","72","","23","","36","","","","99.31","","","","","","NA"
"2015-04-10 20:00","2015","04","10","20:00","5.3","","0.7","","72","","24","","26","","","","99.43","","","","","","NA"
"2015-04-10 21:00","2015","04","10","21:00","5.5","","0.3","","69","","24","","27","","","","99.46","","","","","","NA"
"2015-04-10 22:00","2015","04","10","22:00","5.1","","0.0","","70","","24","","24","","","","99.52","","","","","","NA"
"2015-04-10 23:00","2015","04","10","23:00","5.9","","-1.9","","57","","26","","33","","","","99.60","","","","","","NA"
"2015-04-11 00:00","2015","04","11","00:00","5.0","","-2.1","","60","","25","","29","","","","99.63","","","","","","NA"
"2015-04-11 01:00","2015","04","11","01:00","3.6","","-1.5","","70","","25","","23","","","","99.66","","","","","","NA"
"2015-04-11 02:00","2015","04","11","02:00","3.6","","-1.1","","71","","25","","23","","","","99.72","","","","","","NA"
"2015-04-11 03:00","2015","04","11","03:00","3.2","","-1.3","","73","","26","","24","","","","99.80","","","","","","NA"
"2015-04-11 04:00","2015","04","11","04:00","3.1","","-1.5","","72","","26","","26","","","","99.87","","","","","","NA"
"2015-04-11 05:00","2015","04","11","05:00","2.6","","-1.6","","74","","26","","23","","","","100.00","","","","","","NA"
"2015-04-11 06:00","2015","04","11","06:00","2.9","","-2.0","","70","","27","","24","","","","100.12","","","","","","NA"
"2015-04-11 07:00","2015","04","11","07:00","3.0","","-1.7","","71","","27","","25","","","","100.23","","","","","","NA"
"2015-04-11 08:00","2015","04","11","08:00","3.9","","-1.8","","66","","28","","25","","","","100.36","","","","","","NA"
"2015-04-11 09:00","2015","04","11","09:00","4.7","","-1.7","","63","","28","","22","","","","100.46","","","","","","NA"
"2015-04-11 10:00","2015","04","11","10:00","4.7","","-2.3","","60","","28","","25","","","","100.52","","","","","","NA"
"2015-04-11 11:00","2015","04","11","11:00","5.5","","-2.7","","55","","28","","23","","","","100.56","","","","","","NA"
"2015-04-11 12:00","2015","04","11","12:00","6.7","","-3.8","","47","","28","","25","","","","100.60","","","","","","NA"
"2015-04-11 13:00","2015","04","11","13:00","8.1","","-1.3","","51","","25","","23","","","","100.60","","","","","","NA"
"2015-04-11 14:00","2015","04","11","14:00","9.0","","-3.2","","42","","26","","18","","","","100.62","","","","","","NA"
"2015-04-11 15:00","2015","04","11","15:00","9.9","","-2.0","","43","","27","","20","","","","100.62","","","","","","NA"
"2015-04-11 16:00","2015","04","11","16:00","8.0","","-2.1","","49","","24","","21","","","","100.63","","","","","","NA"
"2015-04-11 17:00","2015","04","11","17:00","7.0","","0.2","","62","","22","","24","","","","100.67","","","","","","NA"
"2015-04-11 18:00","2015","04","11","18:00","5.7","","-1.0","","62","","23","","27","","","","100.72","","","","","","NA"
"2015-04-11 19:00","2015","04","11","19:00","4.7","","-1.2","","65","","23","","25","","","","100.79","","","","","","NA"
"2015-04-11 20:00","2015","04","11","20:00","3.2","","-1.1","","74","","24","","20","","","","100.89","","","","","","NA"
"2015-04-11 21:00","2015","04","11","21:00","2.7","","-1.3","","75","","23","","12","","","","100.95","","","","","","NA"
"2015-04-11 22:00","2015","04","11","22:00","2.1","","-1.9","","75","","23","","12","","","","100.97","","","","","","NA"
"2015-04-11 23:00","2015","04","11","23:00","1.5","","-2.4","","75","","23","","12","","","","101.01","","","","","","NA"
"2015-04-12 00:00","2015","04","12","00:00","0.2","","-2.9","","80","","21","","10","","","","101.05","","","","","","NA"
"2015-04-12 01:00","2015","04","12","01:00","0.1","","-2.4","","84","","22","","10","","","","101.08","","","","","","NA"
"2015-04-12 02:00","2015","04","12","02:00","0.3","","-1.8","","85","","20","","12","","","","101.10","","","","","","NA"
"2015-04-12 03:00","2015","04","12","03:00","0.3","","-1.4","","89","","20","","13","","","","101.12","","","","","","NA"
"2015-04-12 04:00","2015","04","12","04:00","-0.3","","-1.8","","90","","21","","10","","","","101.15","","","","-4","","NA"
"2015-04-12 05:00","2015","04","12","05:00","-0.7","","-1.9","","91","","21","","8","","","","101.20","","","","-4","","NA"
"2015-04-12 06:00","2015","04","12","06:00","-0.3","","-1.5","","92","","22","","9","","","","101.28","","","","-3","","NA"
"2015-04-12 07:00","2015","04","12","07:00","2.2","","0.4","","88","","21","","10","","","","101.35","","","","","","NA"
"2015-04-12 08:00","2015","04","12","08:00","4.1","","1.2","","81","","22","","9","","","","101.40","","","","","","NA"
"2015-04-12 09:00","2015","04","12","09:00","3.8","","1.3","","84","","18","","16","","","","101.39","","","","","","NA"
"2015-04-12 10:00","2015","04","12","10:00","3.8","","1.0","","82","","17","","14","","","","101.39","","","","","","NA"
"2015-04-12 11:00","2015","04","12","11:00","4.0","","1.7","","85","","16","","16","","","","101.37","","","","","","NA"
"2015-04-12 12:00","2015","04","12","12:00","4.6","","1.7","","81","","17","","16","","","","101.34","","","","","","NA"
"2015-04-12 13:00","2015","04","12","13:00","5.0","","1.2","","77","","17","","13","","","","101.28","","","","","","NA"
"2015-04-12 14:00","2015","04","12","14:00","5.3","","1.3","","75","","17","","17","","","","101.25","","","","","","NA"
"2015-04-12 15:00","2015","04","12","15:00","6.5","","1.7","","72","","18","","15","","","","101.20","","","","","","NA"
"2015-04-12 16:00","2015","04","12","16:00","6.0","","1.4","","73","","17","","14","","","","101.17","","","","","","NA"
"2015-04-12 17:00","2015","04","12","17:00","5.7","","1.4","","74","","17","","9","","","","101.17","","","","","","NA"
"2015-04-12 18:00","2015","04","12","18:00","7.3","","1.1","","65","","20","","8","","","","101.16","","","","","","NA"
"2015-04-12 19:00","2015","04","12","19:00","6.2","","0.0","","65","","22","","3","","","","101.16","","","","","","NA"
"2015-04-12 20:00","2015","04","12","20:00","6.0","","0.2","","66","","0","","1","","","","101.18","","","","","","NA"
"2015-04-12 21:00","2015","04","12","21:00","4.0","","-0.2","","74","","17","","7","","","","101.16","","","","","","NA"
"2015-04-12 22:00","2015","04","12","22:00","3.6","","-0.7","","74","","19","","4","","","","101.12","","","","","","NA"
"2015-04-12 23:00","2015","04","12","23:00","2.3","","-1.1","","78","","11","","6","","","","101.11","","","","","","NA"
"2015-04-13 00:00","2015","04","13","00:00","2.9","","-1.0","","76","","8","","3","","","","101.10","","","","","","NA"
"2015-04-13 01:00","2015","04","13","01:00","2.1","","0.5","","90","","35","","6","","","","101.06","","","","","","NA"
"2015-04-13 02:00","2015","04","13","02:00","1.4","","0.1","","91","","34","","9","","","","101.04","","","","","","NA"
"2015-04-13 03:00","2015","04","13","03:00","0.8","","-0.8","","90","","35","","3","","","","101.03","","","","","","NA"
"2015-04-13 04:00","2015","04","13","04:00","3.4","","-0.9","","74","","15","","8","","","","101.03","","","","","","NA"
"2015-04-13 05:00","2015","04","13","05:00","3.6","","-0.5","","74","","14","","12","","","","101.01","","","","","","NA"
"2015-04-13 06:00","2015","04","13","06:00","3.3","","-1.3","","72","","13","","5","","","","101.05","","","","","","NA"
"2015-04-13 07:00","2015","04","13","07:00","6.6","","0.6","","66","","17","","7","","","","101.02","","","","","","NA"
"2015-04-13 08:00","2015","04","13","08:00","7.6","","0.9","","63","","15","","13","","","","100.92","","","","","","NA"
"2015-04-13 09:00","2015","04","13","09:00","8.1","","1.2","","62","","16","","15","","","","100.88","","","","","","NA"
"2015-04-13 10:00","2015","04","13","10:00","8.7","","1.5","","61","","17","","15","","","","100.85","","","","","","NA"
"2015-04-13 11:00","2015","04","13","11:00","9.5","","2.1","","60","","16","","17","","","","100.74","","","","","","NA"
"2015-04-13 12:00","2015","04","13","12:00","","M","3.6","","47","","14","","18","","","","100.59","","","","","","NA"
"2015-04-13 13:00","2015","04","13","13:00","15.2","","3.9","","47","","15","","16","","","","100.44","","","","","","NA"
"2015-04-13 14:00","2015","04","13","14:00","13.8","","2.8","","47","","17","","16","","","","100.36","","","","","","NA"
"2015-04-13 15:00","2015","04","13","15:00","13.2","","3.0","","50","","18","","14","","","","100.16","","","","","","NA"
"2015-04-13 16:00","2015","04","13","16:00","10.6","","2.6","","58","","15","","13","","","","99.98","","","","","","NA"
"2015-04-13 17:00","2015","04","13","17:00","11.0","","3.4","","60","","16","","21","","","","99.83","","","","","","NA"
"2015-04-13 18:00","2015","04","13","18:00","8.9","","3.0","","66","","17","","15","","","","99.74","","","","","","NA"
"2015-04-13 19:00","2015","04","13","19:00","","M","5.1","","54","","22","","22","","","","99.70","","","","","","NA"
"2015-04-13 20:00","2015","04","13","20:00","13.3","","10.1","","81","","24","","27","","","","99.94","","","","","","NA"
"2015-04-13 21:00","2015","04","13","21:00","13.5","","11.6","","88","","28","","27","","","","100.11","","","","","","NA"
"2015-04-13 22:00","2015","04","13","22:00","10.8","","7.6","","81","","29","","24","","","","100.28","","","","","","NA"
"2015-04-13 23:00","2015","04","13","23:00","8.7","","5.5","","81","","28","","27","","","","100.51","","","","","","NA"
"2015-04-14 00:00","2015","04","14","00:00","7.5","","4.6","","82","","27","","13","","","","100.71","","","","","","NA"
"2015-04-14 01:00","2015","04","14","01:00","6.6","","4.0","","84","","26","","13","","","","100.81","","","","","","NA"
"2015-04-14 02:00","2015","04","14","02:00","4.6","","2.4","","86","","24","","8","","","","100.81","","","","","","NA"
"2015-04-14 03:00","2015","04","14","03:00","2.8","","1.6","","92","","24","","12","","","","100.84","","","","","","NA"
"2015-04-14 04:00","2015","04","14","04:00","1.8","","0.7","","92","","23","","10","","","","100.88","","","","","","NA"
"2015-04-14 05:00","2015","04","14","05:00","2.3","","1.4","","94","","22","","8","","","","100.90","","","","","","NA"
"2015-04-14 06:00","2015","04","14","06:00","2.6","","1.6","","93","","24","","6","","","","100.99","","","","","","NA"
"2015-04-14 07:00","2015","04","14","07:00","3.7","","2.6","","93","","32","","6","","","","101.10","","","","","","NA"
"2015-04-14 08:00","2015","04","14","08:00","4.7","","2.8","","88","","17","","7","","","","101.13","","","","","","NA"
"2015-04-14 09:00","2015","04","14","09:00","3.8","","2.3","","89","","17","","18","","","","101.11","","","","","","NA"
"2015-04-14 10:00","2015","04","14","10:00","4.1","","2.3","","88","","18","","18","","","","101.15","","","","","","NA"
"2015-04-14 11:00","2015","04","14","11:00","5.4","","2.8","","83","","17","","22","","","","101.10","","","","","","NA"
"2015-04-14 12:00","2015","04","14","12:00","5.3","","2.6","","83","","18","","22","","","","101.07","","","","","","NA"
"2015-04-14 13:00","2015","04","14","13:00","7.3","","3.3","","76","","19","","18","","","","101.00","","","","","","NA"
"2015-04-14 14:00","2015","04","14","14:00","12.4","","3.9","","56","","19","","17","","","","100.90","","","","","","NA"
"2015-04-14 15:00","2015","04","14","15:00","13.0","","-1.1","","38","","20","","17","","","","100.83","","","","","","NA"
"2015-04-14 16:00","2015","04","14","16:00","11.4","","1.3","","50","","20","","17","","","","100.80","","","","","","NA"
"2015-04-14 17:00","2015","04","14","17:00","12.7","","0.5","","43","","22","","19","","","","100.78","","","","","","NA"
"2015-04-14 18:00","2015","04","14","18:00","9.6","","-0.7","","49","","23","","18","","","","100.81","","","","","","NA"
"2015-04-14 19:00","2015","04","14","19:00","8.4","","-1.4","","50","","24","","23","","","","100.87","","","","","","NA"
"2015-04-14 20:00","2015","04","14","20:00","8.1","","-2.1","","48","","26","","12","","","","100.96","","","","","","NA"
"2015-04-14 21:00","2015","04","14","21:00","4.6","","-0.6","","69","","23","","14","","","","101.02","","","","","","NA"
"2015-04-14 22:00","2015","04","14","22:00","6.5","","-3.9","","47","","28","","12","","","","101.03","","","","","","NA"
"2015-04-14 23:00","2015","04","14","23:00","6.9","","-7.1","","36","","28","","13","","","","101.06","","","","","","NA"
"2015-04-15 00:00","2015","04","15","00:00","6.4","","-7.5","","36","","28","","11","","","","101.04","","","","","","NA"
"2015-04-15 01:00","2015","04","15","01:00","5.7","","-7.3","","39","","28","","10","","","","101.00","","","","","","NA"
"2015-04-15 02:00","2015","04","15","02:00","3.9","","-6.7","","46","","31","","12","","","","101.02","","","","","","NA"
"2015-04-15 03:00","2015","04","15","03:00","4.4","","-5.9","","47","","32","","16","","","","101.07","","","","","","NA"
"2015-04-15 04:00","2015","04","15","04:00","4.2","","-5.5","","49","","33","","21","","","","101.13","","","","","","NA"
"2015-04-15 05:00","2015","04","15","05:00","2.4","","-5.5","","56","","35","","14","","","","101.18","","","","","","NA"
"2015-04-15 06:00","2015","04","15","06:00","3.5","","-5.0","","54","","35","","18","","","","101.31","","","","","","NA"
"2015-04-15 07:00","2015","04","15","07:00","6.8","","-5.0","","42","","1","","18","","","","101.43","","","","","","NA"
"2015-04-15 08:00","2015","04","15","08:00","9.3","","-3.0","","42","","35","","19","","","","101.49","","","","","","NA"
"2015-04-15 09:00","2015","04","15","09:00","10.5","","-3.7","","37","","36","","22","","","","101.52","","","","","","NA"
"2015-04-15 10:00","2015","04","15","10:00","11.5","","-3.3","","35","","36","","16","","","","101.57","","","","","","NA"
"2015-04-15 11:00","2015","04","15","11:00","13.2","","-3.0","","32","","34","","19","","","","101.58","","","","","","NA"
"2015-04-15 12:00","2015","04","15","12:00","13.5","","-4.4","","29","","33","","21","","","","101.61","","","","","","NA"
"2015-04-15 13:00","2015","04","15","13:00","14.3","","-2.7","","31","","1","","17","","","","101.62","","","","","","NA"
"2015-04-15 14:00","2015","04","15","14:00","10.9","","-0.7","","45","","20","","23","","","","101.63","","","","","","NA"
"2015-04-15 15:00","2015","04","15","15:00","9.0","","0.4","","55","","19","","20","","","","101.63","","","","","","NA"
"2015-04-15 16:00","2015","04","15","16:00","7.9","","0.8","","61","","19","","14","","","","101.64","","","","","","NA"
"2015-04-15 17:00","2015","04","15","17:00","6.1","","-0.1","","64","","19","","18","","","","101.68","","","","","","NA"
"2015-04-15 18:00","2015","04","15","18:00","5.4","","0.1","","69","","15","","7","","","","101.70","","","","","","NA"
"2015-04-15 19:00","2015","04","15","19:00","3.7","","-0.1","","76","","0","","1","","","","101.75","","","","","","NA"
"2015-04-15 20:00","2015","04","15","20:00","2.8","","-1.1","","76","","6","","7","","","","101.84","","","","","","NA"
"2015-04-15 21:00","2015","04","15","21:00","2.9","","-0.9","","77","","8","","6","","","","101.85","","","","","","NA"
"2015-04-15 22:00","2015","04","15","22:00","3.3","","-0.8","","74","","1","","3","","","","101.88","","","","","","NA"
"2015-04-15 23:00","2015","04","15","23:00","2.0","","-1.3","","79","","3","","5","","","","101.91","","","","","","NA"
"2015-04-16 00:00","2015","04","16","00:00","1.1","","-0.9","","87","","6","","2","","","","101.94","","","","","","NA"
"2015-04-16 01:00","2015","04","16","01:00","1.5","","-0.4","","87","","25","","2","","","","101.96","","","","","","NA"
"2015-04-16 02:00","2015","04","16","02:00","0.9","","0.0","","94","","34","","4","","","","101.95","","","","","","NA"
"2015-04-16 03:00","2015","04","16","03:00","-0.2","","-0.9","","95","","34","","5","","","","101.92","","","","-2","","NA"
"2015-04-16 04:00","2015","04","16","04:00","-1.0","","-1.7","","95","","2","","5","","","","101.87","","","","-3","","NA"
"2015-04-16 05:00","2015","04","16","05:00","-1.4","","-3.3","","87","","4","","7","","","","101.87","","","","-4","","NA"
"2015-04-16 06:00","2015","04","16","06:00","0.3","","-3.1","","78","","5","","6","","","","101.88","","","","","","NA"
"2015-04-16 07:00","2015","04","16","07:00","3.0","","-1.6","","72","","13","","2","","","","101.90","","","","","","NA"
"2015-04-16 08:00","2015","04","16","08:00","4.5","","-0.3","","71","","16","","5","","","","101.88","","","","","","NA"
"2015-04-16 09:00","2015","04","16","09:00","7.5","","-4.8","","41","","16","","7","","","","101.82","","","","","","NA"
"2015-04-16 10:00","2015","04","16","10:00","9.6","","-6.2","","32","","12","","9","","","","101.73","","","","","","NA"
"2015-04-16 11:00","2015","04","16","11:00","10.9","","-5.9","","30","","17","","7","","","","101.66","","","","","","NA"
"2015-04-16 12:00","2015","04","16","12:00","12.1","","-5.7","","28","","16","","11","","","","101.53","","","","","","NA"
"2015-04-16 13:00","2015","04","16","13:00","13.5","","-6.4","","25","","15","","10","","","","101.42","","","","","","NA"
"2015-04-16 14:00","2015","04","16","14:00","14.7","","-4.6","","26","","16","","11","","","","101.25","","","","","","NA"
"2015-04-16 15:00","2015","04","16","15:00","14.8","","-6.2","","23","","18","","7","","","","101.11","","","","","","NA"
"2015-04-16 16:00","2015","04","16","16:00","16.7","","-2.7","","26","","22","","11","","","","101.03","","","","","","NA"
"2015-04-16 17:00","2015","04","16","17:00","16.5","","-3.7","","25","","25","","7","","","","100.92","","","","","","NA"
"2015-04-16 18:00","2015","04","16","18:00","16.2","","-3.4","","26","","30","","2","","","","100.82","","","","","","NA"
"2015-04-16 19:00","2015","04","16","19:00","15.6","","-4.0","","26","","35","","1","","","","100.79","","","","","","NA"
"2015-04-16 20:00","2015","04","16","20:00","11.8","","-3.3","","35","","14","","6","","","","100.78","","","","","","NA"
"2015-04-16 21:00","2015","04","16","21:00","9.9","","0.4","","52","","21","","23","","","","100.80","","","","","","NA"
"2015-04-16 22:00","2015","04","16","22:00","6.8","","1.5","","69","","19","","14","","","","100.77","","","","","","NA"
"2015-04-16 23:00","2015","04","16","23:00","7.8","","2.2","","67","","23","","11","","","","100.72","","","","","","NA"
"2015-04-17 00:00","2015","04","17","00:00","8.4","","1.2","","60","","24","","13","","","","100.68","","","","","","NA"
"2015-04-17 01:00","2015","04","17","01:00","8.5","","0.7","","58","","24","","14","","","","100.63","","","","","","NA"
"2015-04-17 02:00","2015","04","17","02:00","6.1","","3.5","","83","","22","","9","","","","100.52","","","","","","NA"
"2015-04-17 03:00","2015","04","17","03:00","3.1","","2.2","","94","","18","","10","","","","100.49","","","","","","NA"
"2015-04-17 04:00","2015","04","17","04:00","2.8","","2.0","","95","","15","","9","","","","100.44","","","","","","NA"
"2015-04-17 05:00","2015","04","17","05:00","3.2","","2.6","","96","","16","","2","","","","100.46","","","","","","NA"
"2015-04-17 06:00","2015","04","17","06:00","3.9","","3.3","","96","","17","","3","","","","100.44","","","","","","NA"
"2015-04-17 07:00","2015","04","17","07:00","4.7","","4.1","","96","","18","","3","","","","100.49","","","","","","NA"
"2015-04-17 08:00","2015","04","17","08:00","6.3","","5.6","","96","","21","","4","","","","100.42","","","","","","NA"
"2015-04-17 09:00","2015","04","17","09:00","5.0","","4.4","","96","","18","","9","","","","100.43","","","","","","NA"
"2015-04-17 10:00","2015","04","17","10:00","6.9","","6.1","","95","","17","","9","","","","100.42","","","","","","NA"
"2015-04-17 11:00","2015","04","17","11:00","6.9","","5.2","","89","","18","","18","","","","100.36","","","","","","NA"
"2015-04-17 12:00","2015","04","17","12:00","8.7","","7.0","","89","","19","","21","","","","100.33","","","","","","NA"
"2015-04-17 13:00","2015","04","17","13:00","8.5","","6.4","","86","","18","","22","","","","100.31","","","","","","NA"
"2015-04-17 14:00","2015","04","17","14:00","8.5","","5.8","","84","","18","","20","","","","100.25","","","","","","NA"
"2015-04-17 15:00","2015","04","17","15:00","10.7","","6.6","","76","","19","","20","","","","100.17","","","","","","NA"
"2015-04-17 16:00","2015","04","17","16:00","12.1","","7.7","","74","","19","","25","","","","100.12","","","","","","NA"
"2015-04-17 17:00","2015","04","17","17:00","13.9","","8.5","","70","","20","","16","","","","100.13","","","","","","NA"
"2015-04-17 18:00","2015","04","17","18:00","13.2","","7.7","","69","","22","","19","","","","100.13","","","","","","NA"
"2015-04-17 19:00","2015","04","17","19:00","8.3","","5.1","","81","","21","","8","","","","100.14","","","","","","NA"
"2015-04-17 20:00","2015","04","17","20:00","8.3","","5.4","","82","","24","","12","","","","100.23","","","","","","NA"
"2015-04-17 21:00","2015","04","17","21:00","8.6","","4.9","","77","","25","","12","","","","100.28","","","","","","NA"
"2015-04-17 22:00","2015","04","17","22:00","8.4","","3.7","","73","","26","","11","","","","100.30","","","","","","NA"
"2015-04-17 23:00","2015","04","17","23:00","10.5","","3.4","","61","","29","","10","","","","100.30","","","","","","NA"
"2015-04-18 00:00","2015","04","18","00:00","9.6","","2.8","","62","","32","","7","","","","100.31","","","","","","NA"
"2015-04-18 01:00","2015","04","18","01:00","7.4","","2.5","","71","","25","","5","","","","100.29","","","","","","NA"
"2015-04-18 02:00","2015","04","18","02:00","4.7","","1.5","","80","","28","","9","","","","100.27","","","","","","NA"
"2015-04-18 03:00","2015","04","18","03:00","4.5","","1.1","","79","","33","","9","","","","100.25","","","","","","NA"
"2015-04-18 04:00","2015","04","18","04:00","4.3","","2.7","","89","","32","","6","","","","100.29","","","","","","NA"
"2015-04-18 05:00","2015","04","18","05:00","2.9","","1.4","","90","","4","","8","","","","100.24","","","","","","NA"
"2015-04-18 06:00","2015","04","18","06:00","3.8","","1.4","","85","","23","","4","","","","100.25","","","","","","NA"
"2015-04-18 07:00","2015","04","18","07:00","6.0","","3.2","","82","","","","0","","","","100.30","","","","","","NA"
"2015-04-18 08:00","2015","04","18","08:00","6.0","","3.2","","83","","16","","8","","","","100.22","","","","","","NA"
"2015-04-18 09:00","2015","04","18","09:00","6.9","","3.5","","79","","17","","8","","","","100.21","","","","","","NA"
"2015-04-18 10:00","2015","04","18","10:00","6.7","","3.9","","82","","17","","13","","","","100.21","","","","","","NA"
"2015-04-18 11:00","2015","04","18","11:00","6.0","","3.8","","86","","17","","19","","","","100.21","","","","","","NA"
"2015-04-18 12:00","2015","04","18","12:00","7.7","","4.4","","80","","15","","14","","","","100.20","","","","","","NA"
"2015-04-18 13:00","2015","04","18","13:00","","M","","","27","","32","","34","","","","100.26","","","","","","NA"
"2015-04-18 14:00","2015","04","18","14:00","","M","-1.9","","26","","33","","30","","","","100.36","","","","","","NA"
"2015-04-18 15:00","2015","04","18","15:00","17.6","","-4.5","","22","","33","","26","","","","100.43","","","","","","NA"
"2015-04-18 16:00","2015","04","18","16:00","16.9","","-5.0","","22","","35","","22","","","","100.52","","","","","","NA"
"2015-04-18 17:00","2015","04","18","17:00","15.5","","-5.6","","23","","35","","26","","","","100.68","","","","","","NA"
"2015-04-18 18:00","2015","04","18","18:00","14.1","","-5.4","","26","","35","","24","","","","100.80","","","","","","NA"
"2015-04-18 19:00","2015","04","18","19:00","11.9","","-5.5","","29","","36","","18","","","","100.91","","","","","","NA"
"2015-04-18 20:00","2015","04","18","20:00","10.8","","-4.5","","34","","36","","18","","","","101.02","","","","","","NA"
"2015-04-18 21:00","2015","04","18","21:00","9.3","","-4.0","","39","","1","","11","","","","101.11","","","","","","NA"
"2015-04-18 22:00","2015","04","18","22:00","8.5","","-3.0","","44","","1","","20","","","","101.16","","","","","","NA"
"2015-04-18 23:00","2015","04","18","23:00","7.6","","-2.4","","49","","2","","24","","","","101.22","","","","","","NA"
"2015-04-19 00:00","2015","04","19","00:00","6.1","","-2.2","","55","","2","","22","","","","101.25","","","","","","NA"
"2015-04-19 01:00","2015","04","19","01:00","4.9","","-2.2","","60","","3","","15","","","","101.32","","","","","","NA"
"2015-04-19 02:00","2015","04","19","02:00","3.8","","-2.7","","62","","2","","21","","","","101.34","","","","","","NA"
"2015-04-19 03:00","2015","04","19","03:00","3.0","","-3.0","","64","","3","","15","","","","101.34","","","","","","NA"
"2015-04-19 04:00","2015","04","19","04:00","2.4","","-3.3","","66","","3","","9","","","","101.39","","","","","","NA"
"2015-04-19 05:00","2015","04","19","05:00","2.4","","-3.2","","66","","3","","17","","","","101.39","","","","","","NA"
"2015-04-19 06:00","2015","04","19","06:00","2.6","","-2.9","","67","","4","","16","","","","101.42","","","","","","NA"
"2015-04-19 07:00","2015","04","19","07:00","4.0","","-2.8","","61","","5","","22","","","","101.47","","","","","","NA"
"2015-04-19 08:00","2015","04","19","08:00","5.5","","-3.1","","54","","6","","23","","","","101.52","","","","","","NA"
"2015-04-19 09:00","2015","04","19","09:00","6.5","","-2.8","","51","","5","","23","","","","101.47","","","","","","NA"
"2015-04-19 10:00","2015","04","19","10:00","7.7","","-2.5","","49","","7","","23","","","","101.46","","","","","","NA"
"2015-04-19 11:00","2015","04","19","11:00","9.1","","-1.5","","48","","10","","24","","","","101.39","","","","","","NA"
"2015-04-19 12:00","2015","04","19","12:00","10.1","","-1.8","","43","","8","","25","","","","101.27","","","","","","NA"
"2015-04-19 13:00","2015","04","19","13:00","11.4","","-4.5","","33","","8","","21","","","","101.20","","","","","","NA"
"2015-04-19 14:00","2015","04","19","14:00","12.5","","-3.9","","32","","6","","18","","","","101.05","","","","","","NA"
"2015-04-19 15:00","2015","04","19","15:00","13.8","","-2.7","","32","","6","","22","","","","100.85","","","","","","NA"
"2015-04-19 16:00","2015","04","19","16:00","14.6","","-3.4","","29","","7","","17","","","","100.77","","","","","","NA"
"2015-04-19 17:00","2015","04","19","17:00","14.1","","-3.2","","30","","5","","20","","","","100.70","","","","","","NA"
"2015-04-19 18:00","2015","04","19","18:00","13.3","","-3.0","","32","","5","","25","","","","100.61","","","","","","NA"
"2015-04-19 19:00","2015","04","19","19:00","11.9","","-2.2","","37","","5","","26","","","","100.57","","","","","","NA"
"2015-04-19 20:00","2015","04","19","20:00","10.6","","-2.0","","41","","5","","27","","","","100.52","","","","","","NA"
"2015-04-19 21:00","2015","04","19","21:00","9.6","","-2.4","","43","","6","","24","","","","100.43","","","","","","NA"
"2015-04-19 22:00","2015","04","19","22:00","8.9","","-2.2","","46","","6","","23","","","","100.27","","","","","","NA"
"2015-04-19 23:00","2015","04","19","23:00","9.3","","-1.6","","46","","6","","22","","","","100.17","","","","","","NA"
"2015-04-20 00:00","2015","04","20","00:00","9.3","","-1.6","","46","","6","","17","","","","100.11","","","","","","NA"
"2015-04-20 01:00","2015","04","20","01:00","9.9","","-1.9","","44","","7","","12","","","","100.05","","","","","","NA"
"2015-04-20 02:00","2015","04","20","02:00","11.0","","-1.8","","41","","12","","15","","","","100.02","","","","","","NA"
"2015-04-20 03:00","2015","04","20","03:00","7.2","","1.5","","68","","15","","21","","","","100.01","","","","","","NA"
"2015-04-20 04:00","2015","04","20","04:00","7.5","","4.4","","81","","11","","22","","","","99.84","","","","","","NA"
"2015-04-20 05:00","2015","04","20","05:00","7.2","","5.1","","87","","10","","26","","","","99.68","","","","","","NA"
"2015-04-20 06:00","2015","04","20","06:00","6.7","","4.9","","88","","10","","30","","","","99.57","","","","","","NA"
"2015-04-20 07:00","2015","04","20","07:00","6.0","","4.2","","89","","8","","28","","","","99.46","","","","","","NA"
"2015-04-20 08:00","2015","04","20","08:00","5.9","","4.5","","91","","9","","19","","","","99.47","","","","","","NA"
"2015-04-20 09:00","2015","04","20","09:00","6.0","","4.6","","91","","9","","9","","","","99.42","","","","","","NA"
"2015-04-20 10:00","2015","04","20","10:00","6.7","","3.5","","80","","13","","20","","","","99.32","","","","","","NA"
"2015-04-20 11:00","2015","04","20","11:00","7.2","","4.7","","84","","12","","13","","","","99.21","","","","","","NA"
"2015-04-20 12:00","2015","04","20","12:00","8.2","","5.3","","82","","14","","24","","","","99.15","","","","","","NA"
"2015-04-20 13:00","2015","04","20","13:00","9.0","","7.0","","87","","15","","19","","","","99.06","","","","","","NA"
"2015-04-20 14:00","2015","04","20","14:00","10.3","","7.4","","82","","15","","16","","","","98.95","","","","","","NA"
"2015-04-20 15:00","2015","04","20","15:00","9.9","","7.2","","83","","15","","14","","","","98.89","","","","","","NA"
"2015-04-20 16:00","2015","04","20","16:00","10.7","","7.5","","81","","14","","13","","","","98.81","","","","","","NA"
"2015-04-20 17:00","2015","04","20","17:00","11.3","","7.6","","78","","12","","8","","","","98.77","","","","","","NA"
"2015-04-20 18:00","2015","04","20","18:00","9.7","","7.1","","84","","18","","16","","","","98.90","","","","","","NA"
"2015-04-20 19:00","2015","04","20","19:00","9.4","","7.4","","87","","12","","25","","","","98.75","","","","","","NA"
"2015-04-20 20:00","2015","04","20","20:00","7.7","","6.1","","89","","11","","4","","","","98.84","","","","","","NA"
"2015-04-20 21:00","2015","04","20","21:00","7.0","","6.0","","93","","15","","14","","","","98.86","","","","","","NA"
"2015-04-20 22:00","2015","04","20","22:00","7.5","","6.5","","93","","17","","17","","","","98.86","","","","","","NA"
"2015-04-20 23:00","2015","04","20","23:00","6.5","","5.7","","94","","17","","18","","","","98.85","","","","","","NA"
"2015-04-21 00:00","2015","04","21","00:00","6.7","","5.9","","95","","17","","20","","","","98.89","","","","","","NA"
"2015-04-21 01:00","2015","04","21","01:00","6.3","","5.6","","95","","20","","17","","","","98.87","","","","","","NA"
"2015-04-21 02:00","2015","04","21","02:00","7.0","","6.2","","95","","22","","13","","","","98.83","","","","","","NA"
"2015-04-21 03:00","2015","04","21","03:00","7.1","","5.3","","88","","23","","13","","","","98.83","","","","","","NA"
"2015-04-21 04:00","2015","04","21","04:00","7.2","","5.3","","88","","23","","16","","","","98.87","","","","","","NA"
"2015-04-21 05:00","2015","04","21","05:00","6.3","","4.2","","86","","21","","17","","","","98.92","","","","","","NA"
"2015-04-21 06:00","2015","04","21","06:00","5.4","","3.9","","90","","21","","11","","","","98.98","","","","","","NA"
"2015-04-21 07:00","2015","04","21","07:00","5.3","","3.3","","87","","25","","16","","","","99.02","","","","","","NA"
"2015-04-21 08:00","2015","04","21","08:00","4.4","","3.0","","91","","19","","18","","","","99.06","","","","","","NA"
"2015-04-21 09:00","2015","04","21","09:00","6.2","","4.5","","89","","22","","14","","","","99.07","","","","","","NA"
"2015-04-21 10:00","2015","04","21","10:00","7.3","","5.0","","85","","22","","16","","","","99.08","","","","","","NA"
"2015-04-21 11:00","2015","04","21","11:00","9.0","","3.3","","67","","23","","33","","","","99.07","","","","","","NA"
"2015-04-21 12:00","2015","04","21","12:00","9.8","","2.7","","61","","23","","36","","","","99.08","","","","","","NA"
"2015-04-21 13:00","2015","04","21","13:00","9.9","","2.9","","62","","23","","28","","","","99.09","","","","","","NA"
"2015-04-21 14:00","2015","04","21","14:00","7.3","","2.8","","73","","18","","23","","","","99.06","","","","","","NA"
"2015-04-21 15:00","2015","04","21","15:00","7.0","","2.8","","75","","19","","30","","","","99.08","","","","","","NA"
"2015-04-21 16:00","2015","04","21","16:00","6.9","","1.7","","70","","19","","26","","","","99.09","","","","","","NA"
"2015-04-21 17:00","2015","04","21","17:00","9.9","","0.9","","54","","23","","32","","","","99.10","","","","","","NA"
"2015-04-21 18:00","2015","04","21","18:00","7.4","","2.2","","69","","20","","15","","","","99.16","","","","","","NA"
"2015-04-21 19:00","2015","04","21","19:00","7.4","","1.2","","65","","21","","18","","","","99.21","","","","","","NA"
"2015-04-21 20:00","2015","04","21","20:00","5.0","","1.1","","76","","20","","20","","","","99.27","","","","","","NA"
"2015-04-21 21:00","2015","04","21","21:00","4.0","","0.9","","80","","19","","16","","","","99.27","","","","","","NA"
"2015-04-21 22:00","2015","04","21","22:00","4.9","","1.0","","76","","21","","10","","","","99.30","","","","","","NA"
"2015-04-21 23:00","2015","04","21","23:00","3.8","","1.9","","87","","18","","12","","","","99.31","","","","","","NA"
"2015-04-22 00:00","2015","04","22","00:00","3.4","","1.3","","87","","18","","12","","","","99.29","","","","","","NA"
"2015-04-22 01:00","2015","04","22","01:00","3.5","","1.3","","86","","20","","16","","","","99.24","","","","","","NA"
"2015-04-22 02:00","2015","04","22","02:00","3.1","","1.4","","89","","16","","6","","","","99.20","","","","","","NA"
"2015-04-22 03:00","2015","04","22","03:00","4.9","","1.8","","80","","21","","18","","","","99.17","","","","","","NA"
"2015-04-22 04:00","2015","04","22","04:00","3.6","","1.5","","86","","17","","11","","","","99.10","","","","","","NA"
"2015-04-22 05:00","2015","04","22","05:00","4.4","","1.5","","81","","23","","21","","","","99.11","","","","","","NA"
"2015-04-22 06:00","2015","04","22","06:00","5.3","","1.7","","77","","20","","24","","","","99.09","","","","","","NA"
"2015-04-22 07:00","2015","04","22","07:00","5.0","","2.0","","81","","20","","30","","","","99.08","","","","","","NA"
"2015-04-22 08:00","2015","04","22","08:00","6.6","","2.6","","75","","21","","24","","","","99.07","","","","","","NA"
"2015-04-22 09:00","2015","04","22","09:00","6.4","","2.4","","75","","22","","22","","","","99.09","","","","","","NA"
"2015-04-22 10:00","2015","04","22","10:00","6.3","","0.6","","67","","23","","26","","","","99.09","","","","","","NA"
"2015-04-22 11:00","2015","04","22","11:00","7.0","","1.1","","66","","23","","23","","","","99.06","","","","","","NA"
"2015-04-22 12:00","2015","04","22","12:00","7.7","","0.7","","61","","22","","22","","","","99.03","","","","","","NA"
"2015-04-22 13:00","2015","04","22","13:00","8.4","","-0.4","","54","","22","","22","","","","99.02","","","","","","NA"
"2015-04-22 14:00","2015","04","22","14:00","5.8","","1.2","","72","","18","","21","","","","99.00","","","","","","NA"
"2015-04-22 15:00","2015","04","22","15:00","5.3","","0.8","","73","","18","","20","","","","98.99","","","","","","NA"
"2015-04-22 16:00","2015","04","22","16:00","5.7","","0.9","","71","","19","","25","","","","99.03","","","","","","NA"
"2015-04-22 17:00","2015","04","22","17:00","5.9","","0.1","","66","","22","","22","","","","99.04","","","","","","NA"
"2015-04-22 18:00","2015","04","22","18:00","6.2","","-0.1","","64","","22","","18","","","","99.06","","","","","","NA"
"2015-04-22 19:00","2015","04","22","19:00","5.2","","-0.1","","69","","24","","19","","","","99.10","","","","","","NA"
"2015-04-22 20:00","2015","04","22","20:00","5.1","","0.1","","70","","26","","12","","","","99.15","","","","","","NA"
"2015-04-22 21:00","2015","04","22","21:00","4.4","","0.8","","77","","26","","19","","","","99.18","","","","","","NA"
"2015-04-22 22:00","2015","04","22","22:00","3.5","","0.8","","83","","27","","14","","","","99.21","","","","","","NA"
"2015-04-22 23:00","2015","04","22","23:00","2.9","","-0.4","","79","","26","","16","","","","99.23","","","","","","NA"
"2015-04-23 00:00","2015","04","23","00:00","2.3","","-1.5","","76","","26","","15","","","","99.23","","","","","","NA"
"2015-04-23 01:00","2015","04","23","01:00","2.1","","-2.0","","74","","26","","17","","","","99.23","","","","","","NA"
"2015-04-23 02:00","2015","04","23","02:00","1.5","","-2.7","","74","","26","","18","","","","99.24","","","","","","NA"
"2015-04-23 03:00","2015","04","23","03:00","0.5","","-5.0","","66","","28","","21","","","","99.30","","","","","","NA"
"2015-04-23 04:00","2015","04","23","04:00","-0.1","","-4.3","","73","","26","","16","","","","99.30","","","","-5","","NA"
"2015-04-23 05:00","2015","04","23","05:00","-0.3","","-4.5","","73","","26","","14","","","","99.35","","","","-5","","NA"
"2015-04-23 06:00","2015","04","23","06:00","0.0","","-4.4","","72","","26","","16","","","","99.37","","","","-5","","NA"
"2015-04-23 07:00","2015","04","23","07:00","0.4","","-4.3","","71","","27","","18","","","","99.40","","","","","","NA"
"2015-04-23 08:00","2015","04","23","08:00","0.9","","-5.1","","64","","26","","19","","","","99.40","","","","","","NA"
"2015-04-23 09:00","2015","04","23","09:00","1.4","","-6.3","","56","","26","","22","","","","99.39","","","","","","NA"
"2015-04-23 10:00","2015","04","23","10:00","1.5","","-4.4","","65","","26","","26","","","","99.40","","","","","","NA"
"2015-04-23 11:00","2015","04","23","11:00","2.2","","-4.1","","63","","27","","24","","","","99.39","","","","","","NA"
"2015-04-23 12:00","2015","04","23","12:00","2.7","","-2.2","","70","","27","","27","","","","99.40","","","","","","NA"
"2015-04-23 13:00","2015","04","23","13:00","3.6","","-1.9","","67","","27","","15","","","","99.42","","","","","","NA"
"2015-04-23 14:00","2015","04","23","14:00","3.3","","-2.2","","67","","28","","24","","","","99.45","","","","","","NA"
"2015-04-23 15:00","2015","04","23","15:00","4.8","","-2.8","","58","","27","","27","","","","99.46","","","","","","NA"
"2015-04-23 16:00","2015","04","23","16:00","4.3","","-2.7","","60","","27","","28","","","","99.52","","","","","","NA"
"2015-04-23 17:00","2015","04","23","17:00","3.8","","-3.2","","60","","26","","28","","","","99.59","","","","","","NA"
"2015-04-23 18:00","2015","04","23","18:00","3.5","","-3.3","","61","","27","","23","","","","99.67","","","","","","NA"
"2015-04-23 19:00","2015","04","23","19:00","2.4","","-4.4","","61","","27","","29","","","","99.74","","","","","","NA"
"2015-04-23 20:00","2015","04","23","20:00","1.9","","-4.5","","62","","26","","24","","","","99.82","","","","","","NA"
"2015-04-23 21:00","2015","04","23","21:00","1.3","","-4.8","","64","","27","","22","","","","99.87","","","","","","NA"
"2015-04-23 22:00","2015","04","23","22:00","1.1","","-4.8","","65","","27","","20","","","","99.88","","","","","","NA"
"2015-04-23 23:00","2015","04","23","23:00","1.0","","-4.8","","65","","27","","20","","","","99.90","","","","","","NA"
"2015-04-24 00:00","2015","04","24","00:00","0.9","","-5.1","","64","","27","","20","","","","99.93","","","","","","NA"
"2015-04-24 01:00","2015","04","24","01:00","0.8","","-5.1","","65","","28","","19","","","","99.95","","","","","","NA"
"2015-04-24 02:00","2015","04","24","02:00","0.5","","-4.8","","68","","27","","17","","","","99.97","","","","","","NA"
"2015-04-24 03:00","2015","04","24","03:00","0.2","","-4.6","","70","","27","","17","","","","100.01","","","","","","NA"
"2015-04-24 04:00","2015","04","24","04:00","0.1","","-4.3","","73","","27","","19","","","","100.01","","","","","","NA"
"2015-04-24 05:00","2015","04","24","05:00","-0.2","","-4.5","","73","","27","","15","","","","100.02","","","","-5","","NA"
"2015-04-24 06:00","2015","04","24","06:00","-0.2","","-4.7","","71","","27","","15","","","","100.06","","","","-5","","NA"
"2015-04-24 07:00","2015","04","24","07:00","-0.2","","-3.4","","79","","30","","19","","","","100.12","","","","-5","","NA"
"2015-04-24 08:00","2015","04","24","08:00","1.0","","-4.6","","66","","30","","22","","","","100.13","","","","","","NA"
"2015-04-24 09:00","2015","04","24","09:00","2.1","","-5.5","","57","","32","","23","","","","100.15","","","","","","NA"
"2015-04-24 10:00","2015","04","24","10:00","2.8","","-6.5","","50","","29","","18","","","","100.14","","","","","","NA"
"2015-04-24 11:00","2015","04","24","11:00","2.6","","-7.3","","48","","28","","19","","","","100.15","","","","","","NA"
"2015-04-24 12:00","2015","04","24","12:00","3.2","","-7.6","","45","","29","","18","","","","100.15","","","","","","NA"
"2015-04-24 13:00","2015","04","24","13:00","4.4","","-6.5","","45","","28","","19","","","","100.15","","","","","","NA"
"2015-04-24 14:00","2015","04","24","14:00","4.9","","-6.9","","42","","27","","23","","","","100.12","","","","","","NA"
"2015-04-24 15:00","2015","04","24","15:00","6.4","","-5.2","","43","","28","","15","","","","100.10","","","","","","NA"
"2015-04-24 16:00","2015","04","24","16:00","6.0","","-7.7","","37","","29","","16","","","","100.09","","","","","","NA"
"2015-04-24 17:00","2015","04","24","17:00","6.3","","-6.5","","39","","28","","20","","","","100.10","","","","","","NA"
"2015-04-24 18:00","2015","04","24","18:00","5.9","","-6.6","","40","","28","","19","","","","100.12","","","","","","NA"
"2015-04-24 19:00","2015","04","24","19:00","5.6","","-6.2","","42","","28","","15","","","","100.16","","","","","","NA"
"2015-04-24 20:00","2015","04","24","20:00","4.4","","-4.8","","51","","27","","20","","","","100.23","","","","","","NA"
"2015-04-24 21:00","2015","04","24","21:00","3.9","","-4.6","","54","","29","","16","","","","100.27","","","","","","NA"
"2015-04-24 22:00","2015","04","24","22:00","3.1","","-4.4","","58","","27","","9","","","","100.28","","","","","","NA"
"2015-04-24 23:00","2015","04","24","23:00","1.5","","-4.7","","63","","28","","12","","","","100.28","","","","","","NA"
"2015-04-25 00:00","2015","04","25","00:00","0.7","","-4.9","","66","","29","","11","","","","100.30","","","","","","NA"
"2015-04-25 01:00","2015","04","25","01:00","-0.9","","-5.1","","73","","33","","9","","","","100.30","","","","-4","","NA"
"2015-04-25 02:00","2015","04","25","02:00","-1.4","","-5.3","","75","","34","","9","","","","100.25","","","","-5","","NA"
"2015-04-25 03:00","2015","04","25","03:00","-0.7","","-5.1","","72","","28","","5","","","","100.25","","","","-2","","NA"
"2015-04-25 04:00","2015","04","25","04:00","-1.8","","-5.3","","77","","28","","8","","","","100.25","","","","-5","","NA"
"2015-04-25 05:00","2015","04","25","05:00","-2.3","","-5.6","","78","","28","","8","","","","100.29","","","","-5","","NA"
"2015-04-25 06:00","2015","04","25","06:00","-1.2","","-4.7","","77","","28","","13","","","","100.31","","","","-5","","NA"
"2015-04-25 07:00","2015","04","25","07:00","1.2","","-3.7","","70","","27","","9","","","","100.28","","","","","","NA"
"2015-04-25 08:00","2015","04","25","08:00","3.3","","-4.3","","57","","30","","13","","","","100.21","","","","","","NA"
"2015-04-25 09:00","2015","04","25","09:00","4.0","","-4.6","","53","","35","","10","","","","100.18","","","","","","NA"
"2015-04-25 10:00","2015","04","25","10:00","4.5","","-2.5","","60","","17","","16","","","","100.16","","","","","","NA"
"2015-04-25 11:00","2015","04","25","11:00","4.5","","-1.8","","64","","18","","25","","","","100.15","","","","","","NA"
"2015-04-25 12:00","2015","04","25","12:00","5.3","","0.3","","70","","19","","28","","","","100.10","","","","","","NA"
"2015-04-25 13:00","2015","04","25","13:00","6.2","","0.0","","64","","19","","27","","","","99.99","","","","","","NA"
"2015-04-25 14:00","2015","04","25","14:00","5.8","","0.9","","70","","18","","25","","","","99.89","","","","","","NA"
"2015-04-25 15:00","2015","04","25","15:00","6.1","","1.0","","70","","19","","24","","","","99.82","","","","","","NA"
"2015-04-25 16:00","2015","04","25","16:00","5.4","","0.9","","73","","19","","22","","","","99.79","","","","","","NA"
"2015-04-25 17:00","2015","04","25","17:00","7.6","","0.0","","59","","21","","14","","","","99.76","","","","","","NA"
"2015-04-25 18:00","2015","04","25","18:00","4.6","","-0.1","","72","","20","","10","","","","99.74","","","","","","NA"
"2015-04-25 19:00","2015","04","25","19:00","3.9","","0.5","","78","","20","","12","","","","99.75","","","","","","NA"
"2015-04-25 20:00","2015","04","25","20:00","3.6","","1.4","","85","","16","","8","","","","99.80","","","","","","NA"
"2015-04-25 21:00","2015","04","25","21:00","3.7","","1.4","","85","","22","","7","","","","99.80","","","","","","NA"
"2015-04-25 22:00","2015","04","25","22:00","2.7","","0.3","","84","","23","","6","","","","99.80","","","","","","NA"
"2015-04-25 23:00","2015","04","25","23:00","2.9","","0.6","","85","","33","","6","","","","99.82","","","","","","NA"
"2015-04-26 00:00","2015","04","26","00:00","4.0","","-0.4","","73","","36","","9","","","","99.80","","","","","","NA"
"2015-04-26 01:00","2015","04","26","01:00","2.3","","-0.9","","79","","35","","13","","","","99.75","","","","","","NA"
"2015-04-26 02:00","2015","04","26","02:00","1.8","","-1.5","","79","","35","","11","","","","99.71","","","","","","NA"
"2015-04-26 03:00","2015","04","26","03:00","2.8","","-1.1","","76","","1","","7","","","","99.70","","","","","","NA"
"2015-04-26 04:00","2015","04","26","04:00","2.8","","-0.9","","77","","36","","12","","","","99.68","","","","","","NA"
"2015-04-26 05:00","2015","04","26","05:00","2.4","","-1.0","","79","","35","","10","","","","99.74","","","","","","NA"
"2015-04-26 06:00","2015","04","26","06:00","3.1","","0.0","","80","","35","","8","","","","99.79","","","","","","NA"
"2015-04-26 07:00","2015","04","26","07:00","4.9","","0.8","","75","","36","","12","","","","99.81","","","","","","NA"
"2015-04-26 08:00","2015","04","26","08:00","6.0","","0.5","","68","","34","","14","","","","99.81","","","","","","NA"
"2015-04-26 09:00","2015","04","26","09:00","7.1","","0.7","","63","","34","","12","","","","99.78","","","","","","NA"
"2015-04-26 10:00","2015","04","26","10:00","7.9","","0.5","","59","","33","","10","","","","99.77","","","","","","NA"
"2015-04-26 11:00","2015","04","26","11:00","8.8","","1.0","","58","","32","","12","","","","99.74","","","","","","NA"
"2015-04-26 12:00","2015","04","26","12:00","8.8","","0.3","","55","","34","","15","","","","99.73","","","","","","NA"
"2015-04-26 13:00","2015","04","26","13:00","7.7","","2.2","","68","","19","","20","","","","99.71","","","","","","NA"
"2015-04-26 14:00","2015","04","26","14:00","7.2","","2.1","","70","","19","","19","","","","99.69","","","","","","NA"
"2015-04-26 15:00","2015","04","26","15:00","6.4","","2.5","","76","","19","","18","","","","99.68","","","","","","NA"
"2015-04-26 16:00","2015","04","26","16:00","7.1","","2.5","","73","","18","","11","","","","99.65","","","","","","NA"
"2015-04-26 17:00","2015","04","26","17:00","8.3","","1.8","","63","","23","","15","","","","99.63","","","","","","NA"
"2015-04-26 18:00","2015","04","26","18:00","8.0","","2.8","","69","","22","","7","","","","99.64","","","","","","NA"
"2015-04-26 19:00","2015","04","26","19:00","7.5","","2.8","","72","","28","","7","","","","99.67","","","","","","NA"
"2015-04-26 20:00","2015","04","26","20:00","6.4","","2.8","","78","","20","","3","","","","99.67","","","","","","NA"
"2015-04-26 21:00","2015","04","26","21:00","6.4","","2.6","","77","","24","","8","","","","99.63","","","","","","NA"
"2015-04-26 22:00","2015","04","26","22:00","5.9","","2.7","","80","","26","","6","","","","99.59","","","","","","NA"
"2015-04-26 23:00","2015","04","26","23:00","7.2","","2.1","","70","","33","","10","","","","99.60","","","","","","NA"
"2015-04-27 00:00","2015","04","27","00:00","7.3","","2.5","","72","","36","","17","","","","99.62","","","","","","NA"
"2015-04-27 01:00","2015","04","27","01:00","6.0","","1.8","","75","","34","","21","","","","99.63","","","","","","NA"
"2015-04-27 02:00","2015","04","27","02:00","5.4","","1.4","","75","","1","","15","","","","99.62","","","","","","NA"
"2015-04-27 03:00","2015","04","27","03:00","4.7","","1.3","","79","","35","","17","","","","99.63","","","","","","NA"
"2015-04-27 04:00","2015","04","27","04:00","3.9","","1.3","","83","","34","","14","","","","99.62","","","","","","NA"
"2015-04-27 05:00","2015","04","27","05:00","4.0","","1.5","","84","","34","","9","","","","99.66","","","","","","NA"
"2015-04-27 06:00","2015","04","27","06:00","4.5","","2.0","","84","","34","","9","","","","99.71","","","","","","NA"
"2015-04-27 07:00","2015","04","27","07:00","5.1","","1.6","","78","","33","","14","","","","99.74","","","","","","NA"
"2015-04-27 08:00","2015","04","27","08:00","6.0","","1.9","","75","","35","","18","","","","99.76","","","","","","NA"
"2015-04-27 09:00","2015","04","27","09:00","6.8","","2.2","","73","","1","","15","","","","99.77","","","","","","NA"
"2015-04-27 10:00","2015","04","27","10:00","7.7","","2.7","","71","","36","","9","","","","99.80","","","","","","NA"
"2015-04-27 11:00","2015","04","27","11:00","9.5","","4.1","","69","","36","","10","","","","99.82","","","","","","NA"
"2015-04-27 12:00","2015","04","27","12:00","11.0","","3.5","","60","","2","","10","","","","99.83","","","","","","NA"
"2015-04-27 13:00","2015","04","27","13:00","7.6","","3.2","","73","","19","","19","","","","99.85","","","","","","NA"
"2015-04-27 14:00","2015","04","27","14:00","8.4","","3.3","","70","","23","","10","","","","99.86","","","","","","NA"
"2015-04-27 15:00","2015","04","27","15:00","8.8","","3.5","","69","","24","","11","","","","99.84","","","","","","NA"
"2015-04-27 16:00","2015","04","27","16:00","9.9","","3.8","","66","","23","","10","","","","99.85","","","","","","NA"
"2015-04-27 17:00","2015","04","27","17:00","12.5","","3.4","","54","","31","","14","","","","99.88","","","","","","NA"
"2015-04-27 18:00","2015","04","27","18:00","12.7","","3.2","","53","","33","","16","","","","99.93","","","","","","NA"
"2015-04-27 19:00","2015","04","27","19:00","12.0","","3.4","","56","","32","","11","","","","99.97","","","","","","NA"
"2015-04-27 20:00","2015","04","27","20:00","11.4","","3.2","","57","","33","","19","","","","100.00","","","","","","NA"
"2015-04-27 21:00","2015","04","27","21:00","10.6","","3.1","","60","","33","","23","","","","100.02","","","","","","NA"
"2015-04-27 22:00","2015","04","27","22:00","9.8","","3.2","","63","","33","","26","","","","100.06","","","","","","NA"
"2015-04-27 23:00","2015","04","27","23:00","9.0","","3.0","","66","","33","","24","","","","100.07","","","","","","NA"
"2015-04-28 00:00","2015","04","28","00:00","8.0","","3.1","","72","","34","","22","","","","100.09","","","","","","NA"
"2015-04-28 01:00","2015","04","28","01:00","7.9","","3.5","","74","","33","","20","","","","100.10","","","","","","NA"
"2015-04-28 02:00","2015","04","28","02:00","8.8","","3.8","","71","","33","","19","","","","100.09","","","","","","NA"
"2015-04-28 03:00","2015","04","28","03:00","8.3","","3.7","","73","","33","","20","","","","100.10","","","","","","NA"
"2015-04-28 04:00","2015","04","28","04:00","8.3","","3.9","","74","","34","","16","","","","100.12","","","","","","NA"
"2015-04-28 05:00","2015","04","28","05:00","7.4","","3.7","","78","","35","","12","","","","100.18","","","","","","NA"
"2015-04-28 06:00","2015","04","28","06:00","8.1","","4.0","","75","","34","","14","","","","100.21","","","","","","NA"
"2015-04-28 07:00","2015","04","28","07:00","10.2","","4.2","","66","","36","","14","","","","100.25","","","","","","NA"
"2015-04-28 08:00","2015","04","28","08:00","12.0","","4.5","","60","","1","","15","","","","100.28","","","","","","NA"
"2015-04-28 09:00","2015","04","28","09:00","13.3","","5.3","","58","","3","","7","","","","100.26","","","","","","NA"
"2015-04-28 10:00","2015","04","28","10:00","12.2","","5.2","","62","","15","","14","","","","100.27","","","","","","NA"
"2015-04-28 11:00","2015","04","28","11:00","12.1","","5.6","","65","","18","","16","","","","100.25","","","","","","NA"
"2015-04-28 12:00","2015","04","28","12:00","12.9","","6.7","","66","","19","","20","","","","100.21","","","","","","NA"
"2015-04-28 13:00","2015","04","28","13:00","13.1","","5.7","","60","","20","","23","","","","100.14","","","","","","NA"
"2015-04-28 14:00","2015","04","28","14:00","12.0","","5.5","","65","","19","","26","","","","100.08","","","","","","NA"
"2015-04-28 15:00","2015","04","28","15:00","10.4","","5.0","","69","","19","","15","","","","100.01","","","","","","NA"
"2015-04-28 16:00","2015","04","28","16:00","14.8","","6.2","","57","","21","","14","","","","99.97","","","","","","NA"
"2015-04-28 17:00","2015","04","28","17:00","9.7","","4.4","","70","","17","","8","","","","99.94","","","","","","NA"
"2015-04-28 18:00","2015","04","28","18:00","8.6","","4.4","","75","","17","","6","","","","99.88","","","","","","NA"
"2015-04-28 19:00","2015","04","28","19:00","6.7","","3.4","","80","","17","","6","","","","99.85","","","","","","NA"
"2015-04-28 20:00","2015","04","28","20:00","6.1","","3.3","","82","","13","","3","","","","99.83","","","","","","NA"
"2015-04-28 21:00","2015","04","28","21:00","5.2","","3.1","","86","","15","","5","","","","99.83","","","","","","NA"
"2015-04-28 22:00","2015","04","28","22:00","4.8","","2.9","","87","","15","","2","","","","99.78","","","","","","NA"
"2015-04-28 23:00","2015","04","28","23:00","5.6","","3.2","","85","","0","","1","","","","99.77","","","","","","NA"
"2015-04-29 00:00","2015","04","29","00:00","4.6","","2.6","","87","","18","","5","","","","99.74","","","","","","NA"
"2015-04-29 01:00","2015","04","29","01:00","8.2","","4.7","","79","","33","","13","","","","99.70","","","","","","NA"
"2015-04-29 02:00","2015","04","29","02:00","5.0","","3.6","","91","","29","","5","","","","99.67","","","","","","NA"
"2015-04-29 03:00","2015","04","29","03:00","9.2","","4.9","","75","","33","","15","","","","99.66","","","","","","NA"
"2015-04-29 04:00","2015","04","29","04:00","10.1","","5.1","","71","","33","","15","","","","99.65","","","","","","NA"
"2015-04-29 05:00","2015","04","29","05:00","9.7","","5.2","","74","","34","","11","","","","99.69","","","","","","NA"
"2015-04-29 06:00","2015","04","29","06:00","10.3","","5.8","","74","","36","","3","","","","99.73","","","","","","NA"
"2015-04-29 07:00","2015","04","29","07:00","12.6","","6.0","","64","","34","","8","","","","99.76","","","","","","NA"
"2015-04-29 08:00","2015","04","29","08:00","7.5","","4.7","","83","","16","","11","","","","99.77","","","","","","NA"
"2015-04-29 09:00","2015","04","29","09:00","8.5","","4.3","","75","","15","","13","","","","99.74","","","","","","NA"
"2015-04-29 10:00","2015","04","29","10:00","7.1","","4.0","","81","","15","","14","","","","99.73","","","","","","NA"
"2015-04-29 11:00","2015","04","29","11:00","9.7","","5.6","","76","","17","","11","","","","99.69","","","","","","NA"
"2015-04-29 12:00","2015","04","29","12:00","9.8","","5.8","","76","","18","","14","","","","99.66","","","","","","NA"
"2015-04-29 13:00","2015","04","29","13:00","12.2","","5.4","","63","","19","","13","","","","99.61","","","","","","NA"
"2015-04-29 14:00","2015","04","29","14:00","14.8","","4.0","","48","","20","","21","","","","99.57","","","","","","NA"
"2015-04-29 15:00","2015","04","29","15:00","12.3","","4.8","","60","","17","","14","","","","99.52","","","","","","NA"
"2015-04-29 16:00","2015","04","29","16:00","14.0","","5.4","","56","","19","","14","","","","99.51","","","","","","NA"
"2015-04-29 17:00","2015","04","29","17:00","11.0","","4.7","","65","","18","","15","","","","99.52","","","","","","NA"
"2015-04-29 18:00","2015","04","29","18:00","9.0","","3.6","","69","","18","","12","","","","99.54","","","","","","NA"
"2015-04-29 19:00","2015","04","29","19:00","6.7","","3.6","","81","","20","","9","","","","99.53","","","","","","NA"
"2015-04-29 20:00","2015","04","29","20:00","5.9","","3.6","","86","","12","","3","","","","99.55","","","","","","NA"
"2015-04-29 21:00","2015","04","29","21:00","5.8","","3.2","","83","","","","0","","","","99.57","","","","","","NA"
"2015-04-29 22:00","2015","04","29","22:00","4.9","","3.0","","88","","13","","8","","","","99.56","","","","","","NA"
"2015-04-29 23:00","2015","04","29","23:00","4.6","","2.6","","87","","14","","9","","","","99.56","","","","","","NA"
"2015-04-30 00:00","2015","04","30","00:00","4.1","","2.3","","88","","6","","9","","","","99.60","","","","","","NA"
"2015-04-30 01:00","2015","04","30","01:00","5.4","","2.9","","84","","8","","9","","","","99.58","","","","","","NA"
"2015-04-30 02:00","2015","04","30","02:00","5.5","","3.2","","85","","2","","6","","","","99.58","","","","","","NA"
"2015-04-30 03:00","2015","04","30","03:00","5.2","","2.6","","83","","5","","10","","","","99.61","","","","","","NA"
"2015-04-30 04:00","2015","04","30","04:00","5.5","","2.8","","83","","7","","12","","","","99.67","","","","","","NA"
"2015-04-30 05:00","2015","04","30","05:00","6.5","","2.8","","77","","5","","14","","","","99.71","","","","","","NA"
"2015-04-30 06:00","2015","04","30","06:00","8.2","","3.6","","73","","6","","16","","","","99.78","","","","","","NA"
"2015-04-30 07:00","2015","04","30","07:00","9.3","","3.8","","69","","6","","23","","","","99.84","","","","","","NA"
"2015-04-30 08:00","2015","04","30","08:00","11.3","","4.0","","61","","4","","22","","","","99.89","","","","","","NA"
"2015-04-30 09:00","2015","04","30","09:00","13.8","","4.6","","54","","6","","19","","","","99.92","","","","","","NA"
"2015-04-30 10:00","2015","04","30","10:00","14.9","","4.3","","49","","5","","18","","","","99.93","","","","","","NA"
"2015-04-30 11:00","2015","04","30","11:00","16.2","","3.0","","41","","4","","18","","","","99.92","","","","","","NA"
"2015-04-30 12:00","2015","04","30","12:00","17.1","","4.5","","43","","2","","18","","","","99.92","","","","","","NA"
"2015-04-30 13:00","2015","04","30","13:00","17.4","","3.8","","40","","2","","19","","","","99.91","","","","","","NA"
"2015-04-30 14:00","2015","04","30","14:00","17.9","","4.0","","40","","3","","20","","","","99.90","","","","","","NA"
"2015-04-30 15:00","2015","04","30","15:00","17.7","","3.7","","39","","2","","21","","","","99.89","","","","","","NA"
"2015-04-30 16:00","2015","04","30","16:00","17.5","","3.2","","39","","2","","25","","","","99.92","","","","","","NA"
"2015-04-30 17:00","2015","04","30","17:00","17.6","","3.5","","39","","1","","23","","","","99.96","","","","","","NA"
"2015-04-30 18:00","2015","04","30","18:00","16.9","","3.4","","41","","1","","22","","","","99.99","","","","","","NA"
"2015-04-30 19:00","2015","04","30","19:00","15.2","","3.5","","45","","36","","19","","","","100.04","","","","","","NA"
"2015-04-30 20:00","2015","04","30","20:00","14.4","","3.7","","49","","1","","14","","","","100.11","","","","","","NA"
"2015-04-30 21:00","2015","04","30","21:00","13.3","","3.7","","52","","3","","12","","","","100.15","","","","","","NA"
"2015-04-30 22:00","2015","04","30","22:00","12.7","","3.8","","55","","4","","12","","","","100.17","","","","","","NA"
"2015-04-30 23:00","2015","04","30","23:00","11.5","","3.4","","57","","4","","12","","","","100.20","","","","","","NA"
