"Station Name","KINGSTON CLIMATE"
"Province","ONTARIO"
"Latitude","44.22"
"Longitude","-76.60"
"Elevation","93.00"
"Climate Identifier","6104142"
"WMO Identifier","71820"
"TC Identifier","TKG"
"All times are specified in Local Standard Time (LST). Add 1 hour to adjust for Daylight Saving Time where and when it is observed."

"Legend"
"E","Estimated"
"M","Missing"
"NA","Not Available"

"Date/Time","Year","Month","Day","Time","Temp (°C)","Temp Flag","Dew Point Temp (°C)","Dew Point Temp Flag","Rel Hum (%)","Rel Hum Flag","Wind Dir (10s deg)","Wind Dir Flag","Wind Spd (km/h)","Wind Spd Flag","Visibility (km)","Visibility Flag","Stn Press (kPa)","Stn Press Flag","Hmdx","Hmdx Flag","Wind Chill","Wind Chill Flag","Weather"
"2017-08-01 00:00","2017","08","01","00:00","18.3","","17.4","","94","","33","","6","","","","100.64","","","","","","NA"
"2017-08-01 01:00","2017","08","01","01:00","17.6","","16.7","","95","","36","","3","","","","100.62","","","","","","NA"
"2017-08-01 02:00","2017","08","01","02:00","18.0","","17.1","","95","","","","0","","","","100.63","","","","","","NA"
"2017-08-01 03:00","2017","08","01","03:00","16.8","","16.0","","95","","35","","6","","","","100.63","","","","","","NA"
"2017-08-01 04:00","2017","08","01","04:00","16.2","","15.4","","95","","34","","8","","","","100.63","","","","","","NA"
"2017-08-01 05:00","2017","08","01","05:00","15.8","","15.0","","95","","34","","7","","","","100.65","","","","","","NA"
"2017-08-01 06:00","2017","08","01","06:00","17.6","","16.9","","95","","4","","4","","","","100.69","","","","","","NA"
"2017-08-01 07:00","2017","08","01","07:00","18.9","","18.1","","95","","6","","5","","","","100.74","","","","","","NA"
"2017-08-01 08:00","2017","08","01","08:00","20.4","","19.7","","96","","11","","8","","","","100.75","","28","","","","NA"
"2017-08-01 09:00","2017","08","01","09:00","20.9","","20.1","","95","","14","","9","","","","100.74","","29","","","","NA"
"2017-08-01 10:00","2017","08","01","10:00","23.1","","20.8","","87","","16","","7","","","","100.75","","31","","","","NA"
"2017-08-01 11:00","2017","08","01","11:00","23.1","","20.4","","85","","16","","10","","","","100.74","","31","","","","NA"
"2017-08-01 12:00","2017","08","01","12:00","22.6","","20.1","","86","","16","","12","","","","100.72","","30","","","","NA"
"2017-08-01 13:00","2017","08","01","13:00","22.8","","20.3","","85","","17","","12","","","","100.68","","31","","","","NA"
"2017-08-01 14:00","2017","08","01","14:00","23.6","","21.2","","86","","17","","12","","","","100.65","","32","","","","NA"
"2017-08-01 15:00","2017","08","01","15:00","24.2","","20.5","","80","","18","","12","","","","100.58","","32","","","","NA"
"2017-08-01 16:00","2017","08","01","16:00","24.4","","19.8","","75","","17","","9","","","","100.51","","32","","","","NA"
"2017-08-01 17:00","2017","08","01","17:00","23.7","","20.4","","82","","16","","10","","","","100.51","","32","","","","NA"
"2017-08-01 18:00","2017","08","01","18:00","23.5","","19.6","","79","","17","","7","","","","100.50","","31","","","","NA"
"2017-08-01 19:00","2017","08","01","19:00","22.7","","19.4","","82","","20","","5","","","","100.50","","30","","","","NA"
"2017-08-01 20:00","2017","08","01","20:00","21.6","","19.2","","86","","19","","7","","","","100.52","","29","","","","NA"
"2017-08-01 21:00","2017","08","01","21:00","21.5","","19.8","","90","","20","","8","","","","100.55","","29","","","","NA"
"2017-08-01 22:00","2017","08","01","22:00","21.0","","19.4","","91","","22","","9","","","","100.55","","28","","","","NA"
"2017-08-01 23:00","2017","08","01","23:00","20.8","","19.2","","90","","23","","9","","","","100.55","","28","","","","NA"
"2017-08-02 00:00","2017","08","02","00:00","20.9","","19.1","","90","","24","","10","","","","100.53","","28","","","","NA"
"2017-08-02 01:00","2017","08","02","01:00","20.3","","18.9","","92","","22","","8","","","","100.52","","27","","","","NA"
"2017-08-02 02:00","2017","08","02","02:00","20.6","","19.5","","94","","18","","6","","","","100.50","","28","","","","NA"
"2017-08-02 03:00","2017","08","02","03:00","21.0","","19.8","","93","","22","","6","","","","100.48","","28","","","","NA"
"2017-08-02 04:00","2017","08","02","04:00","20.5","","19.1","","92","","22","","8","","","","100.49","","27","","","","NA"
"2017-08-02 05:00","2017","08","02","05:00","20.8","","19.6","","93","","20","","9","","","","100.55","","28","","","","NA"
"2017-08-02 06:00","2017","08","02","06:00","21.6","","20.5","","94","","19","","7","","","","100.55","","30","","","","NA"
"2017-08-02 07:00","2017","08","02","07:00","22.8","","20.9","","89","","18","","10","","","","100.57","","31","","","","NA"
"2017-08-02 08:00","2017","08","02","08:00","23.4","","20.4","","83","","21","","14","","","","100.60","","31","","","","NA"
"2017-08-02 09:00","2017","08","02","09:00","24.4","","21.2","","82","","23","","9","","","","100.60","","33","","","","NA"
"2017-08-02 10:00","2017","08","02","10:00","24.3","","20.8","","81","","18","","15","","","","100.60","","33","","","","NA"
"2017-08-02 11:00","2017","08","02","11:00","24.0","","20.7","","82","","19","","20","","","","100.60","","32","","","","NA"
"2017-08-02 12:00","2017","08","02","12:00","24.2","","20.9","","82","","19","","17","","","","100.55","","33","","","","NA"
"2017-08-02 13:00","2017","08","02","13:00","24.1","","20.5","","80","","18","","19","","","","100.51","","32","","","","NA"
"2017-08-02 14:00","2017","08","02","14:00","24.5","","21.2","","82","","18","","17","","","","100.44","","33","","","","NA"
"2017-08-02 15:00","2017","08","02","15:00","25.0","","20.6","","77","","19","","21","","","","100.40","","33","","","","NA"
"2017-08-02 16:00","2017","08","02","16:00","24.7","","20.5","","77","","19","","17","","","","100.40","","33","","","","NA"
"2017-08-02 17:00","2017","08","02","17:00","24.3","","20.0","","77","","18","","16","","","","100.43","","32","","","","NA"
"2017-08-02 18:00","2017","08","02","18:00","23.5","","19.9","","80","","19","","15","","","","100.43","","31","","","","NA"
"2017-08-02 19:00","2017","08","02","19:00","22.8","","19.1","","80","","21","","8","","","","100.47","","30","","","","NA"
"2017-08-02 20:00","2017","08","02","20:00","21.3","","18.4","","84","","23","","8","","","","100.49","","28","","","","NA"
"2017-08-02 21:00","2017","08","02","21:00","21.5","","18.8","","85","","21","","9","","","","100.53","","28","","","","NA"
"2017-08-02 22:00","2017","08","02","22:00","20.3","","18.2","","88","","23","","1","","","","100.54","","26","","","","NA"
"2017-08-02 23:00","2017","08","02","23:00","20.3","","18.8","","91","","27","","6","","","","100.55","","27","","","","NA"
"2017-08-03 00:00","2017","08","03","00:00","20.6","","19.3","","92","","19","","4","","","","100.57","","28","","","","NA"
"2017-08-03 01:00","2017","08","03","01:00","18.8","","17.2","","91","","34","","6","","","","100.56","","","","","","NA"
"2017-08-03 02:00","2017","08","03","02:00","18.5","","16.8","","90","","1","","4","","","","100.58","","","","","","NA"
"2017-08-03 03:00","2017","08","03","03:00","18.2","","16.6","","90","","1","","3","","","","100.56","","","","","","NA"
"2017-08-03 04:00","2017","08","03","04:00","17.2","","15.5","","90","","1","","4","","","","100.59","","","","","","NA"
"2017-08-03 05:00","2017","08","03","05:00","17.5","","16.4","","93","","36","","5","","","","100.62","","","","","","NA"
"2017-08-03 06:00","2017","08","03","06:00","19.0","","17.6","","92","","35","","4","","","","100.65","","","","","","NA"
"2017-08-03 07:00","2017","08","03","07:00","22.3","","20.8","","91","","15","","5","","","","100.70","","31","","","","NA"
"2017-08-03 08:00","2017","08","03","08:00","22.1","","20.0","","88","","17","","16","","","","100.75","","30","","","","NA"
"2017-08-03 09:00","2017","08","03","09:00","22.3","","19.6","","85","","16","","15","","","","100.76","","30","","","","NA"
"2017-08-03 10:00","2017","08","03","10:00","22.5","","19.2","","82","","16","","13","","","","100.78","","29","","","","NA"
"2017-08-03 11:00","2017","08","03","11:00","23.7","","20.3","","81","","15","","14","","","","100.78","","32","","","","NA"
"2017-08-03 12:00","2017","08","03","12:00","22.8","","19.6","","82","","15","","9","","","","100.76","","30","","","","NA"
"2017-08-03 13:00","2017","08","03","13:00","22.6","","19.6","","83","","19","","8","","","","100.70","","30","","","","NA"
"2017-08-03 14:00","2017","08","03","14:00","24.5","","19.6","","74","","20","","5","","","","100.62","","32","","","","NA"
"2017-08-03 15:00","2017","08","03","15:00","25.2","","20.8","","77","","19","","11","","","","100.54","","33","","","","NA"
"2017-08-03 16:00","2017","08","03","16:00","25.4","","18.8","","67","","16","","5","","","","100.51","","32","","","","NA"
"2017-08-03 17:00","2017","08","03","17:00","25.7","","17.9","","62","","15","","3","","","","100.53","","32","","","","NA"
"2017-08-03 18:00","2017","08","03","18:00","25.0","","17.7","","64","","13","","4","","","","100.55","","31","","","","NA"
"2017-08-03 19:00","2017","08","03","19:00","23.6","","19.8","","79","","5","","12","","","","100.56","","31","","","","NA"
"2017-08-03 20:00","2017","08","03","20:00","22.3","","19.7","","85","","6","","7","","","","100.52","","30","","","","NA"
"2017-08-03 21:00","2017","08","03","21:00","21.8","","19.1","","85","","6","","10","","","","100.49","","29","","","","NA"
"2017-08-03 22:00","2017","08","03","22:00","21.8","","18.7","","83","","9","","9","","","","100.47","","28","","","","NA"
"2017-08-03 23:00","2017","08","03","23:00","21.7","","19.4","","87","","10","","10","","","","100.40","","29","","","","NA"
"2017-08-04 00:00","2017","08","04","00:00","22.0","","18.6","","81","","13","","6","","","","100.35","","28","","","","NA"
"2017-08-04 01:00","2017","08","04","01:00","20.8","","18.8","","88","","10","","6","","","","100.30","","27","","","","NA"
"2017-08-04 02:00","2017","08","04","02:00","21.9","","18.8","","83","","13","","10","","","","100.26","","29","","","","NA"
"2017-08-04 03:00","2017","08","04","03:00","22.2","","19.4","","84","","14","","19","","","","100.20","","29","","","","NA"
"2017-08-04 04:00","2017","08","04","04:00","22.5","","19.6","","84","","18","","20","","","","100.20","","30","","","","NA"
"2017-08-04 05:00","2017","08","04","05:00","20.6","","18.0","","85","","30","","8","","","","100.22","","27","","","","NA"
"2017-08-04 06:00","2017","08","04","06:00","19.1","","17.8","","92","","5","","4","","","","100.21","","","","","","NA"
"2017-08-04 07:00","2017","08","04","07:00","22.2","","20.2","","89","","17","","19","","","","100.17","","30","","","","NA"
"2017-08-04 08:00","2017","08","04","08:00","23.4","","20.6","","84","","17","","24","","","","100.14","","31","","","","NA"
"2017-08-04 09:00","2017","08","04","09:00","22.9","","20.0","","84","","17","","25","","","","100.15","","30","","","","NA"
"2017-08-04 10:00","2017","08","04","10:00","23.9","","20.4","","81","","17","","21","","","","100.15","","32","","","","NA"
"2017-08-04 11:00","2017","08","04","11:00","24.0","","20.6","","81","","17","","21","","","","100.11","","32","","","","NA"
"2017-08-04 12:00","2017","08","04","12:00","25.2","","20.8","","77","","19","","14","","","","100.03","","33","","","","NA"
"2017-08-04 13:00","2017","08","04","13:00","25.3","","21.3","","79","","16","","12","","","","99.89","","34","","","","NA"
"2017-08-04 14:00","2017","08","04","14:00","25.5","","21.4","","78","","17","","19","","","","99.82","","34","","","","NA"
"2017-08-04 15:00","2017","08","04","15:00","25.8","","20.0","","70","","19","","16","","","","99.75","","33","","","","NA"
"2017-08-04 16:00","2017","08","04","16:00","24.8","","20.3","","76","","20","","21","","","","99.71","","33","","","","NA"
"2017-08-04 17:00","2017","08","04","17:00","20.9","","18.1","","84","","19","","28","","","","99.70","","27","","","","NA"
"2017-08-04 18:00","2017","08","04","18:00","22.0","","18.8","","82","","21","","8","","","","99.73","","29","","","","NA"
"2017-08-04 19:00","2017","08","04","19:00","20.8","","18.2","","85","","21","","25","","","","99.81","","27","","","","NA"
"2017-08-04 20:00","2017","08","04","20:00","20.4","","18.5","","89","","22","","13","","","","99.76","","27","","","","NA"
"2017-08-04 21:00","2017","08","04","21:00","21.1","","19.2","","89","","16","","20","","","","99.74","","28","","","","NA"
"2017-08-04 22:00","2017","08","04","22:00","20.8","","18.2","","85","","18","","28","","","","99.73","","27","","","","NA"
"2017-08-04 23:00","2017","08","04","23:00","21.0","","17.9","","83","","18","","24","","","","99.67","","27","","","","NA"
"2017-08-05 00:00","2017","08","05","00:00","21.2","","18.5","","85","","18","","29","","","","99.62","","28","","","","NA"
"2017-08-05 01:00","2017","08","05","01:00","21.0","","18.6","","86","","21","","29","","","","99.59","","27","","","","NA"
"2017-08-05 02:00","2017","08","05","02:00","20.0","","14.6","","71","","23","","31","","","","99.61","","","","","","NA"
"2017-08-05 03:00","2017","08","05","03:00","19.4","","14.0","","71","","24","","26","","","","99.62","","","","","","NA"
"2017-08-05 04:00","2017","08","05","04:00","18.4","","14.1","","76","","20","","17","","","","99.67","","","","","","NA"
"2017-08-05 05:00","2017","08","05","05:00","18.6","","14.4","","76","","21","","23","","","","99.67","","","","","","NA"
"2017-08-05 06:00","2017","08","05","06:00","19.1","","15.0","","77","","21","","25","","","","99.70","","","","","","NA"
"2017-08-05 07:00","2017","08","05","07:00","19.9","","14.8","","72","","22","","31","","","","99.71","","","","","","NA"
"2017-08-05 08:00","2017","08","05","08:00","19.4","","14.8","","75","","22","","34","","","","99.75","","","","","","NA"
"2017-08-05 09:00","2017","08","05","09:00","20.0","","15.0","","73","","21","","36","","","","99.76","","","","","","NA"
"2017-08-05 10:00","2017","08","05","10:00","17.1","","15.1","","88","","24","","24","","","","99.83","","","","","","NA"
"2017-08-05 11:00","2017","08","05","11:00","20.7","","16.0","","74","","24","","28","","","","99.80","","25","","","","NA"
"2017-08-05 12:00","2017","08","05","12:00","19.4","","14.3","","72","","23","","30","","","","99.82","","","","","","NA"
"2017-08-05 13:00","2017","08","05","13:00","19.0","","14.2","","74","","23","","30","","","","99.83","","","","","","NA"
"2017-08-05 14:00","2017","08","05","14:00","19.4","","15.4","","78","","22","","30","","","","99.81","","","","","","NA"
"2017-08-05 15:00","2017","08","05","15:00","20.2","","14.1","","68","","24","","34","","","","99.83","","","","","","NA"
"2017-08-05 16:00","2017","08","05","16:00","20.0","","14.5","","70","","24","","30","","","","99.87","","","","","","NA"
"2017-08-05 17:00","2017","08","05","17:00","19.3","","13.7","","70","","25","","24","","","","99.93","","","","","","NA"
"2017-08-05 18:00","2017","08","05","18:00","19.0","","10.3","","57","","26","","28","","","","99.99","","","","","","NA"
"2017-08-05 19:00","2017","08","05","19:00","18.0","","10.7","","62","","26","","22","","","","100.07","","","","","","NA"
"2017-08-05 20:00","2017","08","05","20:00","17.3","","10.4","","64","","26","","24","","","","100.17","","","","","","NA"
"2017-08-05 21:00","2017","08","05","21:00","16.2","","10.0","","66","","27","","24","","","","100.26","","","","","","NA"
"2017-08-05 22:00","2017","08","05","22:00","14.9","","8.9","","67","","28","","19","","","","100.34","","","","","","NA"
"2017-08-05 23:00","2017","08","05","23:00","13.7","","8.9","","73","","27","","12","","","","100.36","","","","","","NA"
"2017-08-06 00:00","2017","08","06","00:00","13.4","","9.1","","75","","26","","12","","","","100.39","","","","","","NA"
"2017-08-06 01:00","2017","08","06","01:00","12.9","","9.2","","78","","26","","12","","","","100.40","","","","","","NA"
"2017-08-06 02:00","2017","08","06","02:00","12.8","","9.4","","80","","26","","13","","","","100.39","","","","","","NA"
"2017-08-06 03:00","2017","08","06","03:00","12.0","","9.2","","83","","27","","8","","","","100.39","","","","","","NA"
"2017-08-06 04:00","2017","08","06","04:00","13.8","","10.0","","78","","26","","9","","","","100.43","","","","","","NA"
"2017-08-06 05:00","2017","08","06","05:00","13.1","","10.4","","84","","26","","9","","","","100.48","","","","","","NA"
"2017-08-06 06:00","2017","08","06","06:00","14.6","","11.6","","82","","26","","12","","","","100.54","","","","","","NA"
"2017-08-06 07:00","2017","08","06","07:00","14.9","","12.1","","84","","28","","16","","","","100.60","","","","","","NA"
"2017-08-06 08:00","2017","08","06","08:00","15.9","","12.2","","78","","29","","12","","","","100.56","","","","","","NA"
"2017-08-06 09:00","2017","08","06","09:00","18.7","","12.2","","66","","26","","15","","","","100.60","","","","","","NA"
"2017-08-06 10:00","2017","08","06","10:00","19.9","","13.7","","67","","23","","15","","","","100.58","","","","","","NA"
"2017-08-06 11:00","2017","08","06","11:00","21.3","","14.4","","65","","23","","19","","","","100.56","","25","","","","NA"
"2017-08-06 12:00","2017","08","06","12:00","22.0","","13.1","","57","","24","","20","","","","100.57","","25","","","","NA"
"2017-08-06 13:00","2017","08","06","13:00","19.9","","14.9","","73","","21","","17","","","","100.56","","","","","","NA"
"2017-08-06 14:00","2017","08","06","14:00","18.4","","13.9","","75","","26","","14","","","","100.58","","","","","","NA"
"2017-08-06 15:00","2017","08","06","15:00","18.9","","14.7","","76","","36","","2","","","","100.57","","","","","","NA"
"2017-08-06 16:00","2017","08","06","16:00","17.0","","14.7","","87","","2","","8","","","","100.58","","","","","","NA"
"2017-08-06 17:00","2017","08","06","17:00","18.4","","15.4","","82","","13","","5","","","","100.53","","","","","","NA"
"2017-08-06 18:00","2017","08","06","18:00","18.2","","16.0","","87","","25","","1","","","","100.59","","","","","","NA"
"2017-08-06 19:00","2017","08","06","19:00","17.7","","15.4","","87","","26","","2","","","","100.57","","","","","","NA"
"2017-08-06 20:00","2017","08","06","20:00","16.2","","14.8","","92","","21","","2","","","","100.55","","","","","","NA"
"2017-08-06 21:00","2017","08","06","21:00","15.7","","14.8","","94","","0","","1","","","","100.57","","","","","","NA"
"2017-08-06 22:00","2017","08","06","22:00","15.4","","14.5","","95","","34","","8","","","","100.57","","","","","","NA"
"2017-08-06 23:00","2017","08","06","23:00","15.0","","14.1","","95","","11","","2","","","","100.56","","","","","","NA"
"2017-08-07 00:00","2017","08","07","00:00","14.9","","14.1","","95","","6","","4","","","","100.54","","","","","","NA"
"2017-08-07 01:00","2017","08","07","01:00","14.7","","14.0","","95","","0","","1","","","","100.52","","","","","","NA"
"2017-08-07 02:00","2017","08","07","02:00","14.5","","13.8","","95","","10","","2","","","","100.51","","","","","","NA"
"2017-08-07 03:00","2017","08","07","03:00","13.0","","12.3","","95","","34","","8","","","","100.52","","","","","","NA"
"2017-08-07 04:00","2017","08","07","04:00","13.1","","12.4","","96","","2","","7","","","","100.53","","","","","","NA"
"2017-08-07 05:00","2017","08","07","05:00","14.1","","13.4","","96","","3","","7","","","","100.52","","","","","","NA"
"2017-08-07 06:00","2017","08","07","06:00","15.1","","14.4","","95","","2","","10","","","","100.51","","","","","","NA"
"2017-08-07 07:00","2017","08","07","07:00","15.6","","14.4","","93","","4","","12","","","","100.53","","","","","","NA"
"2017-08-07 08:00","2017","08","07","08:00","16.8","","15.4","","92","","5","","9","","","","100.54","","","","","","NA"
"2017-08-07 09:00","2017","08","07","09:00","17.5","","15.7","","90","","4","","12","","","","100.53","","","","","","NA"
"2017-08-07 10:00","2017","08","07","10:00","17.6","","15.3","","86","","1","","12","","","","100.51","","","","","","NA"
"2017-08-07 11:00","2017","08","07","11:00","18.0","","15.3","","85","","2","","10","","","","100.52","","","","","","NA"
"2017-08-07 12:00","2017","08","07","12:00","18.8","","15.8","","83","","1","","12","","","","100.49","","","","","","NA"
"2017-08-07 13:00","2017","08","07","13:00","20.2","","16.0","","77","","3","","6","","","","100.45","","25","","","","NA"
"2017-08-07 14:00","2017","08","07","14:00","20.4","","16.2","","77","","33","","5","","","","100.38","","25","","","","NA"
"2017-08-07 15:00","2017","08","07","15:00","21.8","","16.8","","73","","32","","11","","","","100.30","","27","","","","NA"
"2017-08-07 16:00","2017","08","07","16:00","20.2","","16.2","","78","","34","","16","","","","100.29","","25","","","","NA"
"2017-08-07 17:00","2017","08","07","17:00","19.6","","15.5","","77","","35","","12","","","","100.31","","","","","","NA"
"2017-08-07 18:00","2017","08","07","18:00","17.4","","14.9","","86","","34","","10","","","","100.35","","","","","","NA"
"2017-08-07 19:00","2017","08","07","19:00","16.8","","14.9","","89","","5","","7","","","","100.32","","","","","","NA"
"2017-08-07 20:00","2017","08","07","20:00","16.4","","14.6","","89","","3","","8","","","","100.35","","","","","","NA"
"2017-08-07 21:00","2017","08","07","21:00","16.4","","14.8","","90","","4","","2","","","","100.37","","","","","","NA"
"2017-08-07 22:00","2017","08","07","22:00","15.7","","14.6","","93","","35","","8","","","","100.34","","","","","","NA"
"2017-08-07 23:00","2017","08","07","23:00","15.1","","14.2","","94","","35","","5","","","","100.30","","","","","","NA"
"2017-08-08 00:00","2017","08","08","00:00","13.0","","12.2","","95","","34","","11","","","","100.31","","","","","","NA"
"2017-08-08 01:00","2017","08","08","01:00","12.9","","12.1","","95","","34","","10","","","","100.31","","","","","","NA"
"2017-08-08 02:00","2017","08","08","02:00","12.9","","12.2","","95","","33","","7","","","","100.32","","","","","","NA"
"2017-08-08 03:00","2017","08","08","03:00","12.4","","11.6","","95","","33","","10","","","","100.33","","","","","","NA"
"2017-08-08 04:00","2017","08","08","04:00","12.3","","11.6","","95","","34","","11","","","","100.32","","","","","","NA"
"2017-08-08 05:00","2017","08","08","05:00","12.8","","12.1","","95","","33","","13","","","","100.34","","","","","","NA"
"2017-08-08 06:00","2017","08","08","06:00","14.4","","13.7","","96","","33","","14","","","","100.39","","","","","","NA"
"2017-08-08 07:00","2017","08","08","07:00","15.6","","14.9","","96","","33","","8","","","","100.42","","","","","","NA"
"2017-08-08 08:00","2017","08","08","08:00","17.2","","14.6","","85","","34","","7","","","","100.46","","","","","","NA"
"2017-08-08 09:00","2017","08","08","09:00","19.1","","15.1","","78","","35","","4","","","","100.48","","","","","","NA"
"2017-08-08 10:00","2017","08","08","10:00","20.6","","15.0","","70","","28","","4","","","","100.48","","25","","","","NA"
"2017-08-08 11:00","2017","08","08","11:00","20.5","","16.3","","77","","18","","14","","","","100.50","","25","","","","NA"
"2017-08-08 12:00","2017","08","08","12:00","20.9","","16.9","","78","","16","","16","","","","100.49","","26","","","","NA"
"2017-08-08 13:00","2017","08","08","13:00","20.9","","16.5","","76","","19","","19","","","","100.47","","26","","","","NA"
"2017-08-08 14:00","2017","08","08","14:00","21.3","","17.2","","77","","18","","25","","","","100.47","","27","","","","NA"
"2017-08-08 15:00","2017","08","08","15:00","22.1","","16.7","","72","","19","","26","","","","100.46","","27","","","","NA"
"2017-08-08 16:00","2017","08","08","16:00","21.9","","14.2","","62","","24","","21","","","","100.44","","25","","","","NA"
"2017-08-08 17:00","2017","08","08","17:00","22.3","","14.4","","61","","23","","25","","","","100.44","","26","","","","NA"
"2017-08-08 18:00","2017","08","08","18:00","21.4","","13.7","","61","","23","","23","","","","100.49","","25","","","","NA"
"2017-08-08 19:00","2017","08","08","19:00","20.1","","12.7","","62","","21","","18","","","","100.52","","","","","","NA"
"2017-08-08 20:00","2017","08","08","20:00","19.4","","12.8","","66","","22","","15","","","","100.56","","","","","","NA"
"2017-08-08 21:00","2017","08","08","21:00","18.8","","13.2","","70","","22","","13","","","","100.60","","","","","","NA"
"2017-08-08 22:00","2017","08","08","22:00","19.6","","13.5","","68","","25","","13","","","","100.62","","","","","","NA"
"2017-08-08 23:00","2017","08","08","23:00","19.5","","14.8","","74","","25","","15","","","","100.62","","","","","","NA"
"2017-08-09 00:00","2017","08","09","00:00","19.9","","16.6","","81","","24","","19","","","","100.63","","","","","","NA"
"2017-08-09 01:00","2017","08","09","01:00","19.1","","16.3","","84","","25","","17","","","","100.63","","","","","","NA"
"2017-08-09 02:00","2017","08","09","02:00","19.1","","16.5","","85","","24","","18","","","","100.61","","","","","","NA"
"2017-08-09 03:00","2017","08","09","03:00","19.1","","16.5","","85","","24","","16","","","","100.64","","","","","","NA"
"2017-08-09 04:00","2017","08","09","04:00","18.6","","15.9","","84","","25","","9","","","","100.69","","","","","","NA"
"2017-08-09 05:00","2017","08","09","05:00","18.6","","15.7","","83","","25","","12","","","","100.76","","","","","","NA"
"2017-08-09 06:00","2017","08","09","06:00","17.8","","15.2","","84","","26","","7","","","","100.82","","","","","","NA"
"2017-08-09 07:00","2017","08","09","07:00","19.1","","15.2","","79","","28","","11","","","","100.90","","","","","","NA"
"2017-08-09 08:00","2017","08","09","08:00","20.0","","16.1","","78","","30","","11","","","","100.92","","25","","","","NA"
"2017-08-09 09:00","2017","08","09","09:00","21.3","","15.9","","71","","30","","7","","","","100.95","","26","","","","NA"
"2017-08-09 10:00","2017","08","09","10:00","21.3","","16.6","","75","","24","","6","","","","101.01","","26","","","","NA"
"2017-08-09 11:00","2017","08","09","11:00","21.9","","16.7","","72","","35","","3","","","","100.99","","27","","","","NA"
"2017-08-09 12:00","2017","08","09","12:00","23.1","","18.4","","75","","18","","14","","","","100.98","","29","","","","NA"
"2017-08-09 13:00","2017","08","09","13:00","22.8","","17.7","","73","","18","","15","","","","100.98","","29","","","","NA"
"2017-08-09 14:00","2017","08","09","14:00","23.0","","17.3","","70","","17","","19","","","","100.95","","28","","","","NA"
"2017-08-09 15:00","2017","08","09","15:00","23.2","","18.6","","75","","19","","15","","","","100.94","","30","","","","NA"
"2017-08-09 16:00","2017","08","09","16:00","22.8","","18.5","","77","","17","","14","","","","100.95","","29","","","","NA"
"2017-08-09 17:00","2017","08","09","17:00","21.9","","17.3","","75","","17","","15","","","","100.91","","27","","","","NA"
"2017-08-09 18:00","2017","08","09","18:00","22.3","","17.8","","76","","18","","8","","","","100.96","","28","","","","NA"
"2017-08-09 19:00","2017","08","09","19:00","21.2","","17.6","","80","","22","","9","","","","100.98","","27","","","","NA"
"2017-08-09 20:00","2017","08","09","20:00","20.5","","18.1","","87","","20","","10","","","","101.00","","27","","","","NA"
"2017-08-09 21:00","2017","08","09","21:00","20.2","","18.6","","90","","20","","10","","","","101.03","","27","","","","NA"
"2017-08-09 22:00","2017","08","09","22:00","19.6","","17.5","","88","","21","","10","","","","101.04","","","","","","NA"
"2017-08-09 23:00","2017","08","09","23:00","19.7","","17.5","","87","","20","","8","","","","101.05","","","","","","NA"
"2017-08-10 00:00","2017","08","10","00:00","19.6","","17.8","","90","","21","","7","","","","101.06","","","","","","NA"
"2017-08-10 01:00","2017","08","10","01:00","19.2","","17.7","","91","","23","","5","","","","101.04","","","","","","NA"
"2017-08-10 02:00","2017","08","10","02:00","16.9","","15.9","","94","","34","","4","","","","101.03","","","","","","NA"
"2017-08-10 03:00","2017","08","10","03:00","15.6","","14.8","","95","","34","","8","","","","101.03","","","","","","NA"
"2017-08-10 04:00","2017","08","10","04:00","15.1","","14.3","","95","","34","","7","","","","101.05","","","","","","NA"
"2017-08-10 05:00","2017","08","10","05:00","14.4","","13.7","","95","","34","","7","","","","101.07","","","","","","NA"
"2017-08-10 06:00","2017","08","10","06:00","15.3","","14.6","","95","","35","","4","","","","101.09","","","","","","NA"
"2017-08-10 07:00","2017","08","10","07:00","19.5","","18.4","","93","","1","","2","","","","101.14","","","","","","NA"
"2017-08-10 08:00","2017","08","10","08:00","21.0","","18.5","","85","","17","","5","","","","101.12","","27","","","","NA"
"2017-08-10 09:00","2017","08","10","09:00","22.2","","19.3","","83","","20","","10","","","","101.15","","29","","","","NA"
"2017-08-10 10:00","2017","08","10","10:00","22.4","","18.2","","77","","17","","15","","","","101.14","","29","","","","NA"
"2017-08-10 11:00","2017","08","10","11:00","22.9","","19.2","","80","","18","","15","","","","101.14","","30","","","","NA"
"2017-08-10 12:00","2017","08","10","12:00","23.3","","17.7","","71","","17","","13","","","","101.11","","29","","","","NA"
"2017-08-10 13:00","2017","08","10","13:00","23.5","","18.0","","71","","17","","13","","","","101.09","","30","","","","NA"
"2017-08-10 14:00","2017","08","10","14:00","23.6","","18.8","","75","","18","","15","","","","101.04","","30","","","","NA"
"2017-08-10 15:00","2017","08","10","15:00","23.2","","18.1","","73","","18","","9","","","","101.00","","29","","","","NA"
"2017-08-10 16:00","2017","08","10","16:00","24.0","","18.6","","72","","17","","7","","","","100.95","","30","","","","NA"
"2017-08-10 17:00","2017","08","10","17:00","23.7","","18.0","","70","","14","","10","","","","100.91","","30","","","","NA"
"2017-08-10 18:00","2017","08","10","18:00","23.6","","15.8","","62","","14","","5","","","","100.88","","28","","","","NA"
"2017-08-10 19:00","2017","08","10","19:00","21.7","","17.8","","78","","14","","7","","","","100.84","","28","","","","NA"
"2017-08-10 20:00","2017","08","10","20:00","19.6","","16.6","","83","","","","0","","","","100.84","","","","","","NA"
"2017-08-10 21:00","2017","08","10","21:00","18.9","","16.1","","84","","7","","3","","","","100.85","","","","","","NA"
"2017-08-10 22:00","2017","08","10","22:00","19.5","","16.4","","82","","4","","3","","","","100.82","","","","","","NA"
"2017-08-10 23:00","2017","08","10","23:00","17.2","","15.4","","90","","2","","4","","","","100.82","","","","","","NA"
"2017-08-11 00:00","2017","08","11","00:00","18.6","","16.5","","88","","10","","5","","","","100.79","","","","","","NA"
"2017-08-11 01:00","2017","08","11","01:00","21.9","","18.3","","80","","15","","14","","","","100.79","","28","","","","NA"
"2017-08-11 02:00","2017","08","11","02:00","21.5","","17.4","","77","","17","","12","","","","100.75","","27","","","","NA"
"2017-08-11 03:00","2017","08","11","03:00","21.5","","16.8","","74","","17","","17","","","","100.69","","27","","","","NA"
"2017-08-11 04:00","2017","08","11","04:00","21.2","","17.1","","77","","18","","18","","","","100.70","","27","","","","NA"
"2017-08-11 05:00","2017","08","11","05:00","21.0","","16.7","","76","","18","","16","","","","100.70","","26","","","","NA"
"2017-08-11 06:00","2017","08","11","06:00","21.3","","16.8","","76","","18","","15","","","","100.72","","26","","","","NA"
"2017-08-11 07:00","2017","08","11","07:00","21.5","","17.0","","76","","17","","17","","","","100.71","","27","","","","NA"
"2017-08-11 08:00","2017","08","11","08:00","22.0","","16.9","","73","","17","","16","","","","100.67","","27","","","","NA"
"2017-08-11 09:00","2017","08","11","09:00","22.1","","16.8","","72","","18","","22","","","","100.68","","27","","","","NA"
"2017-08-11 10:00","2017","08","11","10:00","21.9","","17.0","","74","","19","","20","","","","100.66","","27","","","","NA"
"2017-08-11 11:00","2017","08","11","11:00","23.0","","18.0","","73","","17","","16","","","","100.60","","29","","","","NA"
"2017-08-11 12:00","2017","08","11","12:00","22.6","","17.5","","73","","17","","20","","","","100.58","","28","","","","NA"
"2017-08-11 13:00","2017","08","11","13:00","22.4","","17.7","","75","","18","","12","","","","100.55","","28","","","","NA"
"2017-08-11 14:00","2017","08","11","14:00","22.3","","18.0","","76","","19","","12","","","","100.49","","28","","","","NA"
"2017-08-11 15:00","2017","08","11","15:00","22.6","","18.3","","77","","18","","14","","","","100.41","","29","","","","NA"
"2017-08-11 16:00","2017","08","11","16:00","22.2","","18.1","","78","","20","","10","","","","100.38","","28","","","","NA"
"2017-08-11 17:00","2017","08","11","17:00","22.1","","18.6","","81","","19","","10","","","","100.31","","29","","","","NA"
"2017-08-11 18:00","2017","08","11","18:00","21.9","","18.8","","82","","20","","9","","","","100.27","","29","","","","NA"
"2017-08-11 19:00","2017","08","11","19:00","21.5","","18.9","","85","","20","","4","","","","100.20","","28","","","","NA"
"2017-08-11 20:00","2017","08","11","20:00","20.7","","19.0","","90","","8","","4","","","","100.19","","27","","","","NA"
"2017-08-11 21:00","2017","08","11","21:00","21.0","","19.2","","90","","11","","6","","","","100.16","","28","","","","NA"
"2017-08-11 22:00","2017","08","11","22:00","21.1","","16.9","","77","","30","","10","","","","100.11","","26","","","","NA"
"2017-08-11 23:00","2017","08","11","23:00","17.9","","15.4","","85","","3","","5","","","","100.07","","","","","","NA"
"2017-08-12 00:00","2017","08","12","00:00","17.3","","16.1","","93","","7","","3","","","","100.06","","","","","","NA"
"2017-08-12 01:00","2017","08","12","01:00","18.0","","16.8","","92","","5","","3","","","","99.98","","","","","","NA"
"2017-08-12 02:00","2017","08","12","02:00","18.5","","17.4","","93","","24","","3","","","","99.95","","","","","","NA"
"2017-08-12 03:00","2017","08","12","03:00","18.0","","16.8","","93","","35","","12","","","","99.96","","","","","","NA"
"2017-08-12 04:00","2017","08","12","04:00","18.1","","17.0","","93","","7","","7","","","","99.92","","","","","","NA"
"2017-08-12 05:00","2017","08","12","05:00","17.8","","16.7","","93","","8","","9","","","","99.90","","","","","","NA"
"2017-08-12 06:00","2017","08","12","06:00","20.5","","18.5","","89","","21","","16","","","","99.92","","27","","","","NA"
"2017-08-12 07:00","2017","08","12","07:00","20.5","","18.2","","87","","21","","13","","","","99.94","","27","","","","NA"
"2017-08-12 08:00","2017","08","12","08:00","21.1","","18.0","","82","","23","","16","","","","99.93","","27","","","","NA"
"2017-08-12 09:00","2017","08","12","09:00","22.0","","17.8","","77","","24","","18","","","","99.93","","28","","","","NA"
"2017-08-12 10:00","2017","08","12","10:00","23.1","","18.4","","75","","24","","16","","","","99.91","","29","","","","NA"
"2017-08-12 11:00","2017","08","12","11:00","22.7","","19.8","","83","","19","","24","","","","99.89","","30","","","","NA"
"2017-08-12 12:00","2017","08","12","12:00","23.1","","19.6","","81","","19","","24","","","","99.86","","30","","","","NA"
"2017-08-12 13:00","2017","08","12","13:00","22.8","","19.3","","81","","18","","24","","","","99.86","","30","","","","NA"
"2017-08-12 14:00","2017","08","12","14:00","22.7","","19.2","","81","","19","","27","","","","99.79","","30","","","","NA"
"2017-08-12 15:00","2017","08","12","15:00","23.5","","18.9","","76","","20","","29","","","","99.75","","30","","","","NA"
"2017-08-12 16:00","2017","08","12","16:00","24.7","","17.2","","63","","22","","19","","","","99.70","","30","","","","NA"
"2017-08-12 17:00","2017","08","12","17:00","23.4","","17.6","","70","","24","","23","","","","99.74","","29","","","","NA"
"2017-08-12 18:00","2017","08","12","18:00","22.5","","17.6","","74","","24","","18","","","","99.76","","28","","","","NA"
"2017-08-12 19:00","2017","08","12","19:00","22.1","","16.2","","69","","25","","14","","","","99.76","","27","","","","NA"
"2017-08-12 20:00","2017","08","12","20:00","20.8","","16.0","","74","","28","","14","","","","99.84","","25","","","","NA"
"2017-08-12 21:00","2017","08","12","21:00","18.7","","16.1","","85","","32","","7","","","","99.92","","","","","","NA"
"2017-08-12 22:00","2017","08","12","22:00","18.4","","15.8","","85","","31","","11","","","","99.93","","","","","","NA"
"2017-08-12 23:00","2017","08","12","23:00","17.3","","15.0","","86","","32","","7","","","","99.97","","","","","","NA"
"2017-08-13 00:00","2017","08","13","00:00","16.8","","15.0","","90","","29","","5","","","","100.03","","","","","","NA"
"2017-08-13 01:00","2017","08","13","01:00","16.5","","14.7","","89","","31","","8","","","","100.05","","","","","","NA"
"2017-08-13 02:00","2017","08","13","02:00","16.8","","15.0","","89","","32","","11","","","","100.09","","","","","","NA"
"2017-08-13 03:00","2017","08","13","03:00","15.9","","14.3","","90","","31","","11","","","","100.13","","","","","","NA"
"2017-08-13 04:00","2017","08","13","04:00","15.4","","14.1","","92","","32","","9","","","","100.15","","","","","","NA"
"2017-08-13 05:00","2017","08","13","05:00","14.9","","13.6","","92","","29","","8","","","","100.23","","","","","","NA"
"2017-08-13 06:00","2017","08","13","06:00","15.6","","14.1","","91","","29","","7","","","","100.29","","","","","","NA"
"2017-08-13 07:00","2017","08","13","07:00","17.4","","14.8","","85","","31","","12","","","","100.35","","","","","","NA"
"2017-08-13 08:00","2017","08","13","08:00","19.7","","14.3","","71","","33","","17","","","","100.38","","","","","","NA"
"2017-08-13 09:00","2017","08","13","09:00","21.6","","13.9","","61","","35","","17","","","","100.41","","25","","","","NA"
"2017-08-13 10:00","2017","08","13","10:00","23.1","","12.7","","52","","32","","11","","","","100.42","","26","","","","NA"
"2017-08-13 11:00","2017","08","13","11:00","24.0","","10.4","","42","","32","","10","","","","100.43","","25","","","","NA"
"2017-08-13 12:00","2017","08","13","12:00","23.9","","13.9","","54","","19","","13","","","","100.45","","27","","","","NA"
"2017-08-13 13:00","2017","08","13","13:00","23.8","","12.5","","49","","20","","15","","","","100.44","","26","","","","NA"
"2017-08-13 14:00","2017","08","13","14:00","23.7","","15.7","","61","","19","","25","","","","100.44","","28","","","","NA"
"2017-08-13 15:00","2017","08","13","15:00","24.4","","15.6","","58","","21","","20","","","","100.45","","29","","","","NA"
"2017-08-13 16:00","2017","08","13","16:00","23.5","","16.9","","66","","20","","21","","","","100.45","","29","","","","NA"
"2017-08-13 17:00","2017","08","13","17:00","23.5","","16.6","","65","","20","","18","","","","100.42","","29","","","","NA"
"2017-08-13 18:00","2017","08","13","18:00","23.1","","14.9","","60","","23","","18","","","","100.44","","27","","","","NA"
"2017-08-13 19:00","2017","08","13","19:00","21.4","","14.3","","64","","22","","15","","","","100.44","","25","","","","NA"
"2017-08-13 20:00","2017","08","13","20:00","20.7","","14.5","","68","","24","","11","","","","100.47","","","","","","NA"
"2017-08-13 21:00","2017","08","13","21:00","20.2","","14.3","","68","","23","","12","","","","100.49","","","","","","NA"
"2017-08-13 22:00","2017","08","13","22:00","19.9","","13.5","","67","","25","","11","","","","100.50","","","","","","NA"
"2017-08-13 23:00","2017","08","13","23:00","18.6","","13.4","","72","","26","","11","","","","100.50","","","","","","NA"
"2017-08-14 00:00","2017","08","14","00:00","17.0","","13.5","","80","","27","","8","","","","100.51","","","","","","NA"
"2017-08-14 01:00","2017","08","14","01:00","17.1","","14.0","","82","","28","","7","","","","100.51","","","","","","NA"
"2017-08-14 02:00","2017","08","14","02:00","15.5","","13.2","","86","","29","","9","","","","100.51","","","","","","NA"
"2017-08-14 03:00","2017","08","14","03:00","16.4","","13.5","","83","","26","","6","","","","100.51","","","","","","NA"
"2017-08-14 04:00","2017","08","14","04:00","16.4","","14.5","","89","","22","","3","","","","100.51","","","","","","NA"
"2017-08-14 05:00","2017","08","14","05:00","15.3","","13.8","","91","","35","","6","","","","100.55","","","","","","NA"
"2017-08-14 06:00","2017","08","14","06:00","15.7","","14.3","","91","","35","","6","","","","100.57","","","","","","NA"
"2017-08-14 07:00","2017","08","14","07:00","19.6","","16.7","","83","","1","","3","","","","100.56","","","","","","NA"
"2017-08-14 08:00","2017","08","14","08:00","21.6","","17.6","","78","","21","","8","","","","100.53","","27","","","","NA"
"2017-08-14 09:00","2017","08","14","09:00","21.8","","18.1","","79","","19","","12","","","","100.54","","28","","","","NA"
"2017-08-14 10:00","2017","08","14","10:00","22.0","","17.7","","77","","18","","19","","","","100.54","","28","","","","NA"
"2017-08-14 11:00","2017","08","14","11:00","22.6","","17.8","","74","","17","","16","","","","100.48","","28","","","","NA"
"2017-08-14 12:00","2017","08","14","12:00","22.3","","17.2","","73","","18","","14","","","","100.46","","28","","","","NA"
"2017-08-14 13:00","2017","08","14","13:00","22.7","","17.2","","71","","18","","15","","","","100.42","","28","","","","NA"
"2017-08-14 14:00","2017","08","14","14:00","23.5","","17.5","","69","","16","","13","","","","100.37","","29","","","","NA"
"2017-08-14 15:00","2017","08","14","15:00","23.6","","16.9","","66","","16","","13","","","","100.30","","29","","","","NA"
"2017-08-14 16:00","2017","08","14","16:00","23.1","","15.1","","61","","18","","8","","","","100.25","","27","","","","NA"
"2017-08-14 17:00","2017","08","14","17:00","24.1","","14.2","","54","","15","","5","","","","100.14","","28","","","","NA"
"2017-08-14 18:00","2017","08","14","18:00","23.9","","13.4","","52","","14","","4","","","","100.08","","27","","","","NA"
"2017-08-14 19:00","2017","08","14","19:00","21.2","","14.6","","66","","9","","4","","","","100.06","","25","","","","NA"
"2017-08-14 20:00","2017","08","14","20:00","21.3","","14.0","","63","","7","","5","","","","100.05","","25","","","","NA"
"2017-08-14 21:00","2017","08","14","21:00","20.9","","14.3","","66","","6","","6","","","","100.02","","","","","","NA"
"2017-08-14 22:00","2017","08","14","22:00","21.4","","16.3","","73","","9","","10","","","","99.98","","26","","","","NA"
"2017-08-14 23:00","2017","08","14","23:00","22.7","","18.0","","75","","18","","17","","","","99.96","","29","","","","NA"
"2017-08-15 00:00","2017","08","15","00:00","22.4","","18.1","","76","","18","","23","","","","99.95","","28","","","","NA"
"2017-08-15 01:00","2017","08","15","01:00","22.0","","17.9","","78","","18","","19","","","","99.92","","28","","","","NA"
"2017-08-15 02:00","2017","08","15","02:00","21.8","","18.2","","80","","18","","20","","","","99.89","","28","","","","NA"
"2017-08-15 03:00","2017","08","15","03:00","21.2","","18.2","","83","","20","","22","","","","99.86","","27","","","","NA"
"2017-08-15 04:00","2017","08","15","04:00","20.6","","18.6","","88","","22","","10","","","","99.87","","27","","","","NA"
"2017-08-15 05:00","2017","08","15","05:00","19.9","","18.4","","91","","24","","8","","","","99.89","","","","","","NA"
"2017-08-15 06:00","2017","08","15","06:00","20.2","","18.6","","91","","26","","8","","","","99.91","","27","","","","NA"
"2017-08-15 07:00","2017","08","15","07:00","21.0","","18.7","","87","","25","","11","","","","99.94","","28","","","","NA"
"2017-08-15 08:00","2017","08","15","08:00","22.4","","18.6","","79","","24","","12","","","","99.97","","29","","","","NA"
"2017-08-15 09:00","2017","08","15","09:00","23.1","","16.8","","68","","22","","11","","","","99.97","","28","","","","NA"
"2017-08-15 10:00","2017","08","15","10:00","24.3","","17.2","","65","","21","","8","","","","99.97","","30","","","","NA"
"2017-08-15 11:00","2017","08","15","11:00","23.2","","19.4","","79","","16","","16","","","","99.96","","30","","","","NA"
"2017-08-15 12:00","2017","08","15","12:00","22.9","","19.6","","82","","19","","20","","","","99.98","","30","","","","NA"
"2017-08-15 13:00","2017","08","15","13:00","22.2","","19.0","","82","","18","","19","","","","99.94","","29","","","","NA"
"2017-08-15 14:00","2017","08","15","14:00","23.3","","19.8","","81","","18","","17","","","","99.93","","31","","","","NA"
"2017-08-15 15:00","2017","08","15","15:00","23.8","","19.8","","78","","19","","23","","","","99.91","","31","","","","NA"
"2017-08-15 16:00","2017","08","15","16:00","24.2","","19.3","","74","","18","","17","","","","99.89","","31","","","","NA"
"2017-08-15 17:00","2017","08","15","17:00","19.3","","17.6","","90","","13","","10","","","","100.00","","","","","","NA"
"2017-08-15 18:00","2017","08","15","18:00","20.2","","18.2","","88","","21","","7","","","","100.00","","26","","","","NA"
"2017-08-15 19:00","2017","08","15","19:00","19.0","","17.0","","88","","30","","10","","","","100.01","","","","","","NA"
"2017-08-15 20:00","2017","08","15","20:00","18.7","","17.3","","91","","24","","9","","","","100.05","","","","","","NA"
"2017-08-15 21:00","2017","08","15","21:00","18.4","","16.1","","86","","26","","9","","","","100.06","","","","","","NA"
"2017-08-15 22:00","2017","08","15","22:00","16.7","","15.6","","94","","32","","9","","","","100.13","","","","","","NA"
"2017-08-15 23:00","2017","08","15","23:00","18.1","","16.7","","92","","31","","4","","","","100.19","","","","","","NA"
"2017-08-16 00:00","2017","08","16","00:00","17.7","","16.2","","91","","34","","13","","","","100.22","","","","","","NA"
"2017-08-16 01:00","2017","08","16","01:00","18.2","","16.4","","89","","36","","12","","","","100.25","","","","","","NA"
"2017-08-16 02:00","2017","08","16","02:00","17.8","","15.5","","86","","36","","15","","","","100.29","","","","","","NA"
"2017-08-16 03:00","2017","08","16","03:00","17.1","","15.1","","88","","36","","17","","","","100.36","","","","","","NA"
"2017-08-16 04:00","2017","08","16","04:00","16.6","","14.4","","87","","36","","16","","","","100.46","","","","","","NA"
"2017-08-16 05:00","2017","08","16","05:00","15.8","","13.4","","86","","2","","9","","","","100.54","","","","","","NA"
"2017-08-16 06:00","2017","08","16","06:00","15.3","","12.4","","83","","2","","12","","","","100.59","","","","","","NA"
"2017-08-16 07:00","2017","08","16","07:00","16.0","","12.5","","80","","2","","12","","","","100.62","","","","","","NA"
"2017-08-16 08:00","2017","08","16","08:00","17.1","","12.8","","76","","2","","12","","","","100.70","","","","","","NA"
"2017-08-16 09:00","2017","08","16","09:00","18.7","","11.2","","62","","4","","12","","","","100.77","","","","","","NA"
"2017-08-16 10:00","2017","08","16","10:00","19.9","","10.1","","53","","2","","14","","","","100.77","","","","","","NA"
"2017-08-16 11:00","2017","08","16","11:00","20.6","","10.4","","52","","36","","14","","","","100.74","","","","","","NA"
"2017-08-16 12:00","2017","08","16","12:00","21.1","","9.4","","47","","36","","9","","","","100.74","","","","","","NA"
"2017-08-16 13:00","2017","08","16","13:00","21.9","","11.0","","50","","31","","14","","","","100.71","","","","","","NA"
"2017-08-16 14:00","2017","08","16","14:00","22.4","","10.4","","47","","29","","12","","","","100.67","","","","","","NA"
"2017-08-16 15:00","2017","08","16","15:00","22.5","","10.7","","47","","34","","11","","","","100.66","","","","","","NA"
"2017-08-16 16:00","2017","08","16","16:00","22.3","","12.9","","55","","20","","16","","","","100.64","","25","","","","NA"
"2017-08-16 17:00","2017","08","16","17:00","21.0","","13.1","","60","","19","","12","","","","100.63","","","","","","NA"
"2017-08-16 18:00","2017","08","16","18:00","20.6","","13.1","","62","","21","","14","","","","100.64","","","","","","NA"
"2017-08-16 19:00","2017","08","16","19:00","19.0","","13.1","","69","","22","","11","","","","100.67","","","","","","NA"
"2017-08-16 20:00","2017","08","16","20:00","18.1","","13.3","","74","","21","","10","","","","100.69","","","","","","NA"
"2017-08-16 21:00","2017","08","16","21:00","17.8","","13.5","","76","","23","","9","","","","100.69","","","","","","NA"
"2017-08-16 22:00","2017","08","16","22:00","15.0","","12.2","","84","","27","","5","","","","100.70","","","","","","NA"
"2017-08-16 23:00","2017","08","16","23:00","14.8","","13.5","","92","","33","","6","","","","100.69","","","","","","NA"
"2017-08-17 00:00","2017","08","17","00:00","13.2","","11.7","","91","","34","","6","","","","100.72","","","","","","NA"
"2017-08-17 01:00","2017","08","17","01:00","13.0","","11.8","","93","","34","","9","","","","100.72","","","","","","NA"
"2017-08-17 02:00","2017","08","17","02:00","13.1","","11.5","","90","","33","","8","","","","100.70","","","","","","NA"
"2017-08-17 03:00","2017","08","17","03:00","11.9","","10.8","","93","","33","","10","","","","100.65","","","","","","NA"
"2017-08-17 04:00","2017","08","17","04:00","11.7","","10.7","","94","","35","","8","","","","100.64","","","","","","NA"
"2017-08-17 05:00","2017","08","17","05:00","11.1","","10.1","","94","","34","","10","","","","100.66","","","","","","NA"
"2017-08-17 06:00","2017","08","17","06:00","12.5","","11.6","","94","","6","","6","","","","100.68","","","","","","NA"
"2017-08-17 07:00","2017","08","17","07:00","17.2","","14.7","","85","","3","","4","","","","100.70","","","","","","NA"
"2017-08-17 08:00","2017","08","17","08:00","20.1","","16.1","","78","","","","0","","","","100.72","","25","","","","NA"
"2017-08-17 09:00","2017","08","17","09:00","20.9","","15.4","","71","","16","","9","","","","100.69","","25","","","","NA"
"2017-08-17 10:00","2017","08","17","10:00","20.3","","14.7","","70","","16","","13","","","","100.65","","","","","","NA"
"2017-08-17 11:00","2017","08","17","11:00","21.4","","12.8","","58","","17","","13","","","","100.61","","","","","","NA"
"2017-08-17 12:00","2017","08","17","12:00","21.6","","11.5","","52","","17","","10","","","","100.58","","","","","","NA"
"2017-08-17 13:00","2017","08","17","13:00","21.9","","11.5","","51","","16","","6","","","","100.47","","","","","","NA"
"2017-08-17 14:00","2017","08","17","14:00","22.2","","12.3","","53","","15","","5","","","","100.40","","25","","","","NA"
"2017-08-17 15:00","2017","08","17","15:00","23.3","","12.6","","51","","12","","3","","","","100.31","","26","","","","NA"
"2017-08-17 16:00","2017","08","17","16:00","22.8","","12.7","","53","","11","","6","","","","100.25","","25","","","","NA"
"2017-08-17 17:00","2017","08","17","17:00","22.2","","13.9","","59","","8","","9","","","","100.17","","26","","","","NA"
"2017-08-17 18:00","2017","08","17","18:00","22.0","","14.0","","60","","7","","12","","","","100.10","","25","","","","NA"
"2017-08-17 19:00","2017","08","17","19:00","21.6","","13.6","","61","","7","","13","","","","100.04","","25","","","","NA"
"2017-08-17 20:00","2017","08","17","20:00","20.9","","14.9","","68","","7","","14","","","","100.00","","25","","","","NA"
"2017-08-17 21:00","2017","08","17","21:00","21.2","","15.2","","69","","7","","16","","","","99.94","","25","","","","NA"
"2017-08-17 22:00","2017","08","17","22:00","21.0","","15.4","","70","","6","","10","","","","99.89","","25","","","","NA"
"2017-08-17 23:00","2017","08","17","23:00","18.9","","16.1","","84","","6","","13","","","","99.78","","","","","","NA"
"2017-08-18 00:00","2017","08","18","00:00","19.0","","16.5","","86","","35","","5","","","","99.70","","","","","","NA"
"2017-08-18 01:00","2017","08","18","01:00","21.7","","20.4","","92","","16","","21","","","","99.59","","30","","","","NA"
"2017-08-18 02:00","2017","08","18","02:00","21.0","","19.9","","93","","16","","26","","","","99.51","","28","","","","NA"
"2017-08-18 03:00","2017","08","18","03:00","21.5","","19.8","","90","","17","","25","","","","99.44","","29","","","","NA"
"2017-08-18 04:00","2017","08","18","04:00","22.1","","20.7","","92","","19","","18","","","","99.43","","30","","","","NA"
"2017-08-18 05:00","2017","08","18","05:00","22.3","","21.0","","93","","19","","14","","","","99.45","","31","","","","NA"
"2017-08-18 06:00","2017","08","18","06:00","22.6","","21.2","","92","","20","","12","","","","99.50","","31","","","","NA"
"2017-08-18 07:00","2017","08","18","07:00","23.1","","21.5","","91","","22","","15","","","","99.54","","32","","","","NA"
"2017-08-18 08:00","2017","08","18","08:00","23.5","","21.5","","89","","24","","14","","","","99.54","","32","","","","NA"
"2017-08-18 09:00","2017","08","18","09:00","24.6","","21.7","","84","","24","","16","","","","99.52","","34","","","","NA"
"2017-08-18 10:00","2017","08","18","10:00","24.4","","22.1","","87","","21","","13","","","","99.53","","34","","","","NA"
"2017-08-18 11:00","2017","08","18","11:00","26.4","","21.6","","75","","21","","22","","","","99.52","","35","","","","NA"
"2017-08-18 12:00","2017","08","18","12:00","25.6","","22.4","","83","","19","","22","","","","99.51","","35","","","","NA"
"2017-08-18 13:00","2017","08","18","13:00","25.8","","21.5","","77","","19","","22","","","","99.48","","35","","","","NA"
"2017-08-18 14:00","2017","08","18","14:00","25.3","","21.0","","77","","19","","20","","","","99.43","","34","","","","NA"
"2017-08-18 15:00","2017","08","18","15:00","25.2","","21.5","","80","","18","","18","","","","99.39","","34","","","","NA"
"2017-08-18 16:00","2017","08","18","16:00","25.1","","20.8","","77","","19","","18","","","","99.36","","33","","","","NA"
"2017-08-18 17:00","2017","08","18","17:00","25.7","","17.8","","61","","24","","26","","","","99.37","","32","","","","NA"
"2017-08-18 18:00","2017","08","18","18:00","25.4","","18.6","","66","","23","","23","","","","99.42","","32","","","","NA"
"2017-08-18 19:00","2017","08","18","19:00","24.3","","18.5","","70","","24","","20","","","","99.44","","31","","","","NA"
"2017-08-18 20:00","2017","08","18","20:00","23.9","","17.9","","69","","25","","17","","","","99.47","","30","","","","NA"
"2017-08-18 21:00","2017","08","18","21:00","23.1","","18.3","","75","","23","","16","","","","99.54","","29","","","","NA"
"2017-08-18 22:00","2017","08","18","22:00","22.6","","18.3","","76","","24","","17","","","","99.58","","29","","","","NA"
"2017-08-18 23:00","2017","08","18","23:00","22.0","","18.3","","80","","25","","17","","","","99.61","","28","","","","NA"
"2017-08-19 00:00","2017","08","19","00:00","21.8","","18.6","","82","","24","","14","","","","99.62","","28","","","","NA"
"2017-08-19 01:00","2017","08","19","01:00","21.7","","18.0","","79","","24","","12","","","","99.61","","28","","","","NA"
"2017-08-19 02:00","2017","08","19","02:00","21.4","","17.5","","78","","25","","14","","","","99.56","","27","","","","NA"
"2017-08-19 03:00","2017","08","19","03:00","21.1","","17.4","","79","","25","","11","","","","99.57","","27","","","","NA"
"2017-08-19 04:00","2017","08","19","04:00","20.9","","16.7","","77","","27","","15","","","","99.57","","26","","","","NA"
"2017-08-19 05:00","2017","08","19","05:00","20.4","","16.5","","78","","25","","11","","","","99.62","","25","","","","NA"
"2017-08-19 06:00","2017","08","19","06:00","20.3","","16.5","","79","","25","","13","","","","99.68","","25","","","","NA"
"2017-08-19 07:00","2017","08","19","07:00","20.5","","16.6","","79","","27","","10","","","","99.72","","26","","","","NA"
"2017-08-19 08:00","2017","08","19","08:00","19.7","","16.3","","81","","27","","13","","","","99.76","","","","","","NA"
"2017-08-19 09:00","2017","08","19","09:00","21.5","","15.6","","69","","26","","15","","","","99.78","","26","","","","NA"
"2017-08-19 10:00","2017","08","19","10:00","22.5","","16.3","","68","","24","","19","","","","99.78","","27","","","","NA"
"2017-08-19 11:00","2017","08","19","11:00","21.6","","15.5","","69","","24","","21","","","","99.81","","26","","","","NA"
"2017-08-19 12:00","2017","08","19","12:00","23.1","","14.9","","60","","23","","24","","","","99.81","","27","","","","NA"
"2017-08-19 13:00","2017","08","19","13:00","23.7","","16.3","","63","","23","","20","","","","99.82","","29","","","","NA"
"2017-08-19 14:00","2017","08","19","14:00","22.8","","16.5","","68","","24","","32","","","","99.82","","28","","","","NA"
"2017-08-19 15:00","2017","08","19","15:00","22.0","","16.4","","71","","22","","20","","","","99.80","","27","","","","NA"
"2017-08-19 16:00","2017","08","19","16:00","23.3","","16.3","","65","","23","","26","","","","99.76","","28","","","","NA"
"2017-08-19 17:00","2017","08","19","17:00","22.9","","15.7","","64","","24","","23","","","","99.72","","27","","","","NA"
"2017-08-19 18:00","2017","08","19","18:00","22.4","","15.8","","66","","23","","22","","","","99.75","","27","","","","NA"
"2017-08-19 19:00","2017","08","19","19:00","19.4","","16.8","","85","","29","","15","","","","99.81","","","","","","NA"
"2017-08-19 20:00","2017","08","19","20:00","19.6","","16.0","","79","","25","","13","","","","99.87","","","","","","NA"
"2017-08-19 21:00","2017","08","19","21:00","18.8","","15.8","","83","","27","","12","","","","99.95","","","","","","NA"
"2017-08-19 22:00","2017","08","19","22:00","18.6","","16.1","","85","","28","","9","","","","100.00","","","","","","NA"
"2017-08-19 23:00","2017","08","19","23:00","18.2","","15.8","","85","","28","","10","","","","100.08","","","","","","NA"
"2017-08-20 00:00","2017","08","20","00:00","18.0","","15.7","","86","","26","","11","","","","100.15","","","","","","NA"
"2017-08-20 01:00","2017","08","20","01:00","17.5","","15.2","","86","","28","","14","","","","100.20","","","","","","NA"
"2017-08-20 02:00","2017","08","20","02:00","16.8","","14.9","","89","","28","","14","","","","100.24","","","","","","NA"
"2017-08-20 03:00","2017","08","20","03:00","16.0","","14.5","","91","","29","","12","","","","100.28","","","","","","NA"
"2017-08-20 04:00","2017","08","20","04:00","15.8","","14.3","","91","","29","","13","","","","100.35","","","","","","NA"
"2017-08-20 05:00","2017","08","20","05:00","15.3","","13.9","","91","","23","","7","","","","100.43","","","","","","NA"
"2017-08-20 06:00","2017","08","20","06:00","15.6","","14.3","","92","","27","","11","","","","100.49","","","","","","NA"
"2017-08-20 07:00","2017","08","20","07:00","15.3","","14.2","","93","","29","","17","","","","100.58","","","","","","NA"
"2017-08-20 08:00","2017","08","20","08:00","17.1","","15.6","","91","","30","","7","","","","100.60","","","","","","NA"
"2017-08-20 09:00","2017","08","20","09:00","19.2","","16.1","","82","","22","","5","","","","100.61","","","","","","NA"
"2017-08-20 10:00","2017","08","20","10:00","20.8","","16.4","","76","","20","","8","","","","100.64","","26","","","","NA"
"2017-08-20 11:00","2017","08","20","11:00","22.7","","16.9","","69","","24","","16","","","","100.68","","28","","","","NA"
"2017-08-20 12:00","2017","08","20","12:00","23.0","","17.9","","73","","20","","14","","","","100.66","","29","","","","NA"
"2017-08-20 13:00","2017","08","20","13:00","23.2","","19.0","","77","","19","","26","","","","100.65","","30","","","","NA"
"2017-08-20 14:00","2017","08","20","14:00","23.7","","17.9","","70","","20","","22","","","","100.63","","30","","","","NA"
"2017-08-20 15:00","2017","08","20","15:00","24.5","","17.6","","66","","20","","19","","","","100.61","","30","","","","NA"
"2017-08-20 16:00","2017","08","20","16:00","23.6","","19.3","","77","","19","","19","","","","100.60","","31","","","","NA"
"2017-08-20 17:00","2017","08","20","17:00","22.6","","19.1","","81","","19","","20","","","","100.57","","29","","","","NA"
"2017-08-20 18:00","2017","08","20","18:00","23.2","","18.8","","76","","20","","13","","","","100.59","","30","","","","NA"
"2017-08-20 19:00","2017","08","20","19:00","22.4","","17.7","","75","","22","","11","","","","100.62","","28","","","","NA"
"2017-08-20 20:00","2017","08","20","20:00","22.0","","17.4","","75","","23","","12","","","","100.68","","28","","","","NA"
"2017-08-20 21:00","2017","08","20","21:00","20.7","","17.2","","81","","21","","9","","","","100.73","","26","","","","NA"
"2017-08-20 22:00","2017","08","20","22:00","21.3","","18.6","","84","","22","","8","","","","100.74","","28","","","","NA"
"2017-08-20 23:00","2017","08","20","23:00","21.2","","19.0","","87","","23","","7","","","","100.75","","28","","","","NA"
"2017-08-21 00:00","2017","08","21","00:00","21.4","","18.7","","85","","22","","12","","","","100.77","","28","","","","NA"
"2017-08-21 01:00","2017","08","21","01:00","21.0","","18.5","","86","","24","","9","","","","100.79","","27","","","","NA"
"2017-08-21 02:00","2017","08","21","02:00","20.0","","17.4","","85","","27","","9","","","","100.80","","26","","","","NA"
"2017-08-21 03:00","2017","08","21","03:00","19.1","","17.2","","88","","28","","6","","","","100.81","","","","","","NA"
"2017-08-21 04:00","2017","08","21","04:00","19.1","","17.9","","93","","19","","8","","","","100.81","","","","","","NA"
"2017-08-21 05:00","2017","08","21","05:00","18.7","","17.3","","91","","20","","5","","","","100.82","","","","","","NA"
"2017-08-21 06:00","2017","08","21","06:00","20.3","","18.8","","91","","19","","12","","","","100.83","","27","","","","NA"
"2017-08-21 07:00","2017","08","21","07:00","21.7","","19.5","","87","","18","","15","","","","100.82","","29","","","","NA"
"2017-08-21 08:00","2017","08","21","08:00","22.5","","19.5","","83","","19","","18","","","","100.83","","30","","","","NA"
"2017-08-21 09:00","2017","08","21","09:00","22.7","","18.8","","79","","19","","21","","","","100.81","","29","","","","NA"
"2017-08-21 10:00","2017","08","21","10:00","23.0","","18.9","","78","","19","","21","","","","100.79","","30","","","","NA"
"2017-08-21 11:00","2017","08","21","11:00","23.5","","19.6","","79","","19","","22","","","","100.77","","31","","","","NA"
"2017-08-21 12:00","2017","08","21","12:00","24.0","","19.7","","77","","19","","21","","","","100.72","","31","","","","NA"
"2017-08-21 13:00","2017","08","21","13:00","23.8","","19.6","","77","","18","","18","","","","100.68","","31","","","","NA"
"2017-08-21 14:00","2017","08","21","14:00","24.1","","19.7","","76","","20","","15","","","","100.63","","31","","","","NA"
"2017-08-21 15:00","2017","08","21","15:00","23.8","","20.0","","79","","19","","22","","","","100.59","","31","","","","NA"
"2017-08-21 16:00","2017","08","21","16:00","23.8","","19.8","","79","","19","","19","","","","100.56","","31","","","","NA"
"2017-08-21 17:00","2017","08","21","17:00","23.8","","20.0","","79","","19","","16","","","","100.55","","31","","","","NA"
"2017-08-21 18:00","2017","08","21","18:00","23.0","","20.1","","84","","18","","14","","","","100.51","","31","","","","NA"
"2017-08-21 19:00","2017","08","21","19:00","22.3","","19.9","","86","","20","","13","","","","100.51","","30","","","","NA"
"2017-08-21 20:00","2017","08","21","20:00","21.9","","19.1","","85","","21","","8","","","","100.50","","29","","","","NA"
"2017-08-21 21:00","2017","08","21","21:00","21.4","","19.2","","87","","20","","7","","","","100.55","","28","","","","NA"
"2017-08-21 22:00","2017","08","21","22:00","21.6","","19.8","","90","","23","","8","","","","100.49","","29","","","","NA"
"2017-08-21 23:00","2017","08","21","23:00","21.1","","19.4","","90","","21","","7","","","","100.46","","28","","","","NA"
"2017-08-22 00:00","2017","08","22","00:00","20.9","","19.7","","93","","15","","6","","","","100.43","","28","","","","NA"
"2017-08-22 01:00","2017","08","22","01:00","20.3","","19.4","","94","","15","","7","","","","100.35","","27","","","","NA"
"2017-08-22 02:00","2017","08","22","02:00","21.5","","20.1","","92","","15","","8","","","","100.27","","29","","","","NA"
"2017-08-22 03:00","2017","08","22","03:00","22.2","","20.7","","92","","18","","17","","","","100.15","","30","","","","NA"
"2017-08-22 04:00","2017","08","22","04:00","22.1","","20.7","","92","","17","","13","","","","100.09","","30","","","","NA"
"2017-08-22 05:00","2017","08","22","05:00","22.0","","20.4","","91","","16","","14","","","","100.04","","30","","","","NA"
"2017-08-22 06:00","2017","08","22","06:00","22.2","","20.1","","88","","17","","22","","","","99.94","","30","","","","NA"
"2017-08-22 07:00","2017","08","22","07:00","22.4","","20.3","","88","","17","","28","","","","99.88","","30","","","","NA"
"2017-08-22 08:00","2017","08","22","08:00","22.9","","20.6","","87","","17","","23","","","","99.79","","31","","","","NA"
"2017-08-22 09:00","2017","08","22","09:00","23.7","","21.1","","85","","20","","22","","","","99.74","","32","","","","NA"
"2017-08-22 10:00","2017","08","22","10:00","24.9","","21.3","","81","","19","","26","","","","99.64","","34","","","","NA"
"2017-08-22 11:00","2017","08","22","11:00","25.1","","21.3","","80","","21","","22","","","","99.53","","34","","","","NA"
"2017-08-22 12:00","2017","08","22","12:00","22.6","","20.9","","90","","25","","20","","","","99.50","","31","","","","NA"
"2017-08-22 13:00","2017","08","22","13:00","25.0","","21.5","","81","","24","","17","","","","99.36","","34","","","","NA"
"2017-08-22 14:00","2017","08","22","14:00","25.9","","20.3","","71","","21","","34","","","","99.15","","34","","","","NA"
"2017-08-22 15:00","2017","08","22","15:00","25.6","","20.6","","74","","22","","38","","","","99.11","","34","","","","NA"
"2017-08-22 16:00","2017","08","22","16:00","20.6","","18.9","","90","","23","","26","","","","99.24","","27","","","","NA"
"2017-08-22 17:00","2017","08","22","17:00","20.9","","18.0","","84","","22","","16","","","","99.20","","27","","","","NA"
"2017-08-22 18:00","2017","08","22","18:00","21.1","","18.8","","87","","22","","16","","","","99.20","","28","","","","NA"
"2017-08-22 19:00","2017","08","22","19:00","21.6","","19.3","","87","","22","","14","","","","99.17","","29","","","","NA"
"2017-08-22 20:00","2017","08","22","20:00","22.6","","19.6","","83","","22","","20","","","","99.20","","30","","","","NA"
"2017-08-22 21:00","2017","08","22","21:00","22.0","","19.0","","83","","25","","24","","","","99.21","","29","","","","NA"
"2017-08-22 22:00","2017","08","22","22:00","19.5","","15.9","","80","","27","","21","","","","99.29","","","","","","NA"
"2017-08-22 23:00","2017","08","22","23:00","17.7","","13.8","","78","","27","","15","","","","99.34","","","","","","NA"
"2017-08-23 00:00","2017","08","23","00:00","17.1","","13.3","","79","","26","","22","","","","99.40","","","","","","NA"
"2017-08-23 01:00","2017","08","23","01:00","16.7","","12.4","","76","","26","","21","","","","99.47","","","","","","NA"
"2017-08-23 02:00","2017","08","23","02:00","16.6","","12.0","","74","","26","","19","","","","99.55","","","","","","NA"
"2017-08-23 03:00","2017","08","23","03:00","16.5","","12.1","","75","","25","","18","","","","99.60","","","","","","NA"
"2017-08-23 04:00","2017","08","23","04:00","16.5","","12.3","","76","","25","","19","","","","99.62","","","","","","NA"
"2017-08-23 05:00","2017","08","23","05:00","16.0","","12.3","","79","","26","","17","","","","99.67","","","","","","NA"
"2017-08-23 06:00","2017","08","23","06:00","16.8","","12.8","","77","","25","","22","","","","99.72","","","","","","NA"
"2017-08-23 07:00","2017","08","23","07:00","17.3","","13.1","","76","","25","","18","","","","99.77","","","","","","NA"
"2017-08-23 08:00","2017","08","23","08:00","18.0","","12.9","","72","","25","","20","","","","99.78","","","","","","NA"
"2017-08-23 09:00","2017","08","23","09:00","19.1","","13.7","","71","","26","","18","","","","99.81","","","","","","NA"
"2017-08-23 10:00","2017","08","23","10:00","20.3","","12.9","","63","","26","","23","","","","99.82","","","","","","NA"
"2017-08-23 11:00","2017","08","23","11:00","20.6","","13.1","","62","","24","","18","","","","99.81","","","","","","NA"
"2017-08-23 12:00","2017","08","23","12:00","21.8","","13.6","","60","","23","","23","","","","99.78","","25","","","","NA"
"2017-08-23 13:00","2017","08","23","13:00","20.0","","13.2","","65","","24","","27","","","","99.79","","","","","","NA"
"2017-08-23 14:00","2017","08","23","14:00","17.3","","13.9","","80","","27","","15","","","","99.87","","","","","","NA"
"2017-08-23 15:00","2017","08","23","15:00","19.3","","14.7","","75","","24","","22","","","","99.86","","","","","","NA"
"2017-08-23 16:00","2017","08","23","16:00","20.8","","14.2","","66","","24","","21","","","","99.82","","","","","","NA"
"2017-08-23 17:00","2017","08","23","17:00","20.4","","13.9","","66","","25","","26","","","","99.83","","","","","","NA"
"2017-08-23 18:00","2017","08","23","18:00","19.6","","13.6","","68","","25","","19","","","","99.84","","","","","","NA"
"2017-08-23 19:00","2017","08","23","19:00","18.7","","12.9","","69","","26","","13","","","","99.89","","","","","","NA"
"2017-08-23 20:00","2017","08","23","20:00","17.6","","12.0","","70","","26","","11","","","","99.96","","","","","","NA"
"2017-08-23 21:00","2017","08","23","21:00","16.5","","10.4","","67","","27","","15","","","","100.00","","","","","","NA"
"2017-08-23 22:00","2017","08","23","22:00","15.5","","10.1","","70","","27","","14","","","","100.02","","","","","","NA"
"2017-08-23 23:00","2017","08","23","23:00","14.6","","10.0","","74","","27","","15","","","","100.05","","","","","","NA"
"2017-08-24 00:00","2017","08","24","00:00","14.1","","10.0","","76","","28","","10","","","","100.07","","","","","","NA"
"2017-08-24 01:00","2017","08","24","01:00","13.5","","10.2","","80","","28","","13","","","","100.09","","","","","","NA"
"2017-08-24 02:00","2017","08","24","02:00","12.9","","10.2","","84","","28","","13","","","","100.11","","","","","","NA"
"2017-08-24 03:00","2017","08","24","03:00","12.8","","10.5","","86","","30","","14","","","","100.15","","","","","","NA"
"2017-08-24 04:00","2017","08","24","04:00","12.0","","10.3","","90","","31","","13","","","","100.17","","","","","","NA"
"2017-08-24 05:00","2017","08","24","05:00","11.9","","10.4","","90","","31","","11","","","","100.24","","","","","","NA"
"2017-08-24 06:00","2017","08","24","06:00","11.9","","10.5","","92","","31","","9","","","","100.28","","","","","","NA"
"2017-08-24 07:00","2017","08","24","07:00","14.0","","11.9","","87","","34","","10","","","","100.32","","","","","","NA"
"2017-08-24 08:00","2017","08","24","08:00","15.7","","12.3","","81","","34","","10","","","","100.37","","","","","","NA"
"2017-08-24 09:00","2017","08","24","09:00","16.6","","11.8","","74","","35","","14","","","","100.41","","","","","","NA"
"2017-08-24 10:00","2017","08","24","10:00","17.4","","12.1","","71","","32","","8","","","","100.44","","","","","","NA"
"2017-08-24 11:00","2017","08","24","11:00","18.3","","12.4","","68","","31","","6","","","","100.43","","","","","","NA"
"2017-08-24 12:00","2017","08","24","12:00","19.2","","12.1","","63","","31","","10","","","","100.42","","","","","","NA"
"2017-08-24 13:00","2017","08","24","13:00","19.6","","11.8","","61","","29","","10","","","","100.43","","","","","","NA"
"2017-08-24 14:00","2017","08","24","14:00","19.1","","12.1","","64","","31","","12","","","","100.44","","","","","","NA"
"2017-08-24 15:00","2017","08","24","15:00","19.2","","10.3","","56","","28","","5","","","","100.46","","","","","","NA"
"2017-08-24 16:00","2017","08","24","16:00","19.2","","11.0","","59","","27","","11","","","","100.46","","","","","","NA"
"2017-08-24 17:00","2017","08","24","17:00","18.9","","11.9","","64","","29","","8","","","","100.48","","","","","","NA"
"2017-08-24 18:00","2017","08","24","18:00","18.0","","11.6","","66","","30","","9","","","","100.49","","","","","","NA"
"2017-08-24 19:00","2017","08","24","19:00","17.3","","11.4","","68","","30","","9","","","","100.51","","","","","","NA"
"2017-08-24 20:00","2017","08","24","20:00","16.0","","11.3","","73","","32","","7","","","","100.54","","","","","","NA"
"2017-08-24 21:00","2017","08","24","21:00","15.2","","11.2","","77","","32","","11","","","","100.57","","","","","","NA"
"2017-08-24 22:00","2017","08","24","22:00","13.7","","10.4","","81","","35","","9","","","","100.61","","","","","","NA"
"2017-08-24 23:00","2017","08","24","23:00","13.1","","9.4","","78","","1","","7","","","","100.63","","","","","","NA"
"2017-08-25 00:00","2017","08","25","00:00","11.1","","9.2","","88","","34","","8","","","","100.68","","","","","","NA"
"2017-08-25 01:00","2017","08","25","01:00","10.7","","8.7","","87","","34","","10","","","","100.69","","","","","","NA"
"2017-08-25 02:00","2017","08","25","02:00","11.7","","9.1","","84","","36","","6","","","","100.75","","","","","","NA"
"2017-08-25 03:00","2017","08","25","03:00","10.7","","9.1","","90","","34","","8","","","","100.80","","","","","","NA"
"2017-08-25 04:00","2017","08","25","04:00","9.1","","7.8","","92","","34","","11","","","","100.84","","","","","","NA"
"2017-08-25 05:00","2017","08","25","05:00","8.8","","7.7","","93","","34","","13","","","","100.90","","","","","","NA"
"2017-08-25 06:00","2017","08","25","06:00","9.4","","8.3","","93","","34","","13","","","","100.96","","","","","","NA"
"2017-08-25 07:00","2017","08","25","07:00","11.6","","9.6","","87","","34","","14","","","","101.01","","","","","","NA"
"2017-08-25 08:00","2017","08","25","08:00","14.0","","10.2","","78","","35","","14","","","","101.05","","","","","","NA"
"2017-08-25 09:00","2017","08","25","09:00","16.4","","10.1","","66","","35","","11","","","","101.07","","","","","","NA"
"2017-08-25 10:00","2017","08","25","10:00","18.3","","9.5","","56","","35","","10","","","","101.09","","","","","","NA"
"2017-08-25 11:00","2017","08","25","11:00","18.9","","7.9","","49","","34","","15","","","","101.09","","","","","","NA"
"2017-08-25 12:00","2017","08","25","12:00","18.7","","8.9","","53","","35","","12","","","","101.07","","","","","","NA"
"2017-08-25 13:00","2017","08","25","13:00","19.9","","8.9","","49","","30","","9","","","","101.06","","","","","","NA"
"2017-08-25 14:00","2017","08","25","14:00","20.4","","8.3","","46","","0","","1","","","","101.04","","","","","","NA"
"2017-08-25 15:00","2017","08","25","15:00","21.1","","8.5","","45","","27","","11","","","","101.02","","","","","","NA"
"2017-08-25 16:00","2017","08","25","16:00","20.3","","8.1","","45","","29","","8","","","","101.05","","","","","","NA"
"2017-08-25 17:00","2017","08","25","17:00","20.5","","8.0","","45","","28","","6","","","","101.07","","","","","","NA"
"2017-08-25 18:00","2017","08","25","18:00","19.4","","8.9","","51","","1","","2","","","","101.09","","","","","","NA"
"2017-08-25 19:00","2017","08","25","19:00","16.3","","8.9","","62","","31","","3","","","","101.12","","","","","","NA"
"2017-08-25 20:00","2017","08","25","20:00","15.3","","10.2","","71","","28","","11","","","","101.19","","","","","","NA"
"2017-08-25 21:00","2017","08","25","21:00","14.0","","9.5","","75","","31","","9","","","","101.22","","","","","","NA"
"2017-08-25 22:00","2017","08","25","22:00","12.6","","9.3","","80","","33","","5","","","","101.28","","","","","","NA"
"2017-08-25 23:00","2017","08","25","23:00","11.2","","9.6","","90","","34","","7","","","","101.29","","","","","","NA"
"2017-08-26 00:00","2017","08","26","00:00","9.5","","8.4","","93","","34","","9","","","","101.31","","","","","","NA"
"2017-08-26 01:00","2017","08","26","01:00","8.9","","8.0","","94","","34","","11","","","","101.30","","","","","","NA"
"2017-08-26 02:00","2017","08","26","02:00","8.6","","7.6","","94","","34","","10","","","","101.29","","","","","","NA"
"2017-08-26 03:00","2017","08","26","03:00","8.8","","7.3","","91","","33","","12","","","","101.31","","","","","","NA"
"2017-08-26 04:00","2017","08","26","04:00","8.6","","7.0","","90","","33","","13","","","","101.33","","","","","","NA"
"2017-08-26 05:00","2017","08","26","05:00","8.5","","7.0","","90","","34","","14","","","","101.38","","","","","","NA"
"2017-08-26 06:00","2017","08","26","06:00","8.6","","7.3","","92","","34","","13","","","","101.42","","","","","","NA"
"2017-08-26 07:00","2017","08","26","07:00","11.2","","9.0","","86","","34","","11","","","","101.45","","","","","","NA"
"2017-08-26 08:00","2017","08","26","08:00","14.1","","10.6","","79","","33","","6","","","","101.49","","","","","","NA"
"2017-08-26 09:00","2017","08","26","09:00","17.1","","9.3","","60","","4","","4","","","","101.52","","","","","","NA"
"2017-08-26 10:00","2017","08","26","10:00","18.7","","11.0","","61","","14","","2","","","","101.54","","","","","","NA"
"2017-08-26 11:00","2017","08","26","11:00","19.0","","10.2","","57","","15","","11","","","","101.50","","","","","","NA"
"2017-08-26 12:00","2017","08","26","12:00","19.6","","10.5","","55","","16","","12","","","","101.47","","","","","","NA"
"2017-08-26 13:00","2017","08","26","13:00","19.9","","9.4","","51","","16","","12","","","","101.45","","","","","","NA"
"2017-08-26 14:00","2017","08","26","14:00","20.0","","8.8","","49","","17","","12","","","","101.43","","","","","","NA"
"2017-08-26 15:00","2017","08","26","15:00","20.1","","8.9","","49","","17","","11","","","","101.38","","","","","","NA"
"2017-08-26 16:00","2017","08","26","16:00","20.0","","9.7","","51","","17","","12","","","","101.37","","","","","","NA"
"2017-08-26 17:00","2017","08","26","17:00","19.7","","9.7","","52","","19","","12","","","","101.38","","","","","","NA"
"2017-08-26 18:00","2017","08","26","18:00","18.6","","10.3","","58","","21","","11","","","","101.39","","","","","","NA"
"2017-08-26 19:00","2017","08","26","19:00","16.8","","9.8","","63","","22","","9","","","","101.41","","","","","","NA"
"2017-08-26 20:00","2017","08","26","20:00","16.9","","9.9","","63","","24","","8","","","","101.45","","","","","","NA"
"2017-08-26 21:00","2017","08","26","21:00","16.7","","10.6","","67","","24","","9","","","","101.48","","","","","","NA"
"2017-08-26 22:00","2017","08","26","22:00","12.5","","10.3","","87","","31","","5","","","","101.50","","","","","","NA"
"2017-08-26 23:00","2017","08","26","23:00","12.2","","9.3","","83","","33","","6","","","","101.48","","","","","","NA"
"2017-08-27 00:00","2017","08","27","00:00","11.7","","9.8","","88","","33","","7","","","","101.49","","","","","","NA"
"2017-08-27 01:00","2017","08","27","01:00","10.0","","8.6","","91","","34","","10","","","","101.46","","","","","","NA"
"2017-08-27 02:00","2017","08","27","02:00","10.8","","9.5","","92","","3","","7","","","","101.48","","","","","","NA"
"2017-08-27 03:00","2017","08","27","03:00","10.4","","9.3","","93","","4","","4","","","","101.48","","","","","","NA"
"2017-08-27 04:00","2017","08","27","04:00","9.2","","8.3","","94","","36","","4","","","","101.47","","","","","","NA"
"2017-08-27 05:00","2017","08","27","05:00","9.0","","8.2","","94","","1","","5","","","","101.49","","","","","","NA"
"2017-08-27 06:00","2017","08","27","06:00","9.1","","8.1","","94","","2","","5","","","","101.53","","","","","","NA"
"2017-08-27 07:00","2017","08","27","07:00","14.0","","12.5","","91","","2","","3","","","","101.54","","","","","","NA"
"2017-08-27 08:00","2017","08","27","08:00","18.0","","14.0","","77","","8","","8","","","","101.53","","","","","","NA"
"2017-08-27 09:00","2017","08","27","09:00","19.4","","12.3","","64","","11","","10","","","","101.55","","","","","","NA"
"2017-08-27 10:00","2017","08","27","10:00","19.6","","12.0","","61","","16","","8","","","","101.55","","","","","","NA"
"2017-08-27 11:00","2017","08","27","11:00","19.8","","11.3","","58","","18","","10","","","","101.53","","","","","","NA"
"2017-08-27 12:00","2017","08","27","12:00","20.0","","11.3","","57","","19","","11","","","","101.49","","","","","","NA"
"2017-08-27 13:00","2017","08","27","13:00","20.6","","12.0","","58","","17","","12","","","","101.46","","","","","","NA"
"2017-08-27 14:00","2017","08","27","14:00","21.2","","10.3","","50","","17","","11","","","","101.40","","","","","","NA"
"2017-08-27 15:00","2017","08","27","15:00","21.3","","9.9","","48","","17","","11","","","","101.36","","","","","","NA"
"2017-08-27 16:00","2017","08","27","16:00","21.6","","10.0","","48","","17","","9","","","","101.32","","","","","","NA"
"2017-08-27 17:00","2017","08","27","17:00","21.4","","7.8","","42","","4","","10","","","","101.31","","","","","","NA"
"2017-08-27 18:00","2017","08","27","18:00","20.0","","8.2","","47","","6","","11","","","","101.28","","","","","","NA"
"2017-08-27 19:00","2017","08","27","19:00","18.9","","8.3","","50","","4","","6","","","","101.29","","","","","","NA"
"2017-08-27 20:00","2017","08","27","20:00","16.8","","9.0","","60","","5","","9","","","","101.31","","","","","","NA"
"2017-08-27 21:00","2017","08","27","21:00","16.0","","9.2","","64","","5","","8","","","","101.35","","","","","","NA"
"2017-08-27 22:00","2017","08","27","22:00","14.8","","9.7","","71","","5","","9","","","","101.35","","","","","","NA"
"2017-08-27 23:00","2017","08","27","23:00","14.3","","10.1","","76","","5","","11","","","","101.32","","","","","","NA"
"2017-08-28 00:00","2017","08","28","00:00","13.9","","10.0","","77","","5","","11","","","","101.30","","","","","","NA"
"2017-08-28 01:00","2017","08","28","01:00","13.1","","9.9","","81","","4","","8","","","","101.31","","","","","","NA"
"2017-08-28 02:00","2017","08","28","02:00","12.4","","9.9","","85","","4","","4","","","","101.30","","","","","","NA"
"2017-08-28 03:00","2017","08","28","03:00","11.3","","9.2","","87","","5","","8","","","","101.29","","","","","","NA"
"2017-08-28 04:00","2017","08","28","04:00","11.9","","9.6","","86","","5","","9","","","","101.29","","","","","","NA"
"2017-08-28 05:00","2017","08","28","05:00","12.2","","9.4","","83","","4","","8","","","","101.33","","","","","","NA"
"2017-08-28 06:00","2017","08","28","06:00","12.3","","10.1","","86","","3","","6","","","","101.38","","","","","","NA"
"2017-08-28 07:00","2017","08","28","07:00","14.6","","11.8","","83","","6","","10","","","","101.43","","","","","","NA"
"2017-08-28 08:00","2017","08","28","08:00","17.9","","13.6","","76","","9","","9","","","","101.47","","","","","","NA"
"2017-08-28 09:00","2017","08","28","09:00","19.6","","14.0","","70","","17","","15","","","","101.47","","","","","","NA"
"2017-08-28 10:00","2017","08","28","10:00","20.5","","13.6","","65","","17","","15","","","","101.47","","","","","","NA"
"2017-08-28 11:00","2017","08","28","11:00","20.9","","13.6","","63","","17","","15","","","","101.46","","","","","","NA"
"2017-08-28 12:00","2017","08","28","12:00","21.1","","13.5","","62","","16","","12","","","","101.42","","","","","","NA"
"2017-08-28 13:00","2017","08","28","13:00","21.2","","14.5","","66","","18","","11","","","","101.41","","25","","","","NA"
"2017-08-28 14:00","2017","08","28","14:00","21.2","","14.0","","64","","18","","9","","","","101.36","","25","","","","NA"
"2017-08-28 15:00","2017","08","28","15:00","21.0","","14.3","","65","","16","","7","","","","101.32","","25","","","","NA"
"2017-08-28 16:00","2017","08","28","16:00","21.3","","13.1","","60","","14","","3","","","","101.29","","","","","","NA"
"2017-08-28 17:00","2017","08","28","17:00","21.0","","11.2","","53","","19","","4","","","","101.29","","","","","","NA"
"2017-08-28 18:00","2017","08","28","18:00","19.7","","13.7","","68","","12","","2","","","","101.29","","","","","","NA"
"2017-08-28 19:00","2017","08","28","19:00","18.3","","11.8","","66","","7","","8","","","","101.26","","","","","","NA"
"2017-08-28 20:00","2017","08","28","20:00","17.6","","12.0","","70","","7","","7","","","","101.28","","","","","","NA"
"2017-08-28 21:00","2017","08","28","21:00","17.5","","12.3","","72","","8","","7","","","","101.27","","","","","","NA"
"2017-08-28 22:00","2017","08","28","22:00","16.4","","12.6","","78","","8","","8","","","","101.24","","","","","","NA"
"2017-08-28 23:00","2017","08","28","23:00","15.9","","12.3","","79","","8","","8","","","","101.23","","","","","","NA"
"2017-08-29 00:00","2017","08","29","00:00","18.6","","14.1","","75","","12","","11","","","","101.24","","","","","","NA"
"2017-08-29 01:00","2017","08","29","01:00","19.6","","14.1","","71","","17","","25","","","","101.22","","","","","","NA"
"2017-08-29 02:00","2017","08","29","02:00","19.4","","13.8","","70","","17","","22","","","","101.19","","","","","","NA"
"2017-08-29 03:00","2017","08","29","03:00","19.2","","13.4","","69","","18","","22","","","","101.21","","","","","","NA"
"2017-08-29 04:00","2017","08","29","04:00","18.9","","12.8","","68","","17","","22","","","","101.22","","","","","","NA"
"2017-08-29 05:00","2017","08","29","05:00","18.8","","12.2","","66","","17","","17","","","","101.23","","","","","","NA"
"2017-08-29 06:00","2017","08","29","06:00","18.6","","12.0","","66","","16","","16","","","","101.25","","","","","","NA"
"2017-08-29 07:00","2017","08","29","07:00","18.6","","13.1","","70","","16","","19","","","","101.27","","","","","","NA"
"2017-08-29 08:00","2017","08","29","08:00","18.8","","13.2","","70","","14","","19","","","","101.27","","","","","","NA"
"2017-08-29 09:00","2017","08","29","09:00","19.5","","13.3","","68","","15","","16","","","","101.26","","","","","","NA"
"2017-08-29 10:00","2017","08","29","10:00","20.4","","13.7","","65","","16","","14","","","","101.22","","","","","","NA"
"2017-08-29 11:00","2017","08","29","11:00","20.7","","14.6","","68","","16","","13","","","","101.18","","","","","","NA"
"2017-08-29 12:00","2017","08","29","12:00","20.9","","12.2","","58","","16","","13","","","","101.11","","","","","","NA"
"2017-08-29 13:00","2017","08","29","13:00","20.9","","11.8","","56","","18","","12","","","","101.07","","","","","","NA"
"2017-08-29 14:00","2017","08","29","14:00","20.7","","11.4","","55","","19","","8","","","","101.01","","","","","","NA"
"2017-08-29 15:00","2017","08","29","15:00","21.2","","12.4","","57","","19","","7","","","","100.97","","","","","","NA"
"2017-08-29 16:00","2017","08","29","16:00","20.9","","12.6","","59","","20","","12","","","","100.93","","","","","","NA"
"2017-08-29 17:00","2017","08","29","17:00","20.5","","11.4","","56","","18","","12","","","","100.89","","","","","","NA"
"2017-08-29 18:00","2017","08","29","18:00","19.5","","10.7","","57","","18","","15","","","","100.84","","","","","","NA"
"2017-08-29 19:00","2017","08","29","19:00","19.3","","8.5","","50","","18","","16","","","","100.80","","","","","","NA"
"2017-08-29 20:00","2017","08","29","20:00","19.1","","8.7","","51","","16","","17","","","","100.78","","","","","","NA"
"2017-08-29 21:00","2017","08","29","21:00","18.9","","9.9","","56","","15","","16","","","","100.75","","","","","","NA"
"2017-08-29 22:00","2017","08","29","22:00","17.9","","10.1","","60","","14","","14","","","","100.71","","","","","","NA"
"2017-08-29 23:00","2017","08","29","23:00","17.6","","11.4","","67","","15","","14","","","","100.67","","","","","","NA"
"2017-08-30 00:00","2017","08","30","00:00","17.6","","12.2","","71","","16","","18","","","","100.66","","","","","","NA"
"2017-08-30 01:00","2017","08","30","01:00","17.2","","12.1","","72","","17","","16","","","","100.63","","","","","","NA"
"2017-08-30 02:00","2017","08","30","02:00","16.8","","11.9","","73","","17","","16","","","","100.58","","","","","","NA"
"2017-08-30 03:00","2017","08","30","03:00","16.7","","12.1","","74","","18","","13","","","","100.56","","","","","","NA"
"2017-08-30 04:00","2017","08","30","04:00","10.2","","8.8","","91","","34","","10","","","","100.53","","","","","","NA"
"2017-08-30 05:00","2017","08","30","05:00","9.7","","8.6","","93","","35","","8","","","","100.51","","","","","","NA"
"2017-08-30 06:00","2017","08","30","06:00","10.2","","9.2","","94","","36","","7","","","","100.55","","","","","","NA"
"2017-08-30 07:00","2017","08","30","07:00","14.7","","12.2","","85","","5","","6","","","","100.55","","","","","","NA"
"2017-08-30 08:00","2017","08","30","08:00","17.3","","13.2","","77","","8","","4","","","","100.55","","","","","","NA"
"2017-08-30 09:00","2017","08","30","09:00","18.2","","13.2","","73","","16","","6","","","","100.51","","","","","","NA"
"2017-08-30 10:00","2017","08","30","10:00","18.9","","13.9","","73","","16","","10","","","","100.50","","","","","","NA"
"2017-08-30 11:00","2017","08","30","11:00","19.6","","14.3","","71","","18","","10","","","","100.51","","","","","","NA"
"2017-08-30 12:00","2017","08","30","12:00","20.2","","15.7","","76","","18","","14","","","","100.46","","25","","","","NA"
"2017-08-30 13:00","2017","08","30","13:00","19.8","","14.7","","73","","19","","17","","","","100.40","","","","","","NA"
"2017-08-30 14:00","2017","08","30","14:00","20.3","","14.4","","69","","19","","16","","","","100.36","","","","","","NA"
"2017-08-30 15:00","2017","08","30","15:00","20.3","","14.0","","67","","19","","17","","","","100.30","","","","","","NA"
"2017-08-30 16:00","2017","08","30","16:00","20.6","","12.9","","61","","19","","16","","","","100.28","","","","","","NA"
"2017-08-30 17:00","2017","08","30","17:00","20.3","","13.2","","64","","20","","12","","","","100.24","","","","","","NA"
"2017-08-30 18:00","2017","08","30","18:00","19.6","","12.3","","63","","21","","12","","","","100.20","","","","","","NA"
"2017-08-30 19:00","2017","08","30","19:00","18.8","","15.3","","81","","21","","12","","","","100.18","","","","","","NA"
"2017-08-30 20:00","2017","08","30","20:00","18.5","","13.8","","74","","23","","13","","","","100.19","","","","","","NA"
"2017-08-30 21:00","2017","08","30","21:00","18.8","","14.7","","77","","23","","14","","","","100.15","","","","","","NA"
"2017-08-30 22:00","2017","08","30","22:00","18.9","","15.2","","79","","23","","11","","","","100.12","","","","","","NA"
"2017-08-30 23:00","2017","08","30","23:00","19.4","","15.0","","76","","23","","13","","","","100.09","","","","","","NA"
"2017-08-31 00:00","2017","08","31","00:00","18.3","","14.9","","80","","26","","13","","","","100.08","","","","","","NA"
"2017-08-31 01:00","2017","08","31","01:00","16.8","","13.8","","82","","33","","23","","","","100.10","","","","","","NA"
"2017-08-31 02:00","2017","08","31","02:00","15.4","","11.5","","78","","36","","11","","","","100.10","","","","","","NA"
"2017-08-31 03:00","2017","08","31","03:00","14.6","","12.1","","85","","34","","11","","","","100.18","","","","","","NA"
"2017-08-31 04:00","2017","08","31","04:00","14.5","","11.7","","83","","33","","12","","","","100.20","","","","","","NA"
"2017-08-31 05:00","2017","08","31","05:00","14.5","","11.5","","82","","34","","15","","","","100.28","","","","","","NA"
"2017-08-31 06:00","2017","08","31","06:00","14.0","","11.3","","84","","33","","13","","","","100.36","","","","","","NA"
"2017-08-31 07:00","2017","08","31","07:00","14.9","","10.6","","76","","35","","17","","","","100.44","","","","","","NA"
"2017-08-31 08:00","2017","08","31","08:00","15.5","","10.6","","73","","36","","20","","","","100.50","","","","","","NA"
"2017-08-31 09:00","2017","08","31","09:00","15.5","","10.3","","71","","34","","23","","","","100.56","","","","","","NA"
"2017-08-31 10:00","2017","08","31","10:00","16.7","","9.9","","64","","35","","19","","","","100.59","","","","","","NA"
"2017-08-31 11:00","2017","08","31","11:00","17.2","","8.0","","55","","35","","21","","","","100.60","","","","","","NA"
"2017-08-31 12:00","2017","08","31","12:00","17.7","","7.5","","51","","34","","13","","","","100.61","","","","","","NA"
"2017-08-31 13:00","2017","08","31","13:00","17.8","","9.0","","57","","34","","23","","","","100.64","","","","","","NA"
"2017-08-31 14:00","2017","08","31","14:00","17.1","","6.5","","50","","35","","21","","","","100.64","","","","","","NA"
"2017-08-31 15:00","2017","08","31","15:00","16.4","","6.9","","54","","35","","20","","","","100.66","","","","","","NA"
"2017-08-31 16:00","2017","08","31","16:00","14.9","","5.7","","54","","35","","20","","","","100.69","","","","","","NA"
"2017-08-31 17:00","2017","08","31","17:00","14.3","","5.9","","57","","34","","19","","","","100.74","","","","","","NA"
"2017-08-31 18:00","2017","08","31","18:00","13.6","","4.7","","55","","35","","17","","","","100.75","","","","","","NA"
"2017-08-31 19:00","2017","08","31","19:00","11.1","","5.1","","67","","34","","14","","","","100.82","","","","","","NA"
"2017-08-31 20:00","2017","08","31","20:00","10.8","","4.2","","64","","34","","14","","","","100.86","","","","","","NA"
"2017-08-31 21:00","2017","08","31","21:00","9.9","","4.5","","69","","32","","7","","","","100.90","","","","","","NA"
"2017-08-31 22:00","2017","08","31","22:00","8.9","","4.7","","75","","30","","8","","","","100.92","","","","","","NA"
"2017-08-31 23:00","2017","08","31","23:00","8.1","","4.7","","79","","32","","10","","","","100.94","","","","","","NA"
