"Station Name","KINGSTON CLIMATE"
"Province","ONTARIO"
"Latitude","44.22"
"Longitude","-76.60"
"Elevation","93.00"
"Climate Identifier","6104142"
"WMO Identifier","71820"
"TC Identifier","TKG"
"All times are specified in Local Standard Time (LST). Add 1 hour to adjust for Daylight Saving Time where and when it is observed."

"Legend"
"E","Estimated"
"M","Missing"
"NA","Not Available"

"Date/Time","Year","Month","Day","Time","Temp (°C)","Temp Flag","Dew Point Temp (°C)","Dew Point Temp Flag","Rel Hum (%)","Rel Hum Flag","Wind Dir (10s deg)","Wind Dir Flag","Wind Spd (km/h)","Wind Spd Flag","Visibility (km)","Visibility Flag","Stn Press (kPa)","Stn Press Flag","Hmdx","Hmdx Flag","Wind Chill","Wind Chill Flag","Weather"
"2016-05-01 00:00","2016","05","01","00:00","10.5","","-4.3","","35","","5","","12","","","","100.95","","","","","","NA"
"2016-05-01 01:00","2016","05","01","01:00","10.1","","-4.1","","36","","5","","15","","","","100.87","","","","","","NA"
"2016-05-01 02:00","2016","05","01","02:00","10.2","","-4.0","","36","","6","","17","","","","100.83","","","","","","NA"
"2016-05-01 03:00","2016","05","01","03:00","9.9","","-3.7","","38","","5","","18","","","","100.80","","","","","","NA"
"2016-05-01 04:00","2016","05","01","04:00","9.4","","-2.9","","42","","5","","13","","","","100.80","","","","","","NA"
"2016-05-01 05:00","2016","05","01","05:00","8.2","","-0.9","","53","","6","","14","","","","100.81","","","","","","NA"
"2016-05-01 06:00","2016","05","01","06:00","6.6","","2.4","","74","","5","","12","","","","100.80","","","","","","NA"
"2016-05-01 07:00","2016","05","01","07:00","6.6","","3.9","","83","","5","","13","","","","100.77","","","","","","NA"
"2016-05-01 08:00","2016","05","01","08:00","7.0","","5.2","","89","","5","","15","","","","100.76","","","","","","NA"
"2016-05-01 09:00","2016","05","01","09:00","7.8","","6.5","","92","","5","","17","","","","100.75","","","","","","NA"
"2016-05-01 10:00","2016","05","01","10:00","9.2","","7.9","","92","","8","","14","","","","100.78","","","","","","NA"
"2016-05-01 11:00","2016","05","01","11:00","9.2","","6.8","","85","","11","","17","","","","100.73","","","","","","NA"
"2016-05-01 12:00","2016","05","01","12:00","9.4","","6.6","","82","","11","","15","","","","100.68","","","","","","NA"
"2016-05-01 13:00","2016","05","01","13:00","9.2","","6.6","","84","","10","","13","","","","100.56","","","","","","NA"
"2016-05-01 14:00","2016","05","01","14:00","9.3","","6.7","","84","","10","","8","","","","100.59","","","","","","NA"
"2016-05-01 15:00","2016","05","01","15:00","8.7","","7.3","","91","","7","","13","","","","100.53","","","","","","NA"
"2016-05-01 16:00","2016","05","01","16:00","8.5","","7.3","","92","","5","","14","","","","100.53","","","","","","NA"
"2016-05-01 17:00","2016","05","01","17:00","8.4","","7.1","","91","","6","","17","","","","100.53","","","","","","NA"
"2016-05-01 18:00","2016","05","01","18:00","8.2","","7.1","","93","","5","","13","","","","100.51","","","","","","NA"
"2016-05-01 19:00","2016","05","01","19:00","8.1","","7.0","","93","","4","","12","","","","100.51","","","","","","NA"
"2016-05-01 20:00","2016","05","01","20:00","7.9","","6.9","","93","","3","","14","","","","100.56","","","","","","NA"
"2016-05-01 21:00","2016","05","01","21:00","7.5","","6.4","","93","","2","","16","","","","100.56","","","","","","NA"
"2016-05-01 22:00","2016","05","01","22:00","6.9","","5.8","","93","","1","","15","","","","100.56","","","","","","NA"
"2016-05-01 23:00","2016","05","01","23:00","6.7","","5.6","","93","","1","","13","","","","100.52","","","","","","NA"
"2016-05-02 00:00","2016","05","02","00:00","6.7","","5.6","","93","","1","","12","","","","100.51","","","","","","NA"
"2016-05-02 01:00","2016","05","02","01:00","6.8","","5.8","","93","","2","","13","","","","100.44","","","","","","NA"
"2016-05-02 02:00","2016","05","02","02:00","6.8","","5.9","","94","","2","","11","","","","100.38","","","","","","NA"
"2016-05-02 03:00","2016","05","02","03:00","6.8","","6.0","","94","","36","","9","","","","100.46","","","","","","NA"
"2016-05-02 04:00","2016","05","02","04:00","6.8","","5.9","","94","","2","","12","","","","100.34","","","","","","NA"
"2016-05-02 05:00","2016","05","02","05:00","6.7","","5.9","","95","","36","","12","","","","100.38","","","","","","NA"
"2016-05-02 06:00","2016","05","02","06:00","6.7","","5.9","","95","","2","","12","","","","100.36","","","","","","NA"
"2016-05-02 07:00","2016","05","02","07:00","6.7","","5.8","","94","","1","","16","","","","100.33","","","","","","NA"
"2016-05-02 08:00","2016","05","02","08:00","7.2","","6.0","","92","","36","","16","","","","100.38","","","","","","NA"
"2016-05-02 09:00","2016","05","02","09:00","7.4","","5.9","","90","","2","","13","","","","100.31","","","","","","NA"
"2016-05-02 10:00","2016","05","02","10:00","7.8","","5.9","","87","","2","","16","","","","100.29","","","","","","NA"
"2016-05-02 11:00","2016","05","02","11:00","8.4","","6.1","","85","","2","","16","","","","100.32","","","","","","NA"
"2016-05-02 12:00","2016","05","02","12:00","8.9","","5.7","","80","","1","","15","","","","100.35","","","","","","NA"
"2016-05-02 13:00","2016","05","02","13:00","9.1","","5.5","","78","","1","","17","","","","100.36","","","","","","NA"
"2016-05-02 14:00","2016","05","02","14:00","9.5","","5.4","","76","","33","","14","","","","100.39","","","","","","NA"
"2016-05-02 15:00","2016","05","02","15:00","10.1","","6.2","","76","","36","","17","","","","100.38","","","","","","NA"
"2016-05-02 16:00","2016","05","02","16:00","10.2","","5.3","","72","","1","","15","","","","100.39","","","","","","NA"
"2016-05-02 17:00","2016","05","02","17:00","9.8","","5.5","","75","","3","","13","","","","100.43","","","","","","NA"
"2016-05-02 18:00","2016","05","02","18:00","9.8","","5.4","","74","","3","","7","","","","100.47","","","","","","NA"
"2016-05-02 19:00","2016","05","02","19:00","8.9","","4.7","","75","","3","","8","","","","100.44","","","","","","NA"
"2016-05-02 20:00","2016","05","02","20:00","7.8","","4.8","","81","","9","","2","","","","100.49","","","","","","NA"
"2016-05-02 21:00","2016","05","02","21:00","7.0","","4.7","","85","","6","","3","","","","100.47","","","","","","NA"
"2016-05-02 22:00","2016","05","02","22:00","6.2","","4.6","","90","","6","","6","","","","100.44","","","","","","NA"
"2016-05-02 23:00","2016","05","02","23:00","4.7","","3.0","","89","","9","","7","","","","100.39","","","","","","NA"
"2016-05-03 00:00","2016","05","03","00:00","4.6","","3.7","","94","","34","","6","","","","100.36","","","","","","NA"
"2016-05-03 01:00","2016","05","03","01:00","4.1","","3.4","","95","","32","","4","","","","100.38","","","","","","NA"
"2016-05-03 02:00","2016","05","03","02:00","2.3","","1.6","","95","","","","0","","","","100.40","","","","","","NA"
"2016-05-03 03:00","2016","05","03","03:00","2.7","","2.2","","96","","3","","4","","","","100.38","","","","","","NA"
"2016-05-03 04:00","2016","05","03","04:00","3.7","","3.0","","96","","35","","6","","","","100.32","","","","","","NA"
"2016-05-03 05:00","2016","05","03","05:00","3.6","","2.9","","96","","34","","7","","","","100.29","","","","","","NA"
"2016-05-03 06:00","2016","05","03","06:00","3.8","","3.2","","96","","1","","6","","","","100.28","","","","","","NA"
"2016-05-03 07:00","2016","05","03","07:00","8.0","","6.1","","88","","6","","9","","","","100.27","","","","","","NA"
"2016-05-03 08:00","2016","05","03","08:00","9.7","","6.2","","79","","4","","7","","","","100.25","","","","","","NA"
"2016-05-03 09:00","2016","05","03","09:00","11.5","","5.5","","67","","5","","12","","","","100.20","","","","","","NA"
"2016-05-03 10:00","2016","05","03","10:00","11.5","","3.9","","60","","5","","15","","","","100.15","","","","","","NA"
"2016-05-03 11:00","2016","05","03","11:00","11.7","","5.4","","65","","12","","19","","","","100.14","","","","","","NA"
"2016-05-03 12:00","2016","05","03","12:00","12.1","","3.1","","54","","10","","20","","","","100.08","","","","","","NA"
"2016-05-03 13:00","2016","05","03","13:00","11.8","","4.6","","61","","15","","18","","","","100.00","","","","","","NA"
"2016-05-03 14:00","2016","05","03","14:00","12.1","","4.8","","61","","18","","12","","","","99.96","","","","","","NA"
"2016-05-03 15:00","2016","05","03","15:00","13.2","","3.9","","53","","17","","9","","","","99.88","","","","","","NA"
"2016-05-03 16:00","2016","05","03","16:00","12.7","","3.3","","53","","19","","8","","","","99.84","","","","","","NA"
"2016-05-03 17:00","2016","05","03","17:00","13.2","","3.1","","50","","18","","8","","","","99.81","","","","","","NA"
"2016-05-03 18:00","2016","05","03","18:00","13.0","","3.6","","53","","21","","9","","","","99.80","","","","","","NA"
"2016-05-03 19:00","2016","05","03","19:00","11.1","","4.7","","65","","23","","7","","","","99.80","","","","","","NA"
"2016-05-03 20:00","2016","05","03","20:00","10.5","","4.6","","67","","21","","8","","","","99.83","","","","","","NA"
"2016-05-03 21:00","2016","05","03","21:00","10.2","","4.3","","67","","34","","2","","","","99.84","","","","","","NA"
"2016-05-03 22:00","2016","05","03","22:00","9.8","","4.2","","68","","28","","4","","","","99.82","","","","","","NA"
"2016-05-03 23:00","2016","05","03","23:00","9.7","","4.0","","68","","1","","5","","","","99.79","","","","","","NA"
"2016-05-04 00:00","2016","05","04","00:00","9.4","","4.5","","71","","2","","5","","","","99.76","","","","","","NA"
"2016-05-04 01:00","2016","05","04","01:00","9.2","","4.6","","73","","33","","5","","","","99.71","","","","","","NA"
"2016-05-04 02:00","2016","05","04","02:00","8.9","","4.9","","76","","31","","3","","","","99.68","","","","","","NA"
"2016-05-04 03:00","2016","05","04","03:00","8.6","","5.0","","78","","6","","9","","","","99.66","","","","","","NA"
"2016-05-04 04:00","2016","05","04","04:00","8.1","","5.4","","83","","9","","5","","","","99.65","","","","","","NA"
"2016-05-04 05:00","2016","05","04","05:00","7.5","","5.2","","85","","14","","5","","","","99.67","","","","","","NA"
"2016-05-04 06:00","2016","05","04","06:00","8.4","","4.4","","76","","4","","8","","","","99.67","","","","","","NA"
"2016-05-04 07:00","2016","05","04","07:00","8.9","","4.8","","76","","5","","9","","","","99.70","","","","","","NA"
"2016-05-04 08:00","2016","05","04","08:00","9.9","","5.2","","73","","6","","6","","","","99.70","","","","","","NA"
"2016-05-04 09:00","2016","05","04","09:00","10.7","","5.5","","70","","7","","5","","","","99.70","","","","","","NA"
"2016-05-04 10:00","2016","05","04","10:00","9.6","","7.0","","84","","15","","4","","","","99.71","","","","","","NA"
"2016-05-04 11:00","2016","05","04","11:00","10.6","","7.3","","80","","30","","2","","","","99.69","","","","","","NA"
"2016-05-04 12:00","2016","05","04","12:00","12.4","","8.3","","76","","33","","12","","","","99.66","","","","","","NA"
"2016-05-04 13:00","2016","05","04","13:00","13.7","","6.0","","60","","7","","15","","","","99.62","","","","","","NA"
"2016-05-04 14:00","2016","05","04","14:00","14.4","","6.4","","59","","8","","9","","","","99.57","","","","","","NA"
"2016-05-04 15:00","2016","05","04","15:00","14.5","","6.6","","59","","5","","19","","","","99.53","","","","","","NA"
"2016-05-04 16:00","2016","05","04","16:00","15.1","","7.1","","59","","5","","18","","","","99.52","","","","","","NA"
"2016-05-04 17:00","2016","05","04","17:00","14.1","","7.0","","62","","4","","19","","","","99.56","","","","","","NA"
"2016-05-04 18:00","2016","05","04","18:00","14.4","","7.6","","64","","5","","19","","","","99.59","","","","","","NA"
"2016-05-04 19:00","2016","05","04","19:00","12.9","","7.2","","69","","6","","19","","","","99.62","","","","","","NA"
"2016-05-04 20:00","2016","05","04","20:00","11.9","","7.2","","73","","6","","18","","","","99.69","","","","","","NA"
"2016-05-04 21:00","2016","05","04","21:00","11.8","","7.5","","75","","5","","14","","","","99.72","","","","","","NA"
"2016-05-04 22:00","2016","05","04","22:00","11.5","","7.9","","79","","5","","13","","","","99.72","","","","","","NA"
"2016-05-04 23:00","2016","05","04","23:00","11.4","","7.9","","79","","4","","11","","","","99.73","","","","","","NA"
"2016-05-05 00:00","2016","05","05","00:00","10.4","","7.5","","82","","4","","12","","","","99.73","","","","","","NA"
"2016-05-05 01:00","2016","05","05","01:00","10.4","","7.9","","84","","4","","11","","","","99.72","","","","","","NA"
"2016-05-05 02:00","2016","05","05","02:00","10.3","","7.9","","85","","4","","12","","","","99.71","","","","","","NA"
"2016-05-05 03:00","2016","05","05","03:00","10.1","","8.1","","88","","4","","9","","","","99.72","","","","","","NA"
"2016-05-05 04:00","2016","05","05","04:00","10.1","","8.0","","87","","5","","9","","","","99.74","","","","","","NA"
"2016-05-05 05:00","2016","05","05","05:00","9.8","","7.8","","88","","3","","8","","","","99.78","","","","","","NA"
"2016-05-05 06:00","2016","05","05","06:00","10.1","","7.6","","84","","3","","13","","","","99.83","","","","","","NA"
"2016-05-05 07:00","2016","05","05","07:00","10.6","","7.3","","80","","5","","15","","","","99.88","","","","","","NA"
"2016-05-05 08:00","2016","05","05","08:00","12.1","","7.8","","75","","3","","13","","","","99.88","","","","","","NA"
"2016-05-05 09:00","2016","05","05","09:00","13.5","","7.0","","65","","3","","20","","","","99.88","","","","","","NA"
"2016-05-05 10:00","2016","05","05","10:00","14.1","","5.9","","58","","3","","23","","","","99.88","","","","","","NA"
"2016-05-05 11:00","2016","05","05","11:00","15.3","","6.2","","54","","4","","23","","","","99.85","","","","","","NA"
"2016-05-05 12:00","2016","05","05","12:00","14.9","","5.7","","54","","4","","25","","","","99.85","","","","","","NA"
"2016-05-05 13:00","2016","05","05","13:00","14.8","","5.3","","53","","3","","24","","","","99.84","","","","","","NA"
"2016-05-05 14:00","2016","05","05","14:00","16.1","","5.4","","49","","4","","23","","","","99.76","","","","","","NA"
"2016-05-05 15:00","2016","05","05","15:00","17.7","","6.2","","47","","5","","21","","","","99.73","","","","","","NA"
"2016-05-05 16:00","2016","05","05","16:00","17.3","","2.7","","38","","5","","24","","","","99.70","","","","","","NA"
"2016-05-05 17:00","2016","05","05","17:00","17.3","","2.6","","37","","5","","24","","","","99.70","","","","","","NA"
"2016-05-05 18:00","2016","05","05","18:00","16.7","","2.8","","39","","4","","24","","","","99.69","","","","","","NA"
"2016-05-05 19:00","2016","05","05","19:00","14.0","","4.8","","54","","10","","16","","","","99.73","","","","","","NA"
"2016-05-05 20:00","2016","05","05","20:00","12.4","","4.7","","59","","8","","12","","","","99.77","","","","","","NA"
"2016-05-05 21:00","2016","05","05","21:00","12.0","","4.8","","61","","4","","6","","","","99.80","","","","","","NA"
"2016-05-05 22:00","2016","05","05","22:00","10.8","","4.5","","65","","2","","7","","","","99.80","","","","","","NA"
"2016-05-05 23:00","2016","05","05","23:00","11.1","","4.3","","63","","2","","9","","","","99.79","","","","","","NA"
"2016-05-06 00:00","2016","05","06","00:00","9.0","","4.3","","72","","35","","9","","","","99.82","","","","","","NA"
"2016-05-06 01:00","2016","05","06","01:00","7.4","","3.7","","77","","34","","12","","","","99.80","","","","","","NA"
"2016-05-06 02:00","2016","05","06","02:00","6.7","","3.5","","80","","34","","12","","","","99.80","","","","","","NA"
"2016-05-06 03:00","2016","05","06","03:00","6.1","","3.2","","82","","33","","12","","","","99.83","","","","","","NA"
"2016-05-06 04:00","2016","05","06","04:00","6.5","","3.7","","82","","34","","10","","","","99.87","","","","","","NA"
"2016-05-06 05:00","2016","05","06","05:00","5.7","","3.1","","83","","1","","7","","","","99.92","","","","","","NA"
"2016-05-06 06:00","2016","05","06","06:00","9.1","","4.3","","72","","2","","10","","","","100.02","","","","","","NA"
"2016-05-06 07:00","2016","05","06","07:00","11.3","","4.1","","61","","3","","13","","","","100.02","","","","","","NA"
"2016-05-06 08:00","2016","05","06","08:00","12.9","","3.7","","54","","2","","19","","","","100.01","","","","","","NA"
"2016-05-06 09:00","2016","05","06","09:00","14.7","","3.9","","48","","3","","24","","","","100.05","","","","","","NA"
"2016-05-06 10:00","2016","05","06","10:00","16.1","","3.3","","43","","4","","25","","","","100.08","","","","","","NA"
"2016-05-06 11:00","2016","05","06","11:00","17.3","","2.9","","38","","4","","30","","","","100.03","","","","","","NA"
"2016-05-06 12:00","2016","05","06","12:00","18.6","","2.5","","34","","4","","29","","","","99.96","","","","","","NA"
"2016-05-06 13:00","2016","05","06","13:00","18.9","","2.2","","33","","4","","28","","","","99.92","","","","","","NA"
"2016-05-06 14:00","2016","05","06","14:00","19.6","","0.7","","28","","5","","28","","","","99.88","","","","","","NA"
"2016-05-06 15:00","2016","05","06","15:00","19.2","","0.9","","29","","2","","23","","","","99.81","","","","","","NA"
"2016-05-06 16:00","2016","05","06","16:00","17.6","","0.2","","31","","8","","23","","","","99.81","","","","","","NA"
"2016-05-06 17:00","2016","05","06","17:00","18.3","","1.2","","32","","6","","14","","","","99.79","","","","","","NA"
"2016-05-06 18:00","2016","05","06","18:00","17.6","","1.4","","34","","11","","7","","","","99.81","","","","","","NA"
"2016-05-06 19:00","2016","05","06","19:00","15.6","","2.6","","41","","8","","14","","","","99.82","","","","","","NA"
"2016-05-06 20:00","2016","05","06","20:00","15.6","","2.4","","41","","4","","12","","","","99.83","","","","","","NA"
"2016-05-06 21:00","2016","05","06","21:00","12.1","","4.5","","60","","16","","10","","","","99.84","","","","","","NA"
"2016-05-06 22:00","2016","05","06","22:00","11.5","","4.9","","64","","21","","8","","","","99.85","","","","","","NA"
"2016-05-06 23:00","2016","05","06","23:00","10.4","","5.1","","70","","27","","5","","","","99.84","","","","","","NA"
"2016-05-07 00:00","2016","05","07","00:00","10.8","","5.5","","70","","17","","7","","","","99.82","","","","","","NA"
"2016-05-07 01:00","2016","05","07","01:00","10.8","","6.1","","73","","23","","3","","","","99.77","","","","","","NA"
"2016-05-07 02:00","2016","05","07","02:00","11.3","","6.1","","71","","29","","8","","","","99.73","","","","","","NA"
"2016-05-07 03:00","2016","05","07","03:00","11.5","","8.0","","79","","22","","3","","","","99.74","","","","","","NA"
"2016-05-07 04:00","2016","05","07","04:00","11.5","","8.8","","84","","29","","4","","","","99.72","","","","","","NA"
"2016-05-07 05:00","2016","05","07","05:00","11.6","","9.6","","87","","25","","3","","","","99.71","","","","","","NA"
"2016-05-07 06:00","2016","05","07","06:00","11.4","","9.5","","88","","17","","7","","","","99.73","","","","","","NA"
"2016-05-07 07:00","2016","05","07","07:00","10.8","","8.6","","87","","13","","13","","","","99.73","","","","","","NA"
"2016-05-07 08:00","2016","05","07","08:00","11.4","","9.3","","87","","15","","15","","","","99.74","","","","","","NA"
"2016-05-07 09:00","2016","05","07","09:00","11.2","","8.9","","86","","16","","15","","","","99.71","","","","","","NA"
"2016-05-07 10:00","2016","05","07","10:00","11.6","","9.1","","84","","17","","14","","","","99.67","","","","","","NA"
"2016-05-07 11:00","2016","05","07","11:00","13.3","","9.6","","78","","19","","18","","","","99.64","","","","","","NA"
"2016-05-07 12:00","2016","05","07","12:00","14.8","","8.2","","65","","19","","19","","","","99.59","","","","","","NA"
"2016-05-07 13:00","2016","05","07","13:00","14.6","","7.8","","64","","19","","15","","","","99.50","","","","","","NA"
"2016-05-07 14:00","2016","05","07","14:00","16.0","","8.7","","62","","18","","14","","","","99.44","","","","","","NA"
"2016-05-07 15:00","2016","05","07","15:00","15.6","","7.6","","59","","20","","9","","","","99.38","","","","","","NA"
"2016-05-07 16:00","2016","05","07","16:00","15.0","","7.3","","60","","19","","7","","","","99.28","","","","","","NA"
"2016-05-07 17:00","2016","05","07","17:00","14.8","","6.4","","57","","14","","7","","","","99.22","","","","","","NA"
"2016-05-07 18:00","2016","05","07","18:00","14.3","","6.5","","59","","20","","4","","","","99.19","","","","","","NA"
"2016-05-07 19:00","2016","05","07","19:00","13.8","","5.9","","59","","22","","2","","","","99.15","","","","","","NA"
"2016-05-07 20:00","2016","05","07","20:00","13.5","","6.5","","63","","24","","4","","","","99.13","","","","","","NA"
"2016-05-07 21:00","2016","05","07","21:00","12.9","","8.0","","72","","27","","6","","","","99.11","","","","","","NA"
"2016-05-07 22:00","2016","05","07","22:00","11.9","","8.0","","77","","13","","5","","","","99.02","","","","","","NA"
"2016-05-07 23:00","2016","05","07","23:00","11.5","","8.0","","79","","15","","8","","","","98.98","","","","","","NA"
"2016-05-08 00:00","2016","05","08","00:00","12.3","","7.8","","74","","11","","5","","","","98.90","","","","","","NA"
"2016-05-08 01:00","2016","05","08","01:00","12.3","","7.5","","73","","16","","5","","","","98.85","","","","","","NA"
"2016-05-08 02:00","2016","05","08","02:00","10.7","","8.1","","84","","30","","7","","","","98.81","","","","","","NA"
"2016-05-08 03:00","2016","05","08","03:00","6.6","","4.3","","86","","34","","34","","","","99.00","","","","","","NA"
"2016-05-08 04:00","2016","05","08","04:00","5.0","","3.3","","89","","35","","32","","","","99.03","","","","","","NA"
"2016-05-08 05:00","2016","05","08","05:00","4.3","","2.0","","85","","35","","33","","","","99.15","","","","","","NA"
"2016-05-08 06:00","2016","05","08","06:00","4.0","","1.3","","82","","33","","27","","","","99.35","","","","","","NA"
"2016-05-08 07:00","2016","05","08","07:00","5.1","","1.0","","75","","32","","19","","","","99.48","","","","","","NA"
"2016-05-08 08:00","2016","05","08","08:00","6.3","","0.5","","66","","32","","24","","","","99.56","","","","","","NA"
"2016-05-08 09:00","2016","05","08","09:00","8.5","","-0.1","","55","","32","","23","","","","99.59","","","","","","NA"
"2016-05-08 10:00","2016","05","08","10:00","9.3","","-1.0","","49","","32","","26","","","","99.61","","","","","","NA"
"2016-05-08 11:00","2016","05","08","11:00","10.9","","-0.6","","45","","31","","24","","","","99.67","","","","","","NA"
"2016-05-08 12:00","2016","05","08","12:00","12.2","","0.2","","44","","29","","20","","","","99.66","","","","","","NA"
"2016-05-08 13:00","2016","05","08","13:00","13.0","","0.1","","41","","29","","25","","","","99.69","","","","","","NA"
"2016-05-08 14:00","2016","05","08","14:00","12.6","","0.0","","42","","28","","25","","","","99.71","","","","","","NA"
"2016-05-08 15:00","2016","05","08","15:00","13.0","","-1.2","","37","","27","","23","","","","99.70","","","","","","NA"
"2016-05-08 16:00","2016","05","08","16:00","10.6","","2.6","","58","","26","","22","","","","99.68","","","","","","NA"
"2016-05-08 17:00","2016","05","08","17:00","10.3","","3.7","","63","","24","","28","","","","99.73","","","","","","NA"
"2016-05-08 18:00","2016","05","08","18:00","10.0","","4.1","","67","","24","","22","","","","99.77","","","","","","NA"
"2016-05-08 19:00","2016","05","08","19:00","9.3","","4.3","","71","","24","","24","","","","99.82","","","","","","NA"
"2016-05-08 20:00","2016","05","08","20:00","8.8","","4.3","","74","","24","","18","","","","99.92","","","","","","NA"
"2016-05-08 21:00","2016","05","08","21:00","8.4","","3.8","","73","","25","","11","","","","100.00","","","","","","NA"
"2016-05-08 22:00","2016","05","08","22:00","7.1","","1.1","","66","","4","","18","","","","100.07","","","","","","NA"
"2016-05-08 23:00","2016","05","08","23:00","5.2","","0.0","","69","","5","","12","","","","100.09","","","","","","NA"
"2016-05-09 00:00","2016","05","09","00:00","5.9","","0.3","","68","","36","","14","","","","100.22","","","","","","NA"
"2016-05-09 01:00","2016","05","09","01:00","2.7","","0.8","","87","","4","","9","","","","100.24","","","","","","NA"
"2016-05-09 02:00","2016","05","09","02:00","2.9","","1.2","","88","","5","","4","","","","100.26","","","","","","NA"
"2016-05-09 03:00","2016","05","09","03:00","2.3","","0.9","","91","","0","","1","","","","100.33","","","","","","NA"
"2016-05-09 04:00","2016","05","09","04:00","1.9","","1.0","","94","","35","","3","","","","100.41","","","","","","NA"
"2016-05-09 05:00","2016","05","09","05:00","1.2","","0.5","","95","","35","","7","","","","100.47","","","","","","NA"
"2016-05-09 06:00","2016","05","09","06:00","2.4","","1.7","","95","","28","","6","","","","100.54","","","","","","NA"
"2016-05-09 07:00","2016","05","09","07:00","4.6","","-1.6","","64","","33","","13","","","","100.56","","","","","","NA"
"2016-05-09 08:00","2016","05","09","08:00","6.0","","-3.3","","51","","30","","12","","","","100.61","","","","","","NA"
"2016-05-09 09:00","2016","05","09","09:00","7.1","","-3.3","","48","","29","","14","","","","100.64","","","","","","NA"
"2016-05-09 10:00","2016","05","09","10:00","8.6","","-3.0","","44","","29","","13","","","","100.66","","","","","","NA"
"2016-05-09 11:00","2016","05","09","11:00","9.2","","-4.0","","39","","26","","17","","","","100.71","","","","","","NA"
"2016-05-09 12:00","2016","05","09","12:00","9.5","","2.0","","59","","20","","23","","","","100.66","","","","","","NA"
"2016-05-09 13:00","2016","05","09","13:00","9.3","","2.0","","61","","21","","24","","","","100.65","","","","","","NA"
"2016-05-09 14:00","2016","05","09","14:00","9.8","","0.9","","54","","22","","26","","","","100.67","","","","","","NA"
"2016-05-09 15:00","2016","05","09","15:00","11.4","","0.2","","46","","23","","30","","","","100.65","","","","","","NA"
"2016-05-09 16:00","2016","05","09","16:00","11.8","","0.5","","46","","23","","26","","","","100.67","","","","","","NA"
"2016-05-09 17:00","2016","05","09","17:00","11.3","","0.4","","47","","23","","25","","","","100.70","","","","","","NA"
"2016-05-09 18:00","2016","05","09","18:00","10.9","","0.1","","47","","23","","24","","","","100.74","","","","","","NA"
"2016-05-09 19:00","2016","05","09","19:00","9.9","","1.4","","56","","23","","15","","","","100.79","","","","","","NA"
"2016-05-09 20:00","2016","05","09","20:00","7.7","","2.6","","70","","24","","10","","","","100.86","","","","","","NA"
"2016-05-09 21:00","2016","05","09","21:00","7.6","","-0.6","","56","","25","","11","","","","100.95","","","","","","NA"
"2016-05-09 22:00","2016","05","09","22:00","6.7","","-0.6","","60","","32","","6","","","","100.98","","","","","","NA"
"2016-05-09 23:00","2016","05","09","23:00","3.8","","-0.8","","72","","33","","7","","","","101.06","","","","","","NA"
"2016-05-10 00:00","2016","05","10","00:00","2.3","","-0.7","","80","","34","","11","","","","101.11","","","","","","NA"
"2016-05-10 01:00","2016","05","10","01:00","1.4","","-1.1","","84","","34","","11","","","","101.15","","","","","","NA"
"2016-05-10 02:00","2016","05","10","02:00","0.5","","-1.5","","86","","33","","9","","","","101.16","","","","","","NA"
"2016-05-10 03:00","2016","05","10","03:00","1.5","","-1.2","","82","","35","","7","","","","101.18","","","","","","NA"
"2016-05-10 04:00","2016","05","10","04:00","1.3","","-1.7","","81","","32","","4","","","","101.22","","","","","","NA"
"2016-05-10 05:00","2016","05","10","05:00","0.1","","-1.9","","86","","33","","3","","","","101.27","","","","","","NA"
"2016-05-10 06:00","2016","05","10","06:00","1.7","","-0.2","","87","","36","","8","","","","101.33","","","","","","NA"
"2016-05-10 07:00","2016","05","10","07:00","7.4","","1.0","","64","","33","","6","","","","101.39","","","","","","NA"
"2016-05-10 08:00","2016","05","10","08:00","10.8","","0.1","","47","","33","","5","","","","101.43","","","","","","NA"
"2016-05-10 09:00","2016","05","10","09:00","12.4","","1.1","","46","","21","","4","","","","101.42","","","","","","NA"
"2016-05-10 10:00","2016","05","10","10:00","10.7","","2.7","","57","","17","","17","","","","101.41","","","","","","NA"
"2016-05-10 11:00","2016","05","10","11:00","11.3","","0.6","","48","","19","","19","","","","101.39","","","","","","NA"
"2016-05-10 12:00","2016","05","10","12:00","12.2","","-2.0","","37","","19","","18","","","","101.33","","","","","","NA"
"2016-05-10 13:00","2016","05","10","13:00","11.4","","2.0","","52","","18","","20","","","","101.29","","","","","","NA"
"2016-05-10 14:00","2016","05","10","14:00","11.9","","1.3","","48","","19","","22","","","","101.23","","","","","","NA"
"2016-05-10 15:00","2016","05","10","15:00","12.2","","0.5","","45","","19","","21","","","","101.20","","","","","","NA"
"2016-05-10 16:00","2016","05","10","16:00","13.2","","1.0","","43","","19","","18","","","","101.14","","","","","","NA"
"2016-05-10 17:00","2016","05","10","17:00","12.7","","0.7","","44","","19","","16","","","","101.10","","","","","","NA"
"2016-05-10 18:00","2016","05","10","18:00","11.7","","1.1","","48","","19","","13","","","","101.07","","","","","","NA"
"2016-05-10 19:00","2016","05","10","19:00","10.4","","1.5","","54","","21","","8","","","","101.08","","","","","","NA"
"2016-05-10 20:00","2016","05","10","20:00","9.3","","0.0","","52","","36","","1","","","","101.09","","","","","","NA"
"2016-05-10 21:00","2016","05","10","21:00","8.0","","0.6","","59","","6","","8","","","","101.13","","","","","","NA"
"2016-05-10 22:00","2016","05","10","22:00","5.6","","-0.6","","64","","30","","5","","","","101.13","","","","","","NA"
"2016-05-10 23:00","2016","05","10","23:00","6.3","","1.4","","71","","27","","3","","","","101.12","","","","","","NA"
"2016-05-11 00:00","2016","05","11","00:00","5.4","","1.1","","74","","33","","4","","","","101.12","","","","","","NA"
"2016-05-11 01:00","2016","05","11","01:00","4.8","","1.4","","79","","34","","7","","","","101.11","","","","","","NA"
"2016-05-11 02:00","2016","05","11","02:00","4.5","","1.3","","80","","35","","5","","","","101.13","","","","","","NA"
"2016-05-11 03:00","2016","05","11","03:00","4.3","","0.2","","74","","2","","5","","","","101.17","","","","","","NA"
"2016-05-11 04:00","2016","05","11","04:00","3.4","","-1.6","","70","","14","","2","","","","101.19","","","","","","NA"
"2016-05-11 05:00","2016","05","11","05:00","1.4","","-0.9","","85","","35","","7","","","","101.22","","","","","","NA"
"2016-05-11 06:00","2016","05","11","06:00","4.4","","1.9","","84","","35","","4","","","","101.26","","","","","","NA"
"2016-05-11 07:00","2016","05","11","07:00","10.7","","3.4","","61","","4","","8","","","","101.26","","","","","","NA"
"2016-05-11 08:00","2016","05","11","08:00","13.6","","4.3","","53","","6","","12","","","","101.29","","","","","","NA"
"2016-05-11 09:00","2016","05","11","09:00","16.3","","2.5","","39","","6","","15","","","","101.29","","","","","","NA"
"2016-05-11 10:00","2016","05","11","10:00","17.4","","2.1","","36","","5","","16","","","","101.25","","","","","","NA"
"2016-05-11 11:00","2016","05","11","11:00","18.1","","2.0","","34","","9","","10","","","","101.20","","","","","","NA"
"2016-05-11 12:00","2016","05","11","12:00","15.7","","4.2","","46","","16","","14","","","","101.17","","","","","","NA"
"2016-05-11 13:00","2016","05","11","13:00","17.4","","3.4","","39","","18","","10","","","","101.10","","","","","","NA"
"2016-05-11 14:00","2016","05","11","14:00","18.3","","1.4","","32","","18","","11","","","","101.03","","","","","","NA"
"2016-05-11 15:00","2016","05","11","15:00","18.3","","3.0","","36","","18","","13","","","","100.98","","","","","","NA"
"2016-05-11 16:00","2016","05","11","16:00","19.0","","0.7","","29","","19","","8","","","","100.95","","","","","","NA"
"2016-05-11 17:00","2016","05","11","17:00","19.2","","1.7","","31","","17","","8","","","","100.95","","","","","","NA"
"2016-05-11 18:00","2016","05","11","18:00","19.4","","2.6","","33","","25","","4","","","","100.94","","","","","","NA"
"2016-05-11 19:00","2016","05","11","19:00","16.4","","1.7","","37","","23","","6","","","","100.94","","","","","","NA"
"2016-05-11 20:00","2016","05","11","20:00","13.6","","1.0","","42","","9","","3","","","","100.92","","","","","","NA"
"2016-05-11 21:00","2016","05","11","21:00","13.3","","0.8","","42","","8","","4","","","","100.95","","","","","","NA"
"2016-05-11 22:00","2016","05","11","22:00","11.3","","3.9","","60","","35","","4","","","","100.95","","","","","","NA"
"2016-05-11 23:00","2016","05","11","23:00","10.8","","2.0","","54","","34","","10","","","","100.96","","","","","","NA"
"2016-05-12 00:00","2016","05","12","00:00","8.2","","3.0","","70","","1","","7","","","","100.95","","","","","","NA"
"2016-05-12 01:00","2016","05","12","01:00","7.8","","2.8","","71","","2","","7","","","","100.90","","","","","","NA"
"2016-05-12 02:00","2016","05","12","02:00","7.0","","2.4","","72","","1","","6","","","","100.88","","","","","","NA"
"2016-05-12 03:00","2016","05","12","03:00","6.5","","2.1","","74","","35","","11","","","","100.88","","","","","","NA"
"2016-05-12 04:00","2016","05","12","04:00","9.5","","2.0","","59","","5","","12","","","","100.88","","","","","","NA"
"2016-05-12 05:00","2016","05","12","05:00","7.2","","2.0","","70","","4","","8","","","","100.90","","","","","","NA"
"2016-05-12 06:00","2016","05","12","06:00","8.9","","3.3","","68","","6","","5","","","","100.90","","","","","","NA"
"2016-05-12 07:00","2016","05","12","07:00","13.7","","3.5","","50","","14","","6","","","","100.88","","","","","","NA"
"2016-05-12 08:00","2016","05","12","08:00","13.9","","3.0","","48","","16","","7","","","","100.87","","","","","","NA"
"2016-05-12 09:00","2016","05","12","09:00","14.6","","2.9","","45","","15","","8","","","","100.82","","","","","","NA"
"2016-05-12 10:00","2016","05","12","10:00","16.0","","3.2","","42","","19","","6","","","","100.78","","","","","","NA"
"2016-05-12 11:00","2016","05","12","11:00","17.5","","1.8","","35","","15","","5","","","","100.68","","","","","","NA"
"2016-05-12 12:00","2016","05","12","12:00","18.8","","3.3","","36","","16","","11","","","","100.60","","","","","","NA"
"2016-05-12 13:00","2016","05","12","13:00","20.1","","4.0","","35","","16","","10","","","","100.54","","","","","","NA"
"2016-05-12 14:00","2016","05","12","14:00","22.0","","4.3","","32","","15","","8","","","","100.42","","","","","","NA"
"2016-05-12 15:00","2016","05","12","15:00","24.2","","4.6","","28","","14","","7","","","","100.33","","","","","","NA"
"2016-05-12 16:00","2016","05","12","16:00","24.3","","2.9","","25","","20","","5","","","","100.25","","","","","","NA"
"2016-05-12 17:00","2016","05","12","17:00","23.7","","5.1","","30","","17","","6","","","","100.17","","","","","","NA"
"2016-05-12 18:00","2016","05","12","18:00","23.6","","8.6","","38","","4","","1","","","","100.06","","","","","","NA"
"2016-05-12 19:00","2016","05","12","19:00","23.7","","5.7","","31","","8","","2","","","","99.97","","","","","","NA"
"2016-05-12 20:00","2016","05","12","20:00","20.9","","8.1","","44","","8","","7","","","","99.95","","","","","","NA"
"2016-05-12 21:00","2016","05","12","21:00","21.2","","7.6","","42","","6","","7","","","","99.91","","","","","","NA"
"2016-05-12 22:00","2016","05","12","22:00","21.1","","7.5","","41","","10","","12","","","","99.84","","","","","","NA"
"2016-05-12 23:00","2016","05","12","23:00","15.7","","9.3","","66","","15","","8","","","","99.78","","","","","","NA"
"2016-05-13 00:00","2016","05","13","00:00","15.4","","9.2","","67","","15","","17","","","","99.71","","","","","","NA"
"2016-05-13 01:00","2016","05","13","01:00","14.2","","9.4","","73","","15","","17","","","","99.65","","","","","","NA"
"2016-05-13 02:00","2016","05","13","02:00","14.4","","10.3","","76","","16","","23","","","","99.60","","","","","","NA"
"2016-05-13 03:00","2016","05","13","03:00","13.6","","10.2","","80","","16","","19","","","","99.54","","","","","","NA"
"2016-05-13 04:00","2016","05","13","04:00","12.4","","9.7","","84","","16","","11","","","","99.48","","","","","","NA"
"2016-05-13 05:00","2016","05","13","05:00","12.4","","10.2","","86","","18","","8","","","","99.44","","","","","","NA"
"2016-05-13 06:00","2016","05","13","06:00","12.8","","10.8","","87","","19","","16","","","","99.46","","","","","","NA"
"2016-05-13 07:00","2016","05","13","07:00","12.3","","11.1","","92","","18","","21","","","","99.43","","","","","","NA"
"2016-05-13 08:00","2016","05","13","08:00","12.4","","11.4","","94","","20","","16","","","","99.46","","","","","","NA"
"2016-05-13 09:00","2016","05","13","09:00","13.5","","12.4","","93","","23","","22","","","","99.52","","","","","","NA"
"2016-05-13 10:00","2016","05","13","10:00","14.8","","13.2","","90","","24","","22","","","","99.52","","","","","","NA"
"2016-05-13 11:00","2016","05","13","11:00","16.4","","13.9","","85","","23","","25","","","","99.51","","","","","","NA"
"2016-05-13 12:00","2016","05","13","12:00","14.4","","11.3","","82","","20","","20","","","","99.49","","","","","","NA"
"2016-05-13 13:00","2016","05","13","13:00","17.9","","13.8","","77","","23","","25","","","","99.47","","","","","","NA"
"2016-05-13 14:00","2016","05","13","14:00","18.4","","12.6","","69","","24","","31","","","","99.48","","","","","","NA"
"2016-05-13 15:00","2016","05","13","15:00","21.3","","9.1","","46","","27","","27","","","","99.51","","","","","","NA"
"2016-05-13 16:00","2016","05","13","16:00","20.5","","7.8","","44","","28","","29","","","","99.55","","","","","","NA"
"2016-05-13 17:00","2016","05","13","17:00","20.6","","6.9","","41","","27","","24","","","","99.56","","","","","","NA"
"2016-05-13 18:00","2016","05","13","18:00","19.7","","7.2","","44","","27","","21","","","","99.57","","","","","","NA"
"2016-05-13 19:00","2016","05","13","19:00","18.4","","6.6","","46","","26","","20","","","","99.63","","","","","","NA"
"2016-05-13 20:00","2016","05","13","20:00","14.0","","8.6","","70","","24","","17","","","","99.71","","","","","","NA"
"2016-05-13 21:00","2016","05","13","21:00","12.6","","8.5","","76","","24","","13","","","","99.76","","","","","","NA"
"2016-05-13 22:00","2016","05","13","22:00","12.0","","8.1","","77","","24","","13","","","","99.78","","","","","","NA"
"2016-05-13 23:00","2016","05","13","23:00","11.9","","7.9","","76","","25","","6","","","","99.76","","","","","","NA"
"2016-05-14 00:00","2016","05","14","00:00","11.2","","8.3","","82","","24","","11","","","","99.72","","","","","","NA"
"2016-05-14 01:00","2016","05","14","01:00","11.4","","8.2","","81","","25","","6","","","","99.68","","","","","","NA"
"2016-05-14 02:00","2016","05","14","02:00","10.7","","8.5","","86","","25","","2","","","","99.67","","","","","","NA"
"2016-05-14 03:00","2016","05","14","03:00","9.4","","8.0","","91","","12","","1","","","","99.61","","","","","","NA"
"2016-05-14 04:00","2016","05","14","04:00","9.6","","7.9","","89","","13","","9","","","","99.57","","","","","","NA"
"2016-05-14 05:00","2016","05","14","05:00","9.3","","7.9","","91","","15","","15","","","","99.54","","","","","","NA"
"2016-05-14 06:00","2016","05","14","06:00","9.9","","8.4","","91","","16","","9","","","","99.50","","","","","","NA"
"2016-05-14 07:00","2016","05","14","07:00","11.0","","9.1","","88","","16","","9","","","","99.40","","","","","","NA"
"2016-05-14 08:00","2016","05","14","08:00","11.3","","8.9","","85","","16","","15","","","","99.35","","","","","","NA"
"2016-05-14 09:00","2016","05","14","09:00","11.1","","8.6","","84","","17","","15","","","","99.28","","","","","","NA"
"2016-05-14 10:00","2016","05","14","10:00"
"2016-05-14 11:00","2016","05","14","11:00"
"2016-05-14 12:00","2016","05","14","12:00"
"2016-05-14 13:00","2016","05","14","13:00"
"2016-05-14 14:00","2016","05","14","14:00"
"2016-05-14 15:00","2016","05","14","15:00"
"2016-05-14 16:00","2016","05","14","16:00","12.2","","7.4","","72","","23","","44","","","","98.84","","","","","","NA"
"2016-05-14 17:00","2016","05","14","17:00","10.9","","7.1","","77","","24","","31","","","","98.93","","","","","","NA"
"2016-05-14 18:00","2016","05","14","18:00","9.5","","4.4","","71","","25","","29","","","","99.09","","","","","","NA"
"2016-05-14 19:00","2016","05","14","19:00","9.0","","4.2","","72","","26","","25","","","","99.16","","","","","","NA"
"2016-05-14 20:00","2016","05","14","20:00","8.7","","3.7","","71","","26","","23","","","","99.26","","","","","","NA"
"2016-05-14 21:00","2016","05","14","21:00","7.7","","3.2","","73","","27","","21","","","","99.33","","","","","","NA"
"2016-05-14 22:00","2016","05","14","22:00","7.0","","3.1","","77","","27","","24","","","","99.37","","","","","","NA"
"2016-05-14 23:00","2016","05","14","23:00","7.2","","3.0","","75","","27","","16","","","","99.39","","","","","","NA"
"2016-05-15 00:00","2016","05","15","00:00","6.7","","1.9","","71","","27","","20","","","","99.38","","","","","","NA"
"2016-05-15 01:00","2016","05","15","01:00","6.2","","1.3","","71","","27","","20","","","","99.36","","","","","","NA"
"2016-05-15 02:00","2016","05","15","02:00","5.6","","1.4","","74","","27","","20","","","","99.32","","","","","","NA"
"2016-05-15 03:00","2016","05","15","03:00","5.0","","1.2","","76","","26","","19","","","","99.36","","","","","","NA"
"2016-05-15 04:00","2016","05","15","04:00","4.7","","0.7","","75","","27","","17","","","","99.40","","","","","","NA"
"2016-05-15 05:00","2016","05","15","05:00","4.5","","0.9","","78","","26","","16","","","","99.46","","","","","","NA"
"2016-05-15 06:00","2016","05","15","06:00","4.1","","1.1","","80","","26","","21","","","","99.52","","","","","","NA"
"2016-05-15 07:00","2016","05","15","07:00","4.0","","1.7","","85","","27","","20","","","","99.54","","","","","","NA"
"2016-05-15 08:00","2016","05","15","08:00","4.1","","2.4","","89","","26","","18","","","","99.57","","","","","","NA"
"2016-05-15 09:00","2016","05","15","09:00","4.8","","2.8","","87","","25","","16","","","","99.56","","","","","","NA"
"2016-05-15 10:00","2016","05","15","10:00","5.4","","3.4","","87","","24","","19","","","","99.55","","","","","","NA"
"2016-05-15 11:00","2016","05","15","11:00","6.1","","3.1","","81","","26","","17","","","","99.56","","","","","","NA"
"2016-05-15 12:00","2016","05","15","12:00","6.0","","2.3","","77","","27","","25","","","","99.58","","","","","","NA"
"2016-05-15 13:00","2016","05","15","13:00","7.3","","0.5","","62","","26","","26","","","","99.58","","","","","","NA"
"2016-05-15 14:00","2016","05","15","14:00","7.1","","0.1","","61","","27","","30","","","","99.62","","","","","","NA"
"2016-05-15 15:00","2016","05","15","15:00","7.1","","-1.6","","54","","26","","34","","","","99.64","","","","","","NA"
"2016-05-15 16:00","2016","05","15","16:00","6.7","","-2.2","","53","","27","","25","","","","99.72","","","","","","NA"
"2016-05-15 17:00","2016","05","15","17:00","6.6","","-2.0","","54","","29","","24","","","","99.81","","","","","","NA"
"2016-05-15 18:00","2016","05","15","18:00","5.6","","-2.3","","57","","28","","24","","","","99.88","","","","","","NA"
"2016-05-15 19:00","2016","05","15","19:00","5.6","","-3.3","","53","","28","","19","","","","99.96","","","","","","NA"
"2016-05-15 20:00","2016","05","15","20:00","5.2","","-3.8","","52","","28","","19","","","","100.02","","","","","","NA"
"2016-05-15 21:00","2016","05","15","21:00","5.1","","-3.8","","53","","28","","16","","","","100.11","","","","","","NA"
"2016-05-15 22:00","2016","05","15","22:00","4.5","","-2.8","","59","","27","","18","","","","100.13","","","","","","NA"
"2016-05-15 23:00","2016","05","15","23:00","4.0","","-2.9","","61","","27","","17","","","","100.15","","","","","","NA"
"2016-05-16 00:00","2016","05","16","00:00","4.3","","-2.9","","60","","27","","18","","","","100.15","","","","","","NA"
"2016-05-16 01:00","2016","05","16","01:00","4.1","","-2.6","","62","","26","","17","","","","100.17","","","","","","NA"
"2016-05-16 02:00","2016","05","16","02:00","3.8","","-2.1","","66","","29","","12","","","","100.19","","","","","","NA"
"2016-05-16 03:00","2016","05","16","03:00","3.7","","-1.6","","68","","26","","20","","","","100.20","","","","","","NA"
"2016-05-16 04:00","2016","05","16","04:00","3.5","","-0.7","","74","","26","","16","","","","100.23","","","","","","NA"
"2016-05-16 05:00","2016","05","16","05:00","3.9","","-1.3","","69","","27","","22","","","","100.27","","","","","","NA"
"2016-05-16 06:00","2016","05","16","06:00","3.9","","-0.6","","72","","27","","18","","","","100.37","","","","","","NA"
"2016-05-16 07:00","2016","05","16","07:00","5.5","","-2.1","","58","","27","","23","","","","100.43","","","","","","NA"
"2016-05-16 08:00","2016","05","16","08:00","6.8","","-4.3","","45","","30","","24","","","","100.46","","","","","","NA"
"2016-05-16 09:00","2016","05","16","09:00","7.7","","-4.5","","42","","27","","25","","","","100.44","","","","","","NA"
"2016-05-16 10:00","2016","05","16","10:00","9.3","","-3.6","","40","","29","","20","","","","100.47","","","","","","NA"
"2016-05-16 11:00","2016","05","16","11:00","10.4","","-3.3","","38","","28","","24","","","","100.46","","","","","","NA"
"2016-05-16 12:00","2016","05","16","12:00","11.9","","-3.1","","35","","25","","25","","","","100.45","","","","","","NA"
"2016-05-16 13:00","2016","05","16","13:00","13.5","","-1.2","","36","","25","","28","","","","100.41","","","","","","NA"
"2016-05-16 14:00","2016","05","16","14:00","11.0","","1.3","","51","","23","","32","","","","100.42","","","","","","NA"
"2016-05-16 15:00","2016","05","16","15:00","11.5","","0.8","","48","","25","","24","","","","100.48","","","","","","NA"
"2016-05-16 16:00","2016","05","16","16:00","12.3","","0.7","","45","","25","","20","","","","100.49","","","","","","NA"
"2016-05-16 17:00","2016","05","16","17:00","12.9","","0.3","","42","","26","","22","","","","100.54","","","","","","NA"
"2016-05-16 18:00","2016","05","16","18:00","11.9","","0.5","","46","","28","","16","","","","100.61","","","","","","NA"
"2016-05-16 19:00","2016","05","16","19:00","11.6","","0.4","","46","","29","","10","","","","100.59","","","","","","NA"
"2016-05-16 20:00","2016","05","16","20:00","10.4","","0.8","","51","","28","","6","","","","100.64","","","","","","NA"
"2016-05-16 21:00","2016","05","16","21:00","9.6","","0.5","","53","","26","","6","","","","100.67","","","","","","NA"
"2016-05-16 22:00","2016","05","16","22:00","7.4","","1.3","","65","","35","","5","","","","100.69","","","","","","NA"
"2016-05-16 23:00","2016","05","16","23:00","7.5","","2.4","","70","","16","","3","","","","100.66","","","","","","NA"
"2016-05-17 00:00","2016","05","17","00:00","7.8","","2.9","","71","","25","","8","","","","100.71","","","","","","NA"
"2016-05-17 01:00","2016","05","17","01:00","4.9","","1.5","","79","","31","","10","","","","100.74","","","","","","NA"
"2016-05-17 02:00","2016","05","17","02:00","5.2","","1.1","","75","","28","","5","","","","100.76","","","","","","NA"
"2016-05-17 03:00","2016","05","17","03:00","4.9","","1.3","","78","","28","","4","","","","100.80","","","","","","NA"
"2016-05-17 04:00","2016","05","17","04:00","2.0","","-0.1","","86","","33","","10","","","","100.83","","","","","","NA"
"2016-05-17 05:00","2016","05","17","05:00","1.9","","0.3","","89","","34","","14","","","","100.87","","","","","","NA"
"2016-05-17 06:00","2016","05","17","06:00","6.1","","2.1","","76","","3","","9","","","","100.94","","","","","","NA"
"2016-05-17 07:00","2016","05","17","07:00","8.3","","1.4","","62","","4","","10","","","","101.01","","","","","","NA"
"2016-05-17 08:00","2016","05","17","08:00","9.9","","0.8","","53","","6","","14","","","","101.06","","","","","","NA"
"2016-05-17 09:00","2016","05","17","09:00","10.6","","2.0","","55","","14","","12","","","","101.07","","","","","","NA"
"2016-05-17 10:00","2016","05","17","10:00","10.9","","2.0","","54","","15","","14","","","","101.08","","","","","","NA"
"2016-05-17 11:00","2016","05","17","11:00","11.7","","3.3","","56","","19","","13","","","","101.06","","","","","","NA"
"2016-05-17 12:00","2016","05","17","12:00","12.2","","3.8","","56","","18","","16","","","","101.01","","","","","","NA"
"2016-05-17 13:00","2016","05","17","13:00","11.4","","4.9","","64","","18","","20","","","","100.99","","","","","","NA"
"2016-05-17 14:00","2016","05","17","14:00","10.3","","4.4","","67","","19","","21","","","","100.98","","","","","","NA"
"2016-05-17 15:00","2016","05","17","15:00","10.6","","5.4","","70","","16","","15","","","","100.96","","","","","","NA"
"2016-05-17 16:00","2016","05","17","16:00","12.0","","5.2","","63","","20","","19","","","","100.89","","","","","","NA"
"2016-05-17 17:00","2016","05","17","17:00","10.8","","6.3","","74","","19","","20","","","","100.89","","","","","","NA"
"2016-05-17 18:00","2016","05","17","18:00","10.1","","5.5","","73","","19","","19","","","","100.85","","","","","","NA"
"2016-05-17 19:00","2016","05","17","19:00","9.8","","6.1","","77","","19","","8","","","","100.88","","","","","","NA"
"2016-05-17 20:00","2016","05","17","20:00","9.8","","4.0","","67","","25","","10","","","","100.93","","","","","","NA"
"2016-05-17 21:00","2016","05","17","21:00","8.9","","3.6","","70","","3","","10","","","","101.04","","","","","","NA"
"2016-05-17 22:00","2016","05","17","22:00","9.4","","2.7","","63","","4","","14","","","","101.09","","","","","","NA"
"2016-05-17 23:00","2016","05","17","23:00","8.0","","2.8","","69","","3","","8","","","","101.13","","","","","","NA"
"2016-05-18 00:00","2016","05","18","00:00","7.4","","2.8","","73","","2","","12","","","","101.16","","","","","","NA"
"2016-05-18 01:00","2016","05","18","01:00","5.1","","2.3","","82","","36","","12","","","","101.15","","","","","","NA"
"2016-05-18 02:00","2016","05","18","02:00","5.2","","2.0","","80","","36","","10","","","","101.14","","","","","","NA"
"2016-05-18 03:00","2016","05","18","03:00","4.5","","1.9","","83","","36","","7","","","","101.13","","","","","","NA"
"2016-05-18 04:00","2016","05","18","04:00","4.1","","2.1","","87","","33","","8","","","","101.17","","","","","","NA"
"2016-05-18 05:00","2016","05","18","05:00","3.2","","1.4","","88","","36","","11","","","","101.19","","","","","","NA"
"2016-05-18 06:00","2016","05","18","06:00","5.9","","3.2","","83","","36","","11","","","","101.23","","","","","","NA"
"2016-05-18 07:00","2016","05","18","07:00","8.1","","3.6","","73","","1","","13","","","","101.26","","","","","","NA"
"2016-05-18 08:00","2016","05","18","08:00","8.8","","3.1","","67","","2","","8","","","","101.29","","","","","","NA"
"2016-05-18 09:00","2016","05","18","09:00","9.3","","3.6","","68","","4","","11","","","","101.28","","","","","","NA"
"2016-05-18 10:00","2016","05","18","10:00","11.0","","4.5","","64","","2","","10","","","","101.26","","","","","","NA"
"2016-05-18 11:00","2016","05","18","11:00","11.6","","5.2","","65","","16","","12","","","","101.23","","","","","","NA"
"2016-05-18 12:00","2016","05","18","12:00","11.5","","4.7","","63","","20","","15","","","","101.17","","","","","","NA"
"2016-05-18 13:00","2016","05","18","13:00","12.1","","5.0","","62","","18","","16","","","","101.11","","","","","","NA"
"2016-05-18 14:00","2016","05","18","14:00","11.7","","5.3","","65","","19","","19","","","","101.05","","","","","","NA"
"2016-05-18 15:00","2016","05","18","15:00","13.3","","4.9","","57","","19","","13","","","","101.00","","","","","","NA"
"2016-05-18 16:00","2016","05","18","16:00","13.8","","4.4","","53","","20","","11","","","","100.95","","","","","","NA"
"2016-05-18 17:00","2016","05","18","17:00","13.9","","4.4","","53","","20","","10","","","","100.93","","","","","","NA"
"2016-05-18 18:00","2016","05","18","18:00","12.2","","4.0","","57","","25","","16","","","","100.92","","","","","","NA"
"2016-05-18 19:00","2016","05","18","19:00","11.7","","5.1","","64","","25","","11","","","","100.92","","","","","","NA"
"2016-05-18 20:00","2016","05","18","20:00","10.5","","4.9","","69","","28","","9","","","","100.91","","","","","","NA"
"2016-05-18 21:00","2016","05","18","21:00","10.1","","5.0","","71","","30","","13","","","","100.93","","","","","","NA"
"2016-05-18 22:00","2016","05","18","22:00","9.3","","4.3","","71","","30","","17","","","","100.91","","","","","","NA"
"2016-05-18 23:00","2016","05","18","23:00","7.5","","2.8","","72","","31","","10","","","","100.91","","","","","","NA"
"2016-05-19 00:00","2016","05","19","00:00","5.8","","2.5","","79","","32","","11","","","","100.90","","","","","","NA"
"2016-05-19 01:00","2016","05","19","01:00","5.9","","3.0","","81","","33","","11","","","","100.88","","","","","","NA"
"2016-05-19 02:00","2016","05","19","02:00","5.5","","3.2","","86","","33","","12","","","","100.85","","","","","","NA"
"2016-05-19 03:00","2016","05","19","03:00","6.0","","4.2","","88","","36","","5","","","","100.86","","","","","","NA"
"2016-05-19 04:00","2016","05","19","04:00","5.3","","3.4","","87","","34","","10","","","","100.86","","","","","","NA"
"2016-05-19 05:00","2016","05","19","05:00","5.5","","4.1","","91","","33","","7","","","","100.88","","","","","","NA"
"2016-05-19 06:00","2016","05","19","06:00","9.0","","6.1","","82","","","","0","","","","100.90","","","","","","NA"
"2016-05-19 07:00","2016","05","19","07:00","9.9","","6.6","","80","","17","","7","","","","100.94","","","","","","NA"
"2016-05-19 08:00","2016","05","19","08:00","10.8","","6.3","","74","","16","","10","","","","100.96","","","","","","NA"
"2016-05-19 09:00","2016","05","19","09:00","11.6","","6.8","","72","","16","","11","","","","100.98","","","","","","NA"
"2016-05-19 10:00","2016","05","19","10:00","12.1","","7.0","","71","","17","","14","","","","100.97","","","","","","NA"
"2016-05-19 11:00","2016","05","19","11:00","11.2","","7.1","","76","","16","","14","","","","100.96","","","","","","NA"
"2016-05-19 12:00","2016","05","19","12:00","10.6","","7.3","","80","","18","","8","","","","100.99","","","","","","NA"
"2016-05-19 13:00","2016","05","19","13:00","13.2","","8.0","","71","","19","","9","","","","100.95","","","","","","NA"
"2016-05-19 14:00","2016","05","19","14:00","15.8","","7.5","","58","","23","","20","","","","100.91","","","","","","NA"
"2016-05-19 15:00","2016","05","19","15:00","17.0","","5.9","","48","","24","","19","","","","100.88","","","","","","NA"
"2016-05-19 16:00","2016","05","19","16:00","17.0","","6.9","","51","","24","","18","","","","100.87","","","","","","NA"
"2016-05-19 17:00","2016","05","19","17:00","15.7","","7.2","","57","","19","","6","","","","100.93","","","","","","NA"
"2016-05-19 18:00","2016","05","19","18:00","14.5","","7.7","","64","","14","","10","","","","100.93","","","","","","NA"
"2016-05-19 19:00","2016","05","19","19:00","12.5","","7.3","","71","","16","","4","","","","100.94","","","","","","NA"
"2016-05-19 20:00","2016","05","19","20:00","11.4","","7.0","","75","","12","","1","","","","100.97","","","","","","NA"
"2016-05-19 21:00","2016","05","19","21:00","10.2","","6.4","","77","","26","","5","","","","101.02","","","","","","NA"
"2016-05-19 22:00","2016","05","19","22:00","8.9","","7.1","","88","","33","","3","","","","101.05","","","","","","NA"
"2016-05-19 23:00","2016","05","19","23:00","9.0","","7.2","","88","","2","","2","","","","101.04","","","","","","NA"
"2016-05-20 00:00","2016","05","20","00:00","7.2","","5.2","","87","","30","","2","","","","101.06","","","","","","NA"
"2016-05-20 01:00","2016","05","20","01:00","6.9","","5.8","","93","","8","","5","","","","101.04","","","","","","NA"
"2016-05-20 02:00","2016","05","20","02:00","6.6","","5.7","","94","","18","","2","","","","101.03","","","","","","NA"
"2016-05-20 03:00","2016","05","20","03:00","4.3","","3.5","","95","","11","","2","","","","101.06","","","","","","NA"
"2016-05-20 04:00","2016","05","20","04:00","3.8","","3.1","","95","","4","","4","","","","101.11","","","","","","NA"
"2016-05-20 05:00","2016","05","20","05:00","4.2","","3.6","","96","","7","","5","","","","101.16","","","","","","NA"
"2016-05-20 06:00","2016","05","20","06:00","6.1","","5.4","","95","","2","","2","","","","101.22","","","","","","NA"
"2016-05-20 07:00","2016","05","20","07:00","9.1","","8.1","","94","","","","0","","","","101.29","","","","","","NA"
"2016-05-20 08:00","2016","05","20","08:00","10.8","","8.7","","87","","16","","6","","","","101.36","","","","","","NA"
"2016-05-20 09:00","2016","05","20","09:00","11.8","","8.4","","80","","17","","9","","","","101.41","","","","","","NA"
"2016-05-20 10:00","2016","05","20","10:00","13.4","","7.7","","68","","16","","11","","","","101.43","","","","","","NA"
"2016-05-20 11:00","2016","05","20","11:00","13.2","","7.5","","68","","15","","12","","","","101.40","","","","","","NA"
"2016-05-20 12:00","2016","05","20","12:00","13.5","","8.1","","70","","16","","16","","","","101.34","","","","","","NA"
"2016-05-20 13:00","2016","05","20","13:00","12.6","","8.4","","76","","16","","15","","","","101.28","","","","","","NA"
"2016-05-20 14:00","2016","05","20","14:00","12.4","","7.3","","71","","17","","15","","","","101.23","","","","","","NA"
"2016-05-20 15:00","2016","05","20","15:00","13.4","","7.5","","68","","17","","14","","","","101.17","","","","","","NA"
"2016-05-20 16:00","2016","05","20","16:00","13.5","","6.6","","63","","19","","16","","","","101.12","","","","","","NA"
"2016-05-20 17:00","2016","05","20","17:00","13.2","","6.5","","64","","18","","9","","","","101.05","","","","","","NA"
"2016-05-20 18:00","2016","05","20","18:00","12.6","","7.4","","71","","17","","11","","","","101.03","","","","","","NA"
"2016-05-20 19:00","2016","05","20","19:00","11.4","","7.6","","78","","14","","7","","","","101.00","","","","","","NA"
"2016-05-20 20:00","2016","05","20","20:00","9.8","","7.0","","83","","16","","2","","","","101.00","","","","","","NA"
"2016-05-20 21:00","2016","05","20","21:00","8.9","","6.7","","86","","7","","3","","","","101.00","","","","","","NA"
"2016-05-20 22:00","2016","05","20","22:00","9.0","","6.3","","83","","12","","5","","","","100.97","","","","","","NA"
"2016-05-20 23:00","2016","05","20","23:00","9.2","","6.2","","81","","2","","2","","","","100.94","","","","","","NA"
"2016-05-21 00:00","2016","05","21","00:00","8.3","","5.9","","85","","33","","9","","","","100.91","","","","","","NA"
"2016-05-21 01:00","2016","05","21","01:00","8.3","","6.0","","85","","35","","4","","","","100.88","","","","","","NA"
"2016-05-21 02:00","2016","05","21","02:00","7.9","","6.0","","88","","34","","8","","","","100.84","","","","","","NA"
"2016-05-21 03:00","2016","05","21","03:00","7.5","","5.0","","84","","33","","5","","","","100.83","","","","","","NA"
"2016-05-21 04:00","2016","05","21","04:00","6.3","","4.8","","91","","2","","2","","","","100.82","","","","","","NA"
"2016-05-21 05:00","2016","05","21","05:00","6.8","","5.2","","90","","35","","1","","","","100.81","","","","","","NA"
"2016-05-21 06:00","2016","05","21","06:00","8.6","","7.0","","90","","34","","6","","","","100.81","","","","","","NA"
"2016-05-21 07:00","2016","05","21","07:00","11.0","","8.5","","84","","1","","3","","","","100.75","","","","","","NA"
"2016-05-21 08:00","2016","05","21","08:00","14.4","","6.6","","60","","31","","3","","","","100.73","","","","","","NA"
"2016-05-21 09:00","2016","05","21","09:00","16.4","","4.7","","46","","18","","3","","","","100.71","","","","","","NA"
"2016-05-21 10:00","2016","05","21","10:00","16.8","","4.5","","44","","16","","6","","","","100.68","","","","","","NA"
"2016-05-21 11:00","2016","05","21","11:00","16.8","","5.0","","46","","19","","8","","","","100.65","","","","","","NA"
"2016-05-21 12:00","2016","05","21","12:00","16.6","","6.6","","52","","17","","10","","","","100.60","","","","","","NA"
"2016-05-21 13:00","2016","05","21","13:00","17.1","","7.5","","53","","17","","11","","","","100.53","","","","","","NA"
"2016-05-21 14:00","2016","05","21","14:00","16.8","","6.8","","52","","16","","7","","","","100.46","","","","","","NA"
"2016-05-21 15:00","2016","05","21","15:00","16.9","","7.7","","55","","17","","13","","","","100.40","","","","","","NA"
"2016-05-21 16:00","2016","05","21","16:00","16.2","","8.8","","62","","18","","12","","","","100.37","","","","","","NA"
"2016-05-21 17:00","2016","05","21","17:00","15.7","","8.9","","64","","17","","11","","","","100.31","","","","","","NA"
"2016-05-21 18:00","2016","05","21","18:00","14.5","","9.0","","70","","18","","6","","","","100.27","","","","","","NA"
"2016-05-21 19:00","2016","05","21","19:00","13.2","","9.3","","77","","19","","6","","","","100.26","","","","","","NA"
"2016-05-21 20:00","2016","05","21","20:00","13.7","","7.8","","68","","22","","10","","","","100.28","","","","","","NA"
"2016-05-21 21:00","2016","05","21","21:00","13.9","","8.8","","71","","24","","11","","","","100.27","","","","","","NA"
"2016-05-21 22:00","2016","05","21","22:00","12.6","","9.4","","81","","21","","9","","","","100.23","","","","","","NA"
"2016-05-21 23:00","2016","05","21","23:00","12.1","","9.3","","83","","21","","10","","","","100.18","","","","","","NA"
"2016-05-22 00:00","2016","05","22","00:00","12.8","","9.2","","79","","27","","8","","","","100.17","","","","","","NA"
"2016-05-22 01:00","2016","05","22","01:00","12.0","","7.9","","76","","29","","2","","","","100.09","","","","","","NA"
"2016-05-22 02:00","2016","05","22","02:00","11.3","","8.4","","82","","19","","3","","","","100.05","","","","","","NA"
"2016-05-22 03:00","2016","05","22","03:00","9.8","","7.7","","87","","28","","4","","","","100.01","","","","","","NA"
"2016-05-22 04:00","2016","05","22","04:00","10.5","","7.6","","83","","29","","4","","","","100.03","","","","","","NA"
"2016-05-22 05:00","2016","05","22","05:00","9.2","","7.6","","89","","31","","5","","","","100.07","","","","","","NA"
"2016-05-22 06:00","2016","05","22","06:00","10.4","","8.7","","90","","31","","6","","","","100.11","","","","","","NA"
"2016-05-22 07:00","2016","05","22","07:00","13.5","","9.4","","76","","36","","9","","","","100.14","","","","","","NA"
"2016-05-22 08:00","2016","05","22","08:00","16.7","","9.6","","63","","3","","15","","","","100.14","","","","","","NA"
"2016-05-22 09:00","2016","05","22","09:00","18.2","","9.6","","57","","2","","15","","","","100.15","","","","","","NA"
"2016-05-22 10:00","2016","05","22","10:00","19.3","","10.0","","55","","35","","16","","","","100.16","","","","","","NA"
"2016-05-22 11:00","2016","05","22","11:00","17.2","","10.7","","66","","19","","10","","","","100.16","","","","","","NA"
"2016-05-22 12:00","2016","05","22","12:00","17.0","","10.8","","67","","18","","13","","","","100.14","","","","","","NA"
"2016-05-22 13:00","2016","05","22","13:00","17.5","","11.1","","66","","17","","13","","","","100.15","","","","","","NA"
"2016-05-22 14:00","2016","05","22","14:00","16.6","","10.6","","68","","19","","17","","","","100.12","","","","","","NA"
"2016-05-22 15:00","2016","05","22","15:00","17.4","","11.5","","68","","19","","15","","","","100.10","","","","","","NA"
"2016-05-22 16:00","2016","05","22","16:00","19.9","","12.5","","62","","20","","9","","","","100.06","","","","","","NA"
"2016-05-22 17:00","2016","05","22","17:00","20.6","","12.1","","58","","19","","10","","","","100.05","","","","","","NA"
"2016-05-22 18:00","2016","05","22","18:00","23.4","","6.8","","34","","1","","12","","","","100.04","","","","","","NA"
"2016-05-22 19:00","2016","05","22","19:00","18.8","","10.4","","58","","24","","9","","","","100.07","","","","","","NA"
"2016-05-22 20:00","2016","05","22","20:00","15.8","","10.0","","69","","30","","5","","","","100.14","","","","","","NA"
"2016-05-22 21:00","2016","05","22","21:00","16.2","","8.2","","59","","33","","9","","","","100.22","","","","","","NA"
"2016-05-22 22:00","2016","05","22","22:00","14.9","","7.4","","61","","34","","9","","","","100.28","","","","","","NA"
"2016-05-22 23:00","2016","05","22","23:00","12.2","","9.7","","85","","15","","12","","","","100.34","","","","","","NA"
"2016-05-23 00:00","2016","05","23","00:00","11.0","","8.8","","86","","14","","8","","","","100.38","","","","","","NA"
"2016-05-23 01:00","2016","05","23","01:00","9.7","","8.1","","90","","14","","4","","","","100.37","","","","","","NA"
"2016-05-23 02:00","2016","05","23","02:00","7.1","","5.9","","92","","34","","11","","","","100.33","","","","","","NA"
"2016-05-23 03:00","2016","05","23","03:00","9.1","","7.5","","90","","35","","14","","","","100.32","","","","","","NA"
"2016-05-23 04:00","2016","05","23","04:00","10.5","","6.6","","76","","35","","9","","","","100.35","","","","","","NA"
"2016-05-23 05:00","2016","05","23","05:00","8.8","","5.8","","82","","35","","12","","","","100.40","","","","","","NA"
"2016-05-23 06:00","2016","05","23","06:00","12.7","","8.2","","74","","1","","9","","","","100.43","","","","","","NA"
"2016-05-23 07:00","2016","05","23","07:00","17.5","","7.7","","52","","6","","6","","","","100.49","","","","","","NA"
"2016-05-23 08:00","2016","05","23","08:00","19.7","","7.1","","44","","7","","11","","","","100.51","","","","","","NA"
"2016-05-23 09:00","2016","05","23","09:00","18.5","","9.8","","57","","17","","6","","","","100.50","","","","","","NA"
"2016-05-23 10:00","2016","05","23","10:00","19.6","","9.4","","52","","17","","9","","","","100.48","","","","","","NA"
"2016-05-23 11:00","2016","05","23","11:00","20.0","","9.9","","52","","15","","11","","","","100.47","","","","","","NA"
"2016-05-23 12:00","2016","05","23","12:00","19.7","","9.5","","52","","19","","19","","","","100.43","","","","","","NA"
"2016-05-23 13:00","2016","05","23","13:00","22.2","","11.6","","51","","19","","15","","","","100.38","","","","","","NA"
"2016-05-23 14:00","2016","05","23","14:00","24.5","","7.9","","35","","20","","17","","","","100.32","","25","","","","NA"
"2016-05-23 15:00","2016","05","23","15:00","23.0","","9.7","","43","","20","","19","","","","100.27","","","","","","NA"
"2016-05-23 16:00","2016","05","23","16:00","18.2","","9.5","","57","","17","","15","","","","100.21","","","","","","NA"
"2016-05-23 17:00","2016","05","23","17:00","17.7","","9.1","","57","","19","","17","","","","100.16","","","","","","NA"
"2016-05-23 18:00","2016","05","23","18:00","16.4","","9.6","","64","","19","","9","","","","100.14","","","","","","NA"
"2016-05-23 19:00","2016","05","23","19:00","15.8","","10.6","","71","","23","","4","","","","100.13","","","","","","NA"
"2016-05-23 20:00","2016","05","23","20:00","14.3","","10.0","","75","","17","","6","","","","100.15","","","","","","NA"
"2016-05-23 21:00","2016","05","23","21:00","12.7","","9.8","","83","","14","","3","","","","100.19","","","","","","NA"
"2016-05-23 22:00","2016","05","23","22:00","12.0","","8.9","","81","","12","","5","","","","100.21","","","","","","NA"
"2016-05-23 23:00","2016","05","23","23:00","11.0","","8.7","","86","","14","","4","","","","100.19","","","","","","NA"
"2016-05-24 00:00","2016","05","24","00:00","10.8","","8.7","","87","","","","0","","","","100.18","","","","","","NA"
"2016-05-24 01:00","2016","05","24","01:00","10.0","","8.6","","91","","12","","2","","","","100.19","","","","","","NA"
"2016-05-24 02:00","2016","05","24","02:00","8.4","","7.3","","93","","6","","3","","","","100.19","","","","","","NA"
"2016-05-24 03:00","2016","05","24","03:00","8.2","","6.8","","91","","30","","9","","","","100.21","","","","","","NA"
"2016-05-24 04:00","2016","05","24","04:00","9.5","","7.4","","87","","36","","5","","","","100.22","","","","","","NA"
"2016-05-24 05:00","2016","05","24","05:00","9.9","","6.5","","79","","35","","11","","","","100.23","","","","","","NA"
"2016-05-24 06:00","2016","05","24","06:00","11.6","","7.4","","75","","4","","2","","","","100.28","","","","","","NA"
"2016-05-24 07:00","2016","05","24","07:00","14.4","","10.2","","76","","23","","8","","","","100.31","","","","","","NA"
"2016-05-24 08:00","2016","05","24","08:00","16.1","","7.8","","58","","19","","7","","","","100.34","","","","","","NA"
"2016-05-24 09:00","2016","05","24","09:00","17.3","","5.4","","45","","16","","8","","","","100.32","","","","","","NA"
"2016-05-24 10:00","2016","05","24","10:00","18.7","","8.1","","50","","18","","10","","","","100.31","","","","","","NA"
"2016-05-24 11:00","2016","05","24","11:00","21.1","","6.9","","40","","19","","11","","","","100.32","","","","","","NA"
"2016-05-24 12:00","2016","05","24","12:00","22.0","","9.1","","43","","20","","12","","","","100.29","","","","","","NA"
"2016-05-24 13:00","2016","05","24","13:00","21.5","","6.3","","37","","19","","16","","","","100.26","","","","","","NA"
"2016-05-24 14:00","2016","05","24","14:00","22.7","","9.0","","42","","19","","19","","","","100.22","","","","","","NA"
"2016-05-24 15:00","2016","05","24","15:00","25.3","","6.0","","29","","22","","14","","","","100.20","","25","","","","NA"
"2016-05-24 16:00","2016","05","24","16:00","22.7","","6.0","","34","","19","","20","","","","100.16","","","","","","NA"
"2016-05-24 17:00","2016","05","24","17:00","23.0","","7.0","","36","","22","","14","","","","100.15","","","","","","NA"
"2016-05-24 18:00","2016","05","24","18:00","21.6","","8.5","","43","","23","","17","","","","100.15","","","","","","NA"
"2016-05-24 19:00","2016","05","24","19:00","20.5","","7.7","","44","","24","","17","","","","100.15","","","","","","NA"
"2016-05-24 20:00","2016","05","24","20:00","17.2","","8.9","","58","","23","","11","","","","100.15","","","","","","NA"
"2016-05-24 21:00","2016","05","24","21:00","16.2","","9.2","","63","","22","","11","","","","100.18","","","","","","NA"
"2016-05-24 22:00","2016","05","24","22:00","17.6","","8.3","","55","","25","","10","","","","100.22","","","","","","NA"
"2016-05-24 23:00","2016","05","24","23:00","17.4","","8.4","","55","","25","","10","","","","100.24","","","","","","NA"
"2016-05-25 00:00","2016","05","25","00:00","17.1","","8.3","","56","","25","","13","","","","100.24","","","","","","NA"
"2016-05-25 01:00","2016","05","25","01:00","16.3","","7.4","","56","","25","","6","","","","100.25","","","","","","NA"
"2016-05-25 02:00","2016","05","25","02:00","15.5","","7.4","","58","","26","","6","","","","100.28","","","","","","NA"
"2016-05-25 03:00","2016","05","25","03:00","13.4","","8.9","","74","","18","","4","","","","100.33","","","","","","NA"
"2016-05-25 04:00","2016","05","25","04:00","11.5","","9.2","","86","","16","","5","","","","100.35","","","","","","NA"
"2016-05-25 05:00","2016","05","25","05:00","12.5","","10.4","","87","","16","","8","","","","100.38","","","","","","NA"
"2016-05-25 06:00","2016","05","25","06:00","12.9","","10.1","","83","","17","","12","","","","100.43","","","","","","NA"
"2016-05-25 07:00","2016","05","25","07:00","13.5","","9.5","","77","","18","","18","","","","100.43","","","","","","NA"
"2016-05-25 08:00","2016","05","25","08:00","14.3","","9.2","","71","","18","","15","","","","100.46","","","","","","NA"
"2016-05-25 09:00","2016","05","25","09:00","15.4","","9.3","","67","","18","","14","","","","100.47","","","","","","NA"
"2016-05-25 10:00","2016","05","25","10:00","15.7","","10.0","","69","","13","","9","","","","100.44","","","","","","NA"
"2016-05-25 11:00","2016","05","25","11:00","18.0","","11.0","","64","","17","","4","","","","100.48","","","","","","NA"
"2016-05-25 12:00","2016","05","25","12:00","23.4","","12.8","","51","","23","","18","","","","100.46","","26","","","","NA"
"2016-05-25 13:00","2016","05","25","13:00","25.3","","12.6","","45","","22","","20","","","","100.45","","28","","","","NA"
"2016-05-25 14:00","2016","05","25","14:00","26.4","","12.7","","43","","21","","19","","","","100.44","","29","","","","NA"
"2016-05-25 15:00","2016","05","25","15:00","24.4","","13.1","","49","","20","","19","","","","100.42","","27","","","","NA"
"2016-05-25 16:00","2016","05","25","16:00","23.9","","12.7","","50","","20","","19","","","","100.42","","27","","","","NA"
"2016-05-25 17:00","2016","05","25","17:00","24.6","","11.9","","45","","24","","22","","","","100.40","","27","","","","NA"
"2016-05-25 18:00","2016","05","25","18:00","23.3","","12.2","","50","","23","","20","","","","100.41","","26","","","","NA"
"2016-05-25 19:00","2016","05","25","19:00","24.3","","13.1","","50","","1","","16","","","","100.48","","27","","","","NA"
"2016-05-25 20:00","2016","05","25","20:00","21.6","","13.1","","59","","3","","10","","","","100.55","","","","","","NA"
"2016-05-25 21:00","2016","05","25","21:00","19.5","","12.5","","64","","2","","5","","","","100.65","","","","","","NA"
"2016-05-25 22:00","2016","05","25","22:00","18.6","","12.9","","70","","3","","8","","","","100.64","","","","","","NA"
"2016-05-25 23:00","2016","05","25","23:00","17.0","","12.9","","77","","6","","6","","","","100.67","","","","","","NA"
"2016-05-26 00:00","2016","05","26","00:00","14.9","","12.6","","86","","1","","9","","","","100.63","","","","","","NA"
"2016-05-26 01:00","2016","05","26","01:00","17.7","","12.2","","70","","5","","15","","","","100.66","","","","","","NA"
"2016-05-26 02:00","2016","05","26","02:00","16.9","","11.3","","70","","6","","16","","","","100.68","","","","","","NA"
"2016-05-26 03:00","2016","05","26","03:00","16.5","","11.2","","71","","5","","14","","","","100.67","","","","","","NA"
"2016-05-26 04:00","2016","05","26","04:00","15.7","","11.2","","74","","4","","11","","","","100.69","","","","","","NA"
"2016-05-26 05:00","2016","05","26","05:00","15.8","","11.2","","74","","4","","11","","","","100.76","","","","","","NA"
"2016-05-26 06:00","2016","05","26","06:00","16.7","","11.7","","72","","5","","13","","","","100.78","","","","","","NA"
"2016-05-26 07:00","2016","05","26","07:00","17.9","","12.2","","69","","5","","16","","","","100.76","","","","","","NA"
"2016-05-26 08:00","2016","05","26","08:00","19.8","","12.4","","62","","6","","17","","","","100.72","","","","","","NA"
"2016-05-26 09:00","2016","05","26","09:00","20.4","","12.8","","61","","12","","16","","","","100.70","","","","","","NA"
"2016-05-26 10:00","2016","05","26","10:00","21.5","","13.9","","62","","14","","10","","","","100.68","","25","","","","NA"
"2016-05-26 11:00","2016","05","26","11:00","21.3","","13.4","","60","","14","","9","","","","100.65","","","","","","NA"
"2016-05-26 12:00","2016","05","26","12:00","22.3","","11.5","","50","","14","","12","","","","100.60","","","","","","NA"
"2016-05-26 13:00","2016","05","26","13:00","21.3","","11.7","","54","","19","","3","","","","100.56","","","","","","NA"
"2016-05-26 14:00","2016","05","26","14:00","25.1","","12.0","","44","","15","","8","","","","100.49","","27","","","","NA"
"2016-05-26 15:00","2016","05","26","15:00","23.8","","12.1","","48","","16","","7","","","","100.47","","26","","","","NA"
"2016-05-26 16:00","2016","05","26","16:00","24.2","","13.1","","50","","21","","3","","","","100.45","","27","","","","NA"
"2016-05-26 17:00","2016","05","26","17:00","22.5","","15.2","","64","","36","","7","","","","100.38","","27","","","","NA"
"2016-05-26 18:00","2016","05","26","18:00","22.5","","16.2","","67","","36","","3","","","","100.36","","27","","","","NA"
"2016-05-26 19:00","2016","05","26","19:00","21.7","","15.6","","68","","","","0","","","","100.36","","26","","","","NA"
"2016-05-26 20:00","2016","05","26","20:00","20.8","","15.5","","71","","11","","4","","","","100.32","","25","","","","NA"
"2016-05-26 21:00","2016","05","26","21:00","19.5","","15.2","","77","","10","","3","","","","100.37","","","","","","NA"
"2016-05-26 22:00","2016","05","26","22:00","17.7","","14.3","","81","","18","","3","","","","100.35","","","","","","NA"
"2016-05-26 23:00","2016","05","26","23:00","17.2","","14.9","","87","","16","","6","","","","100.35","","","","","","NA"
"2016-05-27 00:00","2016","05","27","00:00","16.2","","13.5","","84","","17","","4","","","","100.38","","","","","","NA"
"2016-05-27 01:00","2016","05","27","01:00","15.7","","12.9","","83","","20","","4","","","","100.38","","","","","","NA"
"2016-05-27 02:00","2016","05","27","02:00","15.1","","13.2","","88","","15","","6","","","","100.34","","","","","","NA"
"2016-05-27 03:00","2016","05","27","03:00","15.3","","13.0","","86","","16","","8","","","","100.30","","","","","","NA"
"2016-05-27 04:00","2016","05","27","04:00","15.2","","13.6","","90","","16","","7","","","","100.26","","","","","","NA"
"2016-05-27 05:00","2016","05","27","05:00","15.0","","13.6","","91","","15","","6","","","","100.31","","","","","","NA"
"2016-05-27 06:00","2016","05","27","06:00","15.4","","13.8","","90","","15","","10","","","","100.35","","","","","","NA"
"2016-05-27 07:00","2016","05","27","07:00","16.2","","14.0","","87","","16","","13","","","","100.38","","","","","","NA"
"2016-05-27 08:00","2016","05","27","08:00","16.8","","14.0","","84","","15","","7","","","","100.40","","","","","","NA"
"2016-05-27 09:00","2016","05","27","09:00","17.5","","14.2","","81","","15","","11","","","","100.39","","","","","","NA"
"2016-05-27 10:00","2016","05","27","10:00","17.6","","14.2","","81","","17","","14","","","","100.39","","","","","","NA"
"2016-05-27 11:00","2016","05","27","11:00","18.5","","14.8","","79","","17","","18","","","","100.39","","","","","","NA"
"2016-05-27 12:00","2016","05","27","12:00","18.6","","14.8","","79","","18","","19","","","","100.37","","","","","","NA"
"2016-05-27 13:00","2016","05","27","13:00","19.7","","15.8","","78","","18","","15","","","","100.35","","","","","","NA"
"2016-05-27 14:00","2016","05","27","14:00","20.1","","16.0","","77","","17","","18","","","","100.34","","25","","","","NA"
"2016-05-27 15:00","2016","05","27","15:00","20.8","","15.6","","72","","18","","12","","","","100.37","","25","","","","NA"
"2016-05-27 16:00","2016","05","27","16:00","23.6","","18.0","","71","","19","","17","","","","100.34","","30","","","","NA"
"2016-05-27 17:00","2016","05","27","17:00","20.8","","15.5","","72","","18","","11","","","","100.28","","25","","","","NA"
"2016-05-27 18:00","2016","05","27","18:00","21.5","","16.7","","74","","20","","6","","","","100.29","","27","","","","NA"
"2016-05-27 19:00","2016","05","27","19:00","18.7","","15.7","","83","","17","","4","","","","100.33","","","","","","NA"
"2016-05-27 20:00","2016","05","27","20:00","16.6","","14.5","","87","","15","","5","","","","100.36","","","","","","NA"
"2016-05-27 21:00","2016","05","27","21:00","16.0","","14.4","","90","","15","","10","","","","100.46","","","","","","NA"
"2016-05-27 22:00","2016","05","27","22:00","15.8","","14.4","","91","","18","","12","","","","100.48","","","","","","NA"
"2016-05-27 23:00","2016","05","27","23:00","15.6","","14.3","","92","","16","","4","","","","100.51","","","","","","NA"
"2016-05-28 00:00","2016","05","28","00:00","14.8","","13.6","","93","","17","","3","","","","100.53","","","","","","NA"
"2016-05-28 01:00","2016","05","28","01:00","15.2","","14.1","","93","","0","","1","","","","100.54","","","","","","NA"
"2016-05-28 02:00","2016","05","28","02:00","15.3","","14.2","","93","","0","","1","","","","100.54","","","","","","NA"
"2016-05-28 03:00","2016","05","28","03:00","15.7","","14.6","","93","","15","","4","","","","100.58","","","","","","NA"
"2016-05-28 04:00","2016","05","28","04:00","14.5","","13.4","","93","","3","","2","","","","100.63","","","","","","NA"
"2016-05-28 05:00","2016","05","28","05:00","16.4","","15.4","","94","","16","","4","","","","100.67","","","","","","NA"
"2016-05-28 06:00","2016","05","28","06:00","16.9","","15.7","","93","","16","","6","","","","100.73","","","","","","NA"
"2016-05-28 07:00","2016","05","28","07:00","17.6","","16.5","","93","","16","","4","","","","100.75","","","","","","NA"
"2016-05-28 08:00","2016","05","28","08:00","17.8","","15.3","","85","","16","","7","","","","100.77","","","","","","NA"
"2016-05-28 09:00","2016","05","28","09:00","18.2","","15.4","","84","","15","","8","","","","100.78","","","","","","NA"
"2016-05-28 10:00","2016","05","28","10:00","19.9","","16.8","","83","","16","","10","","","","100.81","","","","","","NA"
"2016-05-28 11:00","2016","05","28","11:00","20.8","","16.9","","78","","17","","11","","","","100.84","","26","","","","NA"
"2016-05-28 12:00","2016","05","28","12:00","21.6","","17.6","","78","","16","","10","","","","100.81","","27","","","","NA"
"2016-05-28 13:00","2016","05","28","13:00","22.9","","17.7","","72","","16","","8","","","","100.79","","29","","","","NA"
"2016-05-28 14:00","2016","05","28","14:00","23.8","","16.4","","63","","16","","11","","","","100.73","","29","","","","NA"
"2016-05-28 15:00","2016","05","28","15:00","25.2","","16.3","","58","","16","","10","","","","100.69","","30","","","","NA"
"2016-05-28 16:00","2016","05","28","16:00","25.4","","15.5","","54","","17","","11","","","","100.65","","30","","","","NA"
"2016-05-28 17:00","2016","05","28","17:00","24.9","","16.6","","60","","17","","9","","","","100.62","","30","","","","NA"
"2016-05-28 18:00","2016","05","28","18:00","23.8","","17.5","","68","","20","","8","","","","100.63","","29","","","","NA"
"2016-05-28 19:00","2016","05","28","19:00","22.5","","16.8","","70","","17","","5","","","","100.63","","28","","","","NA"
"2016-05-28 20:00","2016","05","28","20:00","20.9","","16.5","","76","","18","","7","","","","100.66","","26","","","","NA"
"2016-05-28 21:00","2016","05","28","21:00","19.4","","16.4","","83","","0","","1","","","","100.68","","","","","","NA"
"2016-05-28 22:00","2016","05","28","22:00","18.7","","16.3","","86","","","","0","","","","100.68","","","","","","NA"
"2016-05-28 23:00","2016","05","28","23:00","18.3","","16.2","","88","","4","","3","","","","100.66","","","","","","NA"
"2016-05-29 00:00","2016","05","29","00:00","18.5","","16.8","","90","","35","","5","","","","100.69","","","","","","NA"
"2016-05-29 01:00","2016","05","29","01:00","18.5","","16.6","","89","","","","0","","","","100.68","","","","","","NA"
"2016-05-29 02:00","2016","05","29","02:00","19.1","","16.8","","87","","26","","1","","","","100.65","","","","","","NA"
"2016-05-29 03:00","2016","05","29","03:00","19.6","","17.2","","86","","14","","6","","","","100.63","","","","","","NA"
"2016-05-29 04:00","2016","05","29","04:00","19.5","","17.1","","86","","10","","4","","","","100.63","","","","","","NA"
"2016-05-29 05:00","2016","05","29","05:00","19.7","","16.9","","84","","14","","8","","","","100.64","","","","","","NA"
"2016-05-29 06:00","2016","05","29","06:00","19.3","","17.0","","87","","18","","3","","","","100.66","","","","","","NA"
"2016-05-29 07:00","2016","05","29","07:00","20.2","","17.5","","84","","19","","10","","","","100.68","","26","","","","NA"
"2016-05-29 08:00","2016","05","29","08:00","22.1","","18.2","","79","","16","","8","","","","100.69","","28","","","","NA"
"2016-05-29 09:00","2016","05","29","09:00","20.9","","17.8","","82","","17","","11","","","","100.69","","27","","","","NA"
"2016-05-29 10:00","2016","05","29","10:00","21.8","","18.2","","80","","15","","9","","","","100.65","","28","","","","NA"
"2016-05-29 11:00","2016","05","29","11:00","22.1","","18.3","","79","","16","","12","","","","100.61","","28","","","","NA"
"2016-05-29 12:00","2016","05","29","12:00","22.5","","18.4","","77","","16","","13","","","","100.55","","29","","","","NA"
"2016-05-29 13:00","2016","05","29","13:00","21.6","","17.6","","78","","16","","16","","","","100.51","","27","","","","NA"
"2016-05-29 14:00","2016","05","29","14:00","21.8","","17.8","","78","","17","","20","","","","100.48","","28","","","","NA"
"2016-05-29 15:00","2016","05","29","15:00","23.6","","17.7","","69","","19","","19","","","","100.38","","29","","","","NA"
"2016-05-29 16:00","2016","05","29","16:00","25.3","","18.1","","64","","19","","13","","","","100.34","","31","","","","NA"
"2016-05-29 17:00","2016","05","29","17:00","21.5","","16.1","","71","","18","","21","","","","100.33","","26","","","","NA"
"2016-05-29 18:00","2016","05","29","18:00","19.6","","16.6","","83","","19","","19","","","","100.31","","","","","","NA"
"2016-05-29 19:00","2016","05","29","19:00","21.5","","17.1","","76","","21","","8","","","","100.30","","27","","","","NA"
"2016-05-29 20:00","2016","05","29","20:00","20.6","","16.6","","78","","14","","8","","","","100.30","","26","","","","NA"
"2016-05-29 21:00","2016","05","29","21:00","21.3","","15.4","","69","","25","","4","","","","100.30","","26","","","","NA"
"2016-05-29 22:00","2016","05","29","22:00","19.9","","15.8","","77","","24","","6","","","","100.26","","","","","","NA"
"2016-05-29 23:00","2016","05","29","23:00","18.1","","13.9","","76","","21","","11","","","","100.32","","","","","","NA"
"2016-05-30 00:00","2016","05","30","00:00","17.9","","14.5","","81","","24","","12","","","","100.25","","","","","","NA"
"2016-05-30 01:00","2016","05","30","01:00","18.3","","15.0","","81","","24","","9","","","","100.15","","","","","","NA"
"2016-05-30 02:00","2016","05","30","02:00","17.6","","14.2","","81","","19","","20","","","","100.18","","","","","","NA"
"2016-05-30 03:00","2016","05","30","03:00","16.6","","14.5","","88","","21","","10","","","","100.16","","","","","","NA"
"2016-05-30 04:00","2016","05","30","04:00","16.2","","14.6","","90","","20","","9","","","","100.13","","","","","","NA"
"2016-05-30 05:00","2016","05","30","05:00","15.9","","14.1","","89","","17","","13","","","","100.16","","","","","","NA"
"2016-05-30 06:00","2016","05","30","06:00","16.4","","14.4","","88","","18","","11","","","","100.14","","","","","","NA"
"2016-05-30 07:00","2016","05","30","07:00","17.0","","14.6","","86","","19","","15","","","","100.14","","","","","","NA"
"2016-05-30 08:00","2016","05","30","08:00","19.7","","15.6","","78","","18","","13","","","","100.14","","","","","","NA"
"2016-05-30 09:00","2016","05","30","09:00","22.9","","16.2","","66","","22","","16","","","","100.10","","28","","","","NA"
"2016-05-30 10:00","2016","05","30","10:00","21.5","","15.7","","70","","19","","16","","","","100.04","","26","","","","NA"
"2016-05-30 11:00","2016","05","30","11:00","22.4","","16.1","","68","","19","","20","","","","100.03","","27","","","","NA"
"2016-05-30 12:00","2016","05","30","12:00","25.6","","15.5","","54","","21","","22","","","","100.03","","30","","","","NA"
"2016-05-30 13:00","2016","05","30","13:00","25.6","","15.0","","52","","23","","30","","","","100.00","","30","","","","NA"
"2016-05-30 14:00","2016","05","30","14:00","26.0","","15.7","","53","","21","","22","","","","99.99","","30","","","","NA"
"2016-05-30 15:00","2016","05","30","15:00","26.0","","15.3","","52","","23","","27","","","","99.98","","30","","","","NA"
"2016-05-30 16:00","2016","05","30","16:00","25.3","","15.1","","53","","24","","24","","","","99.99","","29","","","","NA"
"2016-05-30 17:00","2016","05","30","17:00","25.0","","14.6","","53","","24","","25","","","","99.96","","29","","","","NA"
"2016-05-30 18:00","2016","05","30","18:00","23.3","","14.1","","56","","25","","18","","","","99.98","","27","","","","NA"
"2016-05-30 19:00","2016","05","30","19:00","24.4","","8.3","","36","","27","","22","","","","100.01","","25","","","","NA"
"2016-05-30 20:00","2016","05","30","20:00","22.1","","8.7","","42","","27","","17","","","","100.08","","","","","","NA"
"2016-05-30 21:00","2016","05","30","21:00","20.3","","8.6","","47","","26","","12","","","","100.16","","","","","","NA"
"2016-05-30 22:00","2016","05","30","22:00","19.1","","9.7","","54","","25","","10","","","","100.21","","","","","","NA"
"2016-05-30 23:00","2016","05","30","23:00","16.9","","10.8","","68","","23","","10","","","","100.22","","","","","","NA"
"2016-05-31 00:00","2016","05","31","00:00","16.9","","11.0","","68","","25","","9","","","","100.23","","","","","","NA"
"2016-05-31 01:00","2016","05","31","01:00","17.2","","10.3","","64","","26","","10","","","","100.21","","","","","","NA"
"2016-05-31 02:00","2016","05","31","02:00","15.3","","11.3","","77","","23","","8","","","","100.23","","","","","","NA"
"2016-05-31 03:00","2016","05","31","03:00","14.7","","11.1","","79","","22","","10","","","","100.22","","","","","","NA"
"2016-05-31 04:00","2016","05","31","04:00","14.3","","11.4","","83","","23","","11","","","","100.22","","","","","","NA"
"2016-05-31 05:00","2016","05","31","05:00","14.7","","11.7","","82","","24","","13","","","","100.27","","","","","","NA"
"2016-05-31 06:00","2016","05","31","06:00","15.6","","11.7","","78","","24","","13","","","","100.30","","","","","","NA"
"2016-05-31 07:00","2016","05","31","07:00","17.2","","12.2","","73","","23","","12","","","","100.33","","","","","","NA"
"2016-05-31 08:00","2016","05","31","08:00","19.5","","11.9","","61","","23","","16","","","","100.34","","","","","","NA"
"2016-05-31 09:00","2016","05","31","09:00","21.3","","11.7","","54","","22","","19","","","","100.33","","","","","","NA"
"2016-05-31 10:00","2016","05","31","10:00","22.9","","11.2","","48","","23","","21","","","","100.28","","25","","","","NA"
"2016-05-31 11:00","2016","05","31","11:00","25.1","","10.5","","40","","25","","20","","","","100.25","","27","","","","NA"
"2016-05-31 12:00","2016","05","31","12:00","24.2","","11.3","","44","","21","","18","","","","100.23","","26","","","","NA"
"2016-05-31 13:00","2016","05","31","13:00","23.9","","11.7","","46","","23","","22","","","","100.23","","26","","","","NA"
"2016-05-31 14:00","2016","05","31","14:00","21.7","","12.3","","55","","19","","25","","","","100.21","","","","","","NA"
"2016-05-31 15:00","2016","05","31","15:00","22.8","","10.8","","46","","21","","19","","","","100.20","","","","","","NA"
"2016-05-31 16:00","2016","05","31","16:00","23.6","","9.0","","39","","27","","16","","","","100.23","","","","","","NA"
"2016-05-31 17:00","2016","05","31","17:00","25.1","","9.1","","36","","33","","19","","","","100.29","","26","","","","NA"
"2016-05-31 18:00","2016","05","31","18:00","22.2","","9.9","","46","","34","","30","","","","100.43","","","","","","NA"
"2016-05-31 19:00","2016","05","31","19:00","19.8","","8.1","","47","","35","","25","","","","100.53","","","","","","NA"
"2016-05-31 20:00","2016","05","31","20:00","17.8","","7.3","","50","","36","","20","","","","100.61","","","","","","NA"
"2016-05-31 21:00","2016","05","31","21:00","15.7","","6.6","","55","","36","","19","","","","100.74","","","","","","NA"
"2016-05-31 22:00","2016","05","31","22:00","14.2","","6.1","","58","","3","","19","","","","100.78","","","","","","NA"
"2016-05-31 23:00","2016","05","31","23:00","12.7","","5.0","","60","","2","","16","","","","100.84","","","","","","NA"
