"Station Name","KINGSTON CLIMATE"
"Province","ONTARIO"
"Current Station Operator","Environment and Climate Change Canada - Meteorological Service of Canada"
"Latitude","44.22"
"Longitude","-76.60"
"Elevation","93.00"
"Climate Identifier","6104142"
"WMO Identifier","71820"
"TC Identifier","TKG"
"All times are specified in Local Standard Time (LST). Add 1 hour to adjust for Daylight Saving Time where and when it is observed."

"Legend"
"E","Estimated"
"M","Missing"
"NA","Not Available"

"Date/Time","Year","Month","Day","Time","Temp (°C)","Temp Flag","Dew Point Temp (°C)","Dew Point Temp Flag","Rel Hum (%)","Rel Hum Flag","Wind Dir (10s deg)","Wind Dir Flag","Wind Spd (km/h)","Wind Spd Flag","Visibility (km)","Visibility Flag","Stn Press (kPa)","Stn Press Flag","Hmdx","Hmdx Flag","Wind Chill","Wind Chill Flag","Weather"
"2019-08-01 00:00","2019","08","01","00:00","20.0","","11.7","","59","","1","","12","","","","100.73","","","","","","NA"
"2019-08-01 01:00","2019","08","01","01:00","18.8","","11.2","","61","","1","","11","","","","100.77","","","","","","NA"
"2019-08-01 02:00","2019","08","01","02:00","18.4","","11.1","","62","","1","","11","","","","100.82","","","","","","NA"
"2019-08-01 03:00","2019","08","01","03:00","17.3","","11.2","","67","","1","","11","","","","100.86","","","","","","NA"
"2019-08-01 04:00","2019","08","01","04:00","14.7","","12.6","","87","","36","","10","","","","100.88","","","","","","NA"
"2019-08-01 05:00","2019","08","01","05:00","14.3","","12.8","","91","","34","","11","","","","100.92","","","","","","NA"
"2019-08-01 06:00","2019","08","01","06:00","15.8","","13.0","","83","","35","","11","","","","100.95","","","","","","NA"
"2019-08-01 07:00","2019","08","01","07:00","19.3","","11.8","","62","","36","","10","","","","100.99","","","","","","NA"
"2019-08-01 08:00","2019","08","01","08:00","21.7","","10.7","","50","","2","","10","","","","101.03","","","","","","NA"
"2019-08-01 09:00","2019","08","01","09:00","23.7","","9.3","","40","","5","","15","","","","101.03","","25","","","","NA"
"2019-08-01 10:00","2019","08","01","10:00","24.7","","8.7","","36","","6","","12","","","","101.06","","25","","","","NA"
"2019-08-01 11:00","2019","08","01","11:00","25.4","","7.5","","32","","4","","9","","","","101.05","","26","","","","NA"
"2019-08-01 12:00","2019","08","01","12:00","24.9","","9.5","","38","","18","","11","","","","101.05","","26","","","","NA"
"2019-08-01 13:00","2019","08","01","13:00","25.7","","9.5","","36","","15","","14","","","","101.03","","27","","","","NA"
"2019-08-01 14:00","2019","08","01","14:00","24.9","","10.0","","39","","19","","21","","","","101.00","","26","","","","NA"
"2019-08-01 15:00","2019","08","01","15:00","25.0","","11.0","","41","","19","","17","","","","100.96","","27","","","","NA"
"2019-08-01 16:00","2019","08","01","16:00","25.2","","11.2","","42","","19","","13","","","","100.91","","27","","","","NA"
"2019-08-01 17:00","2019","08","01","17:00","25.1","","11.4","","42","","20","","13","","","","100.88","","27","","","","NA"
"2019-08-01 18:00","2019","08","01","18:00","24.3","","12.3","","47","","22","","10","","","","100.87","","27","","","","NA"
"2019-08-01 19:00","2019","08","01","19:00","22.8","","12.6","","52","","23","","7","","","","100.88","","25","","","","NA"
"2019-08-01 20:00","2019","08","01","20:00","21.8","","12.6","","56","","23","","7","","","","100.89","","","","","","NA"
"2019-08-01 21:00","2019","08","01","21:00","21.0","","14.7","","67","","25","","7","","","","100.92","","25","","","","NA"
"2019-08-01 22:00","2019","08","01","22:00","17.5","","14.5","","82","","26","","4","","","","100.94","","","","","","NA"
"2019-08-01 23:00","2019","08","01","23:00","17.0","","15.3","","89","","32","","6","","","","100.96","","","","","","NA"
"2019-08-02 00:00","2019","08","02","00:00","14.4","","14.4","","100","","33","","8","","","","100.96","","","","","","NA"
"2019-08-02 01:00","2019","08","02","01:00","13.6","","13.4","","99","","33","","8","","","","100.95","","","","","","NA"
"2019-08-02 02:00","2019","08","02","02:00","14.3","","14.2","","99","","33","","5","","","","100.95","","","","","","NA"
"2019-08-02 03:00","2019","08","02","03:00","13.7","","13.7","","100","","33","","7","","","","100.95","","","","","","NA"
"2019-08-02 04:00","2019","08","02","04:00","13.2","","13.2","","100","","7","","5","","","","100.96","","","","","","NA"
"2019-08-02 05:00","2019","08","02","05:00","12.3","","12.3","","100","","35","","5","","","","100.99","","","","","","NA"
"2019-08-02 06:00","2019","08","02","06:00","13.9","","13.9","","100","","34","","7","","","","101.00","","","","","","NA"
"2019-08-02 07:00","2019","08","02","07:00","18.8","","17.1","","90","","33","","4","","","","101.00","","","","","","NA"
"2019-08-02 08:00","2019","08","02","08:00","21.9","","14.5","","63","","27","","4","","","","101.01","","26","","","","NA"
"2019-08-02 09:00","2019","08","02","09:00","23.4","","14.7","","58","","22","","8","","","","101.02","","27","","","","NA"
"2019-08-02 10:00","2019","08","02","10:00","23.8","","14.9","","58","","18","","10","","","","101.02","","28","","","","NA"
"2019-08-02 11:00","2019","08","02","11:00","24.6","","15.7","","57","","17","","13","","","","100.96","","29","","","","NA"
"2019-08-02 12:00","2019","08","02","12:00","24.6","","16.4","","60","","17","","19","","","","100.92","","29","","","","NA"
"2019-08-02 13:00","2019","08","02","13:00","24.8","","16.2","","59","","17","","19","","","","100.87","","30","","","","NA"
"2019-08-02 14:00","2019","08","02","14:00","25.5","","16.6","","58","","19","","18","","","","100.83","","31","","","","NA"
"2019-08-02 15:00","2019","08","02","15:00","24.9","","17.2","","63","","19","","21","","","","100.78","","30","","","","NA"
"2019-08-02 16:00","2019","08","02","16:00","25.0","","15.8","","57","","20","","21","","","","100.77","","29","","","","NA"
"2019-08-02 17:00","2019","08","02","17:00","25.1","","12.8","","47","","21","","16","","","","100.72","","28","","","","NA"
"2019-08-02 18:00","2019","08","02","18:00","24.7","","13.5","","50","","19","","8","","","","100.70","","28","","","","NA"
"2019-08-02 19:00","2019","08","02","19:00","23.4","","12.5","","50","","23","","6","","","","100.65","","26","","","","NA"
"2019-08-02 20:00","2019","08","02","20:00","22.3","","14.0","","59","","24","","7","","","","100.68","","26","","","","NA"
"2019-08-02 21:00","2019","08","02","21:00","18.5","","13.0","","70","","33","","3","","","","100.70","","","","","","NA"
"2019-08-02 22:00","2019","08","02","22:00","18.4","","13.8","","74","","21","","4","","","","100.71","","","","","","NA"
"2019-08-02 23:00","2019","08","02","23:00","19.6","","12.5","","64","","25","","8","","","","100.70","","","","","","NA"
"2019-08-03 00:00","2019","08","03","00:00","16.3","","14.5","","89","","29","","6","","","","100.63","","","","","","NA"
"2019-08-03 01:00","2019","08","03","01:00","14.9","","11.7","","81","","33","","10","","","","100.58","","","","","","NA"
"2019-08-03 02:00","2019","08","03","02:00","14.0","","13.2","","95","","34","","9","","","","100.58","","","","","","NA"
"2019-08-03 03:00","2019","08","03","03:00","16.7","","9.8","","64","","24","","6","","","","100.54","","","","","","NA"
"2019-08-03 04:00","2019","08","03","04:00","14.8","","11.0","","78","","21","","5","","","","100.55","","","","","","NA"
"2019-08-03 05:00","2019","08","03","05:00","14.4","","13.6","","95","","30","","2","","","","100.58","","","","","","NA"
"2019-08-03 06:00","2019","08","03","06:00","14.4","","14.4","","100","","30","","5","","","","100.60","","","","","","NA"
"2019-08-03 07:00","2019","08","03","07:00","18.9","","14.0","","73","","20","","1","","","","100.61","","","","","","NA"
"2019-08-03 08:00","2019","08","03","08:00","20.8","","14.2","","66","","22","","7","","","","100.57","","","","","","NA"
"2019-08-03 09:00","2019","08","03","09:00","23.1","","13.9","","56","","23","","7","","","","100.55","","26","","","","NA"
"2019-08-03 10:00","2019","08","03","10:00","24.5","","13.7","","51","","20","","13","","","","100.50","","28","","","","NA"
"2019-08-03 11:00","2019","08","03","11:00","24.4","","15.4","","57","","18","","20","","","","100.45","","29","","","","NA"
"2019-08-03 12:00","2019","08","03","12:00","25.1","","15.2","","54","","18","","24","","","","100.41","","29","","","","NA"
"2019-08-03 13:00","2019","08","03","13:00","25.3","","16.2","","57","","19","","27","","","","100.35","","30","","","","NA"
"2019-08-03 14:00","2019","08","03","14:00","25.7","","17.2","","59","","19","","28","","","","100.27","","31","","","","NA"
"2019-08-03 15:00","2019","08","03","15:00","26.8","","17.8","","58","","20","","24","","","","100.20","","33","","","","NA"
"2019-08-03 16:00","2019","08","03","16:00","27.0","","18.4","","59","","20","","22","","","","100.18","","33","","","","NA"
"2019-08-03 17:00","2019","08","03","17:00","20.3","","20.3","","100","","35","","13","","","","100.27","","28","","","","NA"
"2019-08-03 18:00","2019","08","03","18:00","20.9","","20.8","","100","","33","","18","","","","100.28","","29","","","","NA"
"2019-08-03 19:00","2019","08","03","19:00","20.8","","20.8","","100","","0","","1","","","","100.25","","29","","","","NA"
"2019-08-03 20:00","2019","08","03","20:00","20.4","","20.4","","100","","31","","3","","","","100.29","","28","","","","NA"
"2019-08-03 21:00","2019","08","03","21:00","20.0","","20.0","","100","","31","","4","","","","100.33","","28","","","","NA"
"2019-08-03 22:00","2019","08","03","22:00","20.0","","20.0","","100","","32","","5","","","","100.32","","28","","","","NA"
"2019-08-03 23:00","2019","08","03","23:00","20.5","","20.5","","100","","33","","13","","","","100.32","","28","","","","NA"
"2019-08-04 00:00","2019","08","04","00:00","19.9","","19.9","","100","","33","","9","","","","100.33","","","","","","NA"
"2019-08-04 01:00","2019","08","04","01:00","20.0","","19.4","","96","","36","","14","","","","100.34","","27","","","","NA"
"2019-08-04 02:00","2019","08","04","02:00","19.1","","15.2","","78","","1","","16","","","","100.36","","","","","","NA"
"2019-08-04 03:00","2019","08","04","03:00","18.3","","12.6","","69","","1","","15","","","","100.40","","","","","","NA"
"2019-08-04 04:00","2019","08","04","04:00","17.6","","11.4","","67","","36","","10","","","","100.40","","","","","","NA"
"2019-08-04 05:00","2019","08","04","05:00","17.4","","10.9","","65","","1","","13","","","","100.41","","","","","","NA"
"2019-08-04 06:00","2019","08","04","06:00","17.1","","10.8","","67","","1","","15","","","","100.48","","","","","","NA"
"2019-08-04 07:00","2019","08","04","07:00","17.3","","10.8","","66","","1","","14","","","","100.49","","","","","","NA"
"2019-08-04 08:00","2019","08","04","08:00","19.6","","11.5","","59","","2","","16","","","","100.51","","","","","","NA"
"2019-08-04 09:00","2019","08","04","09:00","20.8","","10.9","","53","","2","","14","","","","100.55","","","","","","NA"
"2019-08-04 10:00","2019","08","04","10:00","21.4","","9.6","","47","","2","","13","","","","100.55","","","","","","NA"
"2019-08-04 11:00","2019","08","04","11:00","22.2","","8.4","","41","","1","","16","","","","100.56","","","","","","NA"
"2019-08-04 12:00","2019","08","04","12:00","22.8","","6.9","","36","","36","","13","","","","100.52","","","","","","NA"
"2019-08-04 13:00","2019","08","04","13:00","23.2","","7.6","","37","","34","","9","","","","100.48","","","","","","NA"
"2019-08-04 14:00","2019","08","04","14:00","24.0","","8.2","","37","","29","","7","","","","100.46","","","","","","NA"
"2019-08-04 15:00","2019","08","04","15:00","24.7","","8.2","","35","","29","","8","","","","100.43","","25","","","","NA"
"2019-08-04 16:00","2019","08","04","16:00","24.9","","9.8","","38","","24","","7","","","","100.39","","26","","","","NA"
"2019-08-04 17:00","2019","08","04","17:00","23.5","","11.2","","46","","18","","12","","","","100.40","","25","","","","NA"
"2019-08-04 18:00","2019","08","04","18:00","23.1","","11.5","","48","","20","","15","","","","100.39","","25","","","","NA"
"2019-08-04 19:00","2019","08","04","19:00","21.3","","13.3","","60","","21","","10","","","","100.40","","","","","","NA"
"2019-08-04 20:00","2019","08","04","20:00","20.2","","14.2","","68","","20","","9","","","","100.40","","","","","","NA"
"2019-08-04 21:00","2019","08","04","21:00","19.7","","14.6","","72","","22","","11","","","","100.43","","","","","","NA"
"2019-08-04 22:00","2019","08","04","22:00","19.5","","14.6","","73","","21","","12","","","","100.42","","","","","","NA"
"2019-08-04 23:00","2019","08","04","23:00","16.8","","15.7","","94","","35","","8","","","","100.48","","","","","","NA"
"2019-08-05 00:00","2019","08","05","00:00","15.5","","15.5","","100","","33","","2","","","","100.49","","","","","","NA"
"2019-08-05 01:00","2019","08","05","01:00","15.1","","15.1","","100","","6","","3","","","","100.49","","","","","","NA"
"2019-08-05 02:00","2019","08","05","02:00","13.3","","13.3","","100","","33","","7","","","","100.46","","","","","","NA"
"2019-08-05 03:00","2019","08","05","03:00","13.2","","13.1","","100","","34","","4","","","","100.47","","","","","","NA"
"2019-08-05 04:00","2019","08","05","04:00","12.1","","12.1","","100","","35","","5","","","","100.47","","","","","","NA"
"2019-08-05 05:00","2019","08","05","05:00","12.1","","12.1","","100","","36","","4","","","","100.44","","","","","","NA"
"2019-08-05 06:00","2019","08","05","06:00","13.9","","13.9","","100","","35","","6","","","","100.45","","","","","","NA"
"2019-08-05 07:00","2019","08","05","07:00","19.7","","19.6","","99","","1","","2","","","","100.47","","","","","","NA"
"2019-08-05 08:00","2019","08","05","08:00","21.7","","17.9","","79","","23","","9","","","","100.47","","28","","","","NA"
"2019-08-05 09:00","2019","08","05","09:00","23.5","","17.0","","67","","24","","13","","","","100.48","","29","","","","NA"
"2019-08-05 10:00","2019","08","05","10:00","23.7","","15.9","","62","","19","","25","","","","100.47","","28","","","","NA"
"2019-08-05 11:00","2019","08","05","11:00","24.1","","14.7","","56","","18","","25","","","","100.45","","28","","","","NA"
"2019-08-05 12:00","2019","08","05","12:00","24.6","","14.1","","52","","19","","25","","","","100.39","","28","","","","NA"
"2019-08-05 13:00","2019","08","05","13:00","24.7","","13.7","","51","","19","","27","","","","100.35","","28","","","","NA"
"2019-08-05 14:00","2019","08","05","14:00","25.0","","13.8","","50","","19","","26","","","","100.34","","28","","","","NA"
"2019-08-05 15:00","2019","08","05","15:00","25.1","","13.7","","49","","18","","24","","","","100.26","","28","","","","NA"
"2019-08-05 16:00","2019","08","05","16:00","25.1","","13.5","","49","","19","","23","","","","100.18","","28","","","","NA"
"2019-08-05 17:00","2019","08","05","17:00","24.9","","14.8","","54","","18","","18","","","","100.14","","29","","","","NA"
"2019-08-05 18:00","2019","08","05","18:00","24.3","","15.6","","58","","17","","18","","","","100.07","","29","","","","NA"
"2019-08-05 19:00","2019","08","05","19:00","23.5","","16.5","","65","","18","","15","","","","100.06","","28","","","","NA"
"2019-08-05 20:00","2019","08","05","20:00","23.1","","17.4","","70","","17","","15","","","","100.05","","29","","","","NA"
"2019-08-05 21:00","2019","08","05","21:00","23.2","","18.3","","74","","17","","15","","","","100.07","","29","","","","NA"
"2019-08-05 22:00","2019","08","05","22:00","22.9","","19.1","","79","","17","","11","","","","100.06","","30","","","","NA"
"2019-08-05 23:00","2019","08","05","23:00","23.4","","17.7","","70","","17","","13","","","","100.01","","29","","","","NA"
"2019-08-06 00:00","2019","08","06","00:00","23.5","","18.6","","74","","16","","16","","","","99.96","","30","","","","NA"
"2019-08-06 01:00","2019","08","06","01:00","23.2","","17.3","","69","","17","","21","","","","99.90","","29","","","","NA"
"2019-08-06 02:00","2019","08","06","02:00","23.0","","18.6","","77","","18","","21","","","","99.83","","29","","","","NA"
"2019-08-06 03:00","2019","08","06","03:00","23.0","","17.7","","72","","19","","24","","","","99.80","","29","","","","NA"
"2019-08-06 04:00","2019","08","06","04:00","22.5","","19.9","","85","","19","","17","","","","99.77","","30","","","","NA"
"2019-08-06 05:00","2019","08","06","05:00","22.4","","21.2","","93","","20","","14","","","","99.79","","31","","","","NA"
"2019-08-06 06:00","2019","08","06","06:00","22.8","","22.3","","97","","19","","20","","","","99.79","","32","","","","NA"
"2019-08-06 07:00","2019","08","06","07:00","23.4","","22.8","","97","","19","","19","","","","99.80","","33","","","","NA"
"2019-08-06 08:00","2019","08","06","08:00","24.0","","22.2","","90","","19","","18","","","","99.80","","34","","","","NA"
"2019-08-06 09:00","2019","08","06","09:00","24.6","","22.5","","88","","18","","21","","","","99.78","","34","","","","NA"
"2019-08-06 10:00","2019","08","06","10:00","24.4","","22.1","","87","","18","","22","","","","99.76","","34","","","","NA"
"2019-08-06 11:00","2019","08","06","11:00","25.4","","21.9","","81","","17","","21","","","","99.71","","35","","","","NA"
"2019-08-06 12:00","2019","08","06","12:00","25.8","","22.0","","80","","17","","25","","","","99.61","","35","","","","NA"
"2019-08-06 13:00","2019","08","06","13:00","21.3","","17.6","","79","","27","","32","","","","99.77","","27","","","","NA"
"2019-08-06 14:00","2019","08","06","14:00","20.6","","20.6","","100","","20","","5","","","","99.64","","29","","","","NA"
"2019-08-06 15:00","2019","08","06","15:00","21.7","","21.5","","99","","18","","5","","","","99.64","","31","","","","NA"
"2019-08-06 16:00","2019","08","06","16:00","22.5","","21.4","","93","","18","","12","","","","99.59","","31","","","","NA"
"2019-08-06 17:00","2019","08","06","17:00","22.7","","22.2","","97","","20","","14","","","","99.60","","32","","","","NA"
"2019-08-06 18:00","2019","08","06","18:00","22.6","","20.7","","89","","20","","15","","","","99.59","","31","","","","NA"
"2019-08-06 19:00","2019","08","06","19:00","22.4","","20.9","","91","","21","","12","","","","99.63","","31","","","","NA"
"2019-08-06 20:00","2019","08","06","20:00","22.3","","21.9","","97","","22","","11","","","","99.65","","32","","","","NA"
"2019-08-06 21:00","2019","08","06","21:00","22.4","","22.4","","100","","21","","10","","","","99.65","","32","","","","NA"
"2019-08-06 22:00","2019","08","06","22:00","22.6","","22.6","","100","","21","","13","","","","99.66","","32","","","","NA"
"2019-08-06 23:00","2019","08","06","23:00","22.4","","22.4","","100","","23","","12","","","","99.66","","32","","","","NA"
"2019-08-07 00:00","2019","08","07","00:00","21.4","","21.4","","100","","27","","9","","","","99.63","","30","","","","NA"
"2019-08-07 01:00","2019","08","07","01:00","20.8","","20.8","","100","","26","","8","","","","99.65","","29","","","","NA"
"2019-08-07 02:00","2019","08","07","02:00","20.5","","20.5","","100","","26","","6","","","","99.67","","28","","","","NA"
"2019-08-07 03:00","2019","08","07","03:00","20.2","","20.2","","100","","25","","3","","","","99.67","","28","","","","NA"
"2019-08-07 04:00","2019","08","07","04:00","20.9","","20.9","","100","","24","","6","","","","99.67","","29","","","","NA"
"2019-08-07 05:00","2019","08","07","05:00","21.1","","21.0","","100","","24","","7","","","","99.70","","30","","","","NA"
"2019-08-07 06:00","2019","08","07","06:00","21.0","","21.0","","100","","29","","4","","","","99.72","","29","","","","NA"
"2019-08-07 07:00","2019","08","07","07:00","21.2","","21.2","","100","","28","","2","","","","99.74","","30","","","","NA"
"2019-08-07 08:00","2019","08","07","08:00","21.2","","21.2","","100","","32","","4","","","","99.73","","30","","","","NA"
"2019-08-07 09:00","2019","08","07","09:00","21.6","","21.6","","100","","32","","3","","","","99.74","","31","","","","NA"
"2019-08-07 10:00","2019","08","07","10:00","22.3","","22.3","","100","","35","","3","","","","99.72","","32","","","","NA"
"2019-08-07 11:00","2019","08","07","11:00","22.0","","22.0","","100","","20","","3","","","","99.72","","31","","","","NA"
"2019-08-07 12:00","2019","08","07","12:00","20.4","","20.4","","100","","31","","6","","","","99.71","","28","","","","NA"
"2019-08-07 13:00","2019","08","07","13:00","21.3","","21.2","","100","","28","","7","","","","99.71","","30","","","","NA"
"2019-08-07 14:00","2019","08","07","14:00","21.3","","21.3","","100","","26","","8","","","","99.68","","30","","","","NA"
"2019-08-07 15:00","2019","08","07","15:00","22.0","","20.2","","90","","1","","1","","","","99.57","","30","","","","NA"
"2019-08-07 16:00","2019","08","07","16:00","22.9","","19.2","","80","","10","","1","","","","99.56","","30","","","","NA"
"2019-08-07 17:00","2019","08","07","17:00","22.3","","21.6","","96","","14","","6","","","","99.54","","31","","","","NA"
"2019-08-07 18:00","2019","08","07","18:00","22.4","","20.8","","91","","18","","7","","","","99.53","","31","","","","NA"
"2019-08-07 19:00","2019","08","07","19:00","22.2","","19.9","","87","","14","","6","","","","99.53","","30","","","","NA"
"2019-08-07 20:00","2019","08","07","20:00","21.3","","20.1","","93","","19","","7","","","","99.57","","29","","","","NA"
"2019-08-07 21:00","2019","08","07","21:00","21.1","","21.1","","100","","23","","9","","","","99.58","","30","","","","NA"
"2019-08-07 22:00","2019","08","07","22:00","20.2","","20.2","","100","","24","","4","","","","99.52","","28","","","","NA"
"2019-08-07 23:00","2019","08","07","23:00","21.1","","21.1","","100","","26","","9","","","","99.49","","30","","","","NA"
"2019-08-08 00:00","2019","08","08","00:00","21.2","","21.2","","100","","25","","8","","","","99.48","","30","","","","NA"
"2019-08-08 01:00","2019","08","08","01:00","21.3","","21.2","","100","","21","","9","","","","99.43","","30","","","","NA"
"2019-08-08 02:00","2019","08","08","02:00","21.6","","21.6","","100","","25","","12","","","","99.37","","31","","","","NA"
"2019-08-08 03:00","2019","08","08","03:00","20.7","","20.7","","100","","25","","13","","","","99.39","","29","","","","NA"
"2019-08-08 04:00","2019","08","08","04:00","18.8","","18.8","","100","","28","","8","","","","99.38","","","","","","NA"
"2019-08-08 05:00","2019","08","08","05:00","18.3","","17.8","","97","","25","","8","","","","99.37","","","","","","NA"
"2019-08-08 06:00","2019","08","08","06:00","18.6","","18.0","","96","","26","","7","","","","99.37","","","","","","NA"
"2019-08-08 07:00","2019","08","08","07:00","20.5","","17.1","","81","","25","","8","","","","99.36","","26","","","","NA"
"2019-08-08 08:00","2019","08","08","08:00","21.7","","15.2","","66","","24","","11","","","","99.36","","26","","","","NA"
"2019-08-08 09:00","2019","08","08","09:00","22.9","","16.7","","68","","23","","9","","","","99.31","","28","","","","NA"
"2019-08-08 10:00","2019","08","08","10:00","23.3","","14.1","","56","","17","","13","","","","99.26","","27","","","","NA"
"2019-08-08 11:00","2019","08","08","11:00","25.2","","22.5","","85","","18","","21","","","","99.23","","35","","","","NA"
"2019-08-08 12:00","2019","08","08","12:00","24.4","","20.0","","76","","19","","28","","","","99.14","","32","","","","NA"
"2019-08-08 13:00","2019","08","08","13:00","23.7","","21.8","","89","","19","","28","","","","99.14","","33","","","","NA"
"2019-08-08 14:00","2019","08","08","14:00","19.8","","19.8","","100","","25","","23","","","","99.20","","","","","","NA"
"2019-08-08 15:00","2019","08","08","15:00","21.2","","21.2","","100","","25","","16","","","","99.16","","30","","","","NA"
"2019-08-08 16:00","2019","08","08","16:00","22.1","","20.9","","93","","24","","23","","","","99.13","","30","","","","NA"
"2019-08-08 17:00","2019","08","08","17:00","22.4","","21.4","","94","","23","","18","","","","99.15","","31","","","","NA"
"2019-08-08 18:00","2019","08","08","18:00","22.9","","21.4","","91","","23","","15","","","","99.16","","32","","","","NA"
"2019-08-08 19:00","2019","08","08","19:00","22.1","","20.8","","92","","25","","11","","","","99.18","","30","","","","NA"
"2019-08-08 20:00","2019","08","08","20:00","21.1","","18.6","","85","","26","","12","","","","99.25","","28","","","","NA"
"2019-08-08 21:00","2019","08","08","21:00","20.3","","18.5","","90","","25","","14","","","","99.31","","27","","","","NA"
"2019-08-08 22:00","2019","08","08","22:00","19.5","","18.9","","96","","26","","15","","","","99.31","","","","","","NA"
"2019-08-08 23:00","2019","08","08","23:00","18.3","","16.4","","89","","29","","15","","","","99.33","","","","","","NA"
"2019-08-09 00:00","2019","08","09","00:00","17.9","","16.9","","94","","29","","14","","","","99.38","","","","","","NA"
"2019-08-09 01:00","2019","08","09","01:00","17.4","","17.0","","98","","29","","10","","","","99.39","","","","","","NA"
"2019-08-09 02:00","2019","08","09","02:00","18.0","","17.0","","94","","25","","11","","","","99.40","","","","","","NA"
"2019-08-09 03:00","2019","08","09","03:00","17.5","","15.7","","89","","26","","12","","","","99.38","","","","","","NA"
"2019-08-09 04:00","2019","08","09","04:00","16.5","","14.7","","89","","25","","12","","","","99.37","","","","","","NA"
"2019-08-09 05:00","2019","08","09","05:00","16.1","","14.4","","90","","26","","14","","","","99.41","","","","","","NA"
"2019-08-09 06:00","2019","08","09","06:00","16.4","","14.7","","90","","25","","16","","","","99.46","","","","","","NA"
"2019-08-09 07:00","2019","08","09","07:00","17.3","","14.8","","85","","28","","18","","","","99.52","","","","","","NA"
"2019-08-09 08:00","2019","08","09","08:00","18.4","","14.3","","77","","28","","17","","","","99.54","","","","","","NA"
"2019-08-09 09:00","2019","08","09","09:00","20.1","","14.1","","68","","27","","21","","","","99.56","","","","","","NA"
"2019-08-09 10:00","2019","08","09","10:00","21.5","","13.9","","62","","28","","20","","","","99.58","","25","","","","NA"
"2019-08-09 11:00","2019","08","09","11:00","22.9","","13.3","","55","","26","","21","","","","99.60","","26","","","","NA"
"2019-08-09 12:00","2019","08","09","12:00","23.7","","13.8","","54","","24","","21","","","","99.55","","27","","","","NA"
"2019-08-09 13:00","2019","08","09","13:00","20.9","","15.2","","70","","23","","28","","","","99.53","","25","","","","NA"
"2019-08-09 14:00","2019","08","09","14:00","18.5","","15.5","","83","","27","","19","","","","99.54","","","","","","NA"
"2019-08-09 15:00","2019","08","09","15:00","20.2","","16.1","","78","","24","","29","","","","99.54","","25","","","","NA"
"2019-08-09 16:00","2019","08","09","16:00","20.3","","15.1","","72","","23","","21","","","","99.51","","","","","","NA"
"2019-08-09 17:00","2019","08","09","17:00","21.1","","16.9","","77","","23","","21","","","","99.45","","26","","","","NA"
"2019-08-09 18:00","2019","08","09","18:00","21.3","","14.5","","65","","25","","17","","","","99.52","","25","","","","NA"
"2019-08-09 19:00","2019","08","09","19:00","19.7","","14.6","","72","","27","","16","","","","99.50","","","","","","NA"
"2019-08-09 20:00","2019","08","09","20:00","18.5","","15.2","","81","","28","","13","","","","99.57","","","","","","NA"
"2019-08-09 21:00","2019","08","09","21:00","18.4","","14.2","","76","","27","","14","","","","99.63","","","","","","NA"
"2019-08-09 22:00","2019","08","09","22:00","18.4","","11.2","","63","","28","","19","","","","99.64","","","","","","NA"
"2019-08-09 23:00","2019","08","09","23:00","17.7","","11.6","","68","","27","","18","","","","99.65","","","","","","NA"
"2019-08-10 00:00","2019","08","10","00:00","16.8","","11.8","","73","","26","","13","","","","99.67","","","","","","NA"
"2019-08-10 01:00","2019","08","10","01:00","15.6","","12.2","","80","","27","","13","","","","99.67","","","","","","NA"
"2019-08-10 02:00","2019","08","10","02:00","15.7","","13.2","","85","","27","","9","","","","99.71","","","","","","NA"
"2019-08-10 03:00","2019","08","10","03:00","14.3","","13.7","","96","","31","","13","","","","99.74","","","","","","NA"
"2019-08-10 04:00","2019","08","10","04:00","13.5","","13.4","","100","","32","","13","","","","99.76","","","","","","NA"
"2019-08-10 05:00","2019","08","10","05:00","14.8","","14.3","","97","","33","","12","","","","99.82","","","","","","NA"
"2019-08-10 06:00","2019","08","10","06:00","15.0","","13.2","","89","","32","","16","","","","99.87","","","","","","NA"
"2019-08-10 07:00","2019","08","10","07:00","16.5","","12.7","","78","","32","","12","","","","99.93","","","","","","NA"
"2019-08-10 08:00","2019","08","10","08:00","18.0","","10.3","","61","","31","","16","","","","99.98","","","","","","NA"
"2019-08-10 09:00","2019","08","10","09:00","19.3","","10.1","","55","","31","","22","","","","100.00","","","","","","NA"
"2019-08-10 10:00","2019","08","10","10:00","20.8","","10.2","","51","","29","","19","","","","100.01","","","","","","NA"
"2019-08-10 11:00","2019","08","10","11:00","21.9","","10.7","","49","","30","","20","","","","99.98","","","","","","NA"
"2019-08-10 12:00","2019","08","10","12:00","21.3","","9.9","","48","","31","","23","","","","99.95","","","","","","NA"
"2019-08-10 13:00","2019","08","10","13:00","20.5","","10.2","","52","","28","","22","","","","99.97","","","","","","NA"
"2019-08-10 14:00","2019","08","10","14:00","22.2","","11.4","","50","","24","","25","","","","99.93","","","","","","NA"
"2019-08-10 15:00","2019","08","10","15:00","17.7","","14.9","","84","","33","","4","","","","99.96","","","","","","NA"
"2019-08-10 16:00","2019","08","10","16:00","19.8","","15.2","","74","","25","","12","","","","99.94","","","","","","NA"
"2019-08-10 17:00","2019","08","10","17:00","19.9","","15.0","","73","","25","","17","","","","99.94","","","","","","NA"
"2019-08-10 18:00","2019","08","10","18:00","20.3","","14.4","","69","","27","","11","","","","99.99","","","","","","NA"
"2019-08-10 19:00","2019","08","10","19:00","18.8","","12.3","","66","","34","","9","","","","100.07","","","","","","NA"
"2019-08-10 20:00","2019","08","10","20:00","17.2","","12.9","","76","","33","","5","","","","100.14","","","","","","NA"
"2019-08-10 21:00","2019","08","10","21:00","16.2","","13.5","","84","","33","","5","","","","100.19","","","","","","NA"
"2019-08-10 22:00","2019","08","10","22:00","14.6","","12.6","","88","","31","","6","","","","100.23","","","","","","NA"
"2019-08-10 23:00","2019","08","10","23:00","13.6","","13.6","","100","","32","","7","","","","100.25","","","","","","NA"
"2019-08-11 00:00","2019","08","11","00:00","14.9","","11.7","","81","","30","","11","","","","100.27","","","","","","NA"
"2019-08-11 01:00","2019","08","11","01:00","14.9","","11.5","","80","","30","","14","","","","100.28","","","","","","NA"
"2019-08-11 02:00","2019","08","11","02:00","14.0","","11.9","","87","","31","","10","","","","100.30","","","","","","NA"
"2019-08-11 03:00","2019","08","11","03:00","14.6","","12.9","","90","","30","","13","","","","100.32","","","","","","NA"
"2019-08-11 04:00","2019","08","11","04:00","14.7","","12.9","","89","","30","","14","","","","100.36","","","","","","NA"
"2019-08-11 05:00","2019","08","11","05:00","14.7","","13.2","","90","","25","","5","","","","100.41","","","","","","NA"
"2019-08-11 06:00","2019","08","11","06:00","14.1","","13.6","","97","","29","","6","","","","100.45","","","","","","NA"
"2019-08-11 07:00","2019","08","11","07:00","16.5","","14.9","","91","","28","","6","","","","100.46","","","","","","NA"
"2019-08-11 08:00","2019","08","11","08:00","18.6","","15.8","","84","","28","","11","","","","100.46","","","","","","NA"
"2019-08-11 09:00","2019","08","11","09:00","20.3","","14.5","","70","","27","","9","","","","100.46","","","","","","NA"
"2019-08-11 10:00","2019","08","11","10:00","21.8","","16.3","","71","","21","","17","","","","100.47","","27","","","","NA"
"2019-08-11 11:00","2019","08","11","11:00","23.4","","15.1","","60","","23","","16","","","","100.45","","27","","","","NA"
"2019-08-11 12:00","2019","08","11","12:00","24.0","","14.4","","55","","23","","21","","","","100.42","","28","","","","NA"
"2019-08-11 13:00","2019","08","11","13:00","24.5","","15.2","","56","","23","","22","","","","100.41","","29","","","","NA"
"2019-08-11 14:00","2019","08","11","14:00","25.1","","16.3","","58","","23","","24","","","","100.37","","30","","","","NA"
"2019-08-11 15:00","2019","08","11","15:00","24.0","","15.2","","58","","23","","23","","","","100.34","","28","","","","NA"
"2019-08-11 16:00","2019","08","11","16:00","24.7","","15.6","","57","","23","","23","","","","100.30","","29","","","","NA"
"2019-08-11 17:00","2019","08","11","17:00","24.1","","15.0","","57","","23","","21","","","","100.28","","28","","","","NA"
"2019-08-11 18:00","2019","08","11","18:00","23.6","","13.9","","54","","23","","24","","","","100.28","","27","","","","NA"
"2019-08-11 19:00","2019","08","11","19:00","23.0","","13.8","","56","","25","","20","","","","100.27","","26","","","","NA"
"2019-08-11 20:00","2019","08","11","20:00","22.0","","14.1","","61","","25","","14","","","","100.28","","25","","","","NA"
"2019-08-11 21:00","2019","08","11","21:00","21.6","","15.6","","69","","25","","14","","","","100.28","","26","","","","NA"
"2019-08-11 22:00","2019","08","11","22:00","20.9","","15.9","","73","","25","","12","","","","100.27","","25","","","","NA"
"2019-08-11 23:00","2019","08","11","23:00","20.3","","17.8","","85","","25","","10","","","","100.25","","26","","","","NA"
"2019-08-12 00:00","2019","08","12","00:00","20.2","","18.5","","90","","23","","13","","","","100.25","","27","","","","NA"
"2019-08-12 01:00","2019","08","12","01:00","19.1","","18.0","","93","","25","","9","","","","100.23","","","","","","NA"
"2019-08-12 02:00","2019","08","12","02:00","18.6","","18.3","","98","","24","","7","","","","100.23","","","","","","NA"
"2019-08-12 03:00","2019","08","12","03:00","19.4","","19.4","","100","","24","","12","","","","100.22","","","","","","NA"
"2019-08-12 04:00","2019","08","12","04:00","18.3","","18.3","","100","","24","","8","","","","100.21","","","","","","NA"
"2019-08-12 05:00","2019","08","12","05:00","17.2","","17.2","","100","","26","","7","","","","100.19","","","","","","NA"
"2019-08-12 06:00","2019","08","12","06:00","18.2","","18.2","","100","","25","","9","","","","100.22","","","","","","NA"
"2019-08-12 07:00","2019","08","12","07:00","19.7","","19.0","","95","","25","","11","","","","100.25","","","","","","NA"
"2019-08-12 08:00","2019","08","12","08:00","21.0","","19.9","","93","","22","","11","","","","100.22","","28","","","","NA"
"2019-08-12 09:00","2019","08","12","09:00","23.2","","20.4","","84","","23","","14","","","","100.17","","31","","","","NA"
"2019-08-12 10:00","2019","08","12","10:00","24.5","","18.2","","68","","23","","14","","","","100.14","","31","","","","NA"
"2019-08-12 11:00","2019","08","12","11:00","23.7","","22.0","","90","","18","","20","","","","100.10","","33","","","","NA"
"2019-08-12 12:00","2019","08","12","12:00","24.4","","22.6","","90","","19","","21","","","","99.99","","34","","","","NA"
"2019-08-12 13:00","2019","08","12","13:00","24.2","","20.6","","80","","19","","23","","","","99.97","","32","","","","NA"
"2019-08-12 14:00","2019","08","12","14:00","24.6","","21.2","","82","","19","","25","","","","99.96","","33","","","","NA"
"2019-08-12 15:00","2019","08","12","15:00","25.0","","17.3","","63","","21","","23","","","","99.89","","30","","","","NA"
"2019-08-12 16:00","2019","08","12","16:00","24.8","","16.8","","61","","23","","18","","","","99.82","","30","","","","NA"
"2019-08-12 17:00","2019","08","12","17:00","24.2","","17.1","","64","","22","","16","","","","99.82","","30","","","","NA"
"2019-08-12 18:00","2019","08","12","18:00","23.9","","17.4","","67","","23","","14","","","","99.78","","29","","","","NA"
"2019-08-12 19:00","2019","08","12","19:00","23.6","","18.1","","71","","24","","14","","","","99.75","","30","","","","NA"
"2019-08-12 20:00","2019","08","12","20:00","23.1","","18.2","","74","","22","","14","","","","99.80","","29","","","","NA"
"2019-08-12 21:00","2019","08","12","21:00","22.2","","18.4","","79","","23","","15","","","","99.80","","29","","","","NA"
"2019-08-12 22:00","2019","08","12","22:00","22.0","","19.5","","85","","24","","13","","","","99.77","","29","","","","NA"
"2019-08-12 23:00","2019","08","12","23:00","21.7","","18.9","","84","","26","","5","","","","99.78","","28","","","","NA"
"2019-08-13 00:00","2019","08","13","00:00","21.4","","19.1","","87","","27","","7","","","","99.77","","28","","","","NA"
"2019-08-13 01:00","2019","08","13","01:00","20.9","","20.0","","94","","27","","7","","","","99.71","","28","","","","NA"
"2019-08-13 02:00","2019","08","13","02:00","20.5","","20.0","","97","","26","","3","","","","99.67","","28","","","","NA"
"2019-08-13 03:00","2019","08","13","03:00","18.5","","18.5","","100","","26","","5","","","","99.67","","","","","","NA"
"2019-08-13 04:00","2019","08","13","04:00","19.5","","19.5","","100","","28","","8","","","","99.68","","","","","","NA"
"2019-08-13 05:00","2019","08","13","05:00","18.9","","18.9","","100","","31","","4","","","","99.72","","","","","","NA"
"2019-08-13 06:00","2019","08","13","06:00","18.6","","18.6","","100","","34","","4","","","","99.73","","","","","","NA"
"2019-08-13 07:00","2019","08","13","07:00","21.1","","18.4","","85","","2","","8","","","","99.76","","27","","","","NA"
"2019-08-13 08:00","2019","08","13","08:00","22.6","","18.1","","76","","3","","9","","","","99.77","","29","","","","NA"
"2019-08-13 09:00","2019","08","13","09:00","23.6","","18.7","","74","","4","","8","","","","99.82","","30","","","","NA"
"2019-08-13 10:00","2019","08","13","10:00","25.7","","17.8","","62","","5","","3","","","","99.80","","32","","","","NA"
"2019-08-13 11:00","2019","08","13","11:00","24.4","","18.3","","69","","18","","10","","","","99.76","","31","","","","NA"
"2019-08-13 12:00","2019","08","13","12:00","25.8","","18.0","","62","","15","","10","","","","99.75","","32","","","","NA"
"2019-08-13 13:00","2019","08","13","13:00","25.8","","16.5","","57","","15","","13","","","","99.74","","31","","","","NA"
"2019-08-13 14:00","2019","08","13","14:00","25.7","","16.6","","57","","16","","11","","","","99.70","","31","","","","NA"
"2019-08-13 15:00","2019","08","13","15:00","27.0","","13.5","","43","","1","","14","","","","99.68","","30","","","","NA"
"2019-08-13 16:00","2019","08","13","16:00","26.6","","12.9","","43","","1","","13","","","","99.69","","29","","","","NA"
"2019-08-13 17:00","2019","08","13","17:00","26.5","","12.0","","40","","3","","16","","","","99.71","","29","","","","NA"
"2019-08-13 18:00","2019","08","13","18:00","25.4","","11.9","","43","","4","","14","","","","99.75","","28","","","","NA"
"2019-08-13 19:00","2019","08","13","19:00","23.2","","12.1","","50","","4","","11","","","","99.82","","26","","","","NA"
"2019-08-13 20:00","2019","08","13","20:00","22.5","","11.3","","49","","3","","17","","","","99.87","","","","","","NA"
"2019-08-13 21:00","2019","08","13","21:00","21.2","","10.8","","52","","4","","11","","","","99.92","","","","","","NA"
"2019-08-13 22:00","2019","08","13","22:00","20.6","","11.4","","56","","2","","10","","","","99.96","","","","","","NA"
"2019-08-13 23:00","2019","08","13","23:00","19.6","","12.2","","62","","1","","12","","","","99.99","","","","","","NA"
"2019-08-14 00:00","2019","08","14","00:00","19.5","","12.2","","63","","3","","12","","","","100.01","","","","","","NA"
"2019-08-14 01:00","2019","08","14","01:00","19.1","","11.2","","60","","3","","13","","","","100.01","","","","","","NA"
"2019-08-14 02:00","2019","08","14","02:00","18.4","","11.2","","63","","2","","10","","","","100.01","","","","","","NA"
"2019-08-14 03:00","2019","08","14","03:00","17.3","","11.4","","68","","1","","14","","","","100.03","","","","","","NA"
"2019-08-14 04:00","2019","08","14","04:00","17.6","","10.6","","63","","1","","15","","","","100.04","","","","","","NA"
"2019-08-14 05:00","2019","08","14","05:00","16.7","","10.4","","67","","1","","15","","","","100.09","","","","","","NA"
"2019-08-14 06:00","2019","08","14","06:00","16.5","","10.4","","67","","1","","17","","","","100.14","","","","","","NA"
"2019-08-14 07:00","2019","08","14","07:00","17.1","","10.5","","65","","2","","19","","","","100.22","","","","","","NA"
"2019-08-14 08:00","2019","08","14","08:00","18.4","","11.7","","65","","1","","19","","","","100.24","","","","","","NA"
"2019-08-14 09:00","2019","08","14","09:00","20.1","","12.3","","61","","36","","14","","","","100.27","","","","","","NA"
"2019-08-14 10:00","2019","08","14","10:00","21.4","","12.6","","57","","2","","15","","","","100.28","","","","","","NA"
"2019-08-14 11:00","2019","08","14","11:00","23.0","","13.4","","55","","35","","19","","","","100.28","","26","","","","NA"
"2019-08-14 12:00","2019","08","14","12:00","23.2","","12.1","","50","","1","","13","","","","100.24","","26","","","","NA"
"2019-08-14 13:00","2019","08","14","13:00","24.0","","12.7","","49","","5","","11","","","","100.23","","27","","","","NA"
"2019-08-14 14:00","2019","08","14","14:00","24.3","","11.7","","45","","3","","14","","","","100.22","","26","","","","NA"
"2019-08-14 15:00","2019","08","14","15:00","24.2","","10.5","","42","","32","","12","","","","100.25","","26","","","","NA"
"2019-08-14 16:00","2019","08","14","16:00","23.1","","10.6","","45","","1","","14","","","","100.27","","25","","","","NA"
"2019-08-14 17:00","2019","08","14","17:00","23.3","","10.5","","44","","1","","15","","","","100.29","","25","","","","NA"
"2019-08-14 18:00","2019","08","14","18:00","22.7","","10.0","","45","","1","","14","","","","100.30","","","","","","NA"
"2019-08-14 19:00","2019","08","14","19:00","21.1","","9.8","","49","","1","","12","","","","100.34","","","","","","NA"
"2019-08-14 20:00","2019","08","14","20:00","19.0","","10.1","","56","","2","","9","","","","100.41","","","","","","NA"
"2019-08-14 21:00","2019","08","14","21:00","18.5","","9.6","","56","","2","","13","","","","100.47","","","","","","NA"
"2019-08-14 22:00","2019","08","14","22:00","17.3","","9.8","","61","","1","","13","","","","100.53","","","","","","NA"
"2019-08-14 23:00","2019","08","14","23:00","16.3","","9.6","","65","","3","","10","","","","100.56","","","","","","NA"
"2019-08-15 00:00","2019","08","15","00:00","15.4","","9.8","","69","","2","","11","","","","100.59","","","","","","NA"
"2019-08-15 01:00","2019","08","15","01:00","14.8","","10.0","","73","","2","","11","","","","100.58","","","","","","NA"
"2019-08-15 02:00","2019","08","15","02:00","13.8","","9.8","","77","","2","","9","","","","100.60","","","","","","NA"
"2019-08-15 03:00","2019","08","15","03:00","12.6","","10.9","","89","","1","","11","","","","100.59","","","","","","NA"
"2019-08-15 04:00","2019","08","15","04:00","13.1","","10.7","","85","","4","","10","","","","100.61","","","","","","NA"
"2019-08-15 05:00","2019","08","15","05:00","12.8","","10.5","","86","","4","","11","","","","100.62","","","","","","NA"
"2019-08-15 06:00","2019","08","15","06:00","14.0","","10.7","","80","","3","","11","","","","100.63","","","","","","NA"
"2019-08-15 07:00","2019","08","15","07:00","16.0","","10.8","","71","","4","","15","","","","100.65","","","","","","NA"
"2019-08-15 08:00","2019","08","15","08:00","18.0","","11.1","","64","","5","","19","","","","100.66","","","","","","NA"
"2019-08-15 09:00","2019","08","15","09:00","19.9","","11.4","","58","","3","","14","","","","100.68","","","","","","NA"
"2019-08-15 10:00","2019","08","15","10:00","21.7","","12.0","","54","","5","","13","","","","100.69","","","","","","NA"
"2019-08-15 11:00","2019","08","15","11:00","22.2","","9.6","","45","","11","","16","","","","100.65","","","","","","NA"
"2019-08-15 12:00","2019","08","15","12:00","22.7","","9.5","","43","","13","","18","","","","100.61","","","","","","NA"
"2019-08-15 13:00","2019","08","15","13:00","23.2","","10.6","","45","","14","","19","","","","100.54","","25","","","","NA"
"2019-08-15 14:00","2019","08","15","14:00","24.1","","11.5","","45","","14","","21","","","","100.49","","26","","","","NA"
"2019-08-15 15:00","2019","08","15","15:00","24.8","","11.4","","43","","5","","10","","","","100.44","","27","","","","NA"
"2019-08-15 16:00","2019","08","15","16:00","24.5","","10.0","","40","","6","","12","","","","100.37","","26","","","","NA"
"2019-08-15 17:00","2019","08","15","17:00","24.3","","10.3","","41","","5","","12","","","","100.35","","26","","","","NA"
"2019-08-15 18:00","2019","08","15","18:00","23.0","","10.2","","44","","4","","8","","","","100.39","","","","","","NA"
"2019-08-15 19:00","2019","08","15","19:00","21.6","","11.1","","51","","1","","9","","","","100.35","","","","","","NA"
"2019-08-15 20:00","2019","08","15","20:00","20.1","","12.3","","61","","11","","12","","","","100.44","","","","","","NA"
"2019-08-15 21:00","2019","08","15","21:00","20.1","","12.4","","61","","6","","12","","","","100.38","","","","","","NA"
"2019-08-15 22:00","2019","08","15","22:00","19.4","","13.2","","68","","4","","10","","","","100.48","","","","","","NA"
"2019-08-15 23:00","2019","08","15","23:00","17.2","","14.1","","82","","5","","15","","","","100.38","","","","","","NA"
"2019-08-16 00:00","2019","08","16","00:00","16.7","","14.5","","87","","7","","10","","","","100.40","","","","","","NA"
"2019-08-16 01:00","2019","08","16","01:00","16.7","","13.1","","79","","4","","11","","","","100.37","","","","","","NA"
"2019-08-16 02:00","2019","08","16","02:00","17.3","","12.9","","75","","2","","9","","","","100.38","","","","","","NA"
"2019-08-16 03:00","2019","08","16","03:00","17.3","","12.8","","75","","2","","8","","","","100.35","","","","","","NA"
"2019-08-16 04:00","2019","08","16","04:00","16.8","","13.9","","83","","5","","11","","","","100.39","","","","","","NA"
"2019-08-16 05:00","2019","08","16","05:00","17.0","","14.1","","83","","3","","11","","","","100.40","","","","","","NA"
"2019-08-16 06:00","2019","08","16","06:00","16.7","","13.5","","81","","4","","10","","","","100.40","","","","","","NA"
"2019-08-16 07:00","2019","08","16","07:00","18.3","","13.3","","73","","3","","12","","","","100.44","","","","","","NA"
"2019-08-16 08:00","2019","08","16","08:00","19.7","","13.2","","66","","5","","14","","","","100.43","","","","","","NA"
"2019-08-16 09:00","2019","08","16","09:00","20.4","","12.8","","62","","7","","19","","","","100.46","","","","","","NA"
"2019-08-16 10:00","2019","08","16","10:00","23.0","","13.1","","54","","6","","14","","","","100.48","","26","","","","NA"
"2019-08-16 11:00","2019","08","16","11:00","24.0","","15.3","","58","","12","","11","","","","100.47","","28","","","","NA"
"2019-08-16 12:00","2019","08","16","12:00","24.3","","16.6","","62","","14","","16","","","","100.45","","29","","","","NA"
"2019-08-16 13:00","2019","08","16","13:00","24.6","","17.9","","66","","16","","14","","","","100.45","","31","","","","NA"
"2019-08-16 14:00","2019","08","16","14:00","25.6","","18.7","","66","","15","","13","","","","100.39","","32","","","","NA"
"2019-08-16 15:00","2019","08","16","15:00","25.3","","18.1","","64","","14","","11","","","","100.31","","31","","","","NA"
"2019-08-16 16:00","2019","08","16","16:00","24.5","","17.8","","66","","16","","6","","","","100.31","","30","","","","NA"
"2019-08-16 17:00","2019","08","16","17:00","24.4","","17.7","","66","","15","","5","","","","100.27","","30","","","","NA"
"2019-08-16 18:00","2019","08","16","18:00","23.8","","18.7","","73","","17","","8","","","","100.29","","30","","","","NA"
"2019-08-16 19:00","2019","08","16","19:00","22.7","","19.9","","84","","11","","4","","","","100.22","","30","","","","NA"
"2019-08-16 20:00","2019","08","16","20:00","21.3","","20.4","","95","","","","0","","","","100.27","","29","","","","NA"
"2019-08-16 21:00","2019","08","16","21:00","20.7","","20.7","","100","","35","","7","","","","100.27","","29","","","","NA"
"2019-08-16 22:00","2019","08","16","22:00","22.5","","21.5","","94","","16","","24","","","","100.31","","31","","","","NA"
"2019-08-16 23:00","2019","08","16","23:00","21.3","","20.1","","93","","24","","2","","","","100.28","","29","","","","NA"
"2019-08-17 00:00","2019","08","17","00:00","21.2","","20.4","","95","","20","","8","","","","100.36","","29","","","","NA"
"2019-08-17 01:00","2019","08","17","01:00","21.9","","21.7","","99","","18","","15","","","","100.31","","31","","","","NA"
"2019-08-17 02:00","2019","08","17","02:00","21.3","","21.3","","100","","18","","12","","","","100.31","","30","","","","NA"
"2019-08-17 03:00","2019","08","17","03:00","21.6","","21.6","","100","","18","","12","","","","100.29","","31","","","","NA"
"2019-08-17 04:00","2019","08","17","04:00","21.2","","21.2","","100","","21","","11","","","","100.29","","30","","","","NA"
"2019-08-17 05:00","2019","08","17","05:00","20.9","","20.9","","100","","21","","10","","","","100.27","","29","","","","NA"
"2019-08-17 06:00","2019","08","17","06:00","21.2","","21.2","","100","","21","","11","","","","100.27","","30","","","","NA"
"2019-08-17 07:00","2019","08","17","07:00","21.7","","21.7","","100","","22","","11","","","","100.29","","31","","","","NA"
"2019-08-17 08:00","2019","08","17","08:00","22.7","","21.7","","94","","19","","17","","","","100.27","","32","","","","NA"
"2019-08-17 09:00","2019","08","17","09:00","22.4","","22.1","","98","","19","","17","","","","100.32","","32","","","","NA"
"2019-08-17 10:00","2019","08","17","10:00","22.2","","22.2","","100","","18","","15","","","","100.36","","32","","","","NA"
"2019-08-17 11:00","2019","08","17","11:00","21.5","","21.5","","100","","23","","10","","","","100.40","","30","","","","NA"
"2019-08-17 12:00","2019","08","17","12:00","20.6","","20.6","","100","","16","","10","","","","100.34","","29","","","","NA"
"2019-08-17 13:00","2019","08","17","13:00","20.8","","20.8","","100","","18","","7","","","","100.33","","29","","","","NA"
"2019-08-17 14:00","2019","08","17","14:00","22.1","","19.7","","86","","18","","19","","","","100.29","","29","","","","NA"
"2019-08-17 15:00","2019","08","17","15:00","21.7","","19.7","","88","","20","","16","","","","100.29","","29","","","","NA"
"2019-08-17 16:00","2019","08","17","16:00","22.0","","20.7","","92","","19","","13","","","","100.22","","30","","","","NA"
"2019-08-17 17:00","2019","08","17","17:00","22.3","","20.7","","91","","19","","15","","","","100.18","","30","","","","NA"
"2019-08-17 18:00","2019","08","17","18:00","21.8","","21.3","","97","","19","","14","","","","100.19","","30","","","","NA"
"2019-08-17 19:00","2019","08","17","19:00","21.3","","21.3","","100","","19","","10","","","","100.17","","30","","","","NA"
"2019-08-17 20:00","2019","08","17","20:00","21.0","","21.0","","100","","18","","11","","","","100.22","","29","","","","NA"
"2019-08-17 21:00","2019","08","17","21:00","21.3","","21.3","","100","","18","","13","","","","100.25","","30","","","","NA"
"2019-08-17 22:00","2019","08","17","22:00","21.4","","21.3","","100","","17","","11","","","","100.25","","30","","","","NA"
"2019-08-17 23:00","2019","08","17","23:00","21.4","","21.4","","100","","17","","14","","","","100.26","","30","","","","NA"
"2019-08-18 00:00","2019","08","18","00:00","21.4","","21.4","","100","","17","","15","","","","100.31","","30","","","","NA"
"2019-08-18 01:00","2019","08","18","01:00","21.3","","21.2","","100","","17","","13","","","","100.34","","30","","","","NA"
"2019-08-18 02:00","2019","08","18","02:00","21.7","","21.7","","100","","15","","7","","","","100.33","","31","","","","NA"
"2019-08-18 03:00","2019","08","18","03:00","21.3","","21.3","","100","","8","","9","","","","100.29","","30","","","","NA"
"2019-08-18 04:00","2019","08","18","04:00","20.3","","20.3","","100","","4","","6","","","","100.28","","28","","","","NA"
"2019-08-18 05:00","2019","08","18","05:00","19.4","","19.4","","100","","1","","6","","","","100.30","","","","","","NA"
"2019-08-18 06:00","2019","08","18","06:00","19.2","","19.2","","100","","35","","2","","","","100.31","","","","","","NA"
"2019-08-18 07:00","2019","08","18","07:00","22.2","","22.2","","100","","9","","2","","","","100.35","","32","","","","NA"
"2019-08-18 08:00","2019","08","18","08:00","22.0","","22.0","","100","","18","","9","","","","100.39","","31","","","","NA"
"2019-08-18 09:00","2019","08","18","09:00","22.4","","22.4","","100","","16","","21","","","","100.34","","32","","","","NA"
"2019-08-18 10:00","2019","08","18","10:00","22.2","","22.1","","99","","19","","14","","","","100.39","","32","","","","NA"
"2019-08-18 11:00","2019","08","18","11:00","23.4","","23.2","","99","","16","","12","","","","100.35","","34","","","","NA"
"2019-08-18 12:00","2019","08","18","12:00","23.8","","22.8","","94","","15","","12","","","","100.32","","34","","","","NA"
"2019-08-18 13:00","2019","08","18","13:00","23.5","","22.0","","92","","15","","12","","","","100.29","","33","","","","NA"
"2019-08-18 14:00","2019","08","18","14:00","24.5","","20.6","","79","","15","","7","","","","100.22","","33","","","","NA"
"2019-08-18 15:00","2019","08","18","15:00","25.5","","22.0","","81","","19","","7","","","","100.19","","35","","","","NA"
"2019-08-18 16:00","2019","08","18","16:00","25.3","","20.6","","75","","18","","6","","","","100.14","","33","","","","NA"
"2019-08-18 17:00","2019","08","18","17:00","24.8","","21.9","","84","","17","","10","","","","100.12","","34","","","","NA"
"2019-08-18 18:00","2019","08","18","18:00","24.6","","22.8","","90","","19","","9","","","","100.10","","35","","","","NA"
"2019-08-18 19:00","2019","08","18","19:00","23.4","","23.4","","100","","18","","12","","","","100.05","","34","","","","NA"
"2019-08-18 20:00","2019","08","18","20:00","23.4","","23.4","","100","","16","","10","","","","100.02","","34","","","","NA"
"2019-08-18 21:00","2019","08","18","21:00","23.2","","23.2","","100","","17","","20","","","","99.97","","34","","","","NA"
"2019-08-18 22:00","2019","08","18","22:00","23.1","","23.1","","100","","18","","20","","","","99.98","","33","","","","NA"
"2019-08-18 23:00","2019","08","18","23:00","22.8","","22.8","","100","","18","","17","","","","100.00","","33","","","","NA"
"2019-08-19 00:00","2019","08","19","00:00","22.6","","22.5","","100","","19","","18","","","","100.00","","32","","","","NA"
"2019-08-19 01:00","2019","08","19","01:00","22.5","","22.5","","100","","17","","16","","","","99.91","","32","","","","NA"
"2019-08-19 02:00","2019","08","19","02:00","22.5","","22.5","","100","","17","","23","","","","99.89","","32","","","","NA"
"2019-08-19 03:00","2019","08","19","03:00","22.0","","21.9","","100","","20","","6","","","","99.94","","31","","","","NA"
"2019-08-19 04:00","2019","08","19","04:00","22.3","","22.2","","100","","21","","16","","","","99.94","","32","","","","NA"
"2019-08-19 05:00","2019","08","19","05:00","22.4","","21.9","","97","","22","","22","","","","99.99","","32","","","","NA"
"2019-08-19 06:00","2019","08","19","06:00","21.6","","21.6","","100","","21","","22","","","","100.07","","31","","","","NA"
"2019-08-19 07:00","2019","08","19","07:00","21.9","","21.9","","100","","21","","18","","","","100.14","","31","","","","NA"
"2019-08-19 08:00","2019","08","19","08:00","22.4","","22.4","","100","","24","","14","","","","100.18","","32","","","","NA"
"2019-08-19 09:00","2019","08","19","09:00","24.0","","22.4","","91","","24","","15","","","","100.21","","34","","","","NA"
"2019-08-19 10:00","2019","08","19","10:00","24.4","","21.7","","85","","23","","16","","","","100.25","","33","","","","NA"
"2019-08-19 11:00","2019","08","19","11:00","25.5","","20.8","","75","","23","","20","","","","100.26","","34","","","","NA"
"2019-08-19 12:00","2019","08","19","12:00","27.2","","19.9","","65","","22","","20","","","","100.23","","35","","","","NA"
"2019-08-19 13:00","2019","08","19","13:00","26.5","","19.8","","67","","23","","25","","","","100.23","","34","","","","NA"
"2019-08-19 14:00","2019","08","19","14:00","26.9","","19.8","","65","","23","","25","","","","100.23","","34","","","","NA"
"2019-08-19 15:00","2019","08","19","15:00","26.9","","18.5","","60","","23","","30","","","","100.23","","33","","","","NA"
"2019-08-19 16:00","2019","08","19","16:00","26.5","","18.6","","62","","24","","29","","","","100.26","","33","","","","NA"
"2019-08-19 17:00","2019","08","19","17:00","26.2","","13.3","","45","","24","","28","","","","100.27","","29","","","","NA"
"2019-08-19 18:00","2019","08","19","18:00","25.3","","10.1","","39","","25","","19","","","","100.28","","27","","","","NA"
"2019-08-19 19:00","2019","08","19","19:00","23.0","","10.5","","45","","27","","10","","","","100.35","","25","","","","NA"
"2019-08-19 20:00","2019","08","19","20:00","21.3","","10.2","","49","","25","","8","","","","100.43","","","","","","NA"
"2019-08-19 21:00","2019","08","19","21:00","20.2","","10.3","","53","","26","","10","","","","100.53","","","","","","NA"
"2019-08-19 22:00","2019","08","19","22:00","19.3","","10.0","","55","","26","","9","","","","100.58","","","","","","NA"
"2019-08-19 23:00","2019","08","19","23:00","18.7","","10.0","","57","","25","","11","","","","100.62","","","","","","NA"
"2019-08-20 00:00","2019","08","20","00:00"
"2019-08-20 01:00","2019","08","20","01:00"
"2019-08-20 02:00","2019","08","20","02:00"
"2019-08-20 03:00","2019","08","20","03:00"
"2019-08-20 04:00","2019","08","20","04:00"
"2019-08-20 05:00","2019","08","20","05:00"
"2019-08-20 06:00","2019","08","20","06:00"
"2019-08-20 07:00","2019","08","20","07:00"
"2019-08-20 08:00","2019","08","20","08:00"
"2019-08-20 09:00","2019","08","20","09:00"
"2019-08-20 10:00","2019","08","20","10:00"
"2019-08-20 11:00","2019","08","20","11:00"
"2019-08-20 12:00","2019","08","20","12:00"
"2019-08-20 13:00","2019","08","20","13:00"
"2019-08-20 14:00","2019","08","20","14:00"
"2019-08-20 15:00","2019","08","20","15:00"
"2019-08-20 16:00","2019","08","20","16:00"
"2019-08-20 17:00","2019","08","20","17:00"
"2019-08-20 18:00","2019","08","20","18:00"
"2019-08-20 19:00","2019","08","20","19:00"
"2019-08-20 20:00","2019","08","20","20:00"
"2019-08-20 21:00","2019","08","20","21:00"
"2019-08-20 22:00","2019","08","20","22:00"
"2019-08-20 23:00","2019","08","20","23:00"
"2019-08-21 00:00","2019","08","21","00:00"
"2019-08-21 01:00","2019","08","21","01:00"
"2019-08-21 02:00","2019","08","21","02:00"
"2019-08-21 03:00","2019","08","21","03:00"
"2019-08-21 04:00","2019","08","21","04:00"
"2019-08-21 05:00","2019","08","21","05:00"
"2019-08-21 06:00","2019","08","21","06:00"
"2019-08-21 07:00","2019","08","21","07:00"
"2019-08-21 08:00","2019","08","21","08:00"
"2019-08-21 09:00","2019","08","21","09:00"
"2019-08-21 10:00","2019","08","21","10:00"
"2019-08-21 11:00","2019","08","21","11:00"
"2019-08-21 12:00","2019","08","21","12:00"
"2019-08-21 13:00","2019","08","21","13:00"
"2019-08-21 14:00","2019","08","21","14:00"
"2019-08-21 15:00","2019","08","21","15:00"
"2019-08-21 16:00","2019","08","21","16:00"
"2019-08-21 17:00","2019","08","21","17:00"
"2019-08-21 18:00","2019","08","21","18:00"
"2019-08-21 19:00","2019","08","21","19:00"
"2019-08-21 20:00","2019","08","21","20:00"
"2019-08-21 21:00","2019","08","21","21:00"
"2019-08-21 22:00","2019","08","21","22:00"
"2019-08-21 23:00","2019","08","21","23:00"
"2019-08-22 00:00","2019","08","22","00:00"
"2019-08-22 01:00","2019","08","22","01:00"
"2019-08-22 02:00","2019","08","22","02:00"
"2019-08-22 03:00","2019","08","22","03:00"
"2019-08-22 04:00","2019","08","22","04:00"
"2019-08-22 05:00","2019","08","22","05:00"
"2019-08-22 06:00","2019","08","22","06:00"
"2019-08-22 07:00","2019","08","22","07:00"
"2019-08-22 08:00","2019","08","22","08:00"
"2019-08-22 09:00","2019","08","22","09:00"
"2019-08-22 10:00","2019","08","22","10:00"
"2019-08-22 11:00","2019","08","22","11:00"
"2019-08-22 12:00","2019","08","22","12:00"
"2019-08-22 13:00","2019","08","22","13:00"
"2019-08-22 14:00","2019","08","22","14:00"
"2019-08-22 15:00","2019","08","22","15:00"
"2019-08-22 16:00","2019","08","22","16:00"
"2019-08-22 17:00","2019","08","22","17:00"
"2019-08-22 18:00","2019","08","22","18:00"
"2019-08-22 19:00","2019","08","22","19:00"
"2019-08-22 20:00","2019","08","22","20:00"
"2019-08-22 21:00","2019","08","22","21:00"
"2019-08-22 22:00","2019","08","22","22:00"
"2019-08-22 23:00","2019","08","22","23:00"
"2019-08-23 00:00","2019","08","23","00:00"
"2019-08-23 01:00","2019","08","23","01:00"
"2019-08-23 02:00","2019","08","23","02:00"
"2019-08-23 03:00","2019","08","23","03:00"
"2019-08-23 04:00","2019","08","23","04:00"
"2019-08-23 05:00","2019","08","23","05:00"
"2019-08-23 06:00","2019","08","23","06:00"
"2019-08-23 07:00","2019","08","23","07:00"
"2019-08-23 08:00","2019","08","23","08:00"
"2019-08-23 09:00","2019","08","23","09:00"
"2019-08-23 10:00","2019","08","23","10:00"
"2019-08-23 11:00","2019","08","23","11:00"
"2019-08-23 12:00","2019","08","23","12:00"
"2019-08-23 13:00","2019","08","23","13:00"
"2019-08-23 14:00","2019","08","23","14:00"
"2019-08-23 15:00","2019","08","23","15:00"
"2019-08-23 16:00","2019","08","23","16:00"
"2019-08-23 17:00","2019","08","23","17:00"
"2019-08-23 18:00","2019","08","23","18:00"
"2019-08-23 19:00","2019","08","23","19:00"
"2019-08-23 20:00","2019","08","23","20:00"
"2019-08-23 21:00","2019","08","23","21:00"
"2019-08-23 22:00","2019","08","23","22:00"
"2019-08-23 23:00","2019","08","23","23:00"
"2019-08-24 00:00","2019","08","24","00:00"
"2019-08-24 01:00","2019","08","24","01:00"
"2019-08-24 02:00","2019","08","24","02:00"
"2019-08-24 03:00","2019","08","24","03:00"
"2019-08-24 04:00","2019","08","24","04:00"
"2019-08-24 05:00","2019","08","24","05:00"
"2019-08-24 06:00","2019","08","24","06:00"
"2019-08-24 07:00","2019","08","24","07:00"
"2019-08-24 08:00","2019","08","24","08:00"
"2019-08-24 09:00","2019","08","24","09:00"
"2019-08-24 10:00","2019","08","24","10:00"
"2019-08-24 11:00","2019","08","24","11:00"
"2019-08-24 12:00","2019","08","24","12:00"
"2019-08-24 13:00","2019","08","24","13:00"
"2019-08-24 14:00","2019","08","24","14:00"
"2019-08-24 15:00","2019","08","24","15:00"
"2019-08-24 16:00","2019","08","24","16:00"
"2019-08-24 17:00","2019","08","24","17:00"
"2019-08-24 18:00","2019","08","24","18:00"
"2019-08-24 19:00","2019","08","24","19:00"
"2019-08-24 20:00","2019","08","24","20:00"
"2019-08-24 21:00","2019","08","24","21:00"
"2019-08-24 22:00","2019","08","24","22:00"
"2019-08-24 23:00","2019","08","24","23:00"
"2019-08-25 00:00","2019","08","25","00:00"
"2019-08-25 01:00","2019","08","25","01:00"
"2019-08-25 02:00","2019","08","25","02:00"
"2019-08-25 03:00","2019","08","25","03:00"
"2019-08-25 04:00","2019","08","25","04:00"
"2019-08-25 05:00","2019","08","25","05:00"
"2019-08-25 06:00","2019","08","25","06:00"
"2019-08-25 07:00","2019","08","25","07:00"
"2019-08-25 08:00","2019","08","25","08:00"
"2019-08-25 09:00","2019","08","25","09:00"
"2019-08-25 10:00","2019","08","25","10:00"
"2019-08-25 11:00","2019","08","25","11:00"
"2019-08-25 12:00","2019","08","25","12:00"
"2019-08-25 13:00","2019","08","25","13:00"
"2019-08-25 14:00","2019","08","25","14:00"
"2019-08-25 15:00","2019","08","25","15:00"
"2019-08-25 16:00","2019","08","25","16:00"
"2019-08-25 17:00","2019","08","25","17:00"
"2019-08-25 18:00","2019","08","25","18:00"
"2019-08-25 19:00","2019","08","25","19:00"
"2019-08-25 20:00","2019","08","25","20:00"
"2019-08-25 21:00","2019","08","25","21:00"
"2019-08-25 22:00","2019","08","25","22:00"
"2019-08-25 23:00","2019","08","25","23:00"
"2019-08-26 00:00","2019","08","26","00:00"
"2019-08-26 01:00","2019","08","26","01:00"
"2019-08-26 02:00","2019","08","26","02:00"
"2019-08-26 03:00","2019","08","26","03:00"
"2019-08-26 04:00","2019","08","26","04:00"
"2019-08-26 05:00","2019","08","26","05:00"
"2019-08-26 06:00","2019","08","26","06:00"
"2019-08-26 07:00","2019","08","26","07:00"
"2019-08-26 08:00","2019","08","26","08:00"
"2019-08-26 09:00","2019","08","26","09:00"
"2019-08-26 10:00","2019","08","26","10:00"
"2019-08-26 11:00","2019","08","26","11:00"
"2019-08-26 12:00","2019","08","26","12:00"
"2019-08-26 13:00","2019","08","26","13:00"
"2019-08-26 14:00","2019","08","26","14:00"
"2019-08-26 15:00","2019","08","26","15:00"
"2019-08-26 16:00","2019","08","26","16:00"
"2019-08-26 17:00","2019","08","26","17:00"
"2019-08-26 18:00","2019","08","26","18:00"
"2019-08-26 19:00","2019","08","26","19:00"
"2019-08-26 20:00","2019","08","26","20:00"
"2019-08-26 21:00","2019","08","26","21:00"
"2019-08-26 22:00","2019","08","26","22:00"
"2019-08-26 23:00","2019","08","26","23:00"
"2019-08-27 00:00","2019","08","27","00:00"
"2019-08-27 01:00","2019","08","27","01:00"
"2019-08-27 02:00","2019","08","27","02:00"
"2019-08-27 03:00","2019","08","27","03:00"
"2019-08-27 04:00","2019","08","27","04:00"
"2019-08-27 05:00","2019","08","27","05:00"
"2019-08-27 06:00","2019","08","27","06:00"
"2019-08-27 07:00","2019","08","27","07:00"
"2019-08-27 08:00","2019","08","27","08:00"
"2019-08-27 09:00","2019","08","27","09:00"
"2019-08-27 10:00","2019","08","27","10:00"
"2019-08-27 11:00","2019","08","27","11:00"
"2019-08-27 12:00","2019","08","27","12:00"
"2019-08-27 13:00","2019","08","27","13:00"
"2019-08-27 14:00","2019","08","27","14:00"
"2019-08-27 15:00","2019","08","27","15:00"
"2019-08-27 16:00","2019","08","27","16:00"
"2019-08-27 17:00","2019","08","27","17:00"
"2019-08-27 18:00","2019","08","27","18:00"
"2019-08-27 19:00","2019","08","27","19:00"
"2019-08-27 20:00","2019","08","27","20:00"
"2019-08-27 21:00","2019","08","27","21:00"
"2019-08-27 22:00","2019","08","27","22:00"
"2019-08-27 23:00","2019","08","27","23:00"
"2019-08-28 00:00","2019","08","28","00:00"
"2019-08-28 01:00","2019","08","28","01:00"
"2019-08-28 02:00","2019","08","28","02:00"
"2019-08-28 03:00","2019","08","28","03:00"
"2019-08-28 04:00","2019","08","28","04:00"
"2019-08-28 05:00","2019","08","28","05:00"
"2019-08-28 06:00","2019","08","28","06:00"
"2019-08-28 07:00","2019","08","28","07:00"
"2019-08-28 08:00","2019","08","28","08:00"
"2019-08-28 09:00","2019","08","28","09:00"
"2019-08-28 10:00","2019","08","28","10:00"
"2019-08-28 11:00","2019","08","28","11:00"
"2019-08-28 12:00","2019","08","28","12:00"
"2019-08-28 13:00","2019","08","28","13:00"
"2019-08-28 14:00","2019","08","28","14:00"
"2019-08-28 15:00","2019","08","28","15:00"
"2019-08-28 16:00","2019","08","28","16:00"
"2019-08-28 17:00","2019","08","28","17:00"
"2019-08-28 18:00","2019","08","28","18:00"
"2019-08-28 19:00","2019","08","28","19:00"
"2019-08-28 20:00","2019","08","28","20:00"
"2019-08-28 21:00","2019","08","28","21:00"
"2019-08-28 22:00","2019","08","28","22:00"
"2019-08-28 23:00","2019","08","28","23:00"
"2019-08-29 00:00","2019","08","29","00:00"
"2019-08-29 01:00","2019","08","29","01:00"
"2019-08-29 02:00","2019","08","29","02:00"
"2019-08-29 03:00","2019","08","29","03:00"
"2019-08-29 04:00","2019","08","29","04:00"
"2019-08-29 05:00","2019","08","29","05:00"
"2019-08-29 06:00","2019","08","29","06:00"
"2019-08-29 07:00","2019","08","29","07:00"
"2019-08-29 08:00","2019","08","29","08:00"
"2019-08-29 09:00","2019","08","29","09:00"
"2019-08-29 10:00","2019","08","29","10:00"
"2019-08-29 11:00","2019","08","29","11:00"
"2019-08-29 12:00","2019","08","29","12:00"
"2019-08-29 13:00","2019","08","29","13:00"
"2019-08-29 14:00","2019","08","29","14:00"
"2019-08-29 15:00","2019","08","29","15:00"
"2019-08-29 16:00","2019","08","29","16:00"
"2019-08-29 17:00","2019","08","29","17:00"
"2019-08-29 18:00","2019","08","29","18:00"
"2019-08-29 19:00","2019","08","29","19:00"
"2019-08-29 20:00","2019","08","29","20:00"
"2019-08-29 21:00","2019","08","29","21:00"
"2019-08-29 22:00","2019","08","29","22:00"
"2019-08-29 23:00","2019","08","29","23:00"
"2019-08-30 00:00","2019","08","30","00:00"
"2019-08-30 01:00","2019","08","30","01:00"
"2019-08-30 02:00","2019","08","30","02:00"
"2019-08-30 03:00","2019","08","30","03:00"
"2019-08-30 04:00","2019","08","30","04:00"
"2019-08-30 05:00","2019","08","30","05:00"
"2019-08-30 06:00","2019","08","30","06:00"
"2019-08-30 07:00","2019","08","30","07:00"
"2019-08-30 08:00","2019","08","30","08:00"
"2019-08-30 09:00","2019","08","30","09:00"
"2019-08-30 10:00","2019","08","30","10:00"
"2019-08-30 11:00","2019","08","30","11:00"
"2019-08-30 12:00","2019","08","30","12:00"
"2019-08-30 13:00","2019","08","30","13:00"
"2019-08-30 14:00","2019","08","30","14:00"
"2019-08-30 15:00","2019","08","30","15:00"
"2019-08-30 16:00","2019","08","30","16:00"
"2019-08-30 17:00","2019","08","30","17:00"
"2019-08-30 18:00","2019","08","30","18:00"
"2019-08-30 19:00","2019","08","30","19:00"
"2019-08-30 20:00","2019","08","30","20:00"
"2019-08-30 21:00","2019","08","30","21:00"
"2019-08-30 22:00","2019","08","30","22:00"
"2019-08-30 23:00","2019","08","30","23:00"
"2019-08-31 00:00","2019","08","31","00:00"
"2019-08-31 01:00","2019","08","31","01:00"
"2019-08-31 02:00","2019","08","31","02:00"
"2019-08-31 03:00","2019","08","31","03:00"
"2019-08-31 04:00","2019","08","31","04:00"
"2019-08-31 05:00","2019","08","31","05:00"
"2019-08-31 06:00","2019","08","31","06:00"
"2019-08-31 07:00","2019","08","31","07:00"
"2019-08-31 08:00","2019","08","31","08:00"
"2019-08-31 09:00","2019","08","31","09:00"
"2019-08-31 10:00","2019","08","31","10:00"
"2019-08-31 11:00","2019","08","31","11:00"
"2019-08-31 12:00","2019","08","31","12:00"
"2019-08-31 13:00","2019","08","31","13:00"
"2019-08-31 14:00","2019","08","31","14:00"
"2019-08-31 15:00","2019","08","31","15:00"
"2019-08-31 16:00","2019","08","31","16:00"
"2019-08-31 17:00","2019","08","31","17:00"
"2019-08-31 18:00","2019","08","31","18:00"
"2019-08-31 19:00","2019","08","31","19:00"
"2019-08-31 20:00","2019","08","31","20:00"
"2019-08-31 21:00","2019","08","31","21:00"
"2019-08-31 22:00","2019","08","31","22:00"
"2019-08-31 23:00","2019","08","31","23:00"
