"Station Name","KINGSTON CLIMATE"
"Province","ONTARIO"
"Current Station Operator","Environment and Climate Change Canada - Meteorological Service of Canada"
"Latitude","44.22"
"Longitude","-76.60"
"Elevation","93.00"
"Climate Identifier","6104142"
"WMO Identifier","71820"
"TC Identifier","TKG"
"All times are specified in Local Standard Time (LST). Add 1 hour to adjust for Daylight Saving Time where and when it is observed."

"Legend"
"E","Estimated"
"M","Missing"
"NA","Not Available"

"Date/Time","Year","Month","Day","Time","Temp (°C)","Temp Flag","Dew Point Temp (°C)","Dew Point Temp Flag","Rel Hum (%)","Rel Hum Flag","Wind Dir (10s deg)","Wind Dir Flag","Wind Spd (km/h)","Wind Spd Flag","Visibility (km)","Visibility Flag","Stn Press (kPa)","Stn Press Flag","Hmdx","Hmdx Flag","Wind Chill","Wind Chill Flag","Weather"
"2018-06-01 00:00","2018","06","01","00:00","16.5","","15.3","","93","","19","","12","","","","99.68","","","","","","NA"
"2018-06-01 01:00","2018","06","01","01:00","16.4","","15.4","","94","","21","","6","","","","99.68","","","","","","NA"
"2018-06-01 02:00","2018","06","01","02:00","17.1","","16.2","","95","","19","","11","","","","99.64","","","","","","NA"
"2018-06-01 03:00","2018","06","01","03:00","16.5","","15.9","","96","","19","","10","","","","99.63","","","","","","NA"
"2018-06-01 04:00","2018","06","01","04:00","16.2","","15.6","","96","","20","","8","","","","99.63","","","","","","NA"
"2018-06-01 05:00","2018","06","01","05:00","16.5","","15.9","","97","","18","","6","","","","99.64","","","","","","NA"
"2018-06-01 06:00","2018","06","01","06:00","17.5","","16.6","","95","","19","","10","","","","99.66","","","","","","NA"
"2018-06-01 07:00","2018","06","01","07:00","18.3","","16.9","","92","","19","","12","","","","99.67","","","","","","NA"
"2018-06-01 08:00","2018","06","01","08:00","18.0","","16.8","","93","","19","","14","","","","99.71","","","","","","NA"
"2018-06-01 09:00","2018","06","01","09:00","19.6","","17.8","","89","","19","","14","","","","99.73","","","","","","NA"
"2018-06-01 10:00","2018","06","01","10:00","18.6","","17.1","","91","","17","","13","","","","99.72","","","","","","NA"
"2018-06-01 11:00","2018","06","01","11:00","19.4","","17.8","","90","","16","","12","","","","99.72","","","","","","NA"
"2018-06-01 12:00","2018","06","01","12:00","20.8","","17.9","","84","","16","","9","","","","99.70","","27","","","","NA"
"2018-06-01 13:00","2018","06","01","13:00","21.8","","18.9","","83","","19","","13","","","","99.62","","28","","","","NA"
"2018-06-01 14:00","2018","06","01","14:00","22.9","","19.0","","79","","17","","14","","","","99.60","","30","","","","NA"
"2018-06-01 15:00","2018","06","01","15:00","24.8","","20.3","","76","","17","","11","","","","99.57","","33","","","","NA"
"2018-06-01 16:00","2018","06","01","16:00","21.1","","20.5","","96","","20","","11","","","","99.60","","29","","","","NA"
"2018-06-01 17:00","2018","06","01","17:00","20.4","","18.5","","89","","16","","7","","","","99.60","","27","","","","NA"
"2018-06-01 18:00","2018","06","01","18:00","18.5","","17.3","","93","","16","","8","","","","99.62","","","","","","NA"
"2018-06-01 19:00","2018","06","01","19:00","16.7","","16.0","","96","","15","","6","","","","99.65","","","","","","NA"
"2018-06-01 20:00","2018","06","01","20:00","17.7","","17.1","","96","","7","","8","","","","99.72","","","","","","NA"
"2018-06-01 21:00","2018","06","01","21:00","18.8","","18.1","","95","","0","","1","","","","99.80","","","","","","NA"
"2018-06-01 22:00","2018","06","01","22:00","20.5","","17.0","","80","","35","","19","","","","99.85","","26","","","","NA"
"2018-06-01 23:00","2018","06","01","23:00","18.6","","14.1","","75","","36","","23","","","","99.91","","","","","","NA"
"2018-06-02 00:00","2018","06","02","00:00","17.4","","12.7","","74","","36","","25","","","","99.93","","","","","","NA"
"2018-06-02 01:00","2018","06","02","01:00","16.2","","11.2","","72","","1","","30","","","","99.95","","","","","","NA"
"2018-06-02 02:00","2018","06","02","02:00","14.9","","10.7","","76","","1","","24","","","","99.99","","","","","","NA"
"2018-06-02 03:00","2018","06","02","03:00","13.6","","9.9","","78","","1","","29","","","","100.09","","","","","","NA"
"2018-06-02 04:00","2018","06","02","04:00","13.4","","9.7","","78","","1","","22","","","","100.15","","","","","","NA"
"2018-06-02 05:00","2018","06","02","05:00","12.9","","9.0","","77","","2","","18","","","","100.18","","","","","","NA"
"2018-06-02 06:00","2018","06","02","06:00","12.8","","8.9","","77","","2","","22","","","","100.24","","","","","","NA"
"2018-06-02 07:00","2018","06","02","07:00","12.9","","8.9","","77","","36","","25","","","","100.33","","","","","","NA"
"2018-06-02 08:00","2018","06","02","08:00","14.1","","9.6","","74","","36","","23","","","","100.37","","","","","","NA"
"2018-06-02 09:00","2018","06","02","09:00","15.7","","10.0","","69","","2","","21","","","","100.35","","","","","","NA"
"2018-06-02 10:00","2018","06","02","10:00","16.1","","10.5","","70","","1","","22","","","","100.36","","","","","","NA"
"2018-06-02 11:00","2018","06","02","11:00","17.1","","11.1","","68","","1","","17","","","","100.34","","","","","","NA"
"2018-06-02 12:00","2018","06","02","12:00","18.9","","11.5","","62","","2","","18","","","","100.34","","","","","","NA"
"2018-06-02 13:00","2018","06","02","13:00","20.6","","13.1","","62","","1","","19","","","","100.32","","","","","","NA"
"2018-06-02 14:00","2018","06","02","14:00","21.4","","13.0","","59","","1","","16","","","","100.33","","","","","","NA"
"2018-06-02 15:00","2018","06","02","15:00","22.5","","12.7","","54","","3","","18","","","","100.32","","25","","","","NA"
"2018-06-02 16:00","2018","06","02","16:00","22.7","","11.1","","48","","2","","19","","","","100.30","","25","","","","NA"
"2018-06-02 17:00","2018","06","02","17:00","22.6","","9.7","","44","","1","","19","","","","100.28","","","","","","NA"
"2018-06-02 18:00","2018","06","02","18:00","22.5","","8.5","","41","","2","","18","","","","100.29","","","","","","NA"
"2018-06-02 19:00","2018","06","02","19:00","21.5","","7.5","","40","","4","","16","","","","100.25","","","","","","NA"
"2018-06-02 20:00","2018","06","02","20:00","19.4","","7.8","","47","","2","","9","","","","100.25","","","","","","NA"
"2018-06-02 21:00","2018","06","02","21:00","17.5","","8.5","","56","","4","","10","","","","100.28","","","","","","NA"
"2018-06-02 22:00","2018","06","02","22:00","13.3","","9.4","","77","","35","","12","","","","100.30","","","","","","NA"
"2018-06-02 23:00","2018","06","02","23:00","13.2","","9.4","","78","","1","","11","","","","100.29","","","","","","NA"
"2018-06-03 00:00","2018","06","03","00:00","14.2","","8.4","","68","","4","","11","","","","100.27","","","","","","NA"
"2018-06-03 01:00","2018","06","03","01:00","13.8","","7.1","","64","","5","","11","","","","100.27","","","","","","NA"
"2018-06-03 02:00","2018","06","03","02:00","14.8","","7.2","","60","","5","","14","","","","100.30","","","","","","NA"
"2018-06-03 03:00","2018","06","03","03:00","14.5","","7.7","","64","","5","","16","","","","100.27","","","","","","NA"
"2018-06-03 04:00","2018","06","03","04:00","14.3","","7.9","","65","","4","","13","","","","100.27","","","","","","NA"
"2018-06-03 05:00","2018","06","03","05:00","14.1","","7.5","","65","","5","","18","","","","100.27","","","","","","NA"
"2018-06-03 06:00","2018","06","03","06:00","14.9","","8.3","","64","","5","","16","","","","100.31","","","","","","NA"
"2018-06-03 07:00","2018","06","03","07:00","17.0","","10.1","","64","","5","","12","","","","100.27","","","","","","NA"
"2018-06-03 08:00","2018","06","03","08:00","18.8","","10.6","","59","","6","","14","","","","100.25","","","","","","NA"
"2018-06-03 09:00","2018","06","03","09:00","19.3","","12.1","","63","","10","","13","","","","100.23","","","","","","NA"
"2018-06-03 10:00","2018","06","03","10:00","18.6","","13.2","","71","","10","","13","","","","100.20","","","","","","NA"
"2018-06-03 11:00","2018","06","03","11:00","18.9","","13.8","","72","","7","","15","","","","100.15","","","","","","NA"
"2018-06-03 12:00","2018","06","03","12:00","19.6","","13.9","","70","","10","","15","","","","100.14","","","","","","NA"
"2018-06-03 13:00","2018","06","03","13:00","19.3","","15.0","","76","","7","","15","","","","100.05","","","","","","NA"
"2018-06-03 14:00","2018","06","03","14:00","18.9","","15.9","","83","","8","","14","","","","99.97","","","","","","NA"
"2018-06-03 15:00","2018","06","03","15:00","18.0","","16.2","","89","","10","","6","","","","99.96","","","","","","NA"
"2018-06-03 16:00","2018","06","03","16:00","17.2","","15.2","","88","","12","","15","","","","99.92","","","","","","NA"
"2018-06-03 17:00","2018","06","03","17:00","16.4","","15.5","","94","","11","","7","","","","99.89","","","","","","NA"
"2018-06-03 18:00","2018","06","03","18:00","15.3","","13.9","","91","","14","","28","","","","99.88","","","","","","NA"
"2018-06-03 19:00","2018","06","03","19:00","14.3","","13.7","","97","","14","","28","","","","99.83","","","","","","NA"
"2018-06-03 20:00","2018","06","03","20:00","13.6","","12.8","","95","","14","","27","","","","99.80","","","","","","NA"
"2018-06-03 21:00","2018","06","03","21:00","13.9","","12.7","","93","","11","","13","","","","99.73","","","","","","NA"
"2018-06-03 22:00","2018","06","03","22:00","13.8","","12.7","","93","","14","","24","","","","99.71","","","","","","NA"
"2018-06-03 23:00","2018","06","03","23:00","14.0","","12.6","","92","","15","","23","","","","99.64","","","","","","NA"
"2018-06-04 00:00","2018","06","04","00:00","13.0","","11.8","","93","","15","","26","","","","99.57","","","","","","NA"
"2018-06-04 01:00","2018","06","04","01:00","12.9","","11.8","","93","","15","","29","","","","99.49","","","","","","NA"
"2018-06-04 02:00","2018","06","04","02:00","12.8","","11.5","","92","","16","","26","","","","99.40","","","","","","NA"
"2018-06-04 03:00","2018","06","04","03:00","12.6","","11.4","","93","","17","","38","","","","99.31","","","","","","NA"
"2018-06-04 04:00","2018","06","04","04:00","12.6","","11.4","","93","","17","","32","","","","99.28","","","","","","NA"
"2018-06-04 05:00","2018","06","04","05:00","12.4","","11.3","","93","","17","","28","","","","99.30","","","","","","NA"
"2018-06-04 06:00","2018","06","04","06:00","12.2","","11.6","","96","","18","","31","","","","99.29","","","","","","NA"
"2018-06-04 07:00","2018","06","04","07:00","12.2","","11.9","","98","","19","","22","","","","99.29","","","","","","NA"
"2018-06-04 08:00","2018","06","04","08:00","12.9","","12.6","","98","","18","","14","","","","99.26","","","","","","NA"
"2018-06-04 09:00","2018","06","04","09:00","14.4","","14.1","","98","","21","","18","","","","99.20","","","","","","NA"
"2018-06-04 10:00","2018","06","04","10:00","16.0","","14.2","","89","","23","","20","","","","99.19","","","","","","NA"
"2018-06-04 11:00","2018","06","04","11:00","17.4","","14.5","","83","","23","","22","","","","99.16","","","","","","NA"
"2018-06-04 12:00","2018","06","04","12:00","17.1","","14.5","","85","","25","","22","","","","99.19","","","","","","NA"
"2018-06-04 13:00","2018","06","04","13:00","17.0","","11.6","","70","","26","","26","","","","99.20","","","","","","NA"
"2018-06-04 14:00","2018","06","04","14:00","17.7","","11.4","","66","","26","","29","","","","99.25","","","","","","NA"
"2018-06-04 15:00","2018","06","04","15:00","18.2","","11.4","","65","","25","","23","","","","99.24","","","","","","NA"
"2018-06-04 16:00","2018","06","04","16:00","16.8","","12.0","","73","","23","","25","","","","99.22","","","","","","NA"
"2018-06-04 17:00","2018","06","04","17:00","16.9","","11.6","","71","","25","","20","","","","99.22","","","","","","NA"
"2018-06-04 18:00","2018","06","04","18:00","15.6","","8.3","","62","","27","","28","","","","99.33","","","","","","NA"
"2018-06-04 19:00","2018","06","04","19:00","14.2","","6.0","","58","","28","","25","","","","99.40","","","","","","NA"
"2018-06-04 20:00","2018","06","04","20:00","12.8","","6.6","","66","","26","","12","","","","99.40","","","","","","NA"
"2018-06-04 21:00","2018","06","04","21:00","12.4","","6.6","","67","","26","","11","","","","99.44","","","","","","NA"
"2018-06-04 22:00","2018","06","04","22:00","12.7","","6.7","","67","","26","","15","","","","99.41","","","","","","NA"
"2018-06-04 23:00","2018","06","04","23:00","12.9","","6.6","","66","","26","","12","","","","99.34","","","","","","NA"
"2018-06-05 00:00","2018","06","05","00:00","12.7","","6.4","","65","","27","","15","","","","99.28","","","","","","NA"
"2018-06-05 01:00","2018","06","05","01:00","11.8","","6.3","","69","","27","","14","","","","99.21","","","","","","NA"
"2018-06-05 02:00","2018","06","05","02:00","10.9","","6.7","","76","","25","","12","","","","99.19","","","","","","NA"
"2018-06-05 03:00","2018","06","05","03:00","10.4","","6.1","","74","","26","","16","","","","99.19","","","","","","NA"
"2018-06-05 04:00","2018","06","05","04:00","9.9","","6.5","","79","","25","","13","","","","99.18","","","","","","NA"
"2018-06-05 05:00","2018","06","05","05:00","9.9","","6.3","","78","","25","","12","","","","99.20","","","","","","NA"
"2018-06-05 06:00","2018","06","05","06:00","11.0","","6.5","","73","","26","","16","","","","99.19","","","","","","NA"
"2018-06-05 07:00","2018","06","05","07:00","11.9","","7.2","","73","","26","","16","","","","99.23","","","","","","NA"
"2018-06-05 08:00","2018","06","05","08:00","12.7","","7.3","","70","","27","","15","","","","99.25","","","","","","NA"
"2018-06-05 09:00","2018","06","05","09:00","14.1","","9.3","","73","","26","","13","","","","99.25","","","","","","NA"
"2018-06-05 10:00","2018","06","05","10:00","14.5","","8.8","","69","","27","","15","","","","99.30","","","","","","NA"
"2018-06-05 11:00","2018","06","05","11:00","14.8","","8.2","","64","","26","","13","","","","99.28","","","","","","NA"
"2018-06-05 12:00","2018","06","05","12:00","14.5","","8.5","","67","","28","","13","","","","99.29","","","","","","NA"
"2018-06-05 13:00","2018","06","05","13:00","14.7","","8.4","","66","","27","","16","","","","99.29","","","","","","NA"
"2018-06-05 14:00","2018","06","05","14:00","14.9","","8.6","","66","","28","","13","","","","99.32","","","","","","NA"
"2018-06-05 15:00","2018","06","05","15:00","14.5","","8.9","","69","","29","","15","","","","99.35","","","","","","NA"
"2018-06-05 16:00","2018","06","05","16:00","14.8","","9.5","","71","","27","","12","","","","99.37","","","","","","NA"
"2018-06-05 17:00","2018","06","05","17:00","14.5","","10.0","","75","","23","","10","","","","99.39","","","","","","NA"
"2018-06-05 18:00","2018","06","05","18:00","14.4","","10.5","","77","","22","","10","","","","99.45","","","","","","NA"
"2018-06-05 19:00","2018","06","05","19:00","12.8","","11.2","","90","","31","","1","","","","99.49","","","","","","NA"
"2018-06-05 20:00","2018","06","05","20:00","12.5","","10.4","","87","","36","","12","","","","99.56","","","","","","NA"
"2018-06-05 21:00","2018","06","05","21:00","12.0","","10.2","","89","","35","","8","","","","99.61","","","","","","NA"
"2018-06-05 22:00","2018","06","05","22:00","11.6","","10.6","","94","","32","","6","","","","99.64","","","","","","NA"
"2018-06-05 23:00","2018","06","05","23:00","11.5","","10.4","","93","","31","","7","","","","99.68","","","","","","NA"
"2018-06-06 00:00","2018","06","06","00:00","11.1","","9.8","","91","","32","","10","","","","99.70","","","","","","NA"
"2018-06-06 01:00","2018","06","06","01:00","10.8","","9.5","","92","","32","","9","","","","99.71","","","","","","NA"
"2018-06-06 02:00","2018","06","06","02:00","10.6","","9.4","","92","","32","","8","","","","99.73","","","","","","NA"
"2018-06-06 03:00","2018","06","06","03:00","10.4","","9.3","","93","","32","","6","","","","99.76","","","","","","NA"
"2018-06-06 04:00","2018","06","06","04:00","10.3","","9.1","","93","","33","","6","","","","99.81","","","","","","NA"
"2018-06-06 05:00","2018","06","06","05:00","10.4","","9.5","","94","","32","","7","","","","99.91","","","","","","NA"
"2018-06-06 06:00","2018","06","06","06:00","11.4","","10.0","","91","","36","","7","","","","99.97","","","","","","NA"
"2018-06-06 07:00","2018","06","06","07:00","11.9","","9.9","","88","","36","","10","","","","100.02","","","","","","NA"
"2018-06-06 08:00","2018","06","06","08:00","13.2","","10.5","","84","","30","","3","","","","100.03","","","","","","NA"
"2018-06-06 09:00","2018","06","06","09:00","13.5","","10.7","","84","","20","","8","","","","100.08","","","","","","NA"
"2018-06-06 10:00","2018","06","06","10:00","14.2","","11.4","","83","","18","","11","","","","100.16","","","","","","NA"
"2018-06-06 11:00","2018","06","06","11:00","14.5","","11.2","","81","","19","","15","","","","100.23","","","","","","NA"
"2018-06-06 12:00","2018","06","06","12:00","15.3","","11.4","","78","","19","","19","","","","100.23","","","","","","NA"
"2018-06-06 13:00","2018","06","06","13:00","14.9","","11.9","","82","","19","","23","","","","100.23","","","","","","NA"
"2018-06-06 14:00","2018","06","06","14:00","15.5","","11.5","","77","","19","","22","","","","100.29","","","","","","NA"
"2018-06-06 15:00","2018","06","06","15:00","15.0","","11.5","","79","","18","","21","","","","100.25","","","","","","NA"
"2018-06-06 16:00","2018","06","06","16:00","15.9","","11.1","","73","","20","","19","","","","100.29","","","","","","NA"
"2018-06-06 17:00","2018","06","06","17:00","15.6","","10.6","","72","","20","","20","","","","100.28","","","","","","NA"
"2018-06-06 18:00","2018","06","06","18:00","15.0","","9.8","","71","","22","","18","","","","100.31","","","","","","NA"
"2018-06-06 19:00","2018","06","06","19:00","13.9","","9.9","","77","","23","","14","","","","100.33","","","","","","NA"
"2018-06-06 20:00","2018","06","06","20:00","13.0","","9.7","","80","","24","","12","","","","100.38","","","","","","NA"
"2018-06-06 21:00","2018","06","06","21:00","12.3","","9.9","","85","","24","","5","","","","100.40","","","","","","NA"
"2018-06-06 22:00","2018","06","06","22:00","11.6","","10.4","","92","","20","","12","","","","100.40","","","","","","NA"
"2018-06-06 23:00","2018","06","06","23:00","11.3","","9.6","","89","","22","","9","","","","100.42","","","","","","NA"
"2018-06-07 00:00","2018","06","07","00:00","11.2","","9.2","","88","","23","","6","","","","100.41","","","","","","NA"
"2018-06-07 01:00","2018","06","07","01:00","11.4","","9.9","","91","","22","","10","","","","100.44","","","","","","NA"
"2018-06-07 02:00","2018","06","07","02:00","11.0","","9.7","","92","","21","","9","","","","100.46","","","","","","NA"
"2018-06-07 03:00","2018","06","07","03:00","10.7","","9.5","","92","","22","","11","","","","100.50","","","","","","NA"
"2018-06-07 04:00","2018","06","07","04:00","11.0","","9.5","","91","","18","","8","","","","100.50","","","","","","NA"
"2018-06-07 05:00","2018","06","07","05:00","11.1","","9.7","","91","","20","","13","","","","100.55","","","","","","NA"
"2018-06-07 06:00","2018","06","07","06:00","11.4","","10.0","","91","","20","","16","","","","100.59","","","","","","NA"
"2018-06-07 07:00","2018","06","07","07:00","11.9","","9.9","","87","","19","","16","","","","100.62","","","","","","NA"
"2018-06-07 08:00","2018","06","07","08:00","12.4","","10.1","","86","","18","","17","","","","100.63","","","","","","NA"
"2018-06-07 09:00","2018","06","07","09:00","13.3","","10.7","","84","","18","","19","","","","100.65","","","","","","NA"
"2018-06-07 10:00","2018","06","07","10:00","14.3","","11.8","","85","","18","","15","","","","100.66","","","","","","NA"
"2018-06-07 11:00","2018","06","07","11:00","13.7","","11.0","","84","","18","","19","","","","100.69","","","","","","NA"
"2018-06-07 12:00","2018","06","07","12:00","13.6","","11.1","","85","","18","","15","","","","100.67","","","","","","NA"
"2018-06-07 13:00","2018","06","07","13:00","15.4","","12.0","","80","","18","","17","","","","100.63","","","","","","NA"
"2018-06-07 14:00","2018","06","07","14:00","15.5","","10.9","","74","","18","","19","","","","100.66","","","","","","NA"
"2018-06-07 15:00","2018","06","07","15:00","15.4","","10.9","","74","","19","","19","","","","100.65","","","","","","NA"
"2018-06-07 16:00","2018","06","07","16:00","15.9","","10.8","","72","","18","","21","","","","100.60","","","","","","NA"
"2018-06-07 17:00","2018","06","07","17:00","15.6","","10.8","","73","","18","","16","","","","100.56","","","","","","NA"
"2018-06-07 18:00","2018","06","07","18:00","15.2","","10.5","","74","","18","","12","","","","100.62","","","","","","NA"
"2018-06-07 19:00","2018","06","07","19:00","14.2","","11.0","","81","","18","","8","","","","100.65","","","","","","NA"
"2018-06-07 20:00","2018","06","07","20:00","13.2","","11.0","","87","","19","","10","","","","100.64","","","","","","NA"
"2018-06-07 21:00","2018","06","07","21:00","12.9","","10.1","","83","","20","","11","","","","100.68","","","","","","NA"
"2018-06-07 22:00","2018","06","07","22:00","12.8","","10.9","","88","","23","","8","","","","100.69","","","","","","NA"
"2018-06-07 23:00","2018","06","07","23:00","11.9","","10.9","","93","","","","0","","","","100.74","","","","","","NA"
"2018-06-08 00:00","2018","06","08","00:00","11.5","","10.2","","92","","28","","4","","","","100.73","","","","","","NA"
"2018-06-08 01:00","2018","06","08","01:00","12.1","","10.5","","90","","36","","5","","","","100.76","","","","","","NA"
"2018-06-08 02:00","2018","06","08","02:00","12.7","","10.4","","86","","35","","4","","","","100.81","","","","","","NA"
"2018-06-08 03:00","2018","06","08","03:00","11.9","","10.2","","90","","2","","7","","","","100.82","","","","","","NA"
"2018-06-08 04:00","2018","06","08","04:00","12.7","","11.2","","91","","36","","5","","","","100.86","","","","","","NA"
"2018-06-08 05:00","2018","06","08","05:00","14.3","","11.2","","81","","3","","11","","","","100.94","","","","","","NA"
"2018-06-08 06:00","2018","06","08","06:00","15.2","","11.7","","80","","2","","14","","","","100.99","","","","","","NA"
"2018-06-08 07:00","2018","06","08","07:00","16.6","","10.2","","66","","3","","22","","","","101.08","","","","","","NA"
"2018-06-08 08:00","2018","06","08","08:00","17.7","","9.6","","59","","5","","24","","","","101.13","","","","","","NA"
"2018-06-08 09:00","2018","06","08","09:00","18.6","","9.6","","56","","3","","20","","","","101.15","","","","","","NA"
"2018-06-08 10:00","2018","06","08","10:00","19.9","","10.4","","55","","2","","15","","","","101.14","","","","","","NA"
"2018-06-08 11:00","2018","06","08","11:00","20.6","","9.3","","48","","3","","15","","","","101.13","","","","","","NA"
"2018-06-08 12:00","2018","06","08","12:00","21.6","","9.7","","47","","36","","10","","","","101.09","","","","","","NA"
"2018-06-08 13:00","2018","06","08","13:00","21.5","","8.5","","43","","35","","11","","","","101.04","","","","","","NA"
"2018-06-08 14:00","2018","06","08","14:00","22.0","","8.7","","42","","29","","7","","","","101.02","","","","","","NA"
"2018-06-08 15:00","2018","06","08","15:00","21.0","","10.3","","50","","18","","13","","","","100.98","","","","","","NA"
"2018-06-08 16:00","2018","06","08","16:00","20.5","","9.7","","50","","19","","16","","","","100.99","","","","","","NA"
"2018-06-08 17:00","2018","06","08","17:00","20.2","","9.6","","50","","19","","13","","","","100.97","","","","","","NA"
"2018-06-08 18:00","2018","06","08","18:00","20.1","","10.6","","54","","22","","10","","","","100.95","","","","","","NA"
"2018-06-08 19:00","2018","06","08","19:00","18.5","","10.6","","60","","21","","9","","","","100.93","","","","","","NA"
"2018-06-08 20:00","2018","06","08","20:00","16.4","","10.5","","68","","23","","12","","","","100.96","","","","","","NA"
"2018-06-08 21:00","2018","06","08","21:00","15.1","","10.8","","75","","23","","9","","","","101.00","","","","","","NA"
"2018-06-08 22:00","2018","06","08","22:00","13.5","","10.6","","83","","22","","5","","","","101.01","","","","","","NA"
"2018-06-08 23:00","2018","06","08","23:00","13.3","","10.5","","83","","22","","2","","","","101.01","","","","","","NA"
"2018-06-09 00:00","2018","06","09","00:00","12.5","","10.0","","85","","19","","3","","","","100.98","","","","","","NA"
"2018-06-09 01:00","2018","06","09","01:00","12.4","","10.9","","91","","19","","4","","","","100.98","","","","","","NA"
"2018-06-09 02:00","2018","06","09","02:00","12.5","","10.5","","87","","21","","7","","","","100.96","","","","","","NA"
"2018-06-09 03:00","2018","06","09","03:00","10.9","","10.4","","97","","0","","1","","","","100.98","","","","","","NA"
"2018-06-09 04:00","2018","06","09","04:00","9.9","","9.3","","97","","31","","1","","","","101.00","","","","","","NA"
"2018-06-09 05:00","2018","06","09","05:00","9.7","","9.1","","97","","0","","1","","","","101.02","","","","","","NA"
"2018-06-09 06:00","2018","06","09","06:00","11.9","","11.3","","96","","0","","1","","","","101.05","","","","","","NA"
"2018-06-09 07:00","2018","06","09","07:00","15.2","","12.8","","86","","26","","6","","","","101.07","","","","","","NA"
"2018-06-09 08:00","2018","06","09","08:00","16.8","","11.7","","72","","24","","6","","","","101.08","","","","","","NA"
"2018-06-09 09:00","2018","06","09","09:00","17.8","","10.9","","64","","22","","7","","","","101.07","","","","","","NA"
"2018-06-09 10:00","2018","06","09","10:00","17.1","","13.0","","77","","17","","8","","","","101.04","","","","","","NA"
"2018-06-09 11:00","2018","06","09","11:00","16.3","","13.2","","82","","17","","14","","","","101.02","","","","","","NA"
"2018-06-09 12:00","2018","06","09","12:00","17.0","","13.4","","80","","18","","13","","","","101.02","","","","","","NA"
"2018-06-09 13:00","2018","06","09","13:00","17.3","","12.6","","74","","17","","12","","","","100.99","","","","","","NA"
"2018-06-09 14:00","2018","06","09","14:00","18.2","","12.6","","70","","17","","13","","","","100.93","","","","","","NA"
"2018-06-09 15:00","2018","06","09","15:00","18.4","","12.9","","71","","15","","11","","","","100.87","","","","","","NA"
"2018-06-09 16:00","2018","06","09","16:00","17.7","","11.6","","67","","15","","8","","","","100.85","","","","","","NA"
"2018-06-09 17:00","2018","06","09","17:00","18.7","","11.5","","63","","14","","10","","","","100.76","","","","","","NA"
"2018-06-09 18:00","2018","06","09","18:00","17.3","","11.2","","67","","16","","11","","","","100.74","","","","","","NA"
"2018-06-09 19:00","2018","06","09","19:00","16.4","","12.2","","76","","16","","8","","","","100.73","","","","","","NA"
"2018-06-09 20:00","2018","06","09","20:00","14.9","","11.8","","82","","18","","6","","","","100.78","","","","","","NA"
"2018-06-09 21:00","2018","06","09","21:00","15.2","","11.6","","79","","15","","7","","","","100.85","","","","","","NA"
"2018-06-09 22:00","2018","06","09","22:00","12.9","","10.6","","86","","2","","4","","","","100.87","","","","","","NA"
"2018-06-09 23:00","2018","06","09","23:00","13.3","","11.4","","88","","","","0","","","","100.85","","","","","","NA"
"2018-06-10 00:00","2018","06","10","00:00","12.9","","11.1","","88","","3","","7","","","","100.85","","","","","","NA"
"2018-06-10 01:00","2018","06","10","01:00","14.3","","7.2","","62","","4","","10","","","","100.87","","","","","","NA"
"2018-06-10 02:00","2018","06","10","02:00","13.8","","5.8","","59","","4","","11","","","","100.87","","","","","","NA"
"2018-06-10 03:00","2018","06","10","03:00","12.9","","5.4","","60","","4","","10","","","","100.85","","","","","","NA"
"2018-06-10 04:00","2018","06","10","04:00","10.8","","4.9","","67","","2","","8","","","","100.84","","","","","","NA"
"2018-06-10 05:00","2018","06","10","05:00","8.6","","6.3","","85","","2","","9","","","","100.86","","","","","","NA"
"2018-06-10 06:00","2018","06","10","06:00","13.5","","7.3","","66","","3","","8","","","","100.87","","","","","","NA"
"2018-06-10 07:00","2018","06","10","07:00","16.2","","7.2","","55","","4","","14","","","","100.90","","","","","","NA"
"2018-06-10 08:00","2018","06","10","08:00","17.6","","4.8","","43","","5","","17","","","","100.91","","","","","","NA"
"2018-06-10 09:00","2018","06","10","09:00","19.0","","5.8","","42","","5","","15","","","","100.89","","","","","","NA"
"2018-06-10 10:00","2018","06","10","10:00","20.3","","4.5","","35","","5","","16","","","","100.87","","","","","","NA"
"2018-06-10 11:00","2018","06","10","11:00","20.8","","3.3","","32","","5","","21","","","","100.84","","","","","","NA"
"2018-06-10 12:00","2018","06","10","12:00","21.4","","5.2","","35","","7","","17","","","","100.79","","","","","","NA"
"2018-06-10 13:00","2018","06","10","13:00","21.0","","2.5","","30","","3","","11","","","","100.73","","","","","","NA"
"2018-06-10 14:00","2018","06","10","14:00","22.3","","4.7","","32","","3","","12","","","","100.66","","","","","","NA"
"2018-06-10 15:00","2018","06","10","15:00","22.3","","3.4","","29","","6","","16","","","","100.61","","","","","","NA"
"2018-06-10 16:00","2018","06","10","16:00","22.1","","2.5","","28","","3","","19","","","","100.59","","","","","","NA"
"2018-06-10 17:00","2018","06","10","17:00","21.9","","2.9","","29","","5","","15","","","","100.54","","","","","","NA"
"2018-06-10 18:00","2018","06","10","18:00","21.4","","2.3","","28","","2","","14","","","","100.51","","","","","","NA"
"2018-06-10 19:00","2018","06","10","19:00","20.1","","2.4","","31","","3","","14","","","","100.52","","","","","","NA"
"2018-06-10 20:00","2018","06","10","20:00","18.0","","3.5","","38","","3","","10","","","","100.56","","","","","","NA"
"2018-06-10 21:00","2018","06","10","21:00","15.1","","4.5","","49","","1","","10","","","","100.62","","","","","","NA"
"2018-06-10 22:00","2018","06","10","22:00","15.4","","4.2","","47","","3","","8","","","","100.63","","","","","","NA"
"2018-06-10 23:00","2018","06","10","23:00","14.1","","4.9","","54","","4","","7","","","","100.62","","","","","","NA"
"2018-06-11 00:00","2018","06","11","00:00","11.9","","4.7","","61","","2","","8","","","","100.61","","","","","","NA"
"2018-06-11 01:00","2018","06","11","01:00","10.2","","5.7","","74","","3","","7","","","","100.61","","","","","","NA"
"2018-06-11 02:00","2018","06","11","02:00","8.1","","5.2","","82","","36","","9","","","","100.65","","","","","","NA"
"2018-06-11 03:00","2018","06","11","03:00","8.3","","5.6","","83","","1","","10","","","","100.64","","","","","","NA"
"2018-06-11 04:00","2018","06","11","04:00","9.8","","5.2","","73","","4","","9","","","","100.65","","","","","","NA"
"2018-06-11 05:00","2018","06","11","05:00","11.1","","6.6","","74","","3","","11","","","","100.70","","","","","","NA"
"2018-06-11 06:00","2018","06","11","06:00","12.6","","6.5","","66","","4","","15","","","","100.76","","","","","","NA"
"2018-06-11 07:00","2018","06","11","07:00","14.7","","5.2","","53","","4","","15","","","","100.79","","","","","","NA"
"2018-06-11 08:00","2018","06","11","08:00","16.9","","5.5","","47","","4","","18","","","","100.83","","","","","","NA"
"2018-06-11 09:00","2018","06","11","09:00","19.1","","5.0","","40","","4","","17","","","","100.87","","","","","","NA"
"2018-06-11 10:00","2018","06","11","10:00","20.0","","4.0","","35","","7","","20","","","","100.88","","","","","","NA"
"2018-06-11 11:00","2018","06","11","11:00","20.3","","3.8","","34","","3","","22","","","","100.88","","","","","","NA"
"2018-06-11 12:00","2018","06","11","12:00","21.2","","2.9","","30","","4","","20","","","","100.87","","","","","","NA"
"2018-06-11 13:00","2018","06","11","13:00","21.4","","2.9","","30","","3","","15","","","","100.82","","","","","","NA"
"2018-06-11 14:00","2018","06","11","14:00","22.0","","4.3","","31","","6","","15","","","","100.77","","","","","","NA"
"2018-06-11 15:00","2018","06","11","15:00","22.1","","3.2","","29","","6","","14","","","","100.75","","","","","","NA"
"2018-06-11 16:00","2018","06","11","16:00","22.3","","3.8","","30","","3","","15","","","","100.70","","","","","","NA"
"2018-06-11 17:00","2018","06","11","17:00","22.0","","2.4","","27","","7","","14","","","","100.69","","","","","","NA"
"2018-06-11 18:00","2018","06","11","18:00","20.8","","3.4","","32","","10","","16","","","","100.71","","","","","","NA"
"2018-06-11 19:00","2018","06","11","19:00","19.4","","4.3","","37","","8","","7","","","","100.74","","","","","","NA"
"2018-06-11 20:00","2018","06","11","20:00","17.5","","3.5","","39","","5","","4","","","","100.77","","","","","","NA"
"2018-06-11 21:00","2018","06","11","21:00","14.7","","4.6","","51","","5","","5","","","","100.80","","","","","","NA"
"2018-06-11 22:00","2018","06","11","22:00","12.6","","7.1","","69","","35","","5","","","","100.82","","","","","","NA"
"2018-06-11 23:00","2018","06","11","23:00","10.2","","6.0","","75","","33","","9","","","","100.82","","","","","","NA"
"2018-06-12 00:00","2018","06","12","00:00","8.8","","6.4","","85","","34","","11","","","","100.83","","","","","","NA"
"2018-06-12 01:00","2018","06","12","01:00","8.5","","6.5","","88","","35","","7","","","","100.78","","","","","","NA"
"2018-06-12 02:00","2018","06","12","02:00","6.6","","5.0","","90","","33","","12","","","","100.79","","","","","","NA"
"2018-06-12 03:00","2018","06","12","03:00","7.9","","5.8","","87","","33","","7","","","","100.76","","","","","","NA"
"2018-06-12 04:00","2018","06","12","04:00","6.9","","5.3","","89","","35","","6","","","","100.74","","","","","","NA"
"2018-06-12 05:00","2018","06","12","05:00","6.8","","5.2","","90","","33","","2","","","","100.80","","","","","","NA"
"2018-06-12 06:00","2018","06","12","06:00","11.7","","10.0","","89","","","","0","","","","100.83","","","","","","NA"
"2018-06-12 07:00","2018","06","12","07:00","15.0","","12.9","","87","","17","","15","","","","100.86","","","","","","NA"
"2018-06-12 08:00","2018","06","12","08:00","16.0","","12.3","","79","","17","","17","","","","100.87","","","","","","NA"
"2018-06-12 09:00","2018","06","12","09:00","17.0","","11.8","","71","","18","","18","","","","100.83","","","","","","NA"
"2018-06-12 10:00","2018","06","12","10:00","16.9","","11.8","","72","","19","","19","","","","100.80","","","","","","NA"
"2018-06-12 11:00","2018","06","12","11:00","17.9","","12.7","","72","","19","","17","","","","100.72","","","","","","NA"
"2018-06-12 12:00","2018","06","12","12:00","19.3","","11.6","","61","","19","","23","","","","100.66","","","","","","NA"
"2018-06-12 13:00","2018","06","12","13:00","22.1","","9.7","","45","","20","","23","","","","100.60","","","","","","NA"
"2018-06-12 14:00","2018","06","12","14:00","23.2","","10.7","","45","","21","","23","","","","100.52","","25","","","","NA"
"2018-06-12 15:00","2018","06","12","15:00","23.7","","11.7","","47","","21","","17","","","","100.46","","26","","","","NA"
"2018-06-12 16:00","2018","06","12","16:00","21.9","","13.7","","60","","19","","11","","","","100.39","","25","","","","NA"
"2018-06-12 17:00","2018","06","12","17:00","21.6","","13.1","","59","","19","","15","","","","100.30","","","","","","NA"
"2018-06-12 18:00","2018","06","12","18:00","20.2","","13.5","","65","","19","","8","","","","100.25","","","","","","NA"
"2018-06-12 19:00","2018","06","12","19:00","18.2","","13.0","","72","","19","","7","","","","100.20","","","","","","NA"
"2018-06-12 20:00","2018","06","12","20:00","17.8","","13.0","","74","","18","","6","","","","100.16","","","","","","NA"
"2018-06-12 21:00","2018","06","12","21:00","17.4","","12.6","","74","","25","","11","","","","100.16","","","","","","NA"
"2018-06-12 22:00","2018","06","12","22:00","15.9","","13.6","","87","","19","","10","","","","100.18","","","","","","NA"
"2018-06-12 23:00","2018","06","12","23:00","15.3","","13.1","","87","","","","0","","","","100.15","","","","","","NA"
"2018-06-13 00:00","2018","06","13","00:00","15.7","","12.9","","84","","16","","4","","","","100.09","","","","","","NA"
"2018-06-13 01:00","2018","06","13","01:00","17.6","","13.8","","78","","19","","11","","","","100.06","","","","","","NA"
"2018-06-13 02:00","2018","06","13","02:00","17.0","","13.7","","81","","19","","12","","","","100.05","","","","","","NA"
"2018-06-13 03:00","2018","06","13","03:00","16.3","","13.7","","85","","17","","9","","","","100.02","","","","","","NA"
"2018-06-13 04:00","2018","06","13","04:00","16.3","","13.8","","86","","18","","9","","","","99.98","","","","","","NA"
"2018-06-13 05:00","2018","06","13","05:00","16.4","","14.1","","86","","15","","8","","","","99.95","","","","","","NA"
"2018-06-13 06:00","2018","06","13","06:00","16.7","","13.9","","83","","19","","8","","","","99.90","","","","","","NA"
"2018-06-13 07:00","2018","06","13","07:00","17.3","","14.1","","81","","16","","5","","","","99.84","","","","","","NA"
"2018-06-13 08:00","2018","06","13","08:00","17.4","","14.4","","82","","17","","15","","","","99.79","","","","","","NA"
"2018-06-13 09:00","2018","06","13","09:00","17.7","","14.8","","83","","18","","13","","","","99.75","","","","","","NA"
"2018-06-13 10:00","2018","06","13","10:00","17.9","","15.9","","88","","17","","17","","","","99.68","","","","","","NA"
"2018-06-13 11:00","2018","06","13","11:00","16.7","","15.7","","94","","16","","18","","","","99.63","","","","","","NA"
"2018-06-13 12:00","2018","06","13","12:00","17.4","","16.1","","92","","17","","16","","","","99.59","","","","","","NA"
"2018-06-13 13:00","2018","06","13","13:00","16.6","","16.0","","96","","18","","13","","","","99.48","","","","","","NA"
"2018-06-13 14:00","2018","06","13","14:00","17.1","","16.6","","97","","18","","15","","","","99.37","","","","","","NA"
"2018-06-13 15:00","2018","06","13","15:00","18.1","","17.3","","95","","17","","18","","","","99.23","","","","","","NA"
"2018-06-13 16:00","2018","06","13","16:00","17.9","","17.4","","97","","21","","10","","","","99.29","","","","","","NA"
"2018-06-13 17:00","2018","06","13","17:00","17.4","","16.6","","95","","13","","6","","","","99.16","","","","","","NA"
"2018-06-13 18:00","2018","06","13","18:00","16.3","","15.5","","95","","25","","13","","","","99.24","","","","","","NA"
"2018-06-13 19:00","2018","06","13","19:00","17.5","","16.6","","94","","25","","13","","","","99.25","","","","","","NA"
"2018-06-13 20:00","2018","06","13","20:00","17.6","","16.4","","93","","24","","17","","","","99.25","","","","","","NA"
"2018-06-13 21:00","2018","06","13","21:00","16.6","","12.4","","76","","25","","22","","","","99.30","","","","","","NA"
"2018-06-13 22:00","2018","06","13","22:00","16.1","","12.0","","77","","26","","24","","","","99.35","","","","","","NA"
"2018-06-13 23:00","2018","06","13","23:00","15.9","","12.4","","80","","26","","18","","","","99.32","","","","","","NA"
"2018-06-14 00:00","2018","06","14","00:00","15.9","","12.4","","80","","25","","20","","","","99.35","","","","","","NA"
"2018-06-14 01:00","2018","06","14","01:00","16.7","","12.5","","76","","25","","24","","","","99.38","","","","","","NA"
"2018-06-14 02:00","2018","06","14","02:00","16.8","","11.8","","73","","25","","27","","","","99.35","","","","","","NA"
"2018-06-14 03:00","2018","06","14","03:00","16.6","","11.1","","70","","25","","24","","","","99.37","","","","","","NA"
"2018-06-14 04:00","2018","06","14","04:00","16.2","","10.6","","69","","26","","28","","","","99.35","","","","","","NA"
"2018-06-14 05:00","2018","06","14","05:00","15.7","","10.3","","70","","26","","24","","","","99.37","","","","","","NA"
"2018-06-14 06:00","2018","06","14","06:00","15.8","","10.8","","72","","26","","22","","","","99.42","","","","","","NA"
"2018-06-14 07:00","2018","06","14","07:00","16.3","","11.0","","71","","27","","24","","","","99.48","","","","","","NA"
"2018-06-14 08:00","2018","06","14","08:00","16.3","","11.3","","72","","29","","26","","","","99.56","","","","","","NA"
"2018-06-14 09:00","2018","06","14","09:00","16.5","","11.5","","72","","29","","28","","","","99.64","","","","","","NA"
"2018-06-14 10:00","2018","06","14","10:00","17.0","","10.7","","66","","29","","25","","","","99.70","","","","","","NA"
"2018-06-14 11:00","2018","06","14","11:00","16.9","","10.7","","67","","31","","30","","","","99.78","","","","","","NA"
"2018-06-14 12:00","2018","06","14","12:00","17.5","","11.7","","69","","30","","25","","","","99.76","","","","","","NA"
"2018-06-14 13:00","2018","06","14","13:00","16.7","","11.3","","71","","30","","22","","","","99.83","","","","","","NA"
"2018-06-14 14:00","2018","06","14","14:00","16.5","","11.1","","71","","31","","24","","","","99.94","","","","","","NA"
"2018-06-14 15:00","2018","06","14","15:00","16.3","","11.1","","71","","31","","21","","","","100.01","","","","","","NA"
"2018-06-14 16:00","2018","06","14","16:00","16.8","","11.3","","70","","32","","15","","","","100.03","","","","","","NA"
"2018-06-14 17:00","2018","06","14","17:00","16.2","","10.3","","68","","33","","22","","","","100.07","","","","","","NA"
"2018-06-14 18:00","2018","06","14","18:00","15.2","","10.9","","75","","33","","22","","","","100.13","","","","","","NA"
"2018-06-14 19:00","2018","06","14","19:00","14.7","","11.0","","79","","34","","11","","","","100.17","","","","","","NA"
"2018-06-14 20:00","2018","06","14","20:00","14.7","","11.1","","79","","32","","13","","","","100.19","","","","","","NA"
"2018-06-14 21:00","2018","06","14","21:00","14.8","","11.0","","78","","32","","21","","","","100.25","","","","","","NA"
"2018-06-14 22:00","2018","06","14","22:00","14.2","","11.0","","81","","35","","16","","","","100.27","","","","","","NA"
"2018-06-14 23:00","2018","06","14","23:00","13.7","","11.0","","84","","35","","12","","","","100.29","","","","","","NA"
"2018-06-15 00:00","2018","06","15","00:00","12.3","","10.4","","88","","32","","6","","","","100.30","","","","","","NA"
"2018-06-15 01:00","2018","06","15","01:00","11.3","","10.1","","92","","31","","9","","","","100.36","","","","","","NA"
"2018-06-15 02:00","2018","06","15","02:00","10.9","","10.0","","95","","30","","5","","","","100.39","","","","","","NA"
"2018-06-15 03:00","2018","06","15","03:00","10.2","","9.5","","95","","31","","8","","","","100.42","","","","","","NA"
"2018-06-15 04:00","2018","06","15","04:00","10.7","","9.7","","94","","30","","12","","","","100.45","","","","","","NA"
"2018-06-15 05:00","2018","06","15","05:00","11.7","","10.3","","91","","27","","15","","","","100.48","","","","","","NA"
"2018-06-15 06:00","2018","06","15","06:00","12.6","","10.5","","87","","28","","12","","","","100.51","","","","","","NA"
"2018-06-15 07:00","2018","06","15","07:00","14.5","","10.7","","78","","29","","8","","","","100.52","","","","","","NA"
"2018-06-15 08:00","2018","06","15","08:00","16.8","","11.4","","70","","34","","8","","","","100.52","","","","","","NA"
"2018-06-15 09:00","2018","06","15","09:00","18.6","","11.4","","63","","31","","5","","","","100.50","","","","","","NA"
"2018-06-15 10:00","2018","06","15","10:00","18.9","","13.6","","71","","17","","12","","","","100.48","","","","","","NA"
"2018-06-15 11:00","2018","06","15","11:00","19.0","","13.7","","71","","17","","15","","","","100.43","","","","","","NA"
"2018-06-15 12:00","2018","06","15","12:00","20.3","","14.2","","68","","18","","15","","","","100.49","","","","","","NA"
"2018-06-15 13:00","2018","06","15","13:00","18.8","","14.4","","76","","19","","22","","","","100.46","","","","","","NA"
"2018-06-15 14:00","2018","06","15","14:00","20.0","","14.2","","69","","18","","15","","","","100.44","","","","","","NA"
"2018-06-15 15:00","2018","06","15","15:00","22.0","","16.0","","69","","13","","7","","","","100.42","","27","","","","NA"
"2018-06-15 16:00","2018","06","15","16:00","23.3","","12.4","","50","","24","","3","","","","100.41","","26","","","","NA"
"2018-06-15 17:00","2018","06","15","17:00","24.0","","8.2","","37","","33","","13","","","","100.38","","","","","","NA"
"2018-06-15 18:00","2018","06","15","18:00","24.5","","9.7","","39","","31","","8","","","","100.35","","26","","","","NA"
"2018-06-15 19:00","2018","06","15","19:00","20.8","","11.1","","54","","24","","17","","","","100.31","","","","","","NA"
"2018-06-15 20:00","2018","06","15","20:00","18.5","","11.2","","63","","25","","15","","","","100.33","","","","","","NA"
"2018-06-15 21:00","2018","06","15","21:00","17.8","","10.3","","61","","26","","10","","","","100.38","","","","","","NA"
"2018-06-15 22:00","2018","06","15","22:00","16.3","","9.3","","63","","27","","10","","","","100.40","","","","","","NA"
"2018-06-15 23:00","2018","06","15","23:00","15.0","","10.6","","75","","18","","5","","","","100.42","","","","","","NA"
"2018-06-16 00:00","2018","06","16","00:00","14.8","","12.3","","85","","17","","9","","","","100.47","","","","","","NA"
"2018-06-16 01:00","2018","06","16","01:00","14.3","","12.0","","86","","19","","6","","","","100.51","","","","","","NA"
"2018-06-16 02:00","2018","06","16","02:00","13.8","","12.0","","89","","21","","9","","","","100.52","","","","","","NA"
"2018-06-16 03:00","2018","06","16","03:00","14.2","","9.5","","73","","26","","3","","","","100.54","","","","","","NA"
"2018-06-16 04:00","2018","06","16","04:00","12.6","","9.5","","82","","0","","1","","","","100.52","","","","","","NA"
"2018-06-16 05:00","2018","06","16","05:00","13.2","","9.6","","79","","18","","5","","","","100.56","","","","","","NA"
"2018-06-16 06:00","2018","06","16","06:00","14.7","","13.3","","91","","18","","10","","","","100.61","","","","","","NA"
"2018-06-16 07:00","2018","06","16","07:00","15.1","","13.5","","90","","18","","11","","","","100.63","","","","","","NA"
"2018-06-16 08:00","2018","06","16","08:00","16.4","","13.9","","85","","18","","11","","","","100.67","","","","","","NA"
"2018-06-16 09:00","2018","06","16","09:00","15.4","","12.3","","82","","17","","15","","","","100.61","","","","","","NA"
"2018-06-16 10:00","2018","06","16","10:00","15.9","","12.8","","82","","18","","13","","","","100.60","","","","","","NA"
"2018-06-16 11:00","2018","06","16","11:00","17.7","","14.0","","79","","19","","11","","","","100.66","","","","","","NA"
"2018-06-16 12:00","2018","06","16","12:00","17.5","","12.5","","72","","17","","13","","","","100.57","","","","","","NA"
"2018-06-16 13:00","2018","06","16","13:00","18.4","","13.0","","71","","17","","15","","","","100.49","","","","","","NA"
"2018-06-16 14:00","2018","06","16","14:00","18.8","","12.3","","66","","17","","16","","","","100.45","","","","","","NA"
"2018-06-16 15:00","2018","06","16","15:00","19.1","","13.1","","68","","16","","13","","","","100.43","","","","","","NA"
"2018-06-16 16:00","2018","06","16","16:00","19.4","","12.9","","66","","18","","11","","","","100.43","","","","","","NA"
"2018-06-16 17:00","2018","06","16","17:00","18.6","","12.1","","66","","17","","12","","","","100.43","","","","","","NA"
"2018-06-16 18:00","2018","06","16","18:00","18.4","","12.1","","67","","17","","9","","","","100.42","","","","","","NA"
"2018-06-16 19:00","2018","06","16","19:00","17.6","","12.8","","74","","16","","8","","","","100.44","","","","","","NA"
"2018-06-16 20:00","2018","06","16","20:00","16.4","","13.1","","81","","15","","6","","","","100.47","","","","","","NA"
"2018-06-16 21:00","2018","06","16","21:00","16.1","","13.2","","83","","15","","8","","","","100.51","","","","","","NA"
"2018-06-16 22:00","2018","06","16","22:00","16.0","","14.2","","89","","17","","7","","","","100.51","","","","","","NA"
"2018-06-16 23:00","2018","06","16","23:00","15.7","","14.2","","91","","17","","8","","","","100.51","","","","","","NA"
"2018-06-17 00:00","2018","06","17","00:00","15.7","","13.6","","87","","17","","7","","","","100.51","","","","","","NA"
"2018-06-17 01:00","2018","06","17","01:00","15.1","","12.6","","85","","22","","5","","","","100.53","","","","","","NA"
"2018-06-17 02:00","2018","06","17","02:00","14.5","","12.8","","90","","","","0","","","","100.52","","","","","","NA"
"2018-06-17 03:00","2018","06","17","03:00","13.1","","12.1","","94","","","","0","","","","100.51","","","","","","NA"
"2018-06-17 04:00","2018","06","17","04:00","12.3","","11.3","","93","","20","","2","","","","100.53","","","","","","NA"
"2018-06-17 05:00","2018","06","17","05:00","13.1","","12.0","","93","","0","","1","","","","100.59","","","","","","NA"
"2018-06-17 06:00","2018","06","17","06:00","16.7","","14.5","","87","","15","","7","","","","100.65","","","","","","NA"
"2018-06-17 07:00","2018","06","17","07:00","17.3","","14.2","","82","","17","","9","","","","100.75","","","","","","NA"
"2018-06-17 08:00","2018","06","17","08:00","17.2","","13.8","","81","","15","","15","","","","100.74","","","","","","NA"
"2018-06-17 09:00","2018","06","17","09:00","17.5","","14.5","","82","","16","","12","","","","100.73","","","","","","NA"
"2018-06-17 10:00","2018","06","17","10:00","18.1","","14.6","","80","","16","","11","","","","100.72","","","","","","NA"
"2018-06-17 11:00","2018","06","17","11:00","19.0","","15.6","","81","","15","","14","","","","100.67","","","","","","NA"
"2018-06-17 12:00","2018","06","17","12:00","19.4","","14.8","","74","","16","","11","","","","100.66","","","","","","NA"
"2018-06-17 13:00","2018","06","17","13:00","20.9","","15.9","","73","","18","","11","","","","100.61","","25","","","","NA"
"2018-06-17 14:00","2018","06","17","14:00","22.3","","16.0","","67","","17","","11","","","","100.59","","27","","","","NA"
"2018-06-17 15:00","2018","06","17","15:00","22.0","","14.1","","61","","17","","14","","","","100.53","","25","","","","NA"
"2018-06-17 16:00","2018","06","17","16:00","22.3","","14.3","","61","","18","","15","","","","100.46","","26","","","","NA"
"2018-06-17 17:00","2018","06","17","17:00","22.3","","14.9","","63","","17","","14","","","","100.40","","26","","","","NA"
"2018-06-17 18:00","2018","06","17","18:00","21.0","","15.8","","72","","21","","6","","","","100.38","","25","","","","NA"
"2018-06-17 19:00","2018","06","17","19:00","21.4","","15.1","","67","","20","","9","","","","100.31","","25","","","","NA"
"2018-06-17 20:00","2018","06","17","20:00","19.7","","15.7","","78","","16","","4","","","","100.26","","","","","","NA"
"2018-06-17 21:00","2018","06","17","21:00","18.9","","15.6","","81","","16","","3","","","","100.29","","","","","","NA"
"2018-06-17 22:00","2018","06","17","22:00","19.0","","16.0","","83","","16","","6","","","","100.28","","","","","","NA"
"2018-06-17 23:00","2018","06","17","23:00","18.8","","16.7","","88","","19","","8","","","","100.24","","","","","","NA"
"2018-06-18 00:00","2018","06","18","00:00","19.0","","16.7","","87","","16","","10","","","","100.24","","","","","","NA"
"2018-06-18 01:00","2018","06","18","01:00","18.7","","16.5","","87","","18","","12","","","","100.20","","","","","","NA"
"2018-06-18 02:00","2018","06","18","02:00","18.6","","16.6","","88","","19","","16","","","","100.13","","","","","","NA"
"2018-06-18 03:00","2018","06","18","03:00","18.4","","16.9","","91","","18","","15","","","","100.08","","","","","","NA"
"2018-06-18 04:00","2018","06","18","04:00","18.8","","17.1","","90","","17","","13","","","","100.02","","","","","","NA"
"2018-06-18 05:00","2018","06","18","05:00","18.3","","16.9","","92","","17","","13","","","","100.00","","","","","","NA"
"2018-06-18 06:00","2018","06","18","06:00","20.2","","17.9","","87","","18","","6","","","","100.00","","26","","","","NA"
"2018-06-18 07:00","2018","06","18","07:00","23.4","","19.3","","78","","21","","12","","","","99.95","","30","","","","NA"
"2018-06-18 08:00","2018","06","18","08:00","24.4","","19.8","","75","","23","","23","","","","99.89","","32","","","","NA"
"2018-06-18 09:00","2018","06","18","09:00","25.7","","20.3","","72","","23","","28","","","","99.84","","34","","","","NA"
"2018-06-18 10:00","2018","06","18","10:00","25.6","","20.5","","73","","24","","20","","","","99.84","","34","","","","NA"
"2018-06-18 11:00","2018","06","18","11:00","26.5","","20.7","","71","","24","","24","","","","99.78","","35","","","","NA"
"2018-06-18 12:00","2018","06","18","12:00","25.7","","20.9","","75","","24","","25","","","","99.77","","34","","","","NA"
"2018-06-18 13:00","2018","06","18","13:00","24.6","","20.8","","79","","23","","22","","","","99.72","","33","","","","NA"
"2018-06-18 14:00","2018","06","18","14:00","24.3","","19.3","","74","","24","","28","","","","99.63","","31","","","","NA"
"2018-06-18 15:00","2018","06","18","15:00","22.0","","20.2","","90","","24","","29","","","","99.63","","30","","","","NA"
"2018-06-18 16:00","2018","06","18","16:00","22.6","","20.5","","88","","24","","22","","","","99.57","","31","","","","NA"
"2018-06-18 17:00","2018","06","18","17:00","22.7","","20.5","","87","","23","","23","","","","99.50","","31","","","","NA"
"2018-06-18 18:00","2018","06","18","18:00","22.2","","20.2","","89","","24","","18","","","","99.51","","30","","","","NA"
"2018-06-18 19:00","2018","06","18","19:00","23.8","","21.7","","88","","29","","14","","","","99.55","","33","","","","NA"
"2018-06-18 20:00","2018","06","18","20:00","23.5","","20.6","","84","","27","","16","","","","99.57","","32","","","","NA"
"2018-06-18 21:00","2018","06","18","21:00","22.9","","20.5","","86","","29","","15","","","","99.64","","31","","","","NA"
"2018-06-18 22:00","2018","06","18","22:00","20.9","","18.5","","86","","36","","12","","","","99.74","","27","","","","NA"
"2018-06-18 23:00","2018","06","18","23:00","20.5","","16.5","","78","","35","","26","","","","99.83","","25","","","","NA"
"2018-06-19 00:00","2018","06","19","00:00","18.8","","15.5","","81","","35","","18","","","","99.92","","","","","","NA"
"2018-06-19 01:00","2018","06","19","01:00","17.1","","14.3","","83","","35","","15","","","","99.94","","","","","","NA"
"2018-06-19 02:00","2018","06","19","02:00","16.4","","13.9","","85","","35","","16","","","","100.00","","","","","","NA"
"2018-06-19 03:00","2018","06","19","03:00","15.8","","13.5","","86","","34","","14","","","","100.07","","","","","","NA"
"2018-06-19 04:00","2018","06","19","04:00","16.1","","12.5","","79","","35","","22","","","","100.14","","","","","","NA"
"2018-06-19 05:00","2018","06","19","05:00","15.0","","10.9","","76","","36","","22","","","","100.22","","","","","","NA"
"2018-06-19 06:00","2018","06","19","06:00","15.4","","9.8","","69","","36","","17","","","","100.38","","","","","","NA"
"2018-06-19 07:00","2018","06","19","07:00"
"2018-06-19 08:00","2018","06","19","08:00"
"2018-06-19 09:00","2018","06","19","09:00"
"2018-06-19 10:00","2018","06","19","10:00"
"2018-06-19 11:00","2018","06","19","11:00"
"2018-06-19 12:00","2018","06","19","12:00"
"2018-06-19 13:00","2018","06","19","13:00"
"2018-06-19 14:00","2018","06","19","14:00"
"2018-06-19 15:00","2018","06","19","15:00","21.1","","11.6","","55","","22","","18","","","","100.33","","","","","","NA"
"2018-06-19 16:00","2018","06","19","16:00","19.7","","12.8","","65","","19","","20","","","","100.28","","","","","","NA"
"2018-06-19 17:00","2018","06","19","17:00","20.3","","13.3","","64","","18","","13","","","","100.26","","","","","","NA"
"2018-06-19 18:00","2018","06","19","18:00","20.4","","13.0","","62","","21","","10","","","","100.22","","","","","","NA"
"2018-06-19 19:00","2018","06","19","19:00","18.3","","13.7","","75","","18","","8","","","","100.27","","","","","","NA"
"2018-06-19 20:00","2018","06","19","20:00","16.9","","12.3","","74","","23","","8","","","","100.26","","","","","","NA"
"2018-06-19 21:00","2018","06","19","21:00","15.4","","11.2","","76","","24","","5","","","","100.27","","","","","","NA"
"2018-06-19 22:00","2018","06","19","22:00","13.1","","10.5","","84","","0","","1","","","","100.28","","","","","","NA"
"2018-06-19 23:00","2018","06","19","23:00","13.4","","11.6","","89","","22","","3","","","","100.24","","","","","","NA"
"2018-06-20 00:00","2018","06","20","00:00","12.1","","10.9","","93","","22","","3","","","","100.26","","","","","","NA"
"2018-06-20 01:00","2018","06","20","01:00","12.1","","10.8","","92","","23","","4","","","","100.24","","","","","","NA"
"2018-06-20 02:00","2018","06","20","02:00","11.3","","10.9","","97","","","","0","","","","100.17","","","","","","NA"
"2018-06-20 03:00","2018","06","20","03:00","11.2","","10.8","","98","","24","","1","","","","100.14","","","","","","NA"
"2018-06-20 04:00","2018","06","20","04:00","10.5","","10.2","","98","","23","","2","","","","100.17","","","","","","NA"
"2018-06-20 05:00","2018","06","20","05:00","10.2","","9.8","","97","","","","0","","","","100.18","","","","","","NA"
"2018-06-20 06:00","2018","06","20","06:00"
"2018-06-20 07:00","2018","06","20","07:00"
"2018-06-20 08:00","2018","06","20","08:00"
"2018-06-20 09:00","2018","06","20","09:00"
"2018-06-20 10:00","2018","06","20","10:00"
"2018-06-20 11:00","2018","06","20","11:00"
"2018-06-20 12:00","2018","06","20","12:00","18.0","","14.2","","78","","19","","19","","","","100.00","","","","","","NA"
"2018-06-20 13:00","2018","06","20","13:00","19.0","","14.6","","76","","18","","17","","","","99.94","","","","","","NA"
"2018-06-20 14:00","2018","06","20","14:00","20.7","","14.3","","67","","19","","18","","","","99.91","","","","","","NA"
"2018-06-20 15:00","2018","06","20","15:00","20.9","","14.4","","67","","19","","20","","","","99.87","","25","","","","NA"
"2018-06-20 16:00","2018","06","20","16:00","20.0","","13.6","","67","","19","","22","","","","99.82","","","","","","NA"
"2018-06-20 17:00","2018","06","20","17:00","20.7","","13.0","","62","","20","","17","","","","99.79","","","","","","NA"
"2018-06-20 18:00","2018","06","20","18:00","19.8","","13.0","","65","","19","","13","","","","99.74","","","","","","NA"
"2018-06-20 19:00","2018","06","20","19:00","19.0","","12.1","","64","","20","","11","","","","99.74","","","","","","NA"
"2018-06-20 20:00","2018","06","20","20:00","16.7","","12.1","","74","","21","","9","","","","99.76","","","","","","NA"
"2018-06-20 21:00","2018","06","20","21:00","15.6","","10.6","","72","","25","","5","","","","99.82","","","","","","NA"
"2018-06-20 22:00","2018","06","20","22:00","14.5","","11.6","","83","","0","","1","","","","99.84","","","","","","NA"
"2018-06-20 23:00","2018","06","20","23:00","14.4","","11.5","","83","","25","","6","","","","99.87","","","","","","NA"
"2018-06-21 00:00","2018","06","21","00:00","13.2","","12.3","","94","","35","","8","","","","99.86","","","","","","NA"
"2018-06-21 01:00","2018","06","21","01:00","12.2","","11.2","","93","","34","","8","","","","99.87","","","","","","NA"
"2018-06-21 02:00","2018","06","21","02:00","16.8","","12.8","","77","","2","","14","","","","99.85","","","","","","NA"
"2018-06-21 03:00","2018","06","21","03:00","16.5","","12.2","","76","","1","","16","","","","99.89","","","","","","NA"
"2018-06-21 04:00","2018","06","21","04:00","15.5","","11.6","","77","","3","","17","","","","99.92","","","","","","NA"
"2018-06-21 05:00","2018","06","21","05:00","13.8","","7.5","","65","","2","","22","","","","100.01","","","","","","NA"
"2018-06-21 06:00","2018","06","21","06:00","13.5","","6.6","","63","","2","","18","","","","100.12","","","","","","NA"
"2018-06-21 07:00","2018","06","21","07:00","14.1","","6.0","","58","","2","","21","","","","100.18","","","","","","NA"
"2018-06-21 08:00","2018","06","21","08:00","15.3","","6.2","","54","","1","","22","","","","100.22","","","","","","NA"
"2018-06-21 09:00","2018","06","21","09:00","16.6","","6.3","","51","","1","","21","","","","100.22","","","","","","NA"
"2018-06-21 10:00","2018","06","21","10:00","18.0","","5.8","","45","","2","","19","","","","100.23","","","","","","NA"
"2018-06-21 11:00","2018","06","21","11:00","18.7","","4.0","","38","","4","","18","","","","100.23","","","","","","NA"
"2018-06-21 12:00","2018","06","21","12:00","19.7","","5.9","","41","","2","","13","","","","100.23","","","","","","NA"
"2018-06-21 13:00","2018","06","21","13:00","20.1","","5.6","","39","","3","","15","","","","100.24","","","","","","NA"
"2018-06-21 14:00","2018","06","21","14:00","20.8","","5.5","","37","","4","","14","","","","100.23","","","","","","NA"
"2018-06-21 15:00","2018","06","21","15:00","21.0","","4.9","","35","","3","","16","","","","100.20","","","","","","NA"
"2018-06-21 16:00","2018","06","21","16:00","20.8","","3.6","","32","","3","","16","","","","100.18","","","","","","NA"
"2018-06-21 17:00","2018","06","21","17:00","20.9","","5.3","","36","","2","","13","","","","100.18","","","","","","NA"
"2018-06-21 18:00","2018","06","21","18:00","20.1","","5.5","","38","","5","","15","","","","100.20","","","","","","NA"
"2018-06-21 19:00","2018","06","21","19:00","18.7","","5.3","","41","","6","","16","","","","100.21","","","","","","NA"
"2018-06-21 20:00","2018","06","21","20:00","17.0","","5.5","","47","","4","","11","","","","100.25","","","","","","NA"
"2018-06-21 21:00","2018","06","21","21:00","16.5","","5.6","","48","","3","","7","","","","100.34","","","","","","NA"
"2018-06-21 22:00","2018","06","21","22:00","13.9","","7.5","","65","","3","","7","","","","100.40","","","","","","NA"
"2018-06-21 23:00","2018","06","21","23:00","10.1","","7.5","","84","","34","","7","","","","100.44","","","","","","NA"
"2018-06-22 00:00","2018","06","22","00:00","10.5","","7.8","","84","","36","","2","","","","100.44","","","","","","NA"
"2018-06-22 01:00","2018","06","22","01:00","9.2","","7.0","","86","","1","","6","","","","100.40","","","","","","NA"
"2018-06-22 02:00","2018","06","22","02:00","7.8","","6.7","","93","","36","","9","","","","100.40","","","","","","NA"
"2018-06-22 03:00","2018","06","22","03:00","7.5","","5.9","","90","","36","","8","","","","100.40","","","","","","NA"
"2018-06-22 04:00","2018","06","22","04:00","7.3","","6.3","","93","","1","","9","","","","100.44","","","","","","NA"
"2018-06-22 05:00","2018","06","22","05:00","9.5","","7.1","","85","","4","","6","","","","100.49","","","","","","NA"
"2018-06-22 06:00","2018","06","22","06:00","13.0","","8.7","","75","","3","","9","","","","100.50","","","","","","NA"
"2018-06-22 07:00","2018","06","22","07:00","16.5","","8.8","","60","","4","","7","","","","100.52","","","","","","NA"
"2018-06-22 08:00","2018","06","22","08:00","18.7","","6.5","","45","","7","","12","","","","100.55","","","","","","NA"
"2018-06-22 09:00","2018","06","22","09:00","20.1","","8.1","","46","","10","","12","","","","100.52","","","","","","NA"
"2018-06-22 10:00","2018","06","22","10:00","19.2","","11.3","","60","","16","","18","","","","100.53","","","","","","NA"
"2018-06-22 11:00","2018","06","22","11:00","21.1","","10.0","","49","","14","","12","","","","100.53","","","","","","NA"
"2018-06-22 12:00","2018","06","22","12:00","22.2","","4.6","","32","","8","","5","","","","100.47","","","","","","NA"
"2018-06-22 13:00","2018","06","22","13:00","22.9","","7.8","","38","","14","","8","","","","100.42","","","","","","NA"
"2018-06-22 14:00","2018","06","22","14:00","22.9","","8.5","","40","","13","","9","","","","100.37","","","","","","NA"
"2018-06-22 15:00","2018","06","22","15:00","24.1","","10.0","","41","","10","","9","","","","100.29","","25","","","","NA"
"2018-06-22 16:00","2018","06","22","16:00","23.9","","9.8","","41","","9","","11","","","","100.24","","25","","","","NA"
"2018-06-22 17:00","2018","06","22","17:00","24.0","","10.6","","43","","8","","8","","","","100.20","","26","","","","NA"
"2018-06-22 18:00","2018","06","22","18:00","23.2","","11.4","","47","","8","","8","","","","100.20","","25","","","","NA"
"2018-06-22 19:00","2018","06","22","19:00","22.7","","11.8","","50","","6","","6","","","","100.19","","25","","","","NA"
"2018-06-22 20:00","2018","06","22","20:00","21.6","","11.5","","53","","7","","8","","","","100.18","","","","","","NA"
"2018-06-22 21:00","2018","06","22","21:00","21.0","","11.2","","53","","7","","9","","","","100.21","","","","","","NA"
"2018-06-22 22:00","2018","06","22","22:00","20.5","","11.6","","57","","7","","11","","","","100.20","","","","","","NA"
"2018-06-22 23:00","2018","06","22","23:00","20.8","","11.7","","56","","10","","10","","","","100.19","","","","","","NA"
"2018-06-23 00:00","2018","06","23","00:00","19.5","","15.5","","78","","17","","13","","","","100.21","","","","","","NA"
"2018-06-23 01:00","2018","06","23","01:00","17.7","","16.4","","92","","24","","8","","","","100.19","","","","","","NA"
"2018-06-23 02:00","2018","06","23","02:00","17.4","","16.1","","92","","0","","1","","","","100.12","","","","","","NA"
"2018-06-23 03:00","2018","06","23","03:00","16.6","","15.9","","96","","9","","5","","","","100.11","","","","","","NA"
"2018-06-23 04:00","2018","06","23","04:00","17.3","","16.3","","94","","8","","5","","","","100.06","","","","","","NA"
"2018-06-23 05:00","2018","06","23","05:00","17.6","","16.3","","92","","8","","9","","","","100.05","","","","","","NA"
"2018-06-23 06:00","2018","06","23","06:00","18.1","","16.3","","89","","8","","9","","","","100.03","","","","","","NA"
"2018-06-23 07:00","2018","06","23","07:00","18.9","","14.6","","76","","10","","11","","","","100.02","","","","","","NA"
"2018-06-23 08:00","2018","06","23","08:00","19.0","","13.5","","70","","11","","11","","","","99.99","","","","","","NA"
"2018-06-23 09:00","2018","06","23","09:00","19.5","","13.1","","67","","14","","12","","","","99.95","","","","","","NA"
"2018-06-23 10:00","2018","06","23","10:00","16.6","","15.0","","90","","17","","14","","","","99.94","","","","","","NA"
"2018-06-23 11:00","2018","06","23","11:00","16.1","","15.5","","96","","14","","10","","","","99.94","","","","","","NA"
"2018-06-23 12:00","2018","06","23","12:00","16.6","","15.7","","94","","11","","10","","","","99.86","","","","","","NA"
"2018-06-23 13:00","2018","06","23","13:00","17.3","","15.8","","91","","8","","14","","","","99.79","","","","","","NA"
"2018-06-23 14:00","2018","06","23","14:00","17.3","","15.3","","88","","9","","13","","","","99.74","","","","","","NA"
"2018-06-23 15:00","2018","06","23","15:00","17.6","","15.0","","85","","8","","12","","","","99.71","","","","","","NA"
"2018-06-23 16:00","2018","06","23","16:00","17.1","","14.3","","83","","7","","11","","","","99.71","","","","","","NA"
"2018-06-23 17:00","2018","06","23","17:00","17.1","","14.4","","84","","5","","11","","","","99.65","","","","","","NA"
"2018-06-23 18:00","2018","06","23","18:00","16.9","","14.2","","84","","6","","12","","","","99.64","","","","","","NA"
"2018-06-23 19:00","2018","06","23","19:00","17.0","","14.2","","84","","4","","10","","","","99.64","","","","","","NA"
"2018-06-23 20:00","2018","06","23","20:00","17.0","","14.6","","86","","5","","8","","","","99.64","","","","","","NA"
"2018-06-23 21:00","2018","06","23","21:00","17.1","","14.8","","86","","2","","7","","","","99.71","","","","","","NA"
"2018-06-23 22:00","2018","06","23","22:00","17.0","","14.9","","88","","2","","8","","","","99.68","","","","","","NA"
"2018-06-23 23:00","2018","06","23","23:00","16.8","","15.0","","89","","36","","8","","","","99.70","","","","","","NA"
"2018-06-24 00:00","2018","06","24","00:00","16.8","","15.1","","90","","1","","8","","","","99.69","","","","","","NA"
"2018-06-24 01:00","2018","06","24","01:00","16.6","","15.4","","93","","1","","10","","","","99.67","","","","","","NA"
"2018-06-24 02:00","2018","06","24","02:00","16.3","","15.5","","95","","35","","6","","","","99.67","","","","","","NA"
"2018-06-24 03:00","2018","06","24","03:00","16.4","","15.5","","95","","34","","4","","","","99.70","","","","","","NA"
"2018-06-24 04:00","2018","06","24","04:00","16.6","","15.5","","93","","2","","10","","","","99.71","","","","","","NA"
"2018-06-24 05:00","2018","06","24","05:00","16.5","","15.4","","93","","36","","8","","","","99.76","","","","","","NA"
"2018-06-24 06:00","2018","06","24","06:00","16.5","","14.9","","90","","36","","11","","","","99.83","","","","","","NA"
"2018-06-24 07:00","2018","06","24","07:00","17.1","","14.6","","85","","3","","11","","","","99.87","","","","","","NA"
"2018-06-24 08:00","2018","06","24","08:00","17.7","","14.9","","84","","4","","10","","","","99.89","","","","","","NA"
"2018-06-24 09:00","2018","06","24","09:00","18.1","","14.5","","80","","4","","8","","","","99.89","","","","","","NA"
"2018-06-24 10:00","2018","06","24","10:00","19.1","","14.8","","76","","6","","15","","","","99.91","","","","","","NA"
"2018-06-24 11:00","2018","06","24","11:00","19.7","","13.8","","69","","6","","14","","","","99.93","","","","","","NA"
"2018-06-24 12:00","2018","06","24","12:00","19.2","","14.7","","75","","9","","9","","","","99.96","","","","","","NA"
"2018-06-24 13:00","2018","06","24","13:00","18.8","","15.0","","79","","18","","8","","","","99.98","","","","","","NA"
"2018-06-24 14:00","2018","06","24","14:00","18.2","","15.9","","87","","21","","6","","","","99.96","","","","","","NA"
"2018-06-24 15:00","2018","06","24","15:00","18.1","","15.8","","86","","23","","3","","","","99.97","","","","","","NA"
"2018-06-24 16:00","2018","06","24","16:00","18.5","","16.5","","88","","26","","4","","","","99.99","","","","","","NA"
"2018-06-24 17:00","2018","06","24","17:00","18.6","","16.9","","90","","27","","6","","","","100.02","","","","","","NA"
"2018-06-24 18:00","2018","06","24","18:00","18.6","","17.2","","92","","26","","6","","","","100.10","","","","","","NA"
"2018-06-24 19:00","2018","06","24","19:00","18.5","","17.1","","91","","32","","6","","","","100.13","","","","","","NA"
"2018-06-24 20:00","2018","06","24","20:00","18.5","","14.2","","76","","36","","20","","","","100.22","","","","","","NA"
"2018-06-24 21:00","2018","06","24","21:00","17.2","","13.0","","76","","1","","16","","","","100.33","","","","","","NA"
"2018-06-24 22:00","2018","06","24","22:00","15.9","","12.5","","80","","1","","15","","","","100.39","","","","","","NA"
"2018-06-24 23:00","2018","06","24","23:00","15.5","","12.2","","80","","35","","14","","","","100.42","","","","","","NA"
"2018-06-25 00:00","2018","06","25","00:00","14.7","","11.1","","79","","36","","11","","","","100.43","","","","","","NA"
"2018-06-25 01:00","2018","06","25","01:00","12.5","","10.5","","87","","33","","12","","","","100.47","","","","","","NA"
"2018-06-25 02:00","2018","06","25","02:00","11.5","","10.0","","91","","33","","11","","","","100.47","","","","","","NA"
"2018-06-25 03:00","2018","06","25","03:00","11.1","","10.4","","95","","36","","3","","","","100.46","","","","","","NA"
"2018-06-25 04:00","2018","06","25","04:00","10.4","","9.0","","92","","35","","13","","","","100.54","","","","","","NA"
"2018-06-25 05:00","2018","06","25","05:00","10.9","","8.0","","83","","35","","15","","","","100.64","","","","","","NA"
"2018-06-25 06:00","2018","06","25","06:00","12.9","","7.9","","71","","35","","15","","","","100.74","","","","","","NA"
"2018-06-25 07:00","2018","06","25","07:00","14.9","","6.8","","58","","36","","21","","","","100.81","","","","","","NA"
"2018-06-25 08:00","2018","06","25","08:00","17.0","","7.3","","53","","2","","18","","","","100.88","","","","","","NA"
"2018-06-25 09:00","2018","06","25","09:00","18.4","","7.4","","48","","35","","17","","","","100.96","","","","","","NA"
"2018-06-25 10:00","2018","06","25","10:00","20.0","","5.1","","38","","35","","22","","","","100.99","","","","","","NA"
"2018-06-25 11:00","2018","06","25","11:00","20.7","","3.7","","33","","2","","18","","","","101.01","","","","","","NA"
"2018-06-25 12:00","2018","06","25","12:00","20.8","","3.7","","32","","35","","18","","","","101.04","","","","","","NA"
"2018-06-25 13:00","2018","06","25","13:00","21.5","","4.2","","32","","33","","18","","","","101.05","","","","","","NA"
"2018-06-25 14:00","2018","06","25","14:00","22.5","","4.6","","31","","33","","18","","","","101.05","","","","","","NA"
"2018-06-25 15:00","2018","06","25","15:00","22.5","","2.8","","28","","35","","15","","","","101.06","","","","","","NA"
"2018-06-25 16:00","2018","06","25","16:00","22.9","","5.2","","32","","2","","17","","","","101.04","","","","","","NA"
"2018-06-25 17:00","2018","06","25","17:00","22.1","","2.6","","28","","3","","12","","","","101.02","","","","","","NA"
"2018-06-25 18:00","2018","06","25","18:00","21.5","","2.9","","29","","3","","14","","","","101.05","","","","","","NA"
"2018-06-25 19:00","2018","06","25","19:00","19.8","","3.6","","34","","4","","13","","","","101.08","","","","","","NA"
"2018-06-25 20:00","2018","06","25","20:00","18.3","","3.6","","38","","3","","6","","","","101.11","","","","","","NA"
"2018-06-25 21:00","2018","06","25","21:00","15.1","","4.2","","48","","34","","7","","","","101.20","","","","","","NA"
"2018-06-25 22:00","2018","06","25","22:00","12.1","","6.5","","69","","34","","9","","","","101.23","","","","","","NA"
"2018-06-25 23:00","2018","06","25","23:00","10.0","","5.7","","75","","34","","9","","","","101.28","","","","","","NA"
"2018-06-26 00:00","2018","06","26","00:00","10.5","","7.1","","79","","33","","5","","","","101.24","","","","","","NA"
"2018-06-26 01:00","2018","06","26","01:00","9.4","","6.6","","83","","34","","7","","","","101.27","","","","","","NA"
"2018-06-26 02:00","2018","06","26","02:00","8.1","","6.1","","87","","34","","6","","","","101.32","","","","","","NA"
"2018-06-26 03:00","2018","06","26","03:00","8.5","","6.7","","88","","34","","2","","","","101.34","","","","","","NA"
"2018-06-26 04:00","2018","06","26","04:00","7.4","","6.3","","93","","36","","4","","","","101.36","","","","","","NA"
"2018-06-26 05:00","2018","06","26","05:00","7.1","","6.1","","93","","35","","8","","","","101.41","","","","","","NA"
"2018-06-26 06:00","2018","06","26","06:00","11.2","","9.4","","89","","2","","5","","","","101.42","","","","","","NA"
"2018-06-26 07:00","2018","06","26","07:00","15.9","","13.1","","84","","12","","7","","","","101.38","","","","","","NA"
"2018-06-26 08:00","2018","06","26","08:00","17.0","","13.7","","81","","16","","10","","","","101.38","","","","","","NA"
"2018-06-26 09:00","2018","06","26","09:00","17.3","","13.0","","76","","15","","10","","","","101.32","","","","","","NA"
"2018-06-26 10:00","2018","06","26","10:00","18.0","","14.4","","79","","16","","12","","","","101.31","","","","","","NA"
"2018-06-26 11:00","2018","06","26","11:00","18.7","","13.8","","74","","18","","13","","","","101.30","","","","","","NA"
"2018-06-26 12:00","2018","06","26","12:00","19.8","","10.0","","53","","19","","13","","","","101.25","","","","","","NA"
"2018-06-26 13:00","2018","06","26","13:00","19.9","","9.5","","51","","17","","12","","","","101.14","","","","","","NA"
"2018-06-26 14:00","2018","06","26","14:00","20.5","","6.2","","39","","18","","9","","","","101.05","","","","","","NA"
"2018-06-26 15:00","2018","06","26","15:00","20.8","","6.1","","38","","18","","8","","","","101.00","","","","","","NA"
"2018-06-26 16:00","2018","06","26","16:00","22.1","","6.4","","36","","26","","4","","","","100.95","","","","","","NA"
"2018-06-26 17:00","2018","06","26","17:00","22.3","","7.0","","37","","26","","6","","","","100.91","","","","","","NA"
"2018-06-26 18:00","2018","06","26","18:00","22.0","","7.9","","40","","26","","5","","","","100.84","","","","","","NA"
"2018-06-26 19:00","2018","06","26","19:00","20.8","","10.4","","51","","30","","2","","","","100.76","","","","","","NA"
"2018-06-26 20:00","2018","06","26","20:00","17.6","","10.1","","62","","34","","4","","","","100.72","","","","","","NA"
"2018-06-26 21:00","2018","06","26","21:00","16.1","","9.8","","66","","9","","3","","","","100.66","","","","","","NA"
"2018-06-26 22:00","2018","06","26","22:00","14.6","","10.6","","77","","4","","5","","","","100.63","","","","","","NA"
"2018-06-26 23:00","2018","06","26","23:00","13.5","","10.9","","84","","4","","4","","","","100.60","","","","","","NA"
"2018-06-27 00:00","2018","06","27","00:00","14.6","","10.2","","75","","5","","5","","","","100.54","","","","","","NA"
"2018-06-27 01:00","2018","06","27","01:00","15.7","","10.2","","70","","6","","7","","","","100.47","","","","","","NA"
"2018-06-27 02:00","2018","06","27","02:00","15.2","","10.4","","73","","8","","5","","","","100.44","","","","","","NA"
"2018-06-27 03:00","2018","06","27","03:00","14.1","","10.7","","80","","1","","3","","","","100.41","","","","","","NA"
"2018-06-27 04:00","2018","06","27","04:00","18.0","","13.9","","77","","15","","12","","","","100.38","","","","","","NA"
"2018-06-27 05:00","2018","06","27","05:00","18.5","","14.3","","77","","16","","9","","","","100.35","","","","","","NA"
"2018-06-27 06:00","2018","06","27","06:00","18.7","","14.9","","79","","11","","8","","","","100.31","","","","","","NA"
"2018-06-27 07:00","2018","06","27","07:00","19.0","","15.6","","81","","14","","13","","","","100.29","","","","","","NA"
"2018-06-27 08:00","2018","06","27","08:00","18.9","","15.9","","83","","15","","17","","","","100.27","","","","","","NA"
"2018-06-27 09:00","2018","06","27","09:00","19.0","","15.9","","82","","15","","18","","","","100.23","","","","","","NA"
"2018-06-27 10:00","2018","06","27","10:00","18.1","","16.5","","91","","15","","20","","","","100.21","","","","","","NA"
"2018-06-27 11:00","2018","06","27","11:00","18.1","","16.3","","90","","15","","20","","","","100.17","","","","","","NA"
"2018-06-27 12:00","2018","06","27","12:00","17.4","","16.5","","95","","14","","21","","","","100.14","","","","","","NA"
"2018-06-27 13:00","2018","06","27","13:00","17.3","","16.6","","96","","14","","22","","","","100.07","","","","","","NA"
"2018-06-27 14:00","2018","06","27","14:00","17.1","","16.6","","97","","13","","20","","","","100.00","","","","","","NA"
"2018-06-27 15:00","2018","06","27","15:00","17.5","","16.7","","95","","12","","13","","","","99.96","","","","","","NA"
"2018-06-27 16:00","2018","06","27","16:00","17.6","","16.9","","95","","11","","12","","","","99.89","","","","","","NA"
"2018-06-27 17:00","2018","06","27","17:00","17.8","","17.0","","95","","13","","17","","","","99.83","","","","","","NA"
"2018-06-27 18:00","2018","06","27","18:00","17.8","","17.2","","96","","14","","16","","","","99.80","","","","","","NA"
"2018-06-27 19:00","2018","06","27","19:00","17.9","","17.3","","96","","14","","14","","","","99.77","","","","","","NA"
"2018-06-27 20:00","2018","06","27","20:00","18.2","","17.4","","96","","13","","11","","","","99.74","","","","","","NA"
"2018-06-27 21:00","2018","06","27","21:00","18.5","","17.6","","95","","11","","11","","","","99.74","","","","","","NA"
"2018-06-27 22:00","2018","06","27","22:00","18.6","","17.8","","95","","11","","9","","","","99.73","","","","","","NA"
"2018-06-27 23:00","2018","06","27","23:00","18.3","","17.7","","97","","12","","11","","","","99.68","","","","","","NA"
"2018-06-28 00:00","2018","06","28","00:00","18.6","","17.9","","96","","10","","8","","","","99.64","","","","","","NA"
"2018-06-28 01:00","2018","06","28","01:00","18.4","","17.9","","97","","5","","6","","","","99.60","","","","","","NA"
"2018-06-28 02:00","2018","06","28","02:00","18.3","","17.8","","97","","4","","7","","","","99.58","","","","","","NA"
"2018-06-28 03:00","2018","06","28","03:00","18.3","","17.8","","97","","2","","7","","","","99.57","","","","","","NA"
"2018-06-28 04:00","2018","06","28","04:00","18.2","","17.7","","97","","5","","7","","","","99.55","","","","","","NA"
"2018-06-28 05:00","2018","06","28","05:00","18.2","","17.7","","97","","4","","6","","","","99.56","","","","","","NA"
"2018-06-28 06:00","2018","06","28","06:00","18.5","","18.0","","97","","4","","8","","","","99.57","","","","","","NA"
"2018-06-28 07:00","2018","06","28","07:00","19.9","","18.6","","92","","1","","6","","","","99.61","","","","","","NA"
"2018-06-28 08:00","2018","06","28","08:00","20.2","","18.4","","90","","34","","5","","","","99.63","","27","","","","NA"
"2018-06-28 09:00","2018","06","28","09:00","21.0","","18.8","","88","","31","","10","","","","99.67","","28","","","","NA"
"2018-06-28 10:00","2018","06","28","10:00","22.4","","18.5","","79","","33","","5","","","","99.72","","29","","","","NA"
"2018-06-28 11:00","2018","06","28","11:00","21.3","","18.8","","85","","22","","8","","","","99.73","","28","","","","NA"
"2018-06-28 12:00","2018","06","28","12:00","22.1","","19.6","","86","","19","","10","","","","99.72","","29","","","","NA"
"2018-06-28 13:00","2018","06","28","13:00","20.3","","19.0","","92","","19","","17","","","","99.74","","27","","","","NA"
"2018-06-28 14:00","2018","06","28","14:00","22.0","","19.5","","86","","19","","13","","","","99.74","","29","","","","NA"
"2018-06-28 15:00","2018","06","28","15:00","21.0","","18.4","","85","","19","","16","","","","99.72","","27","","","","NA"
"2018-06-28 16:00","2018","06","28","16:00","22.2","","19.5","","85","","19","","14","","","","99.71","","29","","","","NA"
"2018-06-28 17:00","2018","06","28","17:00","21.7","","19.1","","85","","19","","19","","","","99.71","","29","","","","NA"
"2018-06-28 18:00","2018","06","28","18:00","20.6","","18.4","","88","","19","","11","","","","99.73","","27","","","","NA"
"2018-06-28 19:00","2018","06","28","19:00","23.3","","19.1","","77","","23","","13","","","","99.78","","30","","","","NA"
"2018-06-28 20:00","2018","06","28","20:00","20.0","","17.7","","86","","20","","11","","","","99.81","","26","","","","NA"
"2018-06-28 21:00","2018","06","28","21:00","19.5","","17.7","","89","","22","","6","","","","99.90","","","","","","NA"
"2018-06-28 22:00","2018","06","28","22:00","18.2","","16.5","","90","","25","","3","","","","99.94","","","","","","NA"
"2018-06-28 23:00","2018","06","28","23:00","21.4","","15.7","","70","","26","","14","","","","99.97","","26","","","","NA"
"2018-06-29 00:00","2018","06","29","00:00","19.6","","15.6","","78","","25","","11","","","","99.96","","","","","","NA"
"2018-06-29 01:00","2018","06","29","01:00","19.2","","15.9","","81","","26","","10","","","","100.02","","","","","","NA"
"2018-06-29 02:00","2018","06","29","02:00","18.7","","16.0","","84","","25","","12","","","","100.03","","","","","","NA"
"2018-06-29 03:00","2018","06","29","03:00","18.1","","16.5","","91","","24","","14","","","","100.04","","","","","","NA"
"2018-06-29 04:00","2018","06","29","04:00","18.1","","16.2","","88","","25","","10","","","","100.10","","","","","","NA"
"2018-06-29 05:00","2018","06","29","05:00","17.8","","15.9","","89","","25","","8","","","","100.14","","","","","","NA"
"2018-06-29 06:00","2018","06","29","06:00","19.2","","16.4","","84","","27","","12","","","","100.18","","","","","","NA"
"2018-06-29 07:00","2018","06","29","07:00","20.0","","16.0","","78","","29","","8","","","","100.18","","25","","","","NA"
"2018-06-29 08:00","2018","06","29","08:00","21.1","","16.5","","75","","23","","12","","","","100.24","","26","","","","NA"
"2018-06-29 09:00","2018","06","29","09:00","22.9","","17.6","","72","","22","","9","","","","100.30","","29","","","","NA"
"2018-06-29 10:00","2018","06","29","10:00","24.1","","18.8","","72","","21","","11","","","","100.35","","31","","","","NA"
"2018-06-29 11:00","2018","06","29","11:00","25.0","","19.9","","73","","19","","12","","","","100.37","","32","","","","NA"
"2018-06-29 12:00","2018","06","29","12:00","23.2","","18.8","","76","","18","","13","","","","100.39","","30","","","","NA"
"2018-06-29 13:00","2018","06","29","13:00","23.3","","18.3","","73","","18","","20","","","","100.36","","30","","","","NA"
"2018-06-29 14:00","2018","06","29","14:00","23.2","","18.4","","74","","18","","23","","","","100.36","","30","","","","NA"
"2018-06-29 15:00","2018","06","29","15:00","24.3","","19.6","","75","","18","","15","","","","100.35","","32","","","","NA"
"2018-06-29 16:00","2018","06","29","16:00","26.1","","20.0","","69","","19","","16","","","","100.33","","34","","","","NA"
"2018-06-29 17:00","2018","06","29","17:00","27.8","","17.3","","53","","23","","19","","","","100.28","","33","","","","NA"
"2018-06-29 18:00","2018","06","29","18:00","26.0","","17.0","","58","","23","","16","","","","100.29","","31","","","","NA"
"2018-06-29 19:00","2018","06","29","19:00","24.2","","17.7","","67","","22","","11","","","","100.29","","30","","","","NA"
"2018-06-29 20:00","2018","06","29","20:00","23.7","","16.2","","63","","24","","17","","","","100.30","","28","","","","NA"
"2018-06-29 21:00","2018","06","29","21:00","22.7","","16.1","","66","","24","","13","","","","100.37","","27","","","","NA"
"2018-06-29 22:00","2018","06","29","22:00","21.3","","15.8","","71","","24","","8","","","","100.36","","26","","","","NA"
"2018-06-29 23:00","2018","06","29","23:00","20.2","","15.5","","74","","20","","4","","","","100.40","","","","","","NA"
"2018-06-30 00:00","2018","06","30","00:00","18.9","","17.0","","89","","16","","9","","","","100.46","","","","","","NA"
"2018-06-30 01:00","2018","06","30","01:00","19.0","","16.8","","87","","17","","12","","","","100.45","","","","","","NA"
"2018-06-30 02:00","2018","06","30","02:00","18.8","","16.9","","89","","18","","10","","","","100.40","","","","","","NA"
"2018-06-30 03:00","2018","06","30","03:00","18.6","","16.8","","90","","19","","12","","","","100.46","","","","","","NA"
"2018-06-30 04:00","2018","06","30","04:00","18.7","","16.8","","89","","19","","10","","","","100.54","","","","","","NA"
"2018-06-30 05:00","2018","06","30","05:00","18.9","","17.1","","90","","23","","12","","","","100.60","","","","","","NA"
"2018-06-30 06:00","2018","06","30","06:00","18.8","","17.7","","93","","18","","16","","","","100.22","","","","","","NA"
"2018-06-30 07:00","2018","06","30","07:00","19.8","","17.8","","88","","20","","18","","","","100.20","","","","","","NA"
"2018-06-30 08:00","2018","06","30","08:00","22.2","","18.9","","82","","4","","12","","","","100.29","","29","","","","NA"
"2018-06-30 09:00","2018","06","30","09:00","23.2","","18.6","","75","","15","","12","","","","100.29","","30","","","","NA"
"2018-06-30 10:00","2018","06","30","10:00","22.3","","19.0","","82","","15","","11","","","","100.31","","29","","","","NA"
"2018-06-30 11:00","2018","06","30","11:00","27.1","","22.4","","76","","19","","12","","","","100.30","","37","","","","NA"
"2018-06-30 12:00","2018","06","30","12:00","28.5","","22.5","","70","","23","","24","","","","100.37","","38","","","","NA"
"2018-06-30 13:00","2018","06","30","13:00","28.9","","22.8","","70","","24","","18","","","","100.37","","39","","","","NA"
"2018-06-30 14:00","2018","06","30","14:00","30.2","","23.8","","69","","23","","23","","","","100.29","","41","","","","NA"
"2018-06-30 15:00","2018","06","30","15:00","26.6","","22.4","","78","","19","","14","","","","100.28","","36","","","","NA"
"2018-06-30 16:00","2018","06","30","16:00","26.0","","21.4","","76","","19","","15","","","","100.29","","35","","","","NA"
"2018-06-30 17:00","2018","06","30","17:00","28.0","","23.5","","77","","20","","15","","","","100.16","","39","","","","NA"
"2018-06-30 18:00","2018","06","30","18:00","28.1","","23.4","","76","","23","","15","","","","100.22","","39","","","","NA"
"2018-06-30 19:00","2018","06","30","19:00","25.0","","21.5","","81","","19","","10","","","","100.22","","34","","","","NA"
"2018-06-30 20:00","2018","06","30","20:00","23.4","","21.7","","90","","22","","8","","","","100.21","","32","","","","NA"
"2018-06-30 21:00","2018","06","30","21:00","25.5","","22.5","","84","","24","","10","","","","100.23","","35","","","","NA"
"2018-06-30 22:00","2018","06","30","22:00","24.4","","21.7","","85","","23","","9","","","","100.26","","33","","","","NA"
"2018-06-30 23:00","2018","06","30","23:00","22.4","","20.8","","91","","21","","8","","","","100.30","","31","","","","NA"
