"Station Name","KINGSTON CLIMATE"
"Province","ONTARIO"
"Latitude","44.22"
"Longitude","-76.60"
"Elevation","93.00"
"Climate Identifier","6104142"
"WMO Identifier","71820"
"TC Identifier","TKG"
"All times are specified in Local Standard Time (LST). Add 1 hour to adjust for Daylight Saving Time where and when it is observed."

"Legend"
"E","Estimated"
"M","Missing"
"NA","Not Available"

"Date/Time","Year","Month","Day","Time","Temp (°C)","Temp Flag","Dew Point Temp (°C)","Dew Point Temp Flag","Rel Hum (%)","Rel Hum Flag","Wind Dir (10s deg)","Wind Dir Flag","Wind Spd (km/h)","Wind Spd Flag","Visibility (km)","Visibility Flag","Stn Press (kPa)","Stn Press Flag","Hmdx","Hmdx Flag","Wind Chill","Wind Chill Flag","Weather"
"2017-05-01 00:00","2017","05","01","00:00","4.7","","3.7","","93","","3","","11","","","","100.31","","","","","","NA"
"2017-05-01 01:00","2017","05","01","01:00","5.0","","4.2","","95","","4","","12","","","","100.09","","","","","","NA"
"2017-05-01 02:00","2017","05","01","02:00","5.6","","4.8","","95","","5","","11","","","","99.94","","","","","","NA"
"2017-05-01 03:00","2017","05","01","03:00","5.8","","4.9","","94","","2","","14","","","","99.98","","","","","","NA"
"2017-05-01 04:00","2017","05","01","04:00","6.0","","5.2","","95","","4","","15","","","","99.82","","","","","","NA"
"2017-05-01 05:00","2017","05","01","05:00","6.0","","5.1","","94","","2","","13","","","","99.89","","","","","","NA"
"2017-05-01 06:00","2017","05","01","06:00","6.0","","5.0","","93","","4","","19","","","","99.85","","","","","","NA"
"2017-05-01 07:00","2017","05","01","07:00","6.8","","5.6","","93","","4","","15","","","","99.81","","","","","","NA"
"2017-05-01 08:00","2017","05","01","08:00","7.9","","6.4","","90","","5","","16","","","","99.76","","","","","","NA"
"2017-05-01 09:00","2017","05","01","09:00","9.0","","7.5","","90","","4","","14","","","","99.72","","","","","","NA"
"2017-05-01 10:00","2017","05","01","10:00","10.1","","8.5","","90","","3","","13","","","","99.71","","","","","","NA"
"2017-05-01 11:00","2017","05","01","11:00","11.3","","9.4","","88","","3","","11","","","","99.61","","","","","","NA"
"2017-05-01 12:00","2017","05","01","12:00","11.4","","10.1","","91","","4","","10","","","","99.56","","","","","","NA"
"2017-05-01 13:00","2017","05","01","13:00","12.1","","10.9","","92","","6","","8","","","","99.44","","","","","","NA"
"2017-05-01 14:00","2017","05","01","14:00","13.0","","12.0","","94","","8","","13","","","","99.30","","","","","","NA"
"2017-05-01 15:00","2017","05","01","15:00","14.1","","13.0","","93","","8","","12","","","","99.11","","","","","","NA"
"2017-05-01 16:00","2017","05","01","16:00","14.5","","13.4","","94","","6","","15","","","","98.96","","","","","","NA"
"2017-05-01 17:00","2017","05","01","17:00","14.7","","13.7","","94","","21","","35","","","","99.12","","","","","","NA"
"2017-05-01 18:00","2017","05","01","18:00","15.0","","13.8","","93","","25","","9","","","","99.09","","","","","","NA"
"2017-05-01 19:00","2017","05","01","19:00","13.6","","12.8","","95","","10","","28","","","","98.63","","","","","","NA"
"2017-05-01 20:00","2017","05","01","20:00","13.4","","12.4","","94","","11","","12","","","","98.75","","","","","","NA"
"2017-05-01 21:00","2017","05","01","21:00","12.6","","10.6","","87","","14","","15","","","","98.73","","","","","","NA"
"2017-05-01 22:00","2017","05","01","22:00","10.7","","9.3","","91","","19","","21","","","","98.71","","","","","","NA"
"2017-05-01 23:00","2017","05","01","23:00","9.7","","8.6","","93","","20","","15","","","","98.73","","","","","","NA"
"2017-05-02 00:00","2017","05","02","00:00","10.6","","9.4","","93","","22","","11","","","","98.78","","","","","","NA"
"2017-05-02 01:00","2017","05","02","01:00","12.0","","9.0","","82","","23","","20","","","","98.82","","","","","","NA"
"2017-05-02 02:00","2017","05","02","02:00","8.7","","6.9","","89","","20","","20","","","","98.86","","","","","","NA"
"2017-05-02 03:00","2017","05","02","03:00","9.1","","7.2","","88","","22","","12","","","","98.89","","","","","","NA"
"2017-05-02 04:00","2017","05","02","04:00","9.9","","7.1","","82","","23","","14","","","","98.94","","","","","","NA"
"2017-05-02 05:00","2017","05","02","05:00","9.5","","6.2","","80","","24","","18","","","","98.94","","","","","","NA"
"2017-05-02 06:00","2017","05","02","06:00","9.5","","6.6","","83","","23","","20","","","","98.97","","","","","","NA"
"2017-05-02 07:00","2017","05","02","07:00","10.5","","6.5","","76","","25","","21","","","","98.95","","","","","","NA"
"2017-05-02 08:00","2017","05","02","08:00","11.0","","6.7","","75","","24","","21","","","","98.95","","","","","","NA"
"2017-05-02 09:00","2017","05","02","09:00","11.1","","6.9","","75","","23","","17","","","","98.93","","","","","","NA"
"2017-05-02 10:00","2017","05","02","10:00","9.3","","6.4","","82","","18","","19","","","","98.91","","","","","","NA"
"2017-05-02 11:00","2017","05","02","11:00","11.0","","7.1","","77","","21","","20","","","","98.88","","","","","","NA"
"2017-05-02 12:00","2017","05","02","12:00","12.1","","6.6","","69","","23","","17","","","","98.81","","","","","","NA"
"2017-05-02 13:00","2017","05","02","13:00","11.1","","6.7","","74","","19","","19","","","","98.76","","","","","","NA"
"2017-05-02 14:00","2017","05","02","14:00","9.8","","6.5","","80","","24","","30","","","","98.87","","","","","","NA"
"2017-05-02 15:00","2017","05","02","15:00","10.6","","5.5","","71","","24","","32","","","","98.87","","","","","","NA"
"2017-05-02 16:00","2017","05","02","16:00","10.2","","4.6","","68","","23","","35","","","","98.90","","","","","","NA"
"2017-05-02 17:00","2017","05","02","17:00","8.8","","4.7","","75","","23","","36","","","","98.99","","","","","","NA"
"2017-05-02 18:00","2017","05","02","18:00","8.7","","4.4","","74","","24","","34","","","","99.04","","","","","","NA"
"2017-05-02 19:00","2017","05","02","19:00","8.3","","4.9","","79","","24","","33","","","","99.07","","","","","","NA"
"2017-05-02 20:00","2017","05","02","20:00","8.4","","5.0","","79","","24","","31","","","","99.13","","","","","","NA"
"2017-05-02 21:00","2017","05","02","21:00","8.2","","5.2","","81","","24","","30","","","","99.18","","","","","","NA"
"2017-05-02 22:00","2017","05","02","22:00","7.5","","5.9","","90","","24","","29","","","","99.23","","","","","","NA"
"2017-05-02 23:00","2017","05","02","23:00","7.5","","4.7","","82","","26","","24","","","","99.29","","","","","","NA"
"2017-05-03 00:00","2017","05","03","00:00","7.3","","5.5","","89","","25","","16","","","","99.35","","","","","","NA"
"2017-05-03 01:00","2017","05","03","01:00","7.3","","5.2","","87","","24","","18","","","","99.36","","","","","","NA"
"2017-05-03 02:00","2017","05","03","02:00","7.4","","4.6","","82","","24","","18","","","","99.39","","","","","","NA"
"2017-05-03 03:00","2017","05","03","03:00","7.3","","4.4","","82","","25","","16","","","","99.47","","","","","","NA"
"2017-05-03 04:00","2017","05","03","04:00","6.5","","4.8","","89","","25","","16","","","","99.55","","","","","","NA"
"2017-05-03 05:00","2017","05","03","05:00","5.0","","3.1","","87","","31","","17","","","","99.69","","","","","","NA"
"2017-05-03 06:00","2017","05","03","06:00","5.2","","2.0","","80","","30","","19","","","","99.87","","","","","","NA"
"2017-05-03 07:00","2017","05","03","07:00","5.5","","0.9","","72","","31","","28","","","","100.00","","","","","","NA"
"2017-05-03 08:00","2017","05","03","08:00","6.3","","0.9","","68","","31","","27","","","","100.09","","","","","","NA"
"2017-05-03 09:00","2017","05","03","09:00","8.2","","2.0","","65","","32","","25","","","","100.19","","","","","","NA"
"2017-05-03 10:00","2017","05","03","10:00","8.1","","1.0","","61","","29","","21","","","","100.30","","","","","","NA"
"2017-05-03 11:00","2017","05","03","11:00","9.4","","1.2","","57","","31","","21","","","","100.40","","","","","","NA"
"2017-05-03 12:00","2017","05","03","12:00","10.7","","0.9","","51","","31","","20","","","","100.50","","","","","","NA"
"2017-05-03 13:00","2017","05","03","13:00","12.6","","0.2","","43","","30","","19","","","","100.57","","","","","","NA"
"2017-05-03 14:00","2017","05","03","14:00","14.2","","-0.7","","36","","30","","18","","","","100.63","","","","","","NA"
"2017-05-03 15:00","2017","05","03","15:00","14.4","","-2.3","","31","","30","","21","","","","100.60","","","","","","NA"
"2017-05-03 16:00","2017","05","03","16:00","14.8","","-2.5","","30","","33","","20","","","","100.61","","","","","","NA"
"2017-05-03 17:00","2017","05","03","17:00","14.9","","-1.9","","32","","34","","13","","","","100.63","","","","","","NA"
"2017-05-03 18:00","2017","05","03","18:00","13.3","","-3.1","","32","","34","","10","","","","100.65","","","","","","NA"
"2017-05-03 19:00","2017","05","03","19:00","8.4","","4.2","","75","","19","","10","","","","100.72","","","","","","NA"
"2017-05-03 20:00","2017","05","03","20:00","8.2","","3.5","","72","","24","","14","","","","100.87","","","","","","NA"
"2017-05-03 21:00","2017","05","03","21:00","7.8","","4.2","","78","","25","","14","","","","101.00","","","","","","NA"
"2017-05-03 22:00","2017","05","03","22:00","7.6","","4.1","","79","","25","","13","","","","101.07","","","","","","NA"
"2017-05-03 23:00","2017","05","03","23:00","7.4","","2.4","","71","","25","","9","","","","101.09","","","","","","NA"
"2017-05-04 00:00","2017","05","04","00:00","6.9","","0.9","","66","","29","","9","","","","101.14","","","","","","NA"
"2017-05-04 01:00","2017","05","04","01:00","6.2","","0.0","","65","","31","","15","","","","101.12","","","","","","NA"
"2017-05-04 02:00","2017","05","04","02:00","5.2","","0.0","","69","","31","","7","","","","101.09","","","","","","NA"
"2017-05-04 03:00","2017","05","04","03:00","3.9","","0.0","","75","","3","","5","","","","101.06","","","","","","NA"
"2017-05-04 04:00","2017","05","04","04:00","5.2","","0.6","","72","","5","","5","","","","101.08","","","","","","NA"
"2017-05-04 05:00","2017","05","04","05:00","3.6","","1.2","","84","","14","","5","","","","101.15","","","","","","NA"
"2017-05-04 06:00","2017","05","04","06:00","5.6","","3.6","","87","","19","","11","","","","101.19","","","","","","NA"
"2017-05-04 07:00","2017","05","04","07:00","6.7","","3.4","","80","","14","","5","","","","101.19","","","","","","NA"
"2017-05-04 08:00","2017","05","04","08:00","7.1","","3.7","","79","","15","","15","","","","101.21","","","","","","NA"
"2017-05-04 09:00","2017","05","04","09:00","7.2","","4.0","","80","","18","","14","","","","101.23","","","","","","NA"
"2017-05-04 10:00","2017","05","04","10:00","7.7","","2.7","","70","","16","","9","","","","101.18","","","","","","NA"
"2017-05-04 11:00","2017","05","04","11:00","10.3","","0.2","","50","","19","","7","","","","101.12","","","","","","NA"
"2017-05-04 12:00","2017","05","04","12:00","10.3","","0.6","","51","","20","","5","","","","101.04","","","","","","NA"
"2017-05-04 13:00","2017","05","04","13:00","11.6","","-0.2","","44","","13","","3","","","","100.93","","","","","","NA"
"2017-05-04 14:00","2017","05","04","14:00","12.5","","2.4","","50","","14","","5","","","","100.87","","","","","","NA"
"2017-05-04 15:00","2017","05","04","15:00","11.5","","2.1","","52","","16","","7","","","","100.82","","","","","","NA"
"2017-05-04 16:00","2017","05","04","16:00","11.6","","2.1","","52","","17","","16","","","","100.84","","","","","","NA"
"2017-05-04 17:00","2017","05","04","17:00","8.3","","4.5","","77","","20","","20","","","","100.89","","","","","","NA"
"2017-05-04 18:00","2017","05","04","18:00","7.8","","5.1","","83","","16","","2","","","","100.86","","","","","","NA"
"2017-05-04 19:00","2017","05","04","19:00","7.4","","5.6","","88","","5","","7","","","","100.83","","","","","","NA"
"2017-05-04 20:00","2017","05","04","20:00","7.5","","6.4","","93","","6","","14","","","","100.75","","","","","","NA"
"2017-05-04 21:00","2017","05","04","21:00","7.5","","6.3","","92","","7","","20","","","","100.64","","","","","","NA"
"2017-05-04 22:00","2017","05","04","22:00","7.6","","6.3","","91","","7","","22","","","","100.54","","","","","","NA"
"2017-05-04 23:00","2017","05","04","23:00","7.6","","6.4","","92","","6","","21","","","","100.43","","","","","","NA"
"2017-05-05 00:00","2017","05","05","00:00","7.5","","6.5","","93","","7","","19","","","","100.34","","","","","","NA"
"2017-05-05 01:00","2017","05","05","01:00","7.5","","6.4","","93","","6","","21","","","","100.23","","","","","","NA"
"2017-05-05 02:00","2017","05","05","02:00","7.5","","6.4","","93","","8","","18","","","","100.17","","","","","","NA"
"2017-05-05 03:00","2017","05","05","03:00","7.3","","6.4","","93","","9","","14","","","","100.13","","","","","","NA"
"2017-05-05 04:00","2017","05","05","04:00","7.2","","6.1","","93","","8","","8","","","","100.03","","","","","","NA"
"2017-05-05 05:00","2017","05","05","05:00","7.1","","6.2","","94","","4","","15","","","","99.96","","","","","","NA"
"2017-05-05 06:00","2017","05","05","06:00","7.0","","6.2","","94","","5","","15","","","","99.92","","","","","","NA"
"2017-05-05 07:00","2017","05","05","07:00","7.1","","6.2","","95","","6","","15","","","","99.93","","","","","","NA"
"2017-05-05 08:00","2017","05","05","08:00","7.3","","6.5","","95","","5","","16","","","","99.85","","","","","","NA"
"2017-05-05 09:00","2017","05","05","09:00","7.7","","6.8","","94","","4","","17","","","","99.72","","","","","","NA"
"2017-05-05 10:00","2017","05","05","10:00","7.9","","7.0","","94","","4","","19","","","","99.61","","","","","","NA"
"2017-05-05 11:00","2017","05","05","11:00","8.5","","7.6","","94","","5","","18","","","","99.50","","","","","","NA"
"2017-05-05 12:00","2017","05","05","12:00","8.8","","7.7","","93","","5","","22","","","","99.38","","","","","","NA"
"2017-05-05 13:00","2017","05","05","13:00","8.8","","7.8","","94","","4","","17","","","","99.20","","","","","","NA"
"2017-05-05 14:00","2017","05","05","14:00","9.2","","8.2","","93","","3","","18","","","","99.10","","","","","","NA"
"2017-05-05 15:00","2017","05","05","15:00","9.8","","8.9","","94","","5","","19","","","","99.03","","","","","","NA"
"2017-05-05 16:00","2017","05","05","16:00","10.1","","9.1","","94","","5","","18","","","","98.88","","","","","","NA"
"2017-05-05 17:00","2017","05","05","17:00","9.8","","8.9","","94","","5","","17","","","","98.85","","","","","","NA"
"2017-05-05 18:00","2017","05","05","18:00","9.9","","9.0","","94","","4","","13","","","","98.78","","","","","","NA"
"2017-05-05 19:00","2017","05","05","19:00","10.1","","9.2","","94","","4","","12","","","","98.74","","","","","","NA"
"2017-05-05 20:00","2017","05","05","20:00","10.2","","9.3","","94","","3","","15","","","","98.73","","","","","","NA"
"2017-05-05 21:00","2017","05","05","21:00","10.2","","9.2","","94","","2","","13","","","","98.70","","","","","","NA"
"2017-05-05 22:00","2017","05","05","22:00","10.0","","9.1","","94","","3","","14","","","","98.60","","","","","","NA"
"2017-05-05 23:00","2017","05","05","23:00","10.0","","9.1","","94","","4","","15","","","","98.55","","","","","","NA"
"2017-05-06 00:00","2017","05","06","00:00","10.2","","9.3","","94","","4","","15","","","","98.47","","","","","","NA"
"2017-05-06 01:00","2017","05","06","01:00","10.4","","9.4","","93","","4","","16","","","","98.40","","","","","","NA"
"2017-05-06 02:00","2017","05","06","02:00","10.4","","9.3","","93","","4","","18","","","","98.29","","","","","","NA"
"2017-05-06 03:00","2017","05","06","03:00","10.2","","9.0","","93","","3","","19","","","","98.24","","","","","","NA"
"2017-05-06 04:00","2017","05","06","04:00","10.1","","9.1","","94","","3","","17","","","","98.17","","","","","","NA"
"2017-05-06 05:00","2017","05","06","05:00","10.1","","9.1","","93","","2","","16","","","","98.12","","","","","","NA"
"2017-05-06 06:00","2017","05","06","06:00","10.3","","9.3","","93","","3","","14","","","","98.10","","","","","","NA"
"2017-05-06 07:00","2017","05","06","07:00","10.0","","9.0","","94","","1","","12","","","","98.16","","","","","","NA"
"2017-05-06 08:00","2017","05","06","08:00","10.1","","9.0","","93","","2","","16","","","","98.03","","","","","","NA"
"2017-05-06 09:00","2017","05","06","09:00","10.6","","9.2","","91","","4","","12","","","","98.05","","","","","","NA"
"2017-05-06 10:00","2017","05","06","10:00","10.6","","9.5","","93","","2","","9","","","","98.07","","","","","","NA"
"2017-05-06 11:00","2017","05","06","11:00","10.8","","9.7","","93","","2","","12","","","","98.05","","","","","","NA"
"2017-05-06 12:00","2017","05","06","12:00","11.2","","9.9","","92","","4","","8","","","","98.06","","","","","","NA"
"2017-05-06 13:00","2017","05","06","13:00","7.1","","6.3","","95","","15","","11","","","","98.00","","","","","","NA"
"2017-05-06 14:00","2017","05","06","14:00","7.1","","6.5","","96","","18","","5","","","","98.02","","","","","","NA"
"2017-05-06 15:00","2017","05","06","15:00","7.1","","6.5","","96","","14","","14","","","","98.05","","","","","","NA"
"2017-05-06 16:00","2017","05","06","16:00","6.4","","5.8","","96","","16","","14","","","","98.12","","","","","","NA"
"2017-05-06 17:00","2017","05","06","17:00","7.4","","6.8","","96","","27","","5","","","","98.15","","","","","","NA"
"2017-05-06 18:00","2017","05","06","18:00","8.0","","7.4","","96","","14","","3","","","","98.20","","","","","","NA"
"2017-05-06 19:00","2017","05","06","19:00","8.3","","7.6","","96","","26","","4","","","","98.24","","","","","","NA"
"2017-05-06 20:00","2017","05","06","20:00","8.8","","8.1","","95","","33","","11","","","","98.30","","","","","","NA"
"2017-05-06 21:00","2017","05","06","21:00","8.3","","6.9","","91","","34","","14","","","","98.33","","","","","","NA"
"2017-05-06 22:00","2017","05","06","22:00","8.0","","6.9","","93","","31","","8","","","","98.37","","","","","","NA"
"2017-05-06 23:00","2017","05","06","23:00","7.6","","6.7","","94","","34","","7","","","","98.38","","","","","","NA"
"2017-05-07 00:00","2017","05","07","00:00","6.6","","5.6","","93","","31","","14","","","","98.40","","","","","","NA"
"2017-05-07 01:00","2017","05","07","01:00","5.9","","4.9","","94","","31","","15","","","","98.42","","","","","","NA"
"2017-05-07 02:00","2017","05","07","02:00","5.5","","4.2","","91","","31","","12","","","","98.44","","","","","","NA"
"2017-05-07 03:00","2017","05","07","03:00","5.0","","3.7","","91","","30","","12","","","","98.50","","","","","","NA"
"2017-05-07 04:00","2017","05","07","04:00","4.1","","2.9","","92","","29","","11","","","","98.58","","","","","","NA"
"2017-05-07 05:00","2017","05","07","05:00","3.6","","2.1","","90","","30","","16","","","","98.68","","","","","","NA"
"2017-05-07 06:00","2017","05","07","06:00","3.5","","2.1","","91","","29","","15","","","","98.80","","","","","","NA"
"2017-05-07 07:00","2017","05","07","07:00","3.9","","2.6","","91","","28","","13","","","","98.87","","","","","","NA"
"2017-05-07 08:00","2017","05","07","08:00","4.6","","2.3","","85","","28","","11","","","","98.97","","","","","","NA"
"2017-05-07 09:00","2017","05","07","09:00","3.9","","2.1","","88","","29","","18","","","","99.06","","","","","","NA"
"2017-05-07 10:00","2017","05","07","10:00","5.4","","2.1","","80","","27","","11","","","","99.12","","","","","","NA"
"2017-05-07 11:00","2017","05","07","11:00","5.9","","1.8","","75","","22","","13","","","","99.15","","","","","","NA"
"2017-05-07 12:00","2017","05","07","12:00","6.8","","2.1","","72","","27","","11","","","","99.19","","","","","","NA"
"2017-05-07 13:00","2017","05","07","13:00","5.9","","2.5","","79","","30","","12","","","","99.27","","","","","","NA"
"2017-05-07 14:00","2017","05","07","14:00","6.6","","2.9","","77","","27","","14","","","","99.32","","","","","","NA"
"2017-05-07 15:00","2017","05","07","15:00","7.0","","2.8","","75","","30","","24","","","","99.37","","","","","","NA"
"2017-05-07 16:00","2017","05","07","16:00","6.3","","2.0","","74","","32","","21","","","","99.43","","","","","","NA"
"2017-05-07 17:00","2017","05","07","17:00","6.7","","2.1","","72","","30","","14","","","","99.50","","","","","","NA"
"2017-05-07 18:00","2017","05","07","18:00","5.8","","2.8","","81","","30","","12","","","","99.58","","","","","","NA"
"2017-05-07 19:00","2017","05","07","19:00","5.3","","2.2","","81","","32","","16","","","","99.67","","","","","","NA"
"2017-05-07 20:00","2017","05","07","20:00","4.6","","1.6","","81","","34","","14","","","","99.75","","","","","","NA"
"2017-05-07 21:00","2017","05","07","21:00","3.4","","0.8","","83","","33","","17","","","","99.83","","","","","","NA"
"2017-05-07 22:00","2017","05","07","22:00","2.8","","-0.1","","81","","32","","19","","","","99.82","","","","","","NA"
"2017-05-07 23:00","2017","05","07","23:00","1.9","","-0.4","","85","","33","","14","","","","99.86","","","","","","NA"
"2017-05-08 00:00","2017","05","08","00:00","1.6","","-1.4","","81","","33","","17","","","","99.91","","","","","","NA"
"2017-05-08 01:00","2017","05","08","01:00","1.7","","-1.1","","82","","32","","8","","","","99.93","","","","","","NA"
"2017-05-08 02:00","2017","05","08","02:00","1.9","","-1.2","","80","","32","","9","","","","99.92","","","","","","NA"
"2017-05-08 03:00","2017","05","08","03:00","1.8","","-0.9","","83","","31","","7","","","","99.92","","","","","","NA"
"2017-05-08 04:00","2017","05","08","04:00","2.0","","-1.1","","80","","30","","10","","","","99.95","","","","","","NA"
"2017-05-08 05:00","2017","05","08","05:00","1.4","","-0.1","","90","","31","","11","","","","100.00","","","","","","NA"
"2017-05-08 06:00","2017","05","08","06:00","1.8","","0.2","","89","","35","","7","","","","100.05","","","","","","NA"
"2017-05-08 07:00","2017","05","08","07:00","2.4","","-0.1","","83","","31","","5","","","","100.05","","","","","","NA"
"2017-05-08 08:00","2017","05","08","08:00","3.4","","-0.2","","78","","29","","16","","","","100.05","","","","","","NA"
"2017-05-08 09:00","2017","05","08","09:00","3.7","","-1.3","","70","","30","","13","","","","100.05","","","","","","NA"
"2017-05-08 10:00","2017","05","08","10:00","5.2","","-0.8","","65","","28","","15","","","","100.04","","","","","","NA"
"2017-05-08 11:00","2017","05","08","11:00","5.3","","-2.3","","58","","31","","21","","","","100.03","","","","","","NA"
"2017-05-08 12:00","2017","05","08","12:00","5.9","","0.3","","67","","30","","16","","","","100.03","","","","","","NA"
"2017-05-08 13:00","2017","05","08","13:00","5.9","","-1.1","","61","","29","","14","","","","100.02","","","","","","NA"
"2017-05-08 14:00","2017","05","08","14:00","6.2","","-1.1","","60","","33","","10","","","","100.02","","","","","","NA"
"2017-05-08 15:00","2017","05","08","15:00","5.9","","-0.6","","63","","33","","10","","","","100.00","","","","","","NA"
"2017-05-08 16:00","2017","05","08","16:00","5.2","","0.9","","74","","34","","10","","","","100.03","","","","","","NA"
"2017-05-08 17:00","2017","05","08","17:00","4.6","","2.4","","86","","35","","9","","","","100.09","","","","","","NA"
"2017-05-08 18:00","2017","05","08","18:00","3.7","","1.5","","85","","34","","8","","","","100.14","","","","","","NA"
"2017-05-08 19:00","2017","05","08","19:00","3.7","","2.3","","90","","24","","5","","","","100.14","","","","","","NA"
"2017-05-08 20:00","2017","05","08","20:00","2.0","","1.0","","93","","23","","2","","","","100.18","","","","","","NA"
"2017-05-08 21:00","2017","05","08","21:00","2.5","","1.1","","90","","32","","12","","","","100.24","","","","","","NA"
"2017-05-08 22:00","2017","05","08","22:00","2.2","","1.2","","93","","30","","5","","","","100.26","","","","","","NA"
"2017-05-08 23:00","2017","05","08","23:00","1.1","","0.3","","94","","32","","6","","","","100.29","","","","","","NA"
"2017-05-09 00:00","2017","05","09","00:00","1.3","","0.4","","94","","31","","8","","","","100.29","","","","","","NA"
"2017-05-09 01:00","2017","05","09","01:00","0.8","","0.1","","95","","1","","6","","","","100.28","","","","","","NA"
"2017-05-09 02:00","2017","05","09","02:00","0.7","","-0.1","","95","","3","","7","","","","100.27","","","","","","NA"
"2017-05-09 03:00","2017","05","09","03:00","0.9","","0.0","","94","","36","","6","","","","100.29","","","","","","NA"
"2017-05-09 04:00","2017","05","09","04:00","0.7","","-0.6","","91","","35","","5","","","","100.28","","","","","","NA"
"2017-05-09 05:00","2017","05","09","05:00","0.9","","-0.5","","91","","36","","5","","","","100.33","","","","","","NA"
"2017-05-09 06:00","2017","05","09","06:00","1.3","","-0.2","","90","","1","","6","","","","100.41","","","","","","NA"
"2017-05-09 07:00","2017","05","09","07:00","1.9","","-0.4","","85","","35","","6","","","","100.47","","","","","","NA"
"2017-05-09 08:00","2017","05","09","08:00","2.6","","-0.7","","79","","4","","8","","","","100.50","","","","","","NA"
"2017-05-09 09:00","2017","05","09","09:00","3.3","","-1.8","","69","","9","","6","","","","100.53","","","","","","NA"
"2017-05-09 10:00","2017","05","09","10:00","3.7","","-0.3","","75","","18","","10","","","","100.56","","","","","","NA"
"2017-05-09 11:00","2017","05","09","11:00","4.3","","-0.5","","71","","22","","8","","","","100.59","","","","","","NA"
"2017-05-09 12:00","2017","05","09","12:00","4.9","","-1.6","","63","","24","","4","","","","100.57","","","","","","NA"
"2017-05-09 13:00","2017","05","09","13:00","4.9","","-0.7","","67","","20","","11","","","","100.58","","","","","","NA"
"2017-05-09 14:00","2017","05","09","14:00","4.9","","0.3","","72","","16","","10","","","","100.56","","","","","","NA"
"2017-05-09 15:00","2017","05","09","15:00","5.1","","0.1","","70","","19","","4","","","","100.58","","","","","","NA"
"2017-05-09 16:00","2017","05","09","16:00","5.4","","0.1","","69","","17","","4","","","","100.58","","","","","","NA"
"2017-05-09 17:00","2017","05","09","17:00","6.3","","-0.2","","63","","4","","9","","","","100.59","","","","","","NA"
"2017-05-09 18:00","2017","05","09","18:00","6.3","","-0.3","","63","","4","","8","","","","100.61","","","","","","NA"
"2017-05-09 19:00","2017","05","09","19:00","5.7","","0.3","","68","","6","","5","","","","100.64","","","","","","NA"
"2017-05-09 20:00","2017","05","09","20:00","5.2","","0.3","","71","","5","","10","","","","100.68","","","","","","NA"
"2017-05-09 21:00","2017","05","09","21:00","4.8","","0.2","","72","","3","","6","","","","100.71","","","","","","NA"
"2017-05-09 22:00","2017","05","09","22:00","4.7","","0.5","","74","","3","","6","","","","100.69","","","","","","NA"
"2017-05-09 23:00","2017","05","09","23:00","4.6","","0.6","","75","","36","","7","","","","100.71","","","","","","NA"
"2017-05-10 00:00","2017","05","10","00:00","4.2","","0.9","","79","","1","","6","","","","100.72","","","","","","NA"
"2017-05-10 01:00","2017","05","10","01:00","3.6","","0.5","","80","","1","","6","","","","100.71","","","","","","NA"
"2017-05-10 02:00","2017","05","10","02:00","2.9","","0.2","","83","","1","","6","","","","100.71","","","","","","NA"
"2017-05-10 03:00","2017","05","10","03:00","2.0","","-0.4","","84","","2","","9","","","","100.72","","","","","","NA"
"2017-05-10 04:00","2017","05","10","04:00","1.1","","-0.6","","89","","34","","9","","","","100.74","","","","","","NA"
"2017-05-10 05:00","2017","05","10","05:00","-0.3","","-1.5","","92","","34","","10","","","","100.80","","","","-4","","NA"
"2017-05-10 06:00","2017","05","10","06:00","2.2","","0.5","","88","","35","","9","","","","100.86","","","","","","NA"
"2017-05-10 07:00","2017","05","10","07:00","5.2","","0.9","","73","","35","","7","","","","100.89","","","","","","NA"
"2017-05-10 08:00","2017","05","10","08:00","7.2","","-0.6","","58","","1","","6","","","","100.88","","","","","","NA"
"2017-05-10 09:00","2017","05","10","09:00","7.4","","-1.7","","52","","11","","6","","","","100.85","","","","","","NA"
"2017-05-10 10:00","2017","05","10","10:00","8.7","","-0.9","","51","","9","","7","","","","100.83","","","","","","NA"
"2017-05-10 11:00","2017","05","10","11:00","8.9","","1.1","","58","","16","","12","","","","100.82","","","","","","NA"
"2017-05-10 12:00","2017","05","10","12:00","8.9","","0.5","","56","","18","","15","","","","100.81","","","","","","NA"
"2017-05-10 13:00","2017","05","10","13:00","9.0","","0.5","","55","","19","","15","","","","100.77","","","","","","NA"
"2017-05-10 14:00","2017","05","10","14:00","9.8","","0.6","","52","","19","","18","","","","100.79","","","","","","NA"
"2017-05-10 15:00","2017","05","10","15:00","10.0","","1.7","","56","","20","","15","","","","100.77","","","","","","NA"
"2017-05-10 16:00","2017","05","10","16:00","10.1","","2.3","","58","","19","","12","","","","100.79","","","","","","NA"
"2017-05-10 17:00","2017","05","10","17:00","10.4","","1.6","","54","","24","","12","","","","100.79","","","","","","NA"
"2017-05-10 18:00","2017","05","10","18:00","9.5","","1.7","","58","","20","","9","","","","100.77","","","","","","NA"
"2017-05-10 19:00","2017","05","10","19:00","8.6","","1.8","","62","","23","","4","","","","100.77","","","","","","NA"
"2017-05-10 20:00","2017","05","10","20:00","7.4","","1.8","","68","","24","","6","","","","100.77","","","","","","NA"
"2017-05-10 21:00","2017","05","10","21:00","6.5","","1.5","","70","","28","","2","","","","100.82","","","","","","NA"
"2017-05-10 22:00","2017","05","10","22:00","5.7","","1.9","","77","","32","","7","","","","100.78","","","","","","NA"
"2017-05-10 23:00","2017","05","10","23:00","4.2","","1.4","","82","","34","","10","","","","100.75","","","","","","NA"
"2017-05-11 00:00","2017","05","11","00:00","3.7","","1.3","","85","","33","","10","","","","100.75","","","","","","NA"
"2017-05-11 01:00","2017","05","11","01:00","3.6","","0.9","","82","","35","","9","","","","100.71","","","","","","NA"
"2017-05-11 02:00","2017","05","11","02:00","2.9","","0.8","","86","","34","","10","","","","100.67","","","","","","NA"
"2017-05-11 03:00","2017","05","11","03:00","3.2","","1.1","","86","","34","","12","","","","100.68","","","","","","NA"
"2017-05-11 04:00","2017","05","11","04:00","3.4","","1.0","","84","","34","","11","","","","100.68","","","","","","NA"
"2017-05-11 05:00","2017","05","11","05:00","3.6","","0.3","","79","","2","","7","","","","100.66","","","","","","NA"
"2017-05-11 06:00","2017","05","11","06:00","4.7","","1.6","","80","","4","","12","","","","100.68","","","","","","NA"
"2017-05-11 07:00","2017","05","11","07:00","8.4","","3.0","","69","","5","","12","","","","100.68","","","","","","NA"
"2017-05-11 08:00","2017","05","11","08:00","10.6","","3.8","","63","","7","","11","","","","100.66","","","","","","NA"
"2017-05-11 09:00","2017","05","11","09:00","12.8","","4.3","","56","","6","","16","","","","100.63","","","","","","NA"
"2017-05-11 10:00","2017","05","11","10:00","13.1","","3.8","","53","","6","","21","","","","100.58","","","","","","NA"
"2017-05-11 11:00","2017","05","11","11:00","12.3","","4.3","","58","","9","","20","","","","100.52","","","","","","NA"
"2017-05-11 12:00","2017","05","11","12:00","13.9","","5.3","","56","","6","","19","","","","100.51","","","","","","NA"
"2017-05-11 13:00","2017","05","11","13:00","13.7","","3.8","","51","","3","","19","","","","100.48","","","","","","NA"
"2017-05-11 14:00","2017","05","11","14:00","14.8","","5.1","","52","","3","","20","","","","100.47","","","","","","NA"
"2017-05-11 15:00","2017","05","11","15:00","13.5","","4.2","","53","","1","","21","","","","100.49","","","","","","NA"
"2017-05-11 16:00","2017","05","11","16:00","13.3","","4.6","","55","","3","","20","","","","100.45","","","","","","NA"
"2017-05-11 17:00","2017","05","11","17:00","12.6","","4.9","","60","","4","","18","","","","100.44","","","","","","NA"
"2017-05-11 18:00","2017","05","11","18:00","12.1","","4.9","","62","","1","","14","","","","100.48","","","","","","NA"
"2017-05-11 19:00","2017","05","11","19:00","11.6","","4.8","","63","","3","","16","","","","100.51","","","","","","NA"
"2017-05-11 20:00","2017","05","11","20:00","10.3","","4.6","","68","","3","","9","","","","100.54","","","","","","NA"
"2017-05-11 21:00","2017","05","11","21:00","9.5","","4.5","","71","","4","","11","","","","100.55","","","","","","NA"
"2017-05-11 22:00","2017","05","11","22:00","9.2","","4.6","","73","","4","","16","","","","100.53","","","","","","NA"
"2017-05-11 23:00","2017","05","11","23:00","9.3","","4.8","","73","","4","","17","","","","100.47","","","","","","NA"
"2017-05-12 00:00","2017","05","12","00:00","9.0","","5.0","","76","","4","","17","","","","100.45","","","","","","NA"
"2017-05-12 01:00","2017","05","12","01:00","8.1","","5.0","","81","","4","","13","","","","100.44","","","","","","NA"
"2017-05-12 02:00","2017","05","12","02:00","7.5","","5.1","","85","","3","","10","","","","100.42","","","","","","NA"
"2017-05-12 03:00","2017","05","12","03:00","7.5","","5.4","","87","","3","","6","","","","100.42","","","","","","NA"
"2017-05-12 04:00","2017","05","12","04:00","7.4","","5.7","","89","","4","","5","","","","100.43","","","","","","NA"
"2017-05-12 05:00","2017","05","12","05:00","7.0","","5.4","","90","","3","","8","","","","100.47","","","","","","NA"
"2017-05-12 06:00","2017","05","12","06:00","8.4","","6.2","","86","","4","","6","","","","100.55","","","","","","NA"
"2017-05-12 07:00","2017","05","12","07:00","10.0","","6.7","","80","","4","","8","","","","100.54","","","","","","NA"
"2017-05-12 08:00","2017","05","12","08:00","11.9","","6.0","","67","","15","","5","","","","100.53","","","","","","NA"
"2017-05-12 09:00","2017","05","12","09:00","11.6","","6.3","","70","","15","","10","","","","100.54","","","","","","NA"
"2017-05-12 10:00","2017","05","12","10:00","10.8","","6.8","","76","","15","","14","","","","100.55","","","","","","NA"
"2017-05-12 11:00","2017","05","12","11:00","11.1","","6.8","","75","","17","","10","","","","100.53","","","","","","NA"
"2017-05-12 12:00","2017","05","12","12:00","12.3","","7.7","","74","","17","","7","","","","100.48","","","","","","NA"
"2017-05-12 13:00","2017","05","12","13:00","12.7","","7.3","","69","","15","","7","","","","100.39","","","","","","NA"
"2017-05-12 14:00","2017","05","12","14:00","14.7","","7.5","","62","","18","","9","","","","100.34","","","","","","NA"
"2017-05-12 15:00","2017","05","12","15:00","13.0","","7.1","","67","","16","","10","","","","100.29","","","","","","NA"
"2017-05-12 16:00","2017","05","12","16:00","15.0","","5.9","","54","","19","","10","","","","100.27","","","","","","NA"
"2017-05-12 17:00","2017","05","12","17:00","15.3","","5.0","","51","","19","","4","","","","100.24","","","","","","NA"
"2017-05-12 18:00","2017","05","12","18:00","15.7","","7.2","","57","","26","","3","","","","100.22","","","","","","NA"
"2017-05-12 19:00","2017","05","12","19:00","15.3","","7.7","","60","","","","0","","","","100.21","","","","","","NA"
"2017-05-12 20:00","2017","05","12","20:00","14.0","","7.6","","65","","34","","3","","","","100.19","","","","","","NA"
"2017-05-12 21:00","2017","05","12","21:00","14.5","","7.2","","61","","6","","3","","","","100.19","","","","","","NA"
"2017-05-12 22:00","2017","05","12","22:00","13.9","","7.8","","67","","11","","2","","","","100.19","","","","","","NA"
"2017-05-12 23:00","2017","05","12","23:00","12.7","","9.2","","80","","24","","5","","","","100.18","","","","","","NA"
"2017-05-13 00:00","2017","05","13","00:00","11.0","","8.2","","83","","26","","9","","","","100.20","","","","","","NA"
"2017-05-13 01:00","2017","05","13","01:00","11.1","","8.5","","84","","32","","7","","","","100.10","","","","","","NA"
"2017-05-13 02:00","2017","05","13","02:00","11.3","","7.9","","80","","26","","7","","","","100.07","","","","","","NA"
"2017-05-13 03:00","2017","05","13","03:00","11.3","","8.6","","83","","25","","9","","","","100.10","","","","","","NA"
"2017-05-13 04:00","2017","05","13","04:00","10.8","","8.9","","88","","33","","3","","","","100.10","","","","","","NA"
"2017-05-13 05:00","2017","05","13","05:00","10.5","","9.2","","92","","35","","7","","","","100.10","","","","","","NA"
"2017-05-13 06:00","2017","05","13","06:00","9.7","","8.1","","90","","14","","13","","","","100.13","","","","","","NA"
"2017-05-13 07:00","2017","05","13","07:00","9.9","","7.7","","87","","13","","8","","","","100.15","","","","","","NA"
"2017-05-13 08:00","2017","05","13","08:00","9.9","","8.4","","90","","15","","8","","","","100.17","","","","","","NA"
"2017-05-13 09:00","2017","05","13","09:00","9.6","","8.3","","92","","16","","11","","","","100.20","","","","","","NA"
"2017-05-13 10:00","2017","05","13","10:00","9.9","","8.5","","91","","14","","11","","","","100.18","","","","","","NA"
"2017-05-13 11:00","2017","05","13","11:00","9.9","","7.9","","87","","13","","8","","","","100.15","","","","","","NA"
"2017-05-13 12:00","2017","05","13","12:00","10.0","","7.4","","84","","15","","10","","","","100.11","","","","","","NA"
"2017-05-13 13:00","2017","05","13","13:00","10.2","","7.1","","81","","15","","7","","","","100.08","","","","","","NA"
"2017-05-13 14:00","2017","05","13","14:00","10.2","","7.2","","82","","17","","6","","","","100.05","","","","","","NA"
"2017-05-13 15:00","2017","05","13","15:00","10.5","","7.5","","82","","12","","12","","","","100.01","","","","","","NA"
"2017-05-13 16:00","2017","05","13","16:00","10.1","","7.5","","84","","11","","14","","","","99.97","","","","","","NA"
"2017-05-13 17:00","2017","05","13","17:00","11.0","","7.0","","77","","7","","6","","","","99.92","","","","","","NA"
"2017-05-13 18:00","2017","05","13","18:00","11.2","","6.8","","74","","","","0","","","","99.91","","","","","","NA"
"2017-05-13 19:00","2017","05","13","19:00","10.6","","7.0","","78","","9","","6","","","","99.89","","","","","","NA"
"2017-05-13 20:00","2017","05","13","20:00","10.0","","6.8","","81","","9","","3","","","","99.86","","","","","","NA"
"2017-05-13 21:00","2017","05","13","21:00","9.3","","7.2","","86","","1","","2","","","","99.84","","","","","","NA"
"2017-05-13 22:00","2017","05","13","22:00","8.3","","7.0","","91","","6","","2","","","","99.81","","","","","","NA"
"2017-05-13 23:00","2017","05","13","23:00","7.2","","6.4","","95","","7","","3","","","","99.78","","","","","","NA"
"2017-05-14 00:00","2017","05","14","00:00","7.2","","6.5","","95","","7","","3","","","","99.74","","","","","","NA"
"2017-05-14 01:00","2017","05","14","01:00","6.6","","6.0","","96","","4","","4","","","","99.69","","","","","","NA"
"2017-05-14 02:00","2017","05","14","02:00","5.9","","5.3","","96","","34","","4","","","","99.64","","","","","","NA"
"2017-05-14 03:00","2017","05","14","03:00","5.7","","5.2","","96","","36","","4","","","","99.59","","","","","","NA"
"2017-05-14 04:00","2017","05","14","04:00","5.0","","4.5","","97","","5","","3","","","","99.59","","","","","","NA"
"2017-05-14 05:00","2017","05","14","05:00","5.2","","4.7","","97","","4","","3","","","","99.56","","","","","","NA"
"2017-05-14 06:00","2017","05","14","06:00","7.2","","6.7","","96","","5","","5","","","","99.56","","","","","","NA"
"2017-05-14 07:00","2017","05","14","07:00","9.0","","8.4","","96","","18","","6","","","","99.53","","","","","","NA"
"2017-05-14 08:00","2017","05","14","08:00","9.7","","8.8","","94","","20","","8","","","","99.51","","","","","","NA"
"2017-05-14 09:00","2017","05","14","09:00","9.9","","8.2","","89","","20","","11","","","","99.50","","","","","","NA"
"2017-05-14 10:00","2017","05","14","10:00","9.6","","8.1","","91","","16","","9","","","","99.47","","","","","","NA"
"2017-05-14 11:00","2017","05","14","11:00","10.4","","8.5","","88","","17","","9","","","","99.47","","","","","","NA"
"2017-05-14 12:00","2017","05","14","12:00","11.0","","8.9","","87","","16","","14","","","","99.36","","","","","","NA"
"2017-05-14 13:00","2017","05","14","13:00","10.3","","8.7","","90","","20","","15","","","","99.33","","","","","","NA"
"2017-05-14 14:00","2017","05","14","14:00","11.7","","6.8","","72","","25","","17","","","","99.23","","","","","","NA"
"2017-05-14 15:00","2017","05","14","15:00","13.6","","7.6","","67","","31","","15","","","","99.25","","","","","","NA"
"2017-05-14 16:00","2017","05","14","16:00","12.2","","6.6","","69","","33","","23","","","","99.31","","","","","","NA"
"2017-05-14 17:00","2017","05","14","17:00","12.6","","6.4","","66","","35","","18","","","","99.33","","","","","","NA"
"2017-05-14 18:00","2017","05","14","18:00","13.3","","7.3","","67","","33","","14","","","","99.38","","","","","","NA"
"2017-05-14 19:00","2017","05","14","19:00","11.7","","6.3","","70","","35","","13","","","","99.44","","","","","","NA"
"2017-05-14 20:00","2017","05","14","20:00","11.5","","7.9","","78","","28","","8","","","","99.49","","","","","","NA"
"2017-05-14 21:00","2017","05","14","21:00","11.7","","7.1","","73","","31","","16","","","","99.57","","","","","","NA"
"2017-05-14 22:00","2017","05","14","22:00","11.8","","7.6","","75","","32","","19","","","","99.60","","","","","","NA"
"2017-05-14 23:00","2017","05","14","23:00","11.6","","7.1","","74","","34","","30","","","","99.66","","","","","","NA"
"2017-05-15 00:00","2017","05","15","00:00","10.8","","6.1","","73","","33","","27","","","","99.68","","","","","","NA"
"2017-05-15 01:00","2017","05","15","01:00","10.1","","5.5","","73","","33","","25","","","","99.72","","","","","","NA"
"2017-05-15 02:00","2017","05","15","02:00","9.8","","5.0","","72","","33","","27","","","","99.79","","","","","","NA"
"2017-05-15 03:00","2017","05","15","03:00","9.1","","4.8","","74","","33","","22","","","","99.82","","","","","","NA"
"2017-05-15 04:00","2017","05","15","04:00","8.8","","4.8","","76","","33","","24","","","","99.84","","","","","","NA"
"2017-05-15 05:00","2017","05","15","05:00","8.6","","4.6","","76","","34","","23","","","","99.91","","","","","","NA"
"2017-05-15 06:00","2017","05","15","06:00","9.0","","4.9","","76","","33","","24","","","","99.95","","","","","","NA"
"2017-05-15 07:00","2017","05","15","07:00","9.9","","5.1","","72","","33","","31","","","","99.99","","","","","","NA"
"2017-05-15 08:00","2017","05","15","08:00","10.9","","5.5","","69","","34","","29","","","","100.04","","","","","","NA"
"2017-05-15 09:00","2017","05","15","09:00","12.3","","5.8","","65","","33","","29","","","","100.05","","","","","","NA"
"2017-05-15 10:00","2017","05","15","10:00","13.7","","6.5","","62","","33","","28","","","","100.06","","","","","","NA"
"2017-05-15 11:00","2017","05","15","11:00","15.2","","6.8","","57","","34","","24","","","","100.08","","","","","","NA"
"2017-05-15 12:00","2017","05","15","12:00","16.1","","7.5","","56","","33","","27","","","","100.07","","","","","","NA"
"2017-05-15 13:00","2017","05","15","13:00","17.5","","7.5","","52","","33","","23","","","","100.05","","","","","","NA"
"2017-05-15 14:00","2017","05","15","14:00","18.7","","7.9","","49","","33","","21","","","","100.04","","","","","","NA"
"2017-05-15 15:00","2017","05","15","15:00","19.7","","7.2","","44","","31","","15","","","","100.02","","","","","","NA"
"2017-05-15 16:00","2017","05","15","16:00","20.0","","7.6","","45","","33","","21","","","","100.06","","","","","","NA"
"2017-05-15 17:00","2017","05","15","17:00","19.1","","6.6","","44","","34","","27","","","","100.08","","","","","","NA"
"2017-05-15 18:00","2017","05","15","18:00","18.2","","6.6","","46","","35","","18","","","","100.14","","","","","","NA"
"2017-05-15 19:00","2017","05","15","19:00","17.2","","6.2","","48","","33","","18","","","","100.17","","","","","","NA"
"2017-05-15 20:00","2017","05","15","20:00","14.7","","6.4","","57","","32","","10","","","","100.23","","","","","","NA"
"2017-05-15 21:00","2017","05","15","21:00","14.6","","5.9","","56","","31","","5","","","","100.31","","","","","","NA"
"2017-05-15 22:00","2017","05","15","22:00","12.6","","6.2","","65","","35","","5","","","","100.31","","","","","","NA"
"2017-05-15 23:00","2017","05","15","23:00","11.8","","6.7","","71","","36","","7","","","","100.30","","","","","","NA"
"2017-05-16 00:00","2017","05","16","00:00","10.3","","6.1","","76","","33","","3","","","","100.31","","","","","","NA"
"2017-05-16 01:00","2017","05","16","01:00","8.6","","6.1","","84","","27","","5","","","","100.33","","","","","","NA"
"2017-05-16 02:00","2017","05","16","02:00","8.4","","6.8","","90","","29","","7","","","","100.40","","","","","","NA"
"2017-05-16 03:00","2017","05","16","03:00","8.7","","6.2","","84","","31","","8","","","","100.44","","","","","","NA"
"2017-05-16 04:00","2017","05","16","04:00","7.1","","4.9","","86","","33","","8","","","","100.43","","","","","","NA"
"2017-05-16 05:00","2017","05","16","05:00","7.5","","5.3","","86","","11","","4","","","","100.46","","","","","","NA"
"2017-05-16 06:00","2017","05","16","06:00","10.2","","7.3","","82","","13","","5","","","","100.52","","","","","","NA"
"2017-05-16 07:00","2017","05","16","07:00","10.8","","8.2","","84","","17","","5","","","","100.54","","","","","","NA"
"2017-05-16 08:00","2017","05","16","08:00","12.1","","8.8","","80","","19","","8","","","","100.60","","","","","","NA"
"2017-05-16 09:00","2017","05","16","09:00","12.2","","8.6","","79","","16","","9","","","","100.61","","","","","","NA"
"2017-05-16 10:00","2017","05","16","10:00","12.6","","9.4","","80","","16","","12","","","","100.60","","","","","","NA"
"2017-05-16 11:00","2017","05","16","11:00","11.2","","8.2","","82","","16","","16","","","","100.62","","","","","","NA"
"2017-05-16 12:00","2017","05","16","12:00","12.1","","8.9","","81","","18","","15","","","","100.63","","","","","","NA"
"2017-05-16 13:00","2017","05","16","13:00","11.8","","8.1","","78","","18","","14","","","","100.57","","","","","","NA"
"2017-05-16 14:00","2017","05","16","14:00","13.0","","9.1","","77","","18","","12","","","","100.53","","","","","","NA"
"2017-05-16 15:00","2017","05","16","15:00","12.9","","8.5","","75","","18","","15","","","","100.45","","","","","","NA"
"2017-05-16 16:00","2017","05","16","16:00","15.0","","8.5","","65","","18","","17","","","","100.32","","","","","","NA"
"2017-05-16 17:00","2017","05","16","17:00","14.6","","8.2","","66","","20","","17","","","","100.29","","","","","","NA"
"2017-05-16 18:00","2017","05","16","18:00","12.7","","8.2","","74","","20","","11","","","","100.27","","","","","","NA"
"2017-05-16 19:00","2017","05","16","19:00","11.6","","7.5","","76","","16","","5","","","","100.25","","","","","","NA"
"2017-05-16 20:00","2017","05","16","20:00","12.3","","7.7","","73","","9","","3","","","","100.24","","","","","","NA"
"2017-05-16 21:00","2017","05","16","21:00","12.2","","8.0","","76","","13","","5","","","","100.25","","","","","","NA"
"2017-05-16 22:00","2017","05","16","22:00","12.4","","8.1","","75","","9","","8","","","","100.18","","","","","","NA"
"2017-05-16 23:00","2017","05","16","23:00","12.3","","7.8","","74","","8","","8","","","","100.11","","","","","","NA"
"2017-05-17 00:00","2017","05","17","00:00","12.3","","7.8","","74","","8","","8","","","","100.05","","","","","","NA"
"2017-05-17 01:00","2017","05","17","01:00","11.8","","7.7","","76","","8","","8","","","","99.94","","","","","","NA"
"2017-05-17 02:00","2017","05","17","02:00","14.8","","7.9","","63","","12","","9","","","","99.91","","","","","","NA"
"2017-05-17 03:00","2017","05","17","03:00","13.2","","7.9","","70","","16","","11","","","","99.86","","","","","","NA"
"2017-05-17 04:00","2017","05","17","04:00","13.4","","7.9","","69","","21","","14","","","","99.88","","","","","","NA"
"2017-05-17 05:00","2017","05","17","05:00","12.8","","8.0","","72","","21","","12","","","","99.93","","","","","","NA"
"2017-05-17 06:00","2017","05","17","06:00","13.1","","8.4","","73","","21","","19","","","","99.93","","","","","","NA"
"2017-05-17 07:00","2017","05","17","07:00","13.2","","8.6","","74","","19","","20","","","","99.95","","","","","","NA"
"2017-05-17 08:00","2017","05","17","08:00","13.7","","9.7","","77","","19","","19","","","","99.99","","","","","","NA"
"2017-05-17 09:00","2017","05","17","09:00","14.8","","10.9","","77","","19","","19","","","","99.96","","","","","","NA"
"2017-05-17 10:00","2017","05","17","10:00","22.3","","15.1","","64","","22","","24","","","","99.90","","26","","","","NA"
"2017-05-17 11:00","2017","05","17","11:00","23.1","","15.1","","61","","23","","27","","","","99.88","","27","","","","NA"
"2017-05-17 12:00","2017","05","17","12:00","20.1","","14.1","","69","","20","","19","","","","99.87","","","","","","NA"
"2017-05-17 13:00","2017","05","17","13:00","18.2","","12.6","","70","","19","","23","","","","99.86","","","","","","NA"
"2017-05-17 14:00","2017","05","17","14:00","17.2","","12.2","","72","","19","","23","","","","99.83","","","","","","NA"
"2017-05-17 15:00","2017","05","17","15:00","19.1","","13.7","","71","","19","","19","","","","99.81","","","","","","NA"
"2017-05-17 16:00","2017","05","17","16:00","24.5","","14.7","","55","","23","","31","","","","99.80","","28","","","","NA"
"2017-05-17 17:00","2017","05","17","17:00","20.3","","14.0","","67","","20","","18","","","","99.80","","","","","","NA"
"2017-05-17 18:00","2017","05","17","18:00","18.8","","12.8","","68","","17","","8","","","","99.81","","","","","","NA"
"2017-05-17 19:00","2017","05","17","19:00","20.9","","13.3","","62","","23","","16","","","","99.81","","","","","","NA"
"2017-05-17 20:00","2017","05","17","20:00","15.4","","11.7","","78","","19","","8","","","","99.81","","","","","","NA"
"2017-05-17 21:00","2017","05","17","21:00","18.9","","13.3","","70","","23","","13","","","","99.83","","","","","","NA"
"2017-05-17 22:00","2017","05","17","22:00","18.8","","13.2","","70","","23","","11","","","","99.82","","","","","","NA"
"2017-05-17 23:00","2017","05","17","23:00","13.8","","11.0","","83","","17","","10","","","","99.81","","","","","","NA"
"2017-05-18 00:00","2017","05","18","00:00","12.9","","9.7","","81","","16","","7","","","","99.82","","","","","","NA"
"2017-05-18 01:00","2017","05","18","01:00","13.3","","10.0","","81","","19","","6","","","","99.79","","","","","","NA"
"2017-05-18 02:00","2017","05","18","02:00","14.7","","12.1","","85","","20","","8","","","","99.81","","","","","","NA"
"2017-05-18 03:00","2017","05","18","03:00","13.8","","11.3","","85","","17","","10","","","","99.79","","","","","","NA"
"2017-05-18 04:00","2017","05","18","04:00","14.3","","11.7","","85","","17","","10","","","","99.79","","","","","","NA"
"2017-05-18 05:00","2017","05","18","05:00","14.7","","11.5","","81","","19","","8","","","","99.79","","","","","","NA"
"2017-05-18 06:00","2017","05","18","06:00","16.6","","12.2","","76","","19","","6","","","","99.81","","","","","","NA"
"2017-05-18 07:00","2017","05","18","07:00","16.5","","11.5","","72","","20","","16","","","","99.80","","","","","","NA"
"2017-05-18 08:00","2017","05","18","08:00","15.2","","10.6","","74","","16","","14","","","","99.77","","","","","","NA"
"2017-05-18 09:00","2017","05","18","09:00","15.0","","10.4","","74","","17","","16","","","","99.79","","","","","","NA"
"2017-05-18 10:00","2017","05","18","10:00","20.2","","14.6","","70","","21","","7","","","","99.74","","","","","","NA"
"2017-05-18 11:00","2017","05","18","11:00","17.7","","13.1","","74","","18","","15","","","","99.73","","","","","","NA"
"2017-05-18 12:00","2017","05","18","12:00","21.6","","15.2","","67","","19","","17","","","","99.71","","26","","","","NA"
"2017-05-18 13:00","2017","05","18","13:00","25.3","","15.8","","56","","23","","27","","","","99.64","","30","","","","NA"
"2017-05-18 14:00","2017","05","18","14:00","21.2","","14.8","","67","","19","","19","","","","99.58","","25","","","","NA"
"2017-05-18 15:00","2017","05","18","15:00","19.4","","13.8","","70","","19","","20","","","","99.50","","","","","","NA"
"2017-05-18 16:00","2017","05","18","16:00","26.3","","15.9","","53","","22","","26","","","","99.44","","31","","","","NA"
"2017-05-18 17:00","2017","05","18","17:00","25.5","","15.3","","53","","22","","22","","","","99.35","","30","","","","NA"
"2017-05-18 18:00","2017","05","18","18:00","20.1","","13.7","","66","","20","","10","","","","99.32","","","","","","NA"
"2017-05-18 19:00","2017","05","18","19:00","18.4","","12.6","","69","","19","","5","","","","99.45","","","","","","NA"
"2017-05-18 20:00","2017","05","18","20:00","21.2","","11.7","","55","","23","","22","","","","99.48","","","","","","NA"
"2017-05-18 21:00","2017","05","18","21:00","20.6","","13.4","","63","","25","","19","","","","99.48","","","","","","NA"
"2017-05-18 22:00","2017","05","18","22:00","21.3","","13.6","","61","","29","","16","","","","99.55","","","","","","NA"
"2017-05-18 23:00","2017","05","18","23:00","20.2","","13.2","","64","","29","","12","","","","99.62","","","","","","NA"
"2017-05-19 00:00","2017","05","19","00:00","18.8","","12.8","","68","","28","","9","","","","99.66","","","","","","NA"
"2017-05-19 01:00","2017","05","19","01:00","16.9","","12.7","","76","","24","","11","","","","99.74","","","","","","NA"
"2017-05-19 02:00","2017","05","19","02:00","15.6","","12.3","","81","","24","","13","","","","99.83","","","","","","NA"
"2017-05-19 03:00","2017","05","19","03:00","16.1","","12.7","","80","","24","","12","","","","99.88","","","","","","NA"
"2017-05-19 04:00","2017","05","19","04:00","15.2","","12.7","","86","","24","","10","","","","99.90","","","","","","NA"
"2017-05-19 05:00","2017","05","19","05:00","15.9","","13.0","","83","","24","","14","","","","99.94","","","","","","NA"
"2017-05-19 06:00","2017","05","19","06:00","13.9","","10.5","","80","","1","","20","","","","100.08","","","","","","NA"
"2017-05-19 07:00","2017","05","19","07:00","11.8","","7.5","","75","","1","","20","","","","100.24","","","","","","NA"
"2017-05-19 08:00","2017","05","19","08:00","10.6","","6.2","","74","","36","","26","","","","100.32","","","","","","NA"
"2017-05-19 09:00","2017","05","19","09:00","10.7","","6.2","","74","","1","","18","","","","100.42","","","","","","NA"
"2017-05-19 10:00","2017","05","19","10:00","11.4","","5.3","","67","","34","","24","","","","100.54","","","","","","NA"
"2017-05-19 11:00","2017","05","19","11:00","12.9","","5.8","","62","","34","","19","","","","100.55","","","","","","NA"
"2017-05-19 12:00","2017","05","19","12:00","13.2","","5.9","","61","","34","","11","","","","100.63","","","","","","NA"
"2017-05-19 13:00","2017","05","19","13:00","13.8","","5.3","","56","","36","","5","","","","100.71","","","","","","NA"
"2017-05-19 14:00","2017","05","19","14:00","12.6","","6.7","","67","","20","","8","","","","100.74","","","","","","NA"
"2017-05-19 15:00","2017","05","19","15:00","12.5","","7.9","","74","","20","","15","","","","100.81","","","","","","NA"
"2017-05-19 16:00","2017","05","19","16:00","13.2","","8.1","","71","","19","","20","","","","100.85","","","","","","NA"
"2017-05-19 17:00","2017","05","19","17:00","12.5","","8.6","","77","","19","","15","","","","100.85","","","","","","NA"
"2017-05-19 18:00","2017","05","19","18:00","12.8","","8.1","","73","","20","","9","","","","100.85","","","","","","NA"
"2017-05-19 19:00","2017","05","19","19:00","11.5","","8.8","","83","","21","","5","","","","100.96","","","","","","NA"
"2017-05-19 20:00","2017","05","19","20:00","10.7","","8.2","","85","","6","","2","","","","100.99","","","","","","NA"
"2017-05-19 21:00","2017","05","19","21:00","11.7","","-0.1","","44","","35","","15","","","","101.10","","","","","","NA"
"2017-05-19 22:00","2017","05","19","22:00","10.9","","-0.1","","47","","35","","14","","","","101.18","","","","","","NA"
"2017-05-19 23:00","2017","05","19","23:00","10.8","","-1.3","","43","","36","","17","","","","101.30","","","","","","NA"
"2017-05-20 00:00","2017","05","20","00:00","10.2","","-1.5","","44","","1","","19","","","","101.31","","","","","","NA"
"2017-05-20 01:00","2017","05","20","01:00","9.4","","-1.0","","48","","1","","22","","","","101.32","","","","","","NA"
"2017-05-20 02:00","2017","05","20","02:00","8.4","","-0.7","","53","","2","","21","","","","101.36","","","","","","NA"
"2017-05-20 03:00","2017","05","20","03:00","7.4","","-0.4","","58","","2","","17","","","","101.42","","","","","","NA"
"2017-05-20 04:00","2017","05","20","04:00","6.9","","-0.4","","60","","3","","16","","","","101.49","","","","","","NA"
"2017-05-20 05:00","2017","05","20","05:00","6.6","","-0.7","","60","","3","","15","","","","101.62","","","","","","NA"
"2017-05-20 06:00","2017","05","20","06:00","7.3","","-0.8","","57","","3","","22","","","","101.70","","","","","","NA"
"2017-05-20 07:00","2017","05","20","07:00","8.6","","0.1","","55","","4","","22","","","","101.73","","","","","","NA"
"2017-05-20 08:00","2017","05","20","08:00","9.7","","0.5","","53","","5","","27","","","","101.76","","","","","","NA"
"2017-05-20 09:00","2017","05","20","09:00","10.9","","0.5","","49","","6","","24","","","","101.75","","","","","","NA"
"2017-05-20 10:00","2017","05","20","10:00","12.6","","1.4","","47","","6","","19","","","","101.75","","","","","","NA"
"2017-05-20 11:00","2017","05","20","11:00","13.3","","1.3","","44","","5","","24","","","","101.72","","","","","","NA"
"2017-05-20 12:00","2017","05","20","12:00","14.7","","2.0","","42","","5","","20","","","","101.74","","","","","","NA"
"2017-05-20 13:00","2017","05","20","13:00","15.4","","1.8","","40","","4","","20","","","","101.71","","","","","","NA"
"2017-05-20 14:00","2017","05","20","14:00","16.8","","1.1","","35","","3","","21","","","","101.68","","","","","","NA"
"2017-05-20 15:00","2017","05","20","15:00","17.3","","0.9","","33","","4","","19","","","","101.63","","","","","","NA"
"2017-05-20 16:00","2017","05","20","16:00","17.5","","0.1","","31","","5","","16","","","","101.60","","","","","","NA"
"2017-05-20 17:00","2017","05","20","17:00","17.2","","-0.5","","30","","4","","16","","","","101.55","","","","","","NA"
"2017-05-20 18:00","2017","05","20","18:00","16.6","","-0.9","","30","","4","","15","","","","101.54","","","","","","NA"
"2017-05-20 19:00","2017","05","20","19:00","15.0","","-1.4","","32","","4","","14","","","","101.53","","","","","","NA"
"2017-05-20 20:00","2017","05","20","20:00","14.1","","-0.8","","36","","4","","15","","","","101.50","","","","","","NA"
"2017-05-20 21:00","2017","05","20","21:00","11.0","","0.4","","48","","5","","11","","","","101.52","","","","","","NA"
"2017-05-20 22:00","2017","05","20","22:00","11.9","","-1.1","","41","","6","","18","","","","101.44","","","","","","NA"
"2017-05-20 23:00","2017","05","20","23:00","12.3","","-1.1","","39","","5","","18","","","","101.39","","","","","","NA"
"2017-05-21 00:00","2017","05","21","00:00","11.9","","-0.5","","42","","5","","17","","","","101.40","","","","","","NA"
"2017-05-21 01:00","2017","05","21","01:00","11.6","","0.4","","46","","5","","15","","","","101.40","","","","","","NA"
"2017-05-21 02:00","2017","05","21","02:00","11.1","","1.3","","51","","5","","11","","","","101.37","","","","","","NA"
"2017-05-21 03:00","2017","05","21","03:00","10.8","","1.7","","53","","5","","10","","","","101.44","","","","","","NA"
"2017-05-21 04:00","2017","05","21","04:00","10.8","","1.9","","54","","5","","12","","","","101.40","","","","","","NA"
"2017-05-21 05:00","2017","05","21","05:00","10.9","","2.3","","55","","5","","13","","","","101.43","","","","","","NA"
"2017-05-21 06:00","2017","05","21","06:00","11.1","","2.6","","56","","6","","16","","","","101.40","","","","","","NA"
"2017-05-21 07:00","2017","05","21","07:00","11.7","","2.4","","53","","5","","15","","","","101.39","","","","","","NA"
"2017-05-21 08:00","2017","05","21","08:00","14.1","","3.8","","50","","7","","15","","","","101.36","","","","","","NA"
"2017-05-21 09:00","2017","05","21","09:00","15.1","","4.0","","48","","8","","17","","","","101.30","","","","","","NA"
"2017-05-21 10:00","2017","05","21","10:00","16.3","","5.4","","48","","9","","16","","","","101.25","","","","","","NA"
"2017-05-21 11:00","2017","05","21","11:00","17.3","","5.4","","45","","8","","19","","","","101.14","","","","","","NA"
"2017-05-21 12:00","2017","05","21","12:00","17.7","","5.8","","45","","9","","16","","","","101.10","","","","","","NA"
"2017-05-21 13:00","2017","05","21","13:00","18.3","","6.4","","46","","10","","20","","","","100.96","","","","","","NA"
"2017-05-21 14:00","2017","05","21","14:00","18.5","","7.7","","49","","9","","13","","","","100.91","","","","","","NA"
"2017-05-21 15:00","2017","05","21","15:00","18.2","","7.6","","50","","12","","10","","","","100.88","","","","","","NA"
"2017-05-21 16:00","2017","05","21","16:00","16.5","","9.4","","63","","11","","9","","","","100.81","","","","","","NA"
"2017-05-21 17:00","2017","05","21","17:00","17.0","","10.0","","63","","10","","12","","","","100.73","","","","","","NA"
"2017-05-21 18:00","2017","05","21","18:00","14.9","","11.1","","78","","10","","8","","","","100.75","","","","","","NA"
"2017-05-21 19:00","2017","05","21","19:00","14.5","","10.5","","77","","12","","13","","","","100.75","","","","","","NA"
"2017-05-21 20:00","2017","05","21","20:00","13.4","","10.7","","84","","13","","14","","","","100.70","","","","","","NA"
"2017-05-21 21:00","2017","05","21","21:00","11.8","","9.9","","88","","16","","19","","","","100.68","","","","","","NA"
"2017-05-21 22:00","2017","05","21","22:00","11.3","","9.9","","91","","16","","6","","","","100.66","","","","","","NA"
"2017-05-21 23:00","2017","05","21","23:00","11.3","","10.1","","92","","14","","19","","","","100.57","","","","","","NA"
"2017-05-22 00:00","2017","05","22","00:00","11.4","","10.1","","92","","15","","19","","","","100.51","","","","","","NA"
"2017-05-22 01:00","2017","05","22","01:00","11.3","","9.9","","91","","15","","17","","","","100.44","","","","","","NA"
"2017-05-22 02:00","2017","05","22","02:00","10.7","","9.6","","93","","16","","15","","","","100.42","","","","","","NA"
"2017-05-22 03:00","2017","05","22","03:00","10.8","","9.6","","92","","15","","15","","","","100.37","","","","","","NA"
"2017-05-22 04:00","2017","05","22","04:00","10.7","","9.0","","89","","16","","20","","","","100.31","","","","","","NA"
"2017-05-22 05:00","2017","05","22","05:00","10.7","","8.8","","88","","16","","21","","","","100.29","","","","","","NA"
"2017-05-22 06:00","2017","05","22","06:00","10.7","","9.0","","89","","16","","17","","","","100.31","","","","","","NA"
"2017-05-22 07:00","2017","05","22","07:00","10.5","","8.9","","90","","17","","16","","","","100.31","","","","","","NA"
"2017-05-22 08:00","2017","05","22","08:00","10.6","","9.1","","90","","16","","19","","","","100.30","","","","","","NA"
"2017-05-22 09:00","2017","05","22","09:00","11.3","","9.2","","87","","16","","20","","","","100.24","","","","","","NA"
"2017-05-22 10:00","2017","05","22","10:00","11.3","","9.1","","86","","15","","16","","","","100.18","","","","","","NA"
"2017-05-22 11:00","2017","05","22","11:00","11.1","","8.9","","86","","18","","14","","","","100.19","","","","","","NA"
"2017-05-22 12:00","2017","05","22","12:00","11.3","","9.2","","87","","16","","18","","","","100.13","","","","","","NA"
"2017-05-22 13:00","2017","05","22","13:00","11.4","","9.6","","88","","17","","20","","","","100.12","","","","","","NA"
"2017-05-22 14:00","2017","05","22","14:00","12.3","","10.5","","89","","19","","18","","","","100.08","","","","","","NA"
"2017-05-22 15:00","2017","05","22","15:00","12.9","","10.9","","88","","18","","18","","","","100.05","","","","","","NA"
"2017-05-22 16:00","2017","05","22","16:00","15.9","","9.4","","65","","24","","35","","","","100.03","","","","","","NA"
"2017-05-22 17:00","2017","05","22","17:00","15.2","","7.4","","59","","23","","32","","","","100.07","","","","","","NA"
"2017-05-22 18:00","2017","05","22","18:00","13.7","","7.8","","68","","24","","22","","","","100.12","","","","","","NA"
"2017-05-22 19:00","2017","05","22","19:00","13.5","","8.2","","70","","24","","20","","","","100.24","","","","","","NA"
"2017-05-22 20:00","2017","05","22","20:00","11.9","","7.9","","76","","23","","14","","","","100.31","","","","","","NA"
"2017-05-22 21:00","2017","05","22","21:00","12.5","","8.2","","75","","24","","14","","","","100.34","","","","","","NA"
"2017-05-22 22:00","2017","05","22","22:00","12.4","","7.6","","73","","24","","16","","","","100.33","","","","","","NA"
"2017-05-22 23:00","2017","05","22","23:00","10.4","","7.4","","82","","22","","10","","","","100.33","","","","","","NA"
"2017-05-23 00:00","2017","05","23","00:00","8.8","","6.9","","88","","19","","10","","","","100.34","","","","","","NA"
"2017-05-23 01:00","2017","05","23","01:00","8.4","","6.9","","90","","20","","13","","","","100.29","","","","","","NA"
"2017-05-23 02:00","2017","05","23","02:00","7.8","","6.2","","90","","22","","9","","","","100.25","","","","","","NA"
"2017-05-23 03:00","2017","05","23","03:00","8.4","","6.6","","88","","24","","6","","","","100.24","","","","","","NA"
"2017-05-23 04:00","2017","05","23","04:00","7.9","","6.5","","91","","19","","5","","","","100.23","","","","","","NA"
"2017-05-23 05:00","2017","05","23","05:00","8.3","","6.7","","90","","19","","7","","","","100.23","","","","","","NA"
"2017-05-23 06:00","2017","05","23","06:00","9.6","","7.1","","85","","17","","5","","","","100.24","","","","","","NA"
"2017-05-23 07:00","2017","05","23","07:00","10.0","","7.6","","85","","16","","11","","","","100.21","","","","","","NA"
"2017-05-23 08:00","2017","05","23","08:00","10.7","","7.6","","82","","16","","14","","","","100.20","","","","","","NA"
"2017-05-23 09:00","2017","05","23","09:00","11.3","","8.1","","81","","18","","16","","","","100.16","","","","","","NA"
"2017-05-23 10:00","2017","05","23","10:00","11.1","","8.0","","82","","17","","18","","","","100.16","","","","","","NA"
"2017-05-23 11:00","2017","05","23","11:00","11.9","","8.9","","82","","17","","13","","","","100.16","","","","","","NA"
"2017-05-23 12:00","2017","05","23","12:00","12.3","","8.6","","78","","18","","13","","","","100.07","","","","","","NA"
"2017-05-23 13:00","2017","05","23","13:00","13.3","","8.7","","74","","17","","16","","","","99.98","","","","","","NA"
"2017-05-23 14:00","2017","05","23","14:00","13.2","","9.1","","76","","17","","11","","","","99.94","","","","","","NA"
"2017-05-23 15:00","2017","05","23","15:00","14.9","","9.3","","69","","17","","13","","","","99.88","","","","","","NA"
"2017-05-23 16:00","2017","05","23","16:00","14.9","","8.6","","66","","16","","15","","","","99.84","","","","","","NA"
"2017-05-23 17:00","2017","05","23","17:00","13.9","","8.2","","68","","19","","8","","","","99.81","","","","","","NA"
"2017-05-23 18:00","2017","05","23","18:00","14.5","","8.4","","67","","19","","11","","","","99.79","","","","","","NA"
"2017-05-23 19:00","2017","05","23","19:00","14.7","","9.6","","71","","17","","2","","","","99.78","","","","","","NA"
"2017-05-23 20:00","2017","05","23","20:00","13.7","","9.0","","73","","19","","4","","","","99.74","","","","","","NA"
"2017-05-23 21:00","2017","05","23","21:00","12.4","","9.0","","80","","","","0","","","","99.76","","","","","","NA"
"2017-05-23 22:00","2017","05","23","22:00","11.5","","9.3","","87","","32","","5","","","","99.74","","","","","","NA"
"2017-05-23 23:00","2017","05","23","23:00","11.0","","8.8","","87","","","","0","","","","99.71","","","","","","NA"
"2017-05-24 00:00","2017","05","24","00:00","10.9","","8.9","","88","","8","","3","","","","99.65","","","","","","NA"
"2017-05-24 01:00","2017","05","24","01:00","11.3","","9.4","","88","","15","","7","","","","99.62","","","","","","NA"
"2017-05-24 02:00","2017","05","24","02:00","9.5","","7.9","","90","","35","","6","","","","99.59","","","","","","NA"
"2017-05-24 03:00","2017","05","24","03:00","10.4","","8.8","","90","","2","","4","","","","99.56","","","","","","NA"
"2017-05-24 04:00","2017","05","24","04:00","9.6","","8.6","","93","","35","","6","","","","99.59","","","","","","NA"
"2017-05-24 05:00","2017","05","24","05:00","10.8","","9.6","","92","","","","0","","","","99.61","","","","","","NA"
"2017-05-24 06:00","2017","05","24","06:00","12.1","","10.9","","92","","3","","4","","","","99.60","","","","","","NA"
"2017-05-24 07:00","2017","05","24","07:00","13.7","","11.9","","89","","35","","5","","","","99.62","","","","","","NA"
"2017-05-24 08:00","2017","05","24","08:00","15.9","","11.6","","75","","7","","4","","","","99.61","","","","","","NA"
"2017-05-24 09:00","2017","05","24","09:00","16.7","","11.3","","71","","6","","7","","","","99.63","","","","","","NA"
"2017-05-24 10:00","2017","05","24","10:00","18.3","","11.9","","66","","8","","8","","","","99.61","","","","","","NA"
"2017-05-24 11:00","2017","05","24","11:00","20.6","","11.5","","56","","10","","9","","","","99.56","","","","","","NA"
"2017-05-24 12:00","2017","05","24","12:00","20.6","","12.9","","61","","15","","8","","","","99.54","","","","","","NA"
"2017-05-24 13:00","2017","05","24","13:00","22.1","","10.2","","47","","18","","7","","","","99.51","","","","","","NA"
"2017-05-24 14:00","2017","05","24","14:00","21.7","","10.9","","50","","18","","8","","","","99.47","","","","","","NA"
"2017-05-24 15:00","2017","05","24","15:00","22.7","","9.3","","42","","19","","8","","","","99.46","","","","","","NA"
"2017-05-24 16:00","2017","05","24","16:00","22.7","","10.5","","46","","15","","7","","","","99.45","","","","","","NA"
"2017-05-24 17:00","2017","05","24","17:00","23.8","","10.3","","42","","10","","10","","","","99.42","","25","","","","NA"
"2017-05-24 18:00","2017","05","24","18:00","21.6","","9.3","","45","","9","","13","","","","99.47","","","","","","NA"
"2017-05-24 19:00","2017","05","24","19:00","20.3","","9.5","","50","","7","","14","","","","99.47","","","","","","NA"
"2017-05-24 20:00","2017","05","24","20:00","19.4","","9.5","","53","","7","","15","","","","99.48","","","","","","NA"
"2017-05-24 21:00","2017","05","24","21:00","18.6","","9.5","","55","","6","","15","","","","99.53","","","","","","NA"
"2017-05-24 22:00","2017","05","24","22:00","18.4","","9.7","","57","","7","","16","","","","99.51","","","","","","NA"
"2017-05-24 23:00","2017","05","24","23:00","18.3","","10.3","","60","","8","","15","","","","99.55","","","","","","NA"
"2017-05-25 00:00","2017","05","25","00:00","17.8","","10.1","","61","","9","","15","","","","99.51","","","","","","NA"
"2017-05-25 01:00","2017","05","25","01:00","16.7","","10.2","","66","","9","","11","","","","99.48","","","","","","NA"
"2017-05-25 02:00","2017","05","25","02:00","17.1","","10.0","","63","","10","","11","","","","99.47","","","","","","NA"
"2017-05-25 03:00","2017","05","25","03:00","16.6","","10.0","","65","","9","","10","","","","99.49","","","","","","NA"
"2017-05-25 04:00","2017","05","25","04:00","16.1","","10.0","","67","","8","","10","","","","99.48","","","","","","NA"
"2017-05-25 05:00","2017","05","25","05:00","15.0","","10.4","","74","","6","","9","","","","99.52","","","","","","NA"
"2017-05-25 06:00","2017","05","25","06:00","15.6","","10.4","","71","","6","","10","","","","99.50","","","","","","NA"
"2017-05-25 07:00","2017","05","25","07:00","16.1","","9.9","","67","","8","","11","","","","99.50","","","","","","NA"
"2017-05-25 08:00","2017","05","25","08:00","16.2","","9.4","","64","","7","","15","","","","99.44","","","","","","NA"
"2017-05-25 09:00","2017","05","25","09:00","16.8","","9.6","","62","","7","","13","","","","99.41","","","","","","NA"
"2017-05-25 10:00","2017","05","25","10:00","16.7","","9.6","","63","","8","","23","","","","99.34","","","","","","NA"
"2017-05-25 11:00","2017","05","25","11:00","15.3","","10.5","","73","","7","","23","","","","99.27","","","","","","NA"
"2017-05-25 12:00","2017","05","25","12:00","14.4","","11.6","","83","","7","","18","","","","99.26","","","","","","NA"
"2017-05-25 13:00","2017","05","25","13:00","12.9","","10.9","","88","","7","","28","","","","99.19","","","","","","NA"
"2017-05-25 14:00","2017","05","25","14:00","12.9","","11.4","","91","","5","","22","","","","99.16","","","","","","NA"
"2017-05-25 15:00","2017","05","25","15:00","12.6","","11.5","","93","","4","","21","","","","99.17","","","","","","NA"
"2017-05-25 16:00","2017","05","25","16:00","13.0","","11.8","","93","","4","","22","","","","99.08","","","","","","NA"
"2017-05-25 17:00","2017","05","25","17:00","13.1","","12.0","","93","","5","","20","","","","99.03","","","","","","NA"
"2017-05-25 18:00","2017","05","25","18:00","13.0","","11.8","","93","","5","","24","","","","99.02","","","","","","NA"
"2017-05-25 19:00","2017","05","25","19:00","13.0","","11.9","","93","","6","","21","","","","99.04","","","","","","NA"
"2017-05-25 20:00","2017","05","25","20:00","12.9","","11.8","","93","","5","","16","","","","99.02","","","","","","NA"
"2017-05-25 21:00","2017","05","25","21:00","12.8","","11.8","","94","","6","","16","","","","99.05","","","","","","NA"
"2017-05-25 22:00","2017","05","25","22:00","12.9","","11.8","","93","","5","","17","","","","98.99","","","","","","NA"
"2017-05-25 23:00","2017","05","25","23:00","12.9","","11.8","","93","","5","","19","","","","99.00","","","","","","NA"
"2017-05-26 00:00","2017","05","26","00:00","12.9","","11.8","","93","","5","","16","","","","99.01","","","","","","NA"
"2017-05-26 01:00","2017","05","26","01:00","12.8","","11.7","","93","","5","","14","","","","99.00","","","","","","NA"
"2017-05-26 02:00","2017","05","26","02:00","12.5","","11.5","","94","","5","","13","","","","98.99","","","","","","NA"
"2017-05-26 03:00","2017","05","26","03:00","12.6","","11.4","","93","","2","","7","","","","98.97","","","","","","NA"
"2017-05-26 04:00","2017","05","26","04:00","12.6","","11.4","","92","","2","","7","","","","99.02","","","","","","NA"
"2017-05-26 05:00","2017","05","26","05:00","12.3","","11.2","","93","","4","","11","","","","99.07","","","","","","NA"
"2017-05-26 06:00","2017","05","26","06:00","12.5","","11.4","","93","","2","","7","","","","99.12","","","","","","NA"
"2017-05-26 07:00","2017","05","26","07:00","13.2","","11.5","","90","","2","","7","","","","99.18","","","","","","NA"
"2017-05-26 08:00","2017","05","26","08:00","13.7","","11.7","","87","","34","","11","","","","99.21","","","","","","NA"
"2017-05-26 09:00","2017","05","26","09:00","15.1","","12.7","","85","","35","","11","","","","99.24","","","","","","NA"
"2017-05-26 10:00","2017","05","26","10:00","15.8","","12.4","","80","","35","","20","","","","99.26","","","","","","NA"
"2017-05-26 11:00","2017","05","26","11:00","16.6","","11.5","","72","","1","","16","","","","99.32","","","","","","NA"
"2017-05-26 12:00","2017","05","26","12:00","15.3","","11.2","","77","","3","","14","","","","99.38","","","","","","NA"
"2017-05-26 13:00","2017","05","26","13:00","15.6","","11.5","","76","","2","","14","","","","99.44","","","","","","NA"
"2017-05-26 14:00","2017","05","26","14:00","16.3","","11.7","","74","","36","","10","","","","99.51","","","","","","NA"
"2017-05-26 15:00","2017","05","26","15:00","16.9","","11.5","","70","","6","","5","","","","99.54","","","","","","NA"
"2017-05-26 16:00","2017","05","26","16:00","14.6","","12.1","","85","","21","","13","","","","99.59","","","","","","NA"
"2017-05-26 17:00","2017","05","26","17:00","13.9","","12.6","","92","","20","","10","","","","99.67","","","","","","NA"
"2017-05-26 18:00","2017","05","26","18:00","13.7","","12.6","","93","","18","","7","","","","99.73","","","","","","NA"
"2017-05-26 19:00","2017","05","26","19:00","13.4","","12.0","","92","","17","","7","","","","99.81","","","","","","NA"
"2017-05-26 20:00","2017","05","26","20:00","12.8","","11.8","","94","","19","","7","","","","99.87","","","","","","NA"
"2017-05-26 21:00","2017","05","26","21:00","12.8","","11.7","","93","","14","","3","","","","99.93","","","","","","NA"
"2017-05-26 22:00","2017","05","26","22:00","12.6","","11.5","","93","","14","","6","","","","99.96","","","","","","NA"
"2017-05-26 23:00","2017","05","26","23:00","12.6","","11.5","","93","","14","","4","","","","99.99","","","","","","NA"
"2017-05-27 00:00","2017","05","27","00:00","12.4","","11.4","","93","","5","","4","","","","100.00","","","","","","NA"
"2017-05-27 01:00","2017","05","27","01:00","12.5","","10.9","","90","","19","","3","","","","99.99","","","","","","NA"
"2017-05-27 02:00","2017","05","27","02:00","12.1","","10.9","","92","","5","","5","","","","100.00","","","","","","NA"
"2017-05-27 03:00","2017","05","27","03:00","12.2","","11.1","","93","","8","","2","","","","100.05","","","","","","NA"
"2017-05-27 04:00","2017","05","27","04:00","11.7","","10.7","","93","","8","","3","","","","100.03","","","","","","NA"
"2017-05-27 05:00","2017","05","27","05:00","11.0","","10.1","","94","","2","","3","","","","100.09","","","","","","NA"
"2017-05-27 06:00","2017","05","27","06:00","12.9","","10.9","","88","","5","","7","","","","100.13","","","","","","NA"
"2017-05-27 07:00","2017","05","27","07:00","12.5","","10.3","","86","","5","","8","","","","100.17","","","","","","NA"
"2017-05-27 08:00","2017","05","27","08:00","14.8","","10.7","","77","","7","","9","","","","100.16","","","","","","NA"
"2017-05-27 09:00","2017","05","27","09:00","16.5","","9.9","","65","","12","","11","","","","100.16","","","","","","NA"
"2017-05-27 10:00","2017","05","27","10:00","16.7","","9.7","","63","","13","","11","","","","100.16","","","","","","NA"
"2017-05-27 11:00","2017","05","27","11:00","17.3","","9.1","","58","","17","","9","","","","100.16","","","","","","NA"
"2017-05-27 12:00","2017","05","27","12:00","17.6","","11.0","","65","","19","","11","","","","100.16","","","","","","NA"
"2017-05-27 13:00","2017","05","27","13:00","17.7","","10.3","","62","","20","","13","","","","100.16","","","","","","NA"
"2017-05-27 14:00","2017","05","27","14:00","18.5","","10.3","","59","","19","","15","","","","100.12","","","","","","NA"
"2017-05-27 15:00","2017","05","27","15:00","18.4","","10.3","","59","","19","","14","","","","100.08","","","","","","NA"
"2017-05-27 16:00","2017","05","27","16:00","18.9","","9.7","","55","","20","","11","","","","100.09","","","","","","NA"
"2017-05-27 17:00","2017","05","27","17:00","19.0","","10.2","","56","","23","","10","","","","100.09","","","","","","NA"
"2017-05-27 18:00","2017","05","27","18:00","18.0","","10.5","","61","","22","","10","","","","100.11","","","","","","NA"
"2017-05-27 19:00","2017","05","27","19:00","16.9","","9.8","","63","","24","","10","","","","100.15","","","","","","NA"
"2017-05-27 20:00","2017","05","27","20:00","14.0","","9.5","","74","","24","","9","","","","100.17","","","","","","NA"
"2017-05-27 21:00","2017","05","27","21:00","13.3","","10.2","","82","","19","","2","","","","100.17","","","","","","NA"
"2017-05-27 22:00","2017","05","27","22:00","11.6","","10.1","","90","","","","0","","","","100.13","","","","","","NA"
"2017-05-27 23:00","2017","05","27","23:00","10.9","","9.4","","90","","12","","3","","","","100.11","","","","","","NA"
"2017-05-28 00:00","2017","05","28","00:00","11.3","","10.2","","93","","14","","6","","","","100.16","","","","","","NA"
"2017-05-28 01:00","2017","05","28","01:00","10.3","","9.4","","94","","10","","7","","","","100.08","","","","","","NA"
"2017-05-28 02:00","2017","05","28","02:00","10.3","","9.4","","94","","13","","4","","","","100.07","","","","","","NA"
"2017-05-28 03:00","2017","05","28","03:00","9.9","","9.1","","95","","24","","1","","","","100.15","","","","","","NA"
"2017-05-28 04:00","2017","05","28","04:00","9.0","","8.3","","95","","2","","3","","","","100.14","","","","","","NA"
"2017-05-28 05:00","2017","05","28","05:00","8.3","","7.7","","96","","7","","6","","","","100.12","","","","","","NA"
"2017-05-28 06:00","2017","05","28","06:00","11.7","","10.9","","95","","14","","7","","","","100.17","","","","","","NA"
"2017-05-28 07:00","2017","05","28","07:00","11.8","","10.8","","94","","15","","9","","","","100.12","","","","","","NA"
"2017-05-28 08:00","2017","05","28","08:00","13.3","","12.1","","92","","17","","4","","","","100.12","","","","","","NA"
"2017-05-28 09:00","2017","05","28","09:00","15.2","","11.3","","77","","15","","6","","","","100.08","","","","","","NA"
"2017-05-28 10:00","2017","05","28","10:00","17.5","","12.4","","72","","11","","4","","","","100.06","","","","","","NA"
"2017-05-28 11:00","2017","05","28","11:00","17.0","","12.2","","73","","16","","9","","","","100.06","","","","","","NA"
"2017-05-28 12:00","2017","05","28","12:00","19.6","","12.3","","63","","18","","7","","","","100.08","","","","","","NA"
"2017-05-28 13:00","2017","05","28","13:00","19.6","","11.7","","61","","17","","8","","","","100.00","","","","","","NA"
"2017-05-28 14:00","2017","05","28","14:00","20.3","","12.9","","62","","15","","9","","","","99.93","","","","","","NA"
"2017-05-28 15:00","2017","05","28","15:00","21.1","","13.0","","60","","15","","7","","","","99.83","","","","","","NA"
"2017-05-28 16:00","2017","05","28","16:00","21.9","","13.5","","59","","16","","8","","","","99.78","","25","","","","NA"
"2017-05-28 17:00","2017","05","28","17:00","22.4","","14.6","","61","","14","","8","","","","99.71","","26","","","","NA"
"2017-05-28 18:00","2017","05","28","18:00","21.9","","14.2","","62","","13","","12","","","","99.69","","25","","","","NA"
"2017-05-28 19:00","2017","05","28","19:00","21.6","","13.7","","61","","12","","11","","","","99.68","","25","","","","NA"
"2017-05-28 20:00","2017","05","28","20:00","21.4","","13.6","","61","","12","","13","","","","99.66","","25","","","","NA"
"2017-05-28 21:00","2017","05","28","21:00","20.7","","13.3","","63","","13","","20","","","","99.64","","","","","","NA"
"2017-05-28 22:00","2017","05","28","22:00","20.0","","13.3","","65","","13","","23","","","","99.64","","","","","","NA"
"2017-05-28 23:00","2017","05","28","23:00","18.1","","13.4","","74","","14","","20","","","","99.61","","","","","","NA"
"2017-05-29 00:00","2017","05","29","00:00","18.5","","13.1","","71","","13","","22","","","","99.56","","","","","","NA"
"2017-05-29 01:00","2017","05","29","01:00","17.9","","13.1","","73","","14","","18","","","","99.55","","","","","","NA"
"2017-05-29 02:00","2017","05","29","02:00","17.5","","13.0","","75","","14","","20","","","","99.51","","","","","","NA"
"2017-05-29 03:00","2017","05","29","03:00","16.7","","12.7","","77","","14","","19","","","","99.52","","","","","","NA"
"2017-05-29 04:00","2017","05","29","04:00","14.9","","12.3","","84","","15","","20","","","","99.53","","","","","","NA"
"2017-05-29 05:00","2017","05","29","05:00","14.4","","12.7","","89","","14","","27","","","","99.55","","","","","","NA"
"2017-05-29 06:00","2017","05","29","06:00","14.4","","12.1","","87","","15","","25","","","","99.58","","","","","","NA"
"2017-05-29 07:00","2017","05","29","07:00","13.7","","11.9","","89","","15","","28","","","","99.63","","","","","","NA"
"2017-05-29 08:00","2017","05","29","08:00","13.3","","11.3","","88","","15","","28","","","","99.66","","","","","","NA"
"2017-05-29 09:00","2017","05","29","09:00","12.6","","11.5","","93","","15","","33","","","","99.65","","","","","","NA"
"2017-05-29 10:00","2017","05","29","10:00","12.3","","11.1","","92","","17","","30","","","","99.66","","","","","","NA"
"2017-05-29 11:00","2017","05","29","11:00","12.2","","11.0","","93","","17","","27","","","","99.72","","","","","","NA"
"2017-05-29 12:00","2017","05","29","12:00","12.4","","11.2","","92","","17","","19","","","","99.81","","","","","","NA"
"2017-05-29 13:00","2017","05","29","13:00","12.9","","11.6","","92","","18","","20","","","","99.86","","","","","","NA"
"2017-05-29 14:00","2017","05","29","14:00","13.3","","11.6","","90","","18","","17","","","","99.88","","","","","","NA"
"2017-05-29 15:00","2017","05","29","15:00","14.4","","12.1","","86","","17","","19","","","","99.89","","","","","","NA"
"2017-05-29 16:00","2017","05","29","16:00","14.9","","12.6","","86","","17","","16","","","","99.92","","","","","","NA"
"2017-05-29 17:00","2017","05","29","17:00","14.1","","11.9","","86","","16","","14","","","","99.95","","","","","","NA"
"2017-05-29 18:00","2017","05","29","18:00","15.0","","12.5","","85","","14","","9","","","","99.99","","","","","","NA"
"2017-05-29 19:00","2017","05","29","19:00","14.5","","12.5","","88","","15","","12","","","","100.00","","","","","","NA"
"2017-05-29 20:00","2017","05","29","20:00","13.7","","12.0","","90","","16","","11","","","","100.06","","","","","","NA"
"2017-05-29 21:00","2017","05","29","21:00","13.5","","11.9","","90","","15","","6","","","","100.09","","","","","","NA"
"2017-05-29 22:00","2017","05","29","22:00","13.6","","12.0","","90","","16","","16","","","","100.08","","","","","","NA"
"2017-05-29 23:00","2017","05","29","23:00","13.9","","12.3","","90","","19","","25","","","","100.16","","","","","","NA"
"2017-05-30 00:00","2017","05","30","00:00","13.3","","11.7","","90","","17","","23","","","","100.11","","","","","","NA"
"2017-05-30 01:00","2017","05","30","01:00","12.7","","11.4","","92","","17","","30","","","","100.13","","","","","","NA"
"2017-05-30 02:00","2017","05","30","02:00","12.3","","11.1","","92","","17","","20","","","","100.11","","","","","","NA"
"2017-05-30 03:00","2017","05","30","03:00","12.4","","11.1","","92","","16","","18","","","","100.12","","","","","","NA"
"2017-05-30 04:00","2017","05","30","04:00","12.8","","11.3","","90","","18","","25","","","","100.22","","","","","","NA"
"2017-05-30 05:00","2017","05","30","05:00","13.0","","11.6","","91","","16","","23","","","","100.18","","","","","","NA"
"2017-05-30 06:00","2017","05","30","06:00","13.0","","11.5","","91","","17","","18","","","","100.28","","","","","","NA"
"2017-05-30 07:00","2017","05","30","07:00","13.5","","11.8","","90","","16","","21","","","","100.26","","","","","","NA"
"2017-05-30 08:00","2017","05","30","08:00","13.2","","11.6","","90","","18","","22","","","","100.37","","","","","","NA"
"2017-05-30 09:00","2017","05","30","09:00","13.0","","11.7","","92","","16","","19","","","","100.34","","","","","","NA"
"2017-05-30 10:00","2017","05","30","10:00","13.1","","12.1","","94","","19","","20","","","","100.39","","","","","","NA"
"2017-05-30 11:00","2017","05","30","11:00","13.4","","12.4","","94","","15","","16","","","","100.30","","","","","","NA"
"2017-05-30 12:00","2017","05","30","12:00","14.9","","13.4","","91","","19","","11","","","","100.31","","","","","","NA"
"2017-05-30 13:00","2017","05","30","13:00","16.1","","14.3","","89","","18","","13","","","","100.22","","","","","","NA"
"2017-05-30 14:00","2017","05","30","14:00","16.9","","15.1","","89","","16","","13","","","","100.09","","","","","","NA"
"2017-05-30 15:00","2017","05","30","15:00","17.1","","14.8","","86","","15","","16","","","","100.12","","","","","","NA"
"2017-05-30 16:00","2017","05","30","16:00","17.3","","14.3","","82","","17","","13","","","","100.12","","","","","","NA"
"2017-05-30 17:00","2017","05","30","17:00","15.5","","12.6","","83","","18","","13","","","","100.12","","","","","","NA"
"2017-05-30 18:00","2017","05","30","18:00","16.0","","11.6","","75","","29","","17","","","","100.21","","","","","","NA"
"2017-05-30 19:00","2017","05","30","19:00","15.5","","11.1","","75","","36","","2","","","","100.18","","","","","","NA"
"2017-05-30 20:00","2017","05","30","20:00","14.8","","11.1","","78","","12","","12","","","","100.15","","","","","","NA"
"2017-05-30 21:00","2017","05","30","21:00","14.6","","12.5","","87","","15","","13","","","","100.19","","","","","","NA"
"2017-05-30 22:00","2017","05","30","22:00","14.2","","12.8","","91","","15","","8","","","","100.16","","","","","","NA"
"2017-05-30 23:00","2017","05","30","23:00","13.0","","11.8","","92","","20","","7","","","","100.18","","","","","","NA"
"2017-05-31 00:00","2017","05","31","00:00","13.2","","12.0","","92","","20","","17","","","","100.12","","","","","","NA"
"2017-05-31 01:00","2017","05","31","01:00","13.0","","11.7","","92","","20","","14","","","","100.11","","","","","","NA"
"2017-05-31 02:00","2017","05","31","02:00","13.9","","11.2","","83","","28","","10","","","","100.17","","","","","","NA"
"2017-05-31 03:00","2017","05","31","03:00","13.0","","11.0","","88","","16","","9","","","","100.14","","","","","","NA"
"2017-05-31 04:00","2017","05","31","04:00","11.4","","10.1","","92","","2","","4","","","","100.15","","","","","","NA"
"2017-05-31 05:00","2017","05","31","05:00","12.3","","11.2","","93","","15","","11","","","","100.18","","","","","","NA"
"2017-05-31 06:00","2017","05","31","06:00","12.8","","11.4","","91","","19","","14","","","","100.19","","","","","","NA"
"2017-05-31 07:00","2017","05","31","07:00","14.4","","11.2","","81","","19","","13","","","","100.22","","","","","","NA"
"2017-05-31 08:00","2017","05","31","08:00","14.7","","11.1","","79","","19","","17","","","","100.20","","","","","","NA"
"2017-05-31 09:00","2017","05","31","09:00","14.1","","10.9","","81","","19","","13","","","","100.21","","","","","","NA"
"2017-05-31 10:00","2017","05","31","10:00","16.4","","12.1","","76","","19","","13","","","","100.18","","","","","","NA"
"2017-05-31 11:00","2017","05","31","11:00","15.7","","11.8","","77","","19","","16","","","","100.16","","","","","","NA"
"2017-05-31 12:00","2017","05","31","12:00","16.3","","11.5","","73","","18","","20","","","","100.08","","","","","","NA"
"2017-05-31 13:00","2017","05","31","13:00","16.3","","10.7","","69","","19","","19","","","","100.02","","","","","","NA"
"2017-05-31 14:00","2017","05","31","14:00","17.5","","10.4","","63","","19","","20","","","","99.94","","","","","","NA"
"2017-05-31 15:00","2017","05","31","15:00","16.7","","10.6","","67","","18","","15","","","","99.92","","","","","","NA"
"2017-05-31 16:00","2017","05","31","16:00","16.1","","10.6","","70","","19","","15","","","","99.91","","","","","","NA"
"2017-05-31 17:00","2017","05","31","17:00","15.2","","10.5","","73","","19","","15","","","","99.87","","","","","","NA"
"2017-05-31 18:00","2017","05","31","18:00","14.8","","10.2","","74","","18","","17","","","","99.84","","","","","","NA"
"2017-05-31 19:00","2017","05","31","19:00","14.4","","9.7","","74","","20","","16","","","","99.86","","","","","","NA"
"2017-05-31 20:00","2017","05","31","20:00","14.6","","9.7","","72","","22","","8","","","","99.88","","","","","","NA"
"2017-05-31 21:00","2017","05","31","21:00","14.4","","10.2","","76","","23","","14","","","","99.95","","","","","","NA"
"2017-05-31 22:00","2017","05","31","22:00","14.6","","10.8","","78","","25","","11","","","","99.97","","","","","","NA"
"2017-05-31 23:00","2017","05","31","23:00","14.0","","9.5","","74","","29","","10","","","","100.00","","","","","","NA"
