"Station Name","KINGSTON CLIMATE"
"Province","ONTARIO"
"Current Station Operator","Environment and Climate Change Canada - Meteorological Service of Canada"
"Latitude","44.22"
"Longitude","-76.60"
"Elevation","93.00"
"Climate Identifier","6104142"
"WMO Identifier","71820"
"TC Identifier","TKG"
"All times are specified in Local Standard Time (LST). Add 1 hour to adjust for Daylight Saving Time where and when it is observed."

"Legend"
"E","Estimated"
"M","Missing"
"NA","Not Available"

"Date/Time","Year","Month","Day","Time","Temp (°C)","Temp Flag","Dew Point Temp (°C)","Dew Point Temp Flag","Rel Hum (%)","Rel Hum Flag","Wind Dir (10s deg)","Wind Dir Flag","Wind Spd (km/h)","Wind Spd Flag","Visibility (km)","Visibility Flag","Stn Press (kPa)","Stn Press Flag","Hmdx","Hmdx Flag","Wind Chill","Wind Chill Flag","Weather"
"2018-11-01 00:00","2018","11","01","00:00","7.6","","6.0","","90","","28","","14","","","","100.10","","","","","","NA"
"2018-11-01 01:00","2018","11","01","01:00","7.0","","5.4","","90","","29","","11","","","","100.12","","","","","","NA"
"2018-11-01 02:00","2018","11","01","02:00","6.6","","5.2","","91","","32","","14","","","","100.14","","","","","","NA"
"2018-11-01 03:00","2018","11","01","03:00","6.4","","5.0","","91","","33","","12","","","","100.09","","","","","","NA"
"2018-11-01 04:00","2018","11","01","04:00","6.0","","4.9","","92","","5","","5","","","","100.11","","","","","","NA"
"2018-11-01 05:00","2018","11","01","05:00","5.5","","4.8","","96","","31","","3","","","","100.19","","","","","","NA"
"2018-11-01 06:00","2018","11","01","06:00","5.4","","4.9","","97","","32","","2","","","","100.20","","","","","","NA"
"2018-11-01 07:00","2018","11","01","07:00","5.3","","4.9","","98","","20","","2","","","","100.25","","","","","","NA"
"2018-11-01 08:00","2018","11","01","08:00","7.5","","7.2","","98","","13","","10","","","","100.20","","","","","","NA"
"2018-11-01 09:00","2018","11","01","09:00","8.3","","6.9","","91","","14","","8","","","","100.21","","","","","","NA"
"2018-11-01 10:00","2018","11","01","10:00","7.9","","6.7","","92","","34","","8","","","","100.14","","","","","","NA"
"2018-11-01 11:00","2018","11","01","11:00","8.8","","6.7","","86","","3","","2","","","","100.19","","","","","","NA"
"2018-11-01 12:00","2018","11","01","12:00","8.8","","7.4","","91","","9","","1","","","","100.10","","","","","","NA"
"2018-11-01 13:00","2018","11","01","13:00","8.8","","7.4","","91","","27","","3","","","","100.09","","","","","","NA"
"2018-11-01 14:00","2018","11","01","14:00","8.3","","7.1","","92","","21","","9","","","","100.10","","","","","","NA"
"2018-11-01 15:00","2018","11","01","15:00","8.2","","7.2","","94","","23","","9","","","","100.09","","","","","","NA"
"2018-11-01 16:00","2018","11","01","16:00","7.9","","7.0","","95","","29","","3","","","","100.06","","","","","","NA"
"2018-11-01 17:00","2018","11","01","17:00","7.4","","6.8","","96","","5","","3","","","","99.99","","","","","","NA"
"2018-11-01 18:00","2018","11","01","18:00","7.2","","6.4","","95","","3","","10","","","","99.92","","","","","","NA"
"2018-11-01 19:00","2018","11","01","19:00","7.1","","6.6","","97","","2","","9","","","","99.89","","","","","","NA"
"2018-11-01 20:00","2018","11","01","20:00","6.8","","6.0","","95","","5","","18","","","","99.77","","","","","","NA"
"2018-11-01 21:00","2018","11","01","21:00","6.3","","5.5","","95","","4","","22","","","","99.66","","","","","","NA"
"2018-11-01 22:00","2018","11","01","22:00","6.3","","5.5","","94","","4","","21","","","","99.57","","","","","","NA"
"2018-11-01 23:00","2018","11","01","23:00","6.1","","5.0","","93","","3","","26","","","","99.46","","","","","","NA"
"2018-11-02 00:00","2018","11","02","00:00","5.5","","4.8","","95","","3","","26","","","","99.38","","","","","","NA"
"2018-11-02 01:00","2018","11","02","01:00","5.3","","4.1","","92","","4","","29","","","","99.29","","","","","","NA"
"2018-11-02 02:00","2018","11","02","02:00","4.9","","4.0","","94","","4","","27","","","","99.21","","","","","","NA"
"2018-11-02 03:00","2018","11","02","03:00","4.9","","3.9","","93","","4","","30","","","","99.11","","","","","","NA"
"2018-11-02 04:00","2018","11","02","04:00","4.9","","3.7","","92","","3","","24","","","","99.17","","","","","","NA"
"2018-11-02 05:00","2018","11","02","05:00","4.7","","3.3","","91","","4","","27","","","","99.07","","","","","","NA"
"2018-11-02 06:00","2018","11","02","06:00","4.5","","3.1","","91","","4","","26","","","","99.04","","","","","","NA"
"2018-11-02 07:00","2018","11","02","07:00","4.3","","3.0","","91","","4","","23","","","","99.17","","","","","","NA"
"2018-11-02 08:00","2018","11","02","08:00","4.2","","3.1","","93","","4","","24","","","","99.18","","","","","","NA"
"2018-11-02 09:00","2018","11","02","09:00","3.9","","3.1","","94","","3","","18","","","","99.24","","","","","","NA"
"2018-11-02 10:00","2018","11","02","10:00","4.3","","3.2","","93","","2","","22","","","","99.25","","","","","","NA"
"2018-11-02 11:00","2018","11","02","11:00","4.8","","3.5","","91","","5","","21","","","","99.29","","","","","","NA"
"2018-11-02 12:00","2018","11","02","12:00","5.0","","3.4","","90","","5","","16","","","","99.32","","","","","","NA"
"2018-11-02 13:00","2018","11","02","13:00","5.5","","3.9","","90","","3","","21","","","","99.30","","","","","","NA"
"2018-11-02 14:00","2018","11","02","14:00","5.3","","3.6","","89","","4","","16","","","","99.33","","","","","","NA"
"2018-11-02 15:00","2018","11","02","15:00","5.2","","3.8","","91","","5","","14","","","","99.40","","","","","","NA"
"2018-11-02 16:00","2018","11","02","16:00","4.9","","3.8","","93","","4","","13","","","","99.42","","","","","","NA"
"2018-11-02 17:00","2018","11","02","17:00","4.9","","3.8","","93","","3","","11","","","","99.51","","","","","","NA"
"2018-11-02 18:00","2018","11","02","18:00","4.7","","4.1","","95","","36","","7","","","","99.64","","","","","","NA"
"2018-11-02 19:00","2018","11","02","19:00","4.6","","4.2","","97","","36","","6","","","","99.66","","","","","","NA"
"2018-11-02 20:00","2018","11","02","20:00","4.6","","4.0","","96","","1","","10","","","","99.54","","","","","","NA"
"2018-11-02 21:00","2018","11","02","21:00","4.5","","4.0","","96","","2","","7","","","","99.59","","","","","","NA"
"2018-11-02 22:00","2018","11","02","22:00","4.5","","3.9","","96","","36","","7","","","","99.58","","","","","","NA"
"2018-11-02 23:00","2018","11","02","23:00","4.5","","3.8","","95","","36","","6","","","","99.55","","","","","","NA"
"2018-11-03 00:00","2018","11","03","00:00","4.4","","4.0","","97","","36","","9","","","","99.45","","","","","","NA"
"2018-11-03 01:00","2018","11","03","01:00","4.4","","3.7","","95","","36","","10","","","","99.42","","","","","","NA"
"2018-11-03 02:00","2018","11","03","02:00","4.3","","3.4","","94","","35","","7","","","","99.42","","","","","","NA"
"2018-11-03 03:00","2018","11","03","03:00","4.3","","3.2","","93","","32","","8","","","","99.47","","","","","","NA"
"2018-11-03 04:00","2018","11","03","04:00","4.3","","3.1","","92","","32","","7","","","","99.43","","","","","","NA"
"2018-11-03 05:00","2018","11","03","05:00","4.1","","2.7","","90","","31","","8","","","","99.39","","","","","","NA"
"2018-11-03 06:00","2018","11","03","06:00","3.7","","2.8","","94","","33","","10","","","","99.36","","","","","","NA"
"2018-11-03 07:00","2018","11","03","07:00","3.8","","3.0","","95","","33","","11","","","","99.42","","","","","","NA"
"2018-11-03 08:00","2018","11","03","08:00","3.8","","2.9","","94","","32","","11","","","","99.42","","","","","","NA"
"2018-11-03 09:00","2018","11","03","09:00","3.6","","2.4","","92","","29","","11","","","","99.53","","","","","","NA"
"2018-11-03 10:00","2018","11","03","10:00","3.7","","2.6","","93","","28","","16","","","","99.59","","","","","","NA"
"2018-11-03 11:00","2018","11","03","11:00","3.9","","2.0","","87","","28","","21","","","","99.66","","","","","","NA"
"2018-11-03 12:00","2018","11","03","12:00","4.2","","2.3","","88","","27","","20","","","","99.78","","","","","","NA"
"2018-11-03 13:00","2018","11","03","13:00","4.6","","2.7","","87","","27","","23","","","","99.86","","","","","","NA"
"2018-11-03 14:00","2018","11","03","14:00","4.7","","2.3","","84","","26","","24","","","","99.97","","","","","","NA"
"2018-11-03 15:00","2018","11","03","15:00","4.8","","1.5","","79","","26","","28","","","","100.15","","","","","","NA"
"2018-11-03 16:00","2018","11","03","16:00","5.2","","-0.7","","66","","27","","30","","","","100.31","","","","","","NA"
"2018-11-03 17:00","2018","11","03","17:00","4.8","","-0.6","","68","","27","","23","","","","100.51","","","","","","NA"
"2018-11-03 18:00","2018","11","03","18:00","4.1","","-1.1","","69","","28","","25","","","","100.72","","","","","","NA"
"2018-11-03 19:00","2018","11","03","19:00","3.3","","-0.2","","78","","27","","20","","","","100.89","","","","","","NA"
"2018-11-03 20:00","2018","11","03","20:00","2.8","","-1.0","","76","","27","","18","","","","101.07","","","","","","NA"
"2018-11-03 21:00","2018","11","03","21:00","2.1","","-0.9","","81","","27","","14","","","","101.17","","","","","","NA"
"2018-11-03 22:00","2018","11","03","22:00","2.4","","-0.6","","81","","25","","15","","","","101.30","","","","","","NA"
"2018-11-03 23:00","2018","11","03","23:00","3.1","","-0.7","","76","","27","","14","","","","101.39","","","","","","NA"
"2018-11-04 00:00","2018","11","04","00:00","3.4","","-0.9","","73","","27","","13","","","","101.53","","","","","","NA"
"2018-11-04 01:00","2018","11","04","01:00","3.4","","-1.7","","69","","27","","13","","","","101.62","","","","","","NA"
"2018-11-04 02:00","2018","11","04","02:00","3.3","","-1.5","","71","","27","","11","","","","101.68","","","","","","NA"
"2018-11-04 03:00","2018","11","04","03:00","3.3","","0.0","","79","","26","","13","","","","101.79","","","","","","NA"
"2018-11-04 04:00","2018","11","04","04:00","2.6","","0.1","","84","","32","","11","","","","101.84","","","","","","NA"
"2018-11-04 05:00","2018","11","04","05:00","2.5","","0.1","","84","","29","","7","","","","101.96","","","","","","NA"
"2018-11-04 06:00","2018","11","04","06:00","1.2","","-1.2","","84","","32","","4","","","","102.06","","","","","","NA"
"2018-11-04 07:00","2018","11","04","07:00","1.6","","-1.9","","78","","33","","8","","","","102.20","","","","","","NA"
"2018-11-04 08:00","2018","11","04","08:00","1.9","","-2.7","","71","","36","","10","","","","102.31","","","","","","NA"
"2018-11-04 09:00","2018","11","04","09:00","2.9","","-3.7","","62","","1","","14","","","","102.33","","","","","","NA"
"2018-11-04 10:00","2018","11","04","10:00","3.9","","-3.5","","59","","5","","9","","","","102.37","","","","","","NA"
"2018-11-04 11:00","2018","11","04","11:00","4.5","","-3.6","","56","","6","","14","","","","102.33","","","","","","NA"
"2018-11-04 12:00","2018","11","04","12:00","5.5","","-1.8","","59","","10","","12","","","","102.27","","","","","","NA"
"2018-11-04 13:00","2018","11","04","13:00","5.6","","-2.9","","54","","9","","18","","","","102.19","","","","","","NA"
"2018-11-04 14:00","2018","11","04","14:00","6.1","","-2.4","","55","","7","","14","","","","102.13","","","","","","NA"
"2018-11-04 15:00","2018","11","04","15:00","6.3","","-2.3","","54","","7","","17","","","","102.11","","","","","","NA"
"2018-11-04 16:00","2018","11","04","16:00","5.5","","-2.4","","57","","7","","15","","","","102.08","","","","","","NA"
"2018-11-04 17:00","2018","11","04","17:00","3.9","","-2.7","","62","","6","","12","","","","102.03","","","","","","NA"
"2018-11-04 18:00","2018","11","04","18:00","3.0","","-3.0","","65","","5","","12","","","","102.02","","","","","","NA"
"2018-11-04 19:00","2018","11","04","19:00","3.8","","-2.4","","64","","7","","13","","","","102.03","","","","","","NA"
"2018-11-04 20:00","2018","11","04","20:00","4.0","","-1.5","","67","","7","","14","","","","101.94","","","","","","NA"
"2018-11-04 21:00","2018","11","04","21:00","3.5","","-1.7","","69","","6","","16","","","","101.85","","","","","","NA"
"2018-11-04 22:00","2018","11","04","22:00","3.0","","-1.7","","71","","6","","16","","","","101.77","","","","","","NA"
"2018-11-04 23:00","2018","11","04","23:00","3.0","","-1.6","","72","","6","","14","","","","101.69","","","","","","NA"
"2018-11-05 00:00","2018","11","05","00:00","3.0","","-1.1","","74","","6","","13","","","","101.66","","","","","","NA"
"2018-11-05 01:00","2018","11","05","01:00","3.5","","-0.2","","77","","6","","16","","","","101.57","","","","","","NA"
"2018-11-05 02:00","2018","11","05","02:00","3.7","","0.2","","78","","7","","17","","","","101.47","","","","","","NA"
"2018-11-05 03:00","2018","11","05","03:00","4.2","","0.7","","78","","8","","14","","","","101.48","","","","","","NA"
"2018-11-05 04:00","2018","11","05","04:00","5.1","","1.4","","77","","10","","14","","","","101.40","","","","","","NA"
"2018-11-05 05:00","2018","11","05","05:00","8.1","","1.8","","65","","15","","27","","","","101.35","","","","","","NA"
"2018-11-05 06:00","2018","11","05","06:00","8.2","","2.1","","65","","15","","27","","","","101.30","","","","","","NA"
"2018-11-05 07:00","2018","11","05","07:00","8.3","","2.0","","65","","15","","29","","","","101.31","","","","","","NA"
"2018-11-05 08:00","2018","11","05","08:00","8.2","","2.7","","68","","16","","31","","","","101.28","","","","","","NA"
"2018-11-05 09:00","2018","11","05","09:00","8.1","","3.8","","74","","16","","34","","","","101.29","","","","","","NA"
"2018-11-05 10:00","2018","11","05","10:00","8.2","","4.9","","79","","16","","38","","","","101.15","","","","","","NA"
"2018-11-05 11:00","2018","11","05","11:00","7.4","","5.6","","88","","15","","33","","","","101.17","","","","","","NA"
"2018-11-05 12:00","2018","11","05","12:00","7.9","","5.8","","87","","15","","34","","","","101.12","","","","","","NA"
"2018-11-05 13:00","2018","11","05","13:00","8.2","","5.5","","83","","15","","31","","","","101.05","","","","","","NA"
"2018-11-05 14:00","2018","11","05","14:00","8.7","","6.2","","84","","15","","28","","","","100.98","","","","","","NA"
"2018-11-05 15:00","2018","11","05","15:00","9.2","","6.8","","85","","15","","29","","","","100.91","","","","","","NA"
"2018-11-05 16:00","2018","11","05","16:00","9.6","","7.0","","84","","15","","29","","","","100.87","","","","","","NA"
"2018-11-05 17:00","2018","11","05","17:00","9.7","","7.1","","84","","15","","26","","","","100.87","","","","","","NA"
"2018-11-05 18:00","2018","11","05","18:00","9.5","","6.9","","84","","14","","30","","","","100.78","","","","","","NA"
"2018-11-05 19:00","2018","11","05","19:00","9.5","","7.1","","85","","14","","23","","","","100.78","","","","","","NA"
"2018-11-05 20:00","2018","11","05","20:00","9.1","","7.3","","88","","15","","29","","","","100.80","","","","","","NA"
"2018-11-05 21:00","2018","11","05","21:00","9.2","","7.0","","86","","16","","28","","","","100.84","","","","","","NA"
"2018-11-05 22:00","2018","11","05","22:00","9.1","","6.7","","85","","15","","31","","","","100.77","","","","","","NA"
"2018-11-05 23:00","2018","11","05","23:00","9.1","","6.8","","86","","15","","29","","","","100.71","","","","","","NA"
"2018-11-06 00:00","2018","11","06","00:00","9.1","","6.1","","82","","14","","21","","","","100.58","","","","","","NA"
"2018-11-06 01:00","2018","11","06","01:00","9.2","","6.3","","82","","14","","19","","","","100.50","","","","","","NA"
"2018-11-06 02:00","2018","11","06","02:00","9.2","","6.6","","84","","16","","24","","","","100.36","","","","","","NA"
"2018-11-06 03:00","2018","11","06","03:00","9.2","","6.7","","85","","15","","19","","","","100.30","","","","","","NA"
"2018-11-06 04:00","2018","11","06","04:00","8.2","","6.0","","86","","9","","8","","","","100.16","","","","","","NA"
"2018-11-06 05:00","2018","11","06","05:00","7.6","","5.9","","89","","5","","8","","","","100.04","","","","","","NA"
"2018-11-06 06:00","2018","11","06","06:00","7.5","","6.1","","91","","7","","7","","","","99.93","","","","","","NA"
"2018-11-06 07:00","2018","11","06","07:00","7.6","","6.3","","92","","2","","6","","","","99.84","","","","","","NA"
"2018-11-06 08:00","2018","11","06","08:00","8.0","","6.9","","93","","8","","10","","","","99.74","","","","","","NA"
"2018-11-06 09:00","2018","11","06","09:00","8.7","","7.8","","94","","10","","8","","","","99.61","","","","","","NA"
"2018-11-06 10:00","2018","11","06","10:00","9.7","","8.9","","95","","14","","25","","","","99.34","","","","","","NA"
"2018-11-06 11:00","2018","11","06","11:00","10.1","","8.8","","92","","13","","27","","","","99.06","","","","","","NA"
"2018-11-06 12:00","2018","11","06","12:00","10.8","","9.3","","91","","16","","44","","","","98.93","","","","","","NA"
"2018-11-06 13:00","2018","11","06","13:00","11.3","","9.7","","90","","17","","37","","","","98.85","","","","","","NA"
"2018-11-06 14:00","2018","11","06","14:00","11.6","","10.1","","90","","17","","32","","","","98.82","","","","","","NA"
"2018-11-06 15:00","2018","11","06","15:00","12.5","","10.8","","90","","20","","32","","","","98.88","","","","","","NA"
"2018-11-06 16:00","2018","11","06","16:00","12.5","","9.9","","84","","23","","27","","","","98.90","","","","","","NA"
"2018-11-06 17:00","2018","11","06","17:00","12.0","","6.9","","71","","24","","33","","","","98.98","","","","","","NA"
"2018-11-06 18:00","2018","11","06","18:00","12.1","","6.4","","68","","24","","30","","","","99.05","","","","","","NA"
"2018-11-06 19:00","2018","11","06","19:00","11.8","","6.4","","69","","23","","32","","","","99.12","","","","","","NA"
"2018-11-06 20:00","2018","11","06","20:00","11.8","","5.8","","67","","22","","41","","","","99.10","","","","","","NA"
"2018-11-06 21:00","2018","11","06","21:00","10.9","","6.0","","72","","23","","44","","","","99.12","","","","","","NA"
"2018-11-06 22:00","2018","11","06","22:00","11.2","","6.0","","71","","23","","46","","","","99.15","","","","","","NA"
"2018-11-06 23:00","2018","11","06","23:00","11.0","","6.2","","72","","23","","46","","","","99.15","","","","","","NA"
"2018-11-07 00:00","2018","11","07","00:00","10.8","","6.1","","73","","23","","47","","","","99.22","","","","","","NA"
"2018-11-07 01:00","2018","11","07","01:00","10.5","","6.0","","74","","24","","41","","","","99.32","","","","","","NA"
"2018-11-07 02:00","2018","11","07","02:00","10.2","","6.0","","75","","24","","37","","","","99.43","","","","","","NA"
"2018-11-07 03:00","2018","11","07","03:00","9.4","","6.4","","82","","25","","36","","","","99.52","","","","","","NA"
"2018-11-07 04:00","2018","11","07","04:00","9.2","","6.5","","83","","24","","34","","","","99.59","","","","","","NA"
"2018-11-07 05:00","2018","11","07","05:00","9.4","","5.9","","79","","24","","36","","","","99.68","","","","","","NA"
"2018-11-07 06:00","2018","11","07","06:00","8.8","","5.9","","82","","24","","34","","","","99.72","","","","","","NA"
"2018-11-07 07:00","2018","11","07","07:00","8.9","","5.6","","80","","24","","27","","","","99.80","","","","","","NA"
"2018-11-07 08:00","2018","11","07","08:00","9.2","","5.1","","76","","24","","34","","","","99.86","","","","","","NA"
"2018-11-07 09:00","2018","11","07","09:00","9.8","","4.5","","70","","24","","33","","","","99.86","","","","","","NA"
"2018-11-07 10:00","2018","11","07","10:00","9.7","","3.9","","68","","24","","32","","","","99.88","","","","","","NA"
"2018-11-07 11:00","2018","11","07","11:00","9.4","","3.6","","67","","24","","36","","","","99.87","","","","","","NA"
"2018-11-07 12:00","2018","11","07","12:00","9.4","","4.0","","69","","24","","34","","","","99.86","","","","","","NA"
"2018-11-07 13:00","2018","11","07","13:00","9.3","","2.8","","64","","24","","43","","","","99.88","","","","","","NA"
"2018-11-07 14:00","2018","11","07","14:00","8.5","","2.2","","65","","24","","35","","","","99.91","","","","","","NA"
"2018-11-07 15:00","2018","11","07","15:00","8.9","","0.8","","57","","26","","32","","","","99.97","","","","","","NA"
"2018-11-07 16:00","2018","11","07","16:00","8.4","","1.2","","61","","25","","26","","","","100.04","","","","","","NA"
"2018-11-07 17:00","2018","11","07","17:00","7.9","","-0.2","","57","","25","","26","","","","100.11","","","","","","NA"
"2018-11-07 18:00","2018","11","07","18:00","7.5","","0.7","","62","","25","","32","","","","100.19","","","","","","NA"
"2018-11-07 19:00","2018","11","07","19:00","6.8","","0.1","","62","","25","","28","","","","100.29","","","","","","NA"
"2018-11-07 20:00","2018","11","07","20:00","6.0","","-0.1","","65","","26","","27","","","","100.37","","","","","","NA"
"2018-11-07 21:00","2018","11","07","21:00","5.8","","-0.3","","65","","26","","29","","","","100.42","","","","","","NA"
"2018-11-07 22:00","2018","11","07","22:00","5.4","","0.1","","69","","25","","26","","","","100.48","","","","","","NA"
"2018-11-07 23:00","2018","11","07","23:00","4.9","","-0.3","","69","","26","","21","","","","100.56","","","","","","NA"
"2018-11-08 00:00","2018","11","08","00:00","4.7","","-0.8","","68","","26","","24","","","","100.62","","","","","","NA"
"2018-11-08 01:00","2018","11","08","01:00","5.1","","-0.4","","67","","25","","21","","","","100.71","","","","","","NA"
"2018-11-08 02:00","2018","11","08","02:00","5.2","","-0.8","","65","","25","","26","","","","100.76","","","","","","NA"
"2018-11-08 03:00","2018","11","08","03:00","4.8","","-0.2","","70","","25","","19","","","","100.84","","","","","","NA"
"2018-11-08 04:00","2018","11","08","04:00","4.9","","-0.2","","69","","25","","18","","","","100.86","","","","","","NA"
"2018-11-08 05:00","2018","11","08","05:00","4.9","","0.0","","71","","25","","17","","","","100.92","","","","","","NA"
"2018-11-08 06:00","2018","11","08","06:00","4.5","","-0.5","","70","","25","","18","","","","100.96","","","","","","NA"
"2018-11-08 07:00","2018","11","08","07:00","4.7","","-0.5","","69","","27","","18","","","","101.00","","","","","","NA"
"2018-11-08 08:00","2018","11","08","08:00","5.0","","-0.3","","69","","26","","15","","","","101.08","","","","","","NA"
"2018-11-08 09:00","2018","11","08","09:00","5.2","","-0.1","","68","","26","","19","","","","101.15","","","","","","NA"
"2018-11-08 10:00","2018","11","08","10:00","5.5","","0.6","","70","","27","","19","","","","101.18","","","","","","NA"
"2018-11-08 11:00","2018","11","08","11:00","5.9","","-0.7","","63","","29","","18","","","","101.22","","","","","","NA"
"2018-11-08 12:00","2018","11","08","12:00","6.3","","0.3","","65","","28","","16","","","","101.20","","","","","","NA"
"2018-11-08 13:00","2018","11","08","13:00","6.5","","0.5","","65","","26","","14","","","","101.20","","","","","","NA"
"2018-11-08 14:00","2018","11","08","14:00","5.9","","0.9","","70","","29","","15","","","","101.28","","","","","","NA"
"2018-11-08 15:00","2018","11","08","15:00","6.3","","-0.6","","61","","25","","16","","","","101.30","","","","","","NA"
"2018-11-08 16:00","2018","11","08","16:00","6.2","","-0.4","","63","","28","","6","","","","101.35","","","","","","NA"
"2018-11-08 17:00","2018","11","08","17:00","5.6","","-0.8","","63","","26","","13","","","","101.38","","","","","","NA"
"2018-11-08 18:00","2018","11","08","18:00","4.4","","-1.0","","68","","27","","8","","","","101.46","","","","","","NA"
"2018-11-08 19:00","2018","11","08","19:00","3.9","","-1.4","","69","","28","","12","","","","101.55","","","","","","NA"
"2018-11-08 20:00","2018","11","08","20:00","3.1","","-1.5","","72","","27","","12","","","","101.60","","","","","","NA"
"2018-11-08 21:00","2018","11","08","21:00","2.1","","-1.2","","79","","28","","10","","","","101.63","","","","","","NA"
"2018-11-08 22:00","2018","11","08","22:00","1.7","","-0.8","","83","","27","","7","","","","101.65","","","","","","NA"
"2018-11-08 23:00","2018","11","08","23:00","0.8","","-1.3","","86","","29","","7","","","","101.67","","","","","","NA"
"2018-11-09 00:00","2018","11","09","00:00","-1.1","","-2.5","","90","","32","","10","","","","101.69","","","","-5","","NA"
"2018-11-09 01:00","2018","11","09","01:00","-1.6","","-2.5","","94","","34","","11","","","","101.69","","","","-5","","NA"
"2018-11-09 02:00","2018","11","09","02:00","-1.9","","-2.7","","95","","34","","10","","","","101.68","","","","-6","","NA"
"2018-11-09 03:00","2018","11","09","03:00","-0.8","","-1.5","","95","","36","","8","","","","101.67","","","","-4","","NA"
"2018-11-09 04:00","2018","11","09","04:00","-0.6","","-1.7","","92","","3","","8","","","","101.64","","","","-3","","NA"
"2018-11-09 05:00","2018","11","09","05:00","-0.6","","-1.4","","94","","5","","12","","","","101.56","","","","-5","","NA"
"2018-11-09 06:00","2018","11","09","06:00","0.2","","-1.1","","91","","4","","13","","","","101.55","","","","","","NA"
"2018-11-09 07:00","2018","11","09","07:00","0.2","","-1.2","","91","","6","","16","","","","101.50","","","","","","NA"
"2018-11-09 08:00","2018","11","09","08:00","0.4","","-0.8","","92","","4","","12","","","","101.50","","","","","","NA"
"2018-11-09 09:00","2018","11","09","09:00","1.0","","-0.2","","91","","6","","17","","","","101.48","","","","","","NA"
"2018-11-09 10:00","2018","11","09","10:00","1.5","","0.3","","92","","7","","16","","","","101.28","","","","","","NA"
"2018-11-09 11:00","2018","11","09","11:00","2.9","","1.0","","87","","11","","14","","","","101.21","","","","","","NA"
"2018-11-09 12:00","2018","11","09","12:00","2.7","","0.8","","87","","10","","14","","","","101.08","","","","","","NA"
"2018-11-09 13:00","2018","11","09","13:00","2.1","","1.1","","93","","8","","20","","","","100.88","","","","","","NA"
"2018-11-09 14:00","2018","11","09","14:00","2.6","","1.3","","91","","9","","22","","","","100.78","","","","","","NA"
"2018-11-09 15:00","2018","11","09","15:00","1.1","","0.4","","95","","10","","23","","","","100.68","","","","","","NA"
"2018-11-09 16:00","2018","11","09","16:00","0.9","","0.4","","96","","10","","23","","","","100.49","","","","","","NA"
"2018-11-09 17:00","2018","11","09","17:00","1.0","","0.5","","96","","10","","20","","","","100.34","","","","","","NA"
"2018-11-09 18:00","2018","11","09","18:00","1.2","","0.5","","95","","10","","20","","","","100.18","","","","","","NA"
"2018-11-09 19:00","2018","11","09","19:00","0.6","","0.1","","97","","8","","19","","","","100.03","","","","","","NA"
"2018-11-09 20:00","2018","11","09","20:00","3.2","","2.7","","97","","12","","14","","","","99.88","","","","","","NA"
"2018-11-09 21:00","2018","11","09","21:00","5.2","","4.1","","93","","17","","37","","","","99.75","","","","","","NA"
"2018-11-09 22:00","2018","11","09","22:00","5.3","","4.3","","93","","17","","42","","","","99.67","","","","","","NA"
"2018-11-09 23:00","2018","11","09","23:00","6.1","","5.0","","93","","18","","37","","","","99.59","","","","","","NA"
"2018-11-10 00:00","2018","11","10","00:00","6.6","","5.6","","93","","20","","32","","","","99.54","","","","","","NA"
"2018-11-10 01:00","2018","11","10","01:00","6.4","","4.2","","86","","22","","28","","","","99.55","","","","","","NA"
"2018-11-10 02:00","2018","11","10","02:00","5.7","","2.9","","83","","23","","34","","","","99.56","","","","","","NA"
"2018-11-10 03:00","2018","11","10","03:00","4.8","","1.4","","79","","25","","23","","","","99.58","","","","","","NA"
"2018-11-10 04:00","2018","11","10","04:00","4.1","","0.4","","77","","26","","31","","","","99.58","","","","","","NA"
"2018-11-10 05:00","2018","11","10","05:00","3.1","","-1.4","","72","","25","","33","","","","99.62","","","","","","NA"
"2018-11-10 06:00","2018","11","10","06:00","1.5","","-3.9","","67","","26","","28","","","","99.69","","","","","","NA"
"2018-11-10 07:00","2018","11","10","07:00","1.0","","-5.2","","63","","26","","34","","","","99.76","","","","","","NA"
"2018-11-10 08:00","2018","11","10","08:00","0.8","","-6.2","","59","","26","","27","","","","99.86","","","","","","NA"
"2018-11-10 09:00","2018","11","10","09:00","0.8","","-7.2","","55","","24","","41","","","","99.86","","","","","","NA"
"2018-11-10 10:00","2018","11","10","10:00","1.4","","-7.3","","52","","25","","42","","","","99.87","","","","","","NA"
"2018-11-10 11:00","2018","11","10","11:00","1.4","","-8.6","","47","","24","","41","","","","99.91","","","","","","NA"
"2018-11-10 12:00","2018","11","10","12:00","1.3","","-7.6","","51","","26","","40","","","","99.93","","","","","","NA"
"2018-11-10 13:00","2018","11","10","13:00","1.1","","-4.4","","67","","25","","36","","","","99.99","","","","","","NA"
"2018-11-10 14:00","2018","11","10","14:00","2.0","","-5.1","","59","","25","","37","","","","100.05","","","","","","NA"
"2018-11-10 15:00","2018","11","10","15:00","2.2","","-4.6","","61","","26","","32","","","","100.18","","","","","","NA"
"2018-11-10 16:00","2018","11","10","16:00","1.8","","-3.7","","67","","26","","30","","","","100.30","","","","","","NA"
"2018-11-10 17:00","2018","11","10","17:00","1.3","","-6.6","","55","","28","","32","","","","100.43","","","","","","NA"
"2018-11-10 18:00","2018","11","10","18:00","0.0","","-6.7","","61","","28","","31","","","","100.62","","","","-7","","NA"
"2018-11-10 19:00","2018","11","10","19:00","-0.6","","-6.6","","63","","28","","20","","","","100.78","","","","-6","","NA"
"2018-11-10 20:00","2018","11","10","20:00","-1.3","","-7.6","","62","","30","","19","","","","100.86","","","","-7","","NA"
"2018-11-10 21:00","2018","11","10","21:00","-1.6","","-7.6","","64","","28","","15","","","","100.98","","","","-6","","NA"
"2018-11-10 22:00","2018","11","10","22:00","-2.5","","-7.3","","69","","28","","11","","","","101.00","","","","-7","","NA"
"2018-11-10 23:00","2018","11","10","23:00","-2.7","","-7.1","","72","","28","","12","","","","101.03","","","","-7","","NA"
"2018-11-11 00:00","2018","11","11","00:00","-2.6","","-6.6","","74","","27","","12","","","","101.12","","","","-7","","NA"
"2018-11-11 01:00","2018","11","11","01:00","-2.8","","-6.5","","75","","26","","12","","","","101.17","","","","-7","","NA"
"2018-11-11 02:00","2018","11","11","02:00","-2.4","","-6.4","","74","","28","","12","","","","101.26","","","","-7","","NA"
"2018-11-11 03:00","2018","11","11","03:00","-3.1","","-7.2","","73","","28","","15","","","","101.35","","","","-8","","NA"
"2018-11-11 04:00","2018","11","11","04:00","-3.7","","-7.0","","78","","27","","9","","","","101.40","","","","-7","","NA"
"2018-11-11 05:00","2018","11","11","05:00","-4.1","","-7.6","","76","","27","","13","","","","101.44","","","","-9","","NA"
"2018-11-11 06:00","2018","11","11","06:00","-4.6","","-8.0","","77","","28","","11","","","","101.48","","","","-9","","NA"
"2018-11-11 07:00","2018","11","11","07:00","-5.1","","-8.1","","79","","27","","13","","","","101.53","","","","-10","","NA"
"2018-11-11 08:00","2018","11","11","08:00","-4.0","","-9.2","","67","","28","","14","","","","101.60","","","","-9","","NA"
"2018-11-11 09:00","2018","11","11","09:00","-2.6","","-8.6","","63","","28","","12","","","","101.60","","","","-7","","NA"
"2018-11-11 10:00","2018","11","11","10:00","-2.2","","-8.8","","60","","27","","17","","","","101.63","","","","-8","","NA"
"2018-11-11 11:00","2018","11","11","11:00","0.1","","-7.6","","56","","29","","15","","","","101.60","","","","","","NA"
"2018-11-11 12:00","2018","11","11","12:00","1.0","","-7.7","","52","","29","","14","","","","101.56","","","","","","NA"
"2018-11-11 13:00","2018","11","11","13:00","1.9","","-6.7","","53","","26","","12","","","","101.53","","","","","","NA"
"2018-11-11 14:00","2018","11","11","14:00","2.4","","-5.9","","54","","28","","13","","","","101.51","","","","","","NA"
"2018-11-11 15:00","2018","11","11","15:00","1.9","","-6.4","","54","","30","","13","","","","101.50","","","","","","NA"
"2018-11-11 16:00","2018","11","11","16:00","1.4","","-5.9","","58","","29","","10","","","","101.49","","","","","","NA"
"2018-11-11 17:00","2018","11","11","17:00","0.8","","-6.0","","60","","31","","4","","","","101.49","","","","","","NA"
"2018-11-11 18:00","2018","11","11","18:00","-0.1","","-5.6","","67","","4","","2","","","","101.50","","","","-1","","NA"
"2018-11-11 19:00","2018","11","11","19:00","-0.3","","-4.8","","72","","35","","4","","","","101.51","","","","-2","","NA"
"2018-11-11 20:00","2018","11","11","20:00","0.0","","-4.1","","74","","30","","3","","","","101.49","","","","-1","","NA"
"2018-11-11 21:00","2018","11","11","21:00","2.0","","-1.1","","80","","22","","12","","","","101.49","","","","","","NA"
"2018-11-11 22:00","2018","11","11","22:00","2.3","","-1.5","","76","","21","","16","","","","101.48","","","","","","NA"
"2018-11-11 23:00","2018","11","11","23:00","2.2","","-0.2","","84","","20","","6","","","","101.45","","","","","","NA"
"2018-11-12 00:00","2018","11","12","00:00","1.4","","-0.4","","88","","10","","11","","","","101.44","","","","","","NA"
"2018-11-12 01:00","2018","11","12","01:00","1.5","","0.1","","91","","9","","10","","","","101.45","","","","","","NA"
"2018-11-12 02:00","2018","11","12","02:00","1.9","","-0.7","","83","","28","","7","","","","101.45","","","","","","NA"
"2018-11-12 03:00","2018","11","12","03:00","3.6","","-1.5","","69","","22","","17","","","","101.44","","","","","","NA"
"2018-11-12 04:00","2018","11","12","04:00","3.1","","-2.1","","69","","25","","11","","","","101.44","","","","","","NA"
"2018-11-12 05:00","2018","11","12","05:00","2.6","","-2.4","","70","","26","","13","","","","101.47","","","","","","NA"
"2018-11-12 06:00","2018","11","12","06:00","1.7","","-2.2","","75","","28","","8","","","","101.50","","","","","","NA"
"2018-11-12 07:00","2018","11","12","07:00","1.6","","-3.4","","69","","26","","7","","","","101.51","","","","","","NA"
"2018-11-12 08:00","2018","11","12","08:00","2.4","","-3.9","","63","","27","","8","","","","101.55","","","","","","NA"
"2018-11-12 09:00","2018","11","12","09:00","3.9","","-3.3","","59","","27","","7","","","","101.57","","","","","","NA"
"2018-11-12 10:00","2018","11","12","10:00","4.8","","-1.1","","66","","23","","11","","","","101.58","","","","","","NA"
"2018-11-12 11:00","2018","11","12","11:00","6.0","","0.5","","68","","20","","16","","","","101.48","","","","","","NA"
"2018-11-12 12:00","2018","11","12","12:00","6.3","","0.0","","64","","21","","19","","","","101.46","","","","","","NA"
"2018-11-12 13:00","2018","11","12","13:00","6.4","","-1.2","","58","","21","","22","","","","101.44","","","","","","NA"
"2018-11-12 14:00","2018","11","12","14:00","6.4","","-0.9","","59","","21","","20","","","","101.41","","","","","","NA"
"2018-11-12 15:00","2018","11","12","15:00","6.1","","-0.2","","64","","22","","17","","","","101.42","","","","","","NA"
"2018-11-12 16:00","2018","11","12","16:00","5.8","","0.4","","68","","20","","13","","","","101.40","","","","","","NA"
"2018-11-12 17:00","2018","11","12","17:00","5.5","","0.1","","68","","21","","12","","","","101.41","","","","","","NA"
"2018-11-12 18:00","2018","11","12","18:00","5.5","","-0.1","","68","","23","","8","","","","101.35","","","","","","NA"
"2018-11-12 19:00","2018","11","12","19:00","5.5","","0.4","","70","","24","","5","","","","101.30","","","","","","NA"
"2018-11-12 20:00","2018","11","12","20:00","4.7","","-0.1","","71","","28","","3","","","","101.25","","","","","","NA"
"2018-11-12 21:00","2018","11","12","21:00","3.8","","0.5","","79","","35","","1","","","","101.25","","","","","","NA"
"2018-11-12 22:00","2018","11","12","22:00","4.1","","0.9","","80","","6","","3","","","","101.22","","","","","","NA"
"2018-11-12 23:00","2018","11","12","23:00","5.1","","0.1","","70","","10","","8","","","","101.11","","","","","","NA"
"2018-11-13 00:00","2018","11","13","00:00","6.5","","1.4","","70","","14","","16","","","","101.09","","","","","","NA"
"2018-11-13 01:00","2018","11","13","01:00","5.9","","0.9","","70","","19","","21","","","","100.99","","","","","","NA"
"2018-11-13 02:00","2018","11","13","02:00","5.8","","0.0","","66","","21","","17","","","","100.95","","","","","","NA"
"2018-11-13 03:00","2018","11","13","03:00","2.9","","1.2","","89","","32","","13","","","","100.92","","","","","","NA"
"2018-11-13 04:00","2018","11","13","04:00","2.0","","1.0","","94","","33","","15","","","","100.89","","","","","","NA"
"2018-11-13 05:00","2018","11","13","05:00","1.8","","1.0","","95","","36","","10","","","","100.81","","","","","","NA"
"2018-11-13 06:00","2018","11","13","06:00","1.6","","0.8","","95","","35","","8","","","","100.77","","","","","","NA"
"2018-11-13 07:00","2018","11","13","07:00","1.2","","0.5","","95","","36","","5","","","","100.70","","","","","","NA"
"2018-11-13 08:00","2018","11","13","08:00","1.3","","0.7","","96","","3","","2","","","","100.70","","","","","","NA"
"2018-11-13 09:00","2018","11","13","09:00","1.8","","0.8","","93","","2","","2","","","","100.62","","","","","","NA"
"2018-11-13 10:00","2018","11","13","10:00","2.6","","1.3","","91","","32","","2","","","","100.56","","","","","","NA"
"2018-11-13 11:00","2018","11","13","11:00","3.1","","1.5","","90","","28","","10","","","","100.53","","","","","","NA"
"2018-11-13 12:00","2018","11","13","12:00","2.7","","1.2","","90","","28","","13","","","","100.45","","","","","","NA"
"2018-11-13 13:00","2018","11","13","13:00","2.8","","1.0","","88","","31","","17","","","","100.41","","","","","","NA"
"2018-11-13 14:00","2018","11","13","14:00","0.4","","-1.7","","86","","32","","29","","","","100.49","","","","","","NA"
"2018-11-13 15:00","2018","11","13","15:00","0.4","","-2.1","","83","","33","","21","","","","100.57","","","","","","NA"
"2018-11-13 16:00","2018","11","13","16:00","-0.2","","-3.8","","77","","32","","18","","","","100.67","","","","-5","","NA"
"2018-11-13 17:00","2018","11","13","17:00","-0.9","","-4.7","","75","","32","","15","","","","100.70","","","","-6","","NA"
"2018-11-13 18:00","2018","11","13","18:00","-2.2","","-8.8","","60","","32","","15","","","","100.77","","","","-7","","NA"
"2018-11-13 19:00","2018","11","13","19:00","-3.0","","-8.9","","64","","29","","10","","","","100.86","","","","-7","","NA"
"2018-11-13 20:00","2018","11","13","20:00","-2.7","","-7.7","","68","","28","","11","","","","100.91","","","","-7","","NA"
"2018-11-13 21:00","2018","11","13","21:00","-2.2","","-9.3","","58","","29","","17","","","","100.94","","","","-8","","NA"
"2018-11-13 22:00","2018","11","13","22:00","-2.3","","-8.7","","61","","29","","12","","","","100.95","","","","-7","","NA"
"2018-11-13 23:00","2018","11","13","23:00","-2.5","","-8.9","","61","","29","","13","","","","100.94","","","","-7","","NA"
"2018-11-14 00:00","2018","11","14","00:00","-2.6","","-8.1","","66","","30","","11","","","","101.02","","","","-7","","NA"
"2018-11-14 01:00","2018","11","14","01:00","-3.0","","-7.2","","73","","29","","15","","","","101.06","","","","-8","","NA"
"2018-11-14 02:00","2018","11","14","02:00","-3.8","","-10.2","","61","","29","","26","","","","101.16","","","","-11","","NA"
"2018-11-14 03:00","2018","11","14","03:00","-5.0","","-12.4","","56","","30","","20","","","","101.28","","","","-12","","NA"
"2018-11-14 04:00","2018","11","14","04:00","-6.3","","-16.3","","45","","30","","24","","","","101.41","","","","-14","","NA"
"2018-11-14 05:00","2018","11","14","05:00","-6.9","","-15.7","","50","","30","","22","","","","101.53","","","","-14","","NA"
"2018-11-14 06:00","2018","11","14","06:00","-7.3","","-16.1","","50","","31","","21","","","","101.65","","","","-15","","NA"
"2018-11-14 07:00","2018","11","14","07:00","-7.6","","-16.2","","50","","31","","17","","","","101.75","","","","-14","","NA"
"2018-11-14 08:00","2018","11","14","08:00","-7.3","","-16.0","","50","","30","","17","","","","101.86","","","","-14","","NA"
"2018-11-14 09:00","2018","11","14","09:00","-6.4","","-15.2","","49","","30","","18","","","","101.98","","","","-13","","NA"
"2018-11-14 10:00","2018","11","14","10:00","-5.9","","-16.5","","43","","30","","24","","","","102.09","","","","-13","","NA"
"2018-11-14 11:00","2018","11","14","11:00","-4.4","","-15.2","","43","","29","","19","","","","102.12","","","","-11","","NA"
"2018-11-14 12:00","2018","11","14","12:00","-3.5","","-15.0","","41","","30","","22","","","","102.09","","","","-10","","NA"
"2018-11-14 13:00","2018","11","14","13:00","-3.0","","-15.3","","38","","30","","25","","","","102.10","","","","-10","","NA"
"2018-11-14 14:00","2018","11","14","14:00","-2.8","","-15.0","","38","","29","","29","","","","102.16","","","","-10","","NA"
"2018-11-14 15:00","2018","11","14","15:00"
"2018-11-14 16:00","2018","11","14","16:00","-3.2","","-14.8","","40","","30","","17","","","","102.25","","","","-9","","NA"
"2018-11-14 17:00","2018","11","14","17:00","-4.5","","-14.7","","45","","29","","11","","","","102.29","","","","-9","","NA"
"2018-11-14 18:00","2018","11","14","18:00","-5.2","","-13.9","","50","","31","","8","","","","102.30","","","","-9","","NA"
"2018-11-14 19:00","2018","11","14","19:00","-6.2","","-13.1","","58","","31","","6","","","","102.36","","","","-9","","NA"
"2018-11-14 20:00","2018","11","14","20:00","-7.1","","-13.0","","63","","33","","8","","","","102.44","","","","-11","","NA"
"2018-11-14 21:00","2018","11","14","21:00","-7.2","","-13.0","","63","","3","","8","","","","102.41","","","","-11","","NA"
"2018-11-14 22:00","2018","11","14","22:00","-7.9","","-12.3","","71","","6","","17","","","","102.44","","","","-15","","NA"
"2018-11-14 23:00","2018","11","14","23:00","-8.5","","-13.9","","65","","5","","14","","","","102.46","","","","-15","","NA"
"2018-11-15 00:00","2018","11","15","00:00","-8.6","","-14.5","","63","","6","","17","","","","102.49","","","","-15","","NA"
"2018-11-15 01:00","2018","11","15","01:00","-8.6","","-14.5","","62","","4","","15","","","","102.49","","","","-15","","NA"
"2018-11-15 02:00","2018","11","15","02:00","-8.5","","-15.1","","59","","5","","14","","","","102.45","","","","-15","","NA"
"2018-11-15 03:00","2018","11","15","03:00","-8.5","","-14.7","","61","","5","","10","","","","102.43","","","","-13","","NA"
"2018-11-15 04:00","2018","11","15","04:00","-8.6","","-13.0","","70","","5","","10","","","","102.39","","","","-14","","NA"
"2018-11-15 05:00","2018","11","15","05:00","-8.3","","-13.1","","68","","4","","9","","","","102.36","","","","-13","","NA"
"2018-11-15 06:00","2018","11","15","06:00","-8.0","","-13.0","","67","","5","","14","","","","102.28","","","","-14","","NA"
"2018-11-15 07:00","2018","11","15","07:00","-7.8","","-12.7","","68","","5","","13","","","","102.29","","","","-14","","NA"
"2018-11-15 08:00","2018","11","15","08:00","-7.4","","-12.6","","67","","5","","15","","","","102.26","","","","-14","","NA"
"2018-11-15 09:00","2018","11","15","09:00","-6.3","","-11.0","","69","","6","","13","","","","102.22","","","","-12","","NA"
"2018-11-15 10:00","2018","11","15","10:00","-4.4","","-9.2","","69","","7","","13","","","","102.07","","","","-9","","NA"
"2018-11-15 11:00","2018","11","15","11:00","-2.6","","-8.8","","62","","9","","16","","","","101.94","","","","-8","","NA"
"2018-11-15 12:00","2018","11","15","12:00","-1.9","","-9.1","","58","","10","","19","","","","101.75","","","","-7","","NA"
"2018-11-15 13:00","2018","11","15","13:00","-1.8","","-9.0","","58","","7","","20","","","","101.55","","","","-8","","NA"
"2018-11-15 14:00","2018","11","15","14:00","-1.9","","-8.7","","60","","6","","18","","","","101.48","","","","-7","","NA"
"2018-11-15 15:00","2018","11","15","15:00","-1.3","","-9.8","","52","","10","","17","","","","101.43","","","","-6","","NA"
"2018-11-15 16:00","2018","11","15","16:00","-1.1","","-9.0","","55","","9","","13","","","","101.31","","","","-5","","NA"
"2018-11-15 17:00","2018","11","15","17:00","0.6","","-5.8","","62","","14","","15","","","","101.23","","","","","","NA"
"2018-11-15 18:00","2018","11","15","18:00","0.9","","-5.8","","61","","17","","20","","","","101.17","","","","","","NA"
"2018-11-15 19:00","2018","11","15","19:00","-0.8","","-2.3","","90","","15","","20","","","","101.12","","","","-6","","NA"
"2018-11-15 20:00","2018","11","15","20:00","-1.9","","-2.6","","95","","9","","15","","","","100.93","","","","-7","","NA"
"2018-11-15 21:00","2018","11","15","21:00","-2.4","","-3.2","","95","","7","","15","","","","100.79","","","","-7","","NA"
"2018-11-15 22:00","2018","11","15","22:00","-2.9","","-3.7","","94","","6","","17","","","","100.61","","","","-8","","NA"
"2018-11-15 23:00","2018","11","15","23:00","-2.9","","-3.8","","94","","6","","17","","","","100.45","","","","-8","","NA"
"2018-11-16 00:00","2018","11","16","00:00","-1.8","","-2.8","","93","","8","","18","","","","100.34","","","","-7","","NA"
"2018-11-16 01:00","2018","11","16","01:00","-1.8","","-2.5","","95","","7","","17","","","","100.20","","","","-7","","NA"
"2018-11-16 02:00","2018","11","16","02:00","-2.6","","-3.3","","95","","5","","15","","","","100.11","","","","-8","","NA"
"2018-11-16 03:00","2018","11","16","03:00","-2.6","","-3.5","","94","","5","","17","","","","100.00","","","","-8","","NA"
"2018-11-16 04:00","2018","11","16","04:00","-2.5","","-3.3","","94","","5","","18","","","","99.89","","","","-8","","NA"
"2018-11-16 05:00","2018","11","16","05:00","-2.1","","-2.8","","95","","7","","16","","","","99.79","","","","-7","","NA"
"2018-11-16 06:00","2018","11","16","06:00","-3.3","","-4.4","","92","","5","","19","","","","99.69","","","","-9","","NA"
"2018-11-16 07:00","2018","11","16","07:00","-3.5","","-4.6","","92","","5","","17","","","","99.60","","","","-9","","NA"
"2018-11-16 08:00","2018","11","16","08:00","-3.7","","-4.9","","91","","5","","12","","","","99.59","","","","-8","","NA"
"2018-11-16 09:00","2018","11","16","09:00","-3.6","","-4.9","","91","","4","","14","","","","99.53","","","","-9","","NA"
"2018-11-16 10:00","2018","11","16","10:00","-3.1","","-4.7","","88","","5","","13","","","","99.48","","","","-8","","NA"
"2018-11-16 11:00","2018","11","16","11:00","-2.6","","-4.0","","90","","5","","10","","","","99.44","","","","-6","","NA"
"2018-11-16 12:00","2018","11","16","12:00","-2.2","","-3.3","","92","","4","","8","","","","99.35","","","","-5","","NA"
"2018-11-16 13:00","2018","11","16","13:00","-2.0","","-2.8","","94","","36","","9","","","","99.32","","","","-5","","NA"
"2018-11-16 14:00","2018","11","16","14:00","-1.4","","-2.3","","94","","2","","7","","","","99.29","","","","-4","","NA"
"2018-11-16 15:00","2018","11","16","15:00","-1.1","","-1.9","","94","","32","","1","","","","99.32","","","","-1","","NA"
"2018-11-16 16:00","2018","11","16","16:00","1.0","","0.3","","95","","25","","18","","","","99.35","","","","","","NA"
"2018-11-16 17:00","2018","11","16","17:00","1.7","","0.6","","92","","25","","23","","","","99.42","","","","","","NA"
"2018-11-16 18:00","2018","11","16","18:00","2.1","","0.6","","90","","25","","26","","","","99.46","","","","","","NA"
"2018-11-16 19:00","2018","11","16","19:00","2.4","","0.4","","86","","25","","26","","","","99.55","","","","","","NA"
"2018-11-16 20:00","2018","11","16","20:00","2.3","","0.1","","85","","25","","29","","","","99.63","","","","","","NA"
"2018-11-16 21:00","2018","11","16","21:00","2.1","","-0.2","","85","","26","","25","","","","99.69","","","","","","NA"
"2018-11-16 22:00","2018","11","16","22:00","2.7","","-0.1","","82","","26","","28","","","","99.77","","","","","","NA"
"2018-11-16 23:00","2018","11","16","23:00","2.6","","0.2","","84","","26","","25","","","","99.82","","","","","","NA"
"2018-11-17 00:00","2018","11","17","00:00","2.6","","0.3","","85","","25","","21","","","","99.90","","","","","","NA"
"2018-11-17 01:00","2018","11","17","01:00","2.4","","0.3","","86","","26","","20","","","","99.98","","","","","","NA"
"2018-11-17 02:00","2018","11","17","02:00","2.5","","0.5","","87","","26","","17","","","","100.06","","","","","","NA"
"2018-11-17 03:00","2018","11","17","03:00","2.7","","0.8","","87","","26","","18","","","","100.12","","","","","","NA"
"2018-11-17 04:00","2018","11","17","04:00","2.8","","0.6","","86","","26","","20","","","","100.18","","","","","","NA"
"2018-11-17 05:00","2018","11","17","05:00","2.9","","0.1","","82","","26","","19","","","","100.29","","","","","","NA"
"2018-11-17 06:00","2018","11","17","06:00","2.9","","-0.6","","78","","26","","18","","","","100.40","","","","","","NA"
"2018-11-17 07:00","2018","11","17","07:00","3.1","","-1.5","","71","","26","","22","","","","100.51","","","","","","NA"
"2018-11-17 08:00","2018","11","17","08:00","3.1","","-0.8","","75","","25","","22","","","","100.58","","","","","","NA"
"2018-11-17 09:00","2018","11","17","09:00","2.7","","-1.5","","73","","27","","22","","","","100.63","","","","","","NA"
"2018-11-17 10:00","2018","11","17","10:00","3.4","","-2.5","","65","","27","","26","","","","100.67","","","","","","NA"
"2018-11-17 11:00","2018","11","17","11:00","3.7","","-2.7","","63","","26","","22","","","","100.72","","","","","","NA"
"2018-11-17 12:00","2018","11","17","12:00","3.0","","-2.3","","68","","26","","28","","","","100.74","","","","","","NA"
"2018-11-17 13:00","2018","11","17","13:00","3.0","","-1.8","","71","","26","","22","","","","100.76","","","","","","NA"
"2018-11-17 14:00","2018","11","17","14:00","2.9","","-1.3","","74","","26","","20","","","","100.80","","","","","","NA"
"2018-11-17 15:00","2018","11","17","15:00","2.2","","-2.1","","73","","26","","14","","","","100.87","","","","","","NA"
"2018-11-17 16:00","2018","11","17","16:00","2.3","","-2.6","","70","","26","","21","","","","100.95","","","","","","NA"
"2018-11-17 17:00","2018","11","17","17:00","1.3","","-4.6","","64","","28","","15","","","","101.06","","","","","","NA"
"2018-11-17 18:00","2018","11","17","18:00","0.0","","-5.7","","66","","29","","12","","","","101.17","","","","-4","","NA"
"2018-11-17 19:00","2018","11","17","19:00","-1.0","","-5.9","","70","","30","","13","","","","101.27","","","","-5","","NA"
"2018-11-17 20:00","2018","11","17","20:00","-1.6","","-5.5","","75","","29","","10","","","","101.39","","","","-5","","NA"
"2018-11-17 21:00","2018","11","17","21:00","-2.0","","-6.5","","71","","29","","9","","","","101.45","","","","-5","","NA"
"2018-11-17 22:00","2018","11","17","22:00","-3.2","","-7.2","","74","","28","","10","","","","101.50","","","","-7","","NA"
"2018-11-17 23:00","2018","11","17","23:00","-3.8","","-7.7","","75","","30","","11","","","","101.54","","","","-8","","NA"
"2018-11-18 00:00","2018","11","18","00:00","-4.8","","-8.0","","78","","36","","7","","","","101.55","","","","-8","","NA"
"2018-11-18 01:00","2018","11","18","01:00","-5.7","","-7.8","","85","","33","","5","","","","101.58","","","","-8","","NA"
"2018-11-18 02:00","2018","11","18","02:00","-8.1","","-10.0","","86","","31","","9","","","","101.62","","","","-13","","NA"
"2018-11-18 03:00","2018","11","18","03:00","-7.8","","-9.4","","88","","32","","7","","","","101.61","","","","-11","","NA"
"2018-11-18 04:00","2018","11","18","04:00","-7.6","","-9.0","","90","","34","","12","","","","101.60","","","","-13","","NA"
"2018-11-18 05:00","2018","11","18","05:00","-6.6","","-8.2","","88","","35","","11","","","","101.60","","","","-12","","NA"
"2018-11-18 06:00","2018","11","18","06:00","-6.7","","-8.8","","85","","2","","8","","","","101.61","","","","-11","","NA"
"2018-11-18 07:00","2018","11","18","07:00","-6.2","","-8.4","","84","","6","","3","","","","101.66","","","","-8","","NA"
"2018-11-18 08:00","2018","11","18","08:00","-5.1","","-7.2","","85","","4","","6","","","","101.66","","","","-8","","NA"
"2018-11-18 09:00","2018","11","18","09:00","-3.7","","-6.6","","80","","5","","7","","","","101.65","","","","-7","","NA"
"2018-11-18 10:00","2018","11","18","10:00","-2.4","","-5.8","","78","","6","","8","","","","101.61","","","","-6","","NA"
"2018-11-18 11:00","2018","11","18","11:00","-1.7","","-5.7","","74","","10","","10","","","","101.56","","","","-5","","NA"
"2018-11-18 12:00","2018","11","18","12:00","-1.7","","-4.4","","82","","8","","11","","","","101.46","","","","-6","","NA"
"2018-11-18 13:00","2018","11","18","13:00","-1.5","","-4.7","","79","","6","","11","","","","101.37","","","","-5","","NA"
"2018-11-18 14:00","2018","11","18","14:00","-1.1","","-5.2","","74","","7","","13","","","","101.31","","","","-5","","NA"
"2018-11-18 15:00","2018","11","18","15:00","-1.0","","-5.5","","71","","4","","7","","","","101.25","","","","-4","","NA"
"2018-11-18 16:00","2018","11","18","16:00","-1.0","","-5.0","","74","","6","","9","","","","101.20","","","","-4","","NA"
"2018-11-18 17:00","2018","11","18","17:00","-1.3","","-5.0","","76","","6","","11","","","","101.14","","","","-5","","NA"
"2018-11-18 18:00","2018","11","18","18:00","-1.5","","-4.9","","78","","6","","10","","","","101.10","","","","-5","","NA"
"2018-11-18 19:00","2018","11","18","19:00","1.9","","1.0","","94","","14","","13","","","","101.02","","","","","","NA"
"2018-11-18 20:00","2018","11","18","20:00","2.4","","-0.3","","83","","18","","26","","","","100.99","","","","","","NA"
"2018-11-18 21:00","2018","11","18","21:00","2.7","","0.4","","85","","18","","26","","","","100.95","","","","","","NA"
"2018-11-18 22:00","2018","11","18","22:00","2.8","","1.0","","88","","20","","23","","","","100.92","","","","","","NA"
"2018-11-18 23:00","2018","11","18","23:00","3.1","","1.3","","88","","18","","21","","","","100.83","","","","","","NA"
"2018-11-19 00:00","2018","11","19","00:00","3.5","","1.3","","85","","20","","23","","","","100.80","","","","","","NA"
"2018-11-19 01:00","2018","11","19","01:00","3.6","","1.4","","86","","22","","17","","","","100.75","","","","","","NA"
"2018-11-19 02:00","2018","11","19","02:00","3.4","","1.2","","86","","22","","15","","","","100.70","","","","","","NA"
"2018-11-19 03:00","2018","11","19","03:00","3.5","","1.5","","87","","22","","12","","","","100.69","","","","","","NA"
"2018-11-19 04:00","2018","11","19","04:00","3.7","","1.7","","87","","22","","18","","","","100.65","","","","","","NA"
"2018-11-19 05:00","2018","11","19","05:00","0.9","","-2.0","","81","","30","","12","","","","100.73","","","","","","NA"
"2018-11-19 06:00","2018","11","19","06:00","0.3","","-2.2","","84","","27","","11","","","","100.77","","","","","","NA"
"2018-11-19 07:00","2018","11","19","07:00","0.0","","-3.1","","80","","25","","13","","","","100.79","","","","-4","","NA"
"2018-11-19 08:00","2018","11","19","08:00","0.7","","-4.6","","67","","26","","14","","","","100.83","","","","","","NA"
"2018-11-19 09:00","2018","11","19","09:00","2.2","","-4.6","","61","","26","","14","","","","100.81","","","","","","NA"
"2018-11-19 10:00","2018","11","19","10:00","2.9","","-4.4","","59","","26","","13","","","","100.81","","","","","","NA"
"2018-11-19 11:00","2018","11","19","11:00","3.5","","-4.8","","54","","25","","14","","","","100.77","","","","","","NA"
"2018-11-19 12:00","2018","11","19","12:00","4.3","","-3.8","","55","","24","","13","","","","100.68","","","","","","NA"
"2018-11-19 13:00","2018","11","19","13:00","4.6","","-3.5","","56","","25","","13","","","","100.61","","","","","","NA"
"2018-11-19 14:00","2018","11","19","14:00","4.1","","-3.2","","59","","25","","14","","","","100.57","","","","","","NA"
"2018-11-19 15:00","2018","11","19","15:00","4.0","","-2.7","","62","","23","","11","","","","100.55","","","","","","NA"
"2018-11-19 16:00","2018","11","19","16:00","3.1","","-3.0","","64","","30","","8","","","","100.50","","","","","","NA"
"2018-11-19 17:00","2018","11","19","17:00","2.3","","-2.6","","70","","28","","9","","","","100.49","","","","","","NA"
"2018-11-19 18:00","2018","11","19","18:00","1.6","","-2.4","","74","","30","","7","","","","100.51","","","","","","NA"
"2018-11-19 19:00","2018","11","19","19:00","1.1","","-2.6","","76","","34","","6","","","","100.52","","","","","","NA"
"2018-11-19 20:00","2018","11","19","20:00","0.5","","-2.3","","81","","35","","6","","","","100.50","","","","","","NA"
"2018-11-19 21:00","2018","11","19","21:00","-0.1","","-2.4","","84","","4","","4","","","","100.46","","","","-1","","NA"
"2018-11-19 22:00","2018","11","19","22:00","-0.4","","-3.0","","83","","4","","14","","","","100.44","","","","-5","","NA"
"2018-11-19 23:00","2018","11","19","23:00","-0.8","","-2.9","","86","","4","","14","","","","100.39","","","","-5","","NA"
"2018-11-20 00:00","2018","11","20","00:00","-1.3","","-2.9","","89","","3","","15","","","","100.35","","","","-6","","NA"
"2018-11-20 01:00","2018","11","20","01:00","-1.4","","-3.0","","89","","3","","14","","","","100.33","","","","-6","","NA"
"2018-11-20 02:00","2018","11","20","02:00","-1.9","","-3.7","","88","","4","","15","","","","100.29","","","","-7","","NA"
"2018-11-20 03:00","2018","11","20","03:00","-2.2","","-3.8","","89","","3","","14","","","","100.29","","","","-7","","NA"
"2018-11-20 04:00","2018","11","20","04:00","-2.5","","-3.7","","92","","3","","12","","","","100.23","","","","-7","","NA"
"2018-11-20 05:00","2018","11","20","05:00","-2.6","","-3.8","","91","","3","","12","","","","100.25","","","","-7","","NA"
"2018-11-20 06:00","2018","11","20","06:00","-2.6","","-3.9","","90","","4","","13","","","","100.24","","","","-7","","NA"
"2018-11-20 07:00","2018","11","20","07:00","-2.7","","-4.1","","90","","2","","12","","","","100.25","","","","-7","","NA"
"2018-11-20 08:00","2018","11","20","08:00","-2.8","","-4.2","","90","","2","","11","","","","100.24","","","","-7","","NA"
"2018-11-20 09:00","2018","11","20","09:00","-2.6","","-4.3","","88","","2","","14","","","","100.25","","","","-7","","NA"
"2018-11-20 10:00","2018","11","20","10:00","-2.1","","-4.1","","86","","2","","11","","","","100.26","","","","-6","","NA"
"2018-11-20 11:00","2018","11","20","11:00","-2.1","","-4.2","","86","","36","","17","","","","100.31","","","","-7","","NA"
"2018-11-20 12:00","2018","11","20","12:00","-2.3","","-4.9","","83","","34","","18","","","","100.27","","","","-8","","NA"
"2018-11-20 13:00","2018","11","20","13:00","-2.8","","-6.0","","79","","34","","16","","","","100.28","","","","-8","","NA"
"2018-11-20 14:00","2018","11","20","14:00","-2.8","","-6.4","","76","","34","","13","","","","100.27","","","","-7","","NA"
"2018-11-20 15:00","2018","11","20","15:00","-2.5","","-7.9","","66","","33","","11","","","","100.31","","","","-7","","NA"
"2018-11-20 16:00","2018","11","20","16:00","-2.6","","-8.1","","66","","32","","14","","","","100.39","","","","-7","","NA"
"2018-11-20 17:00","2018","11","20","17:00","-3.7","","-8.1","","72","","32","","5","","","","100.45","","","","-6","","NA"
"2018-11-20 18:00","2018","11","20","18:00","-3.7","","-7.5","","75","","","","0","","","","100.46","","","","","","NA"
"2018-11-20 19:00","2018","11","20","19:00","-3.0","","-7.3","","72","","28","","21","","","","100.52","","","","-9","","NA"
"2018-11-20 20:00","2018","11","20","20:00","-4.5","","-8.1","","75","","26","","16","","","","100.54","","","","-10","","NA"
"2018-11-20 21:00","2018","11","20","21:00","-5.2","","-9.3","","73","","27","","16","","","","100.54","","","","-11","","NA"
"2018-11-20 22:00","2018","11","20","22:00","-5.5","","-9.8","","71","","28","","15","","","","100.53","","","","-11","","NA"
"2018-11-20 23:00","2018","11","20","23:00","-5.2","","-10.1","","69","","30","","11","","","","100.48","","","","-10","","NA"
"2018-11-21 00:00","2018","11","21","00:00","-5.2","","-10.4","","67","","26","","8","","","","100.42","","","","-9","","NA"
"2018-11-21 01:00","2018","11","21","01:00","-4.7","","-9.7","","68","","26","","11","","","","100.38","","","","-9","","NA"
"2018-11-21 02:00","2018","11","21","02:00","-4.5","","-9.4","","69","","30","","4","","","","100.27","","","","-6","","NA"
"2018-11-21 03:00","2018","11","21","03:00","-2.8","","-5.1","","85","","20","","11","","","","100.14","","","","-7","","NA"
"2018-11-21 04:00","2018","11","21","04:00","-0.7","","-1.6","","94","","21","","20","","","","99.97","","","","-6","","NA"
"2018-11-21 05:00","2018","11","21","05:00","-0.2","","-0.6","","97","","22","","32","","","","99.87","","","","-7","","NA"
"2018-11-21 06:00","2018","11","21","06:00","0.7","","-0.4","","92","","22","","32","","","","99.79","","","","","","NA"
"2018-11-21 07:00","2018","11","21","07:00","2.1","","-1.1","","79","","24","","31","","","","99.74","","","","","","NA"
"2018-11-21 08:00","2018","11","21","08:00","1.7","","-2.3","","74","","26","","35","","","","99.78","","","","","","NA"
"2018-11-21 09:00","2018","11","21","09:00","-0.3","","-3.9","","77","","29","","31","","","","99.92","","","","-7","","NA"
"2018-11-21 10:00","2018","11","21","10:00","0.2","","-4.5","","71","","27","","24","","","","99.94","","","","","","NA"
"2018-11-21 11:00","2018","11","21","11:00","-0.6","","-8.9","","54","","28","","36","","","","100.05","","","","-8","","NA"
"2018-11-21 12:00","2018","11","21","12:00","-2.3","","-12.3","","46","","28","","45","","","","100.20","","","","-11","","NA"
"2018-11-21 13:00","2018","11","21","13:00","-3.1","","-14.6","","41","","29","","35","","","","100.31","","","","-11","","NA"
"2018-11-21 14:00","2018","11","21","14:00","-5.4","","-14.0","","51","","30","","33","","","","100.57","","","","-14","","NA"
"2018-11-21 15:00","2018","11","21","15:00","-5.8","","-14.7","","50","","32","","28","","","","100.75","","","","-14","","NA"
"2018-11-21 16:00","2018","11","21","16:00","-6.4","","-15.2","","50","","30","","24","","","","100.91","","","","-14","","NA"
"2018-11-21 17:00","2018","11","21","17:00","-8.1","","-16.1","","52","","31","","18","","","","101.08","","","","-15","","NA"
"2018-11-21 18:00","2018","11","21","18:00","-9.2","","-16.4","","56","","32","","19","","","","101.24","","","","-17","","NA"
"2018-11-21 19:00","2018","11","21","19:00","-10.5","","-17.6","","56","","33","","19","","","","101.40","","","","-18","","NA"
"2018-11-21 20:00","2018","11","21","20:00","-11.6","","-18.3","","57","","33","","24","","","","101.53","","","","-21","","NA"
"2018-11-21 21:00","2018","11","21","21:00","-12.6","","-18.6","","61","","32","","20","","","","101.63","","","","-21","","NA"
"2018-11-21 22:00","2018","11","21","22:00","-13.4","","-19.0","","63","","32","","18","","","","101.69","","","","-22","","NA"
"2018-11-21 23:00","2018","11","21","23:00","-14.1","","-19.6","","63","","31","","16","","","","101.75","","","","-22","","NA"
"2018-11-22 00:00","2018","11","22","00:00","-14.6","","-19.6","","66","","31","","13","","","","101.82","","","","-22","","NA"
"2018-11-22 01:00","2018","11","22","01:00","-15.1","","-19.7","","68","","30","","11","","","","101.82","","","","-22","","NA"
"2018-11-22 02:00","2018","11","22","02:00","-15.4","","-19.4","","71","","29","","12","","","","101.83","","","","-22","","NA"
"2018-11-22 03:00","2018","11","22","03:00","-15.7","","-19.4","","73","","28","","14","","","","101.83","","","","-23","","NA"
"2018-11-22 04:00","2018","11","22","04:00","-16.0","","-19.3","","75","","30","","13","","","","101.85","","","","-24","","NA"
"2018-11-22 05:00","2018","11","22","05:00","-16.3","","-19.2","","78","","30","","14","","","","101.89","","","","-24","","NA"
"2018-11-22 06:00","2018","11","22","06:00","-16.4","","-19.5","","77","","32","","14","","","","101.99","","","","-24","","NA"
"2018-11-22 07:00","2018","11","22","07:00","-16.6","","-19.6","","78","","31","","14","","","","102.11","","","","-25","","NA"
"2018-11-22 08:00","2018","11","22","08:00","-16.0","","-19.2","","76","","30","","15","","","","102.20","","","","-24","","NA"
"2018-11-22 09:00","2018","11","22","09:00","-14.5","","-19.0","","69","","32","","19","","","","102.29","","","","-23","","NA"
"2018-11-22 10:00","2018","11","22","10:00","-12.5","","-18.0","","64","","34","","21","","","","102.36","","","","-21","","NA"
"2018-11-22 11:00","2018","11","22","11:00","-12.0","","-18.3","","59","","33","","17","","","","102.39","","","","-20","","NA"
"2018-11-22 12:00","2018","11","22","12:00","-10.6","","-18.1","","54","","33","","14","","","","102.37","","","","-17","","NA"
"2018-11-22 13:00","2018","11","22","13:00","-9.6","","-17.9","","51","","35","","17","","","","102.35","","","","-17","","NA"
"2018-11-22 14:00","2018","11","22","14:00","-9.1","","-18.0","","48","","33","","14","","","","102.36","","","","-15","","NA"
"2018-11-22 15:00","2018","11","22","15:00","-8.7","","-18.2","","46","","33","","17","","","","102.36","","","","-16","","NA"
"2018-11-22 16:00","2018","11","22","16:00","-9.1","","-18.4","","47","","32","","12","","","","102.39","","","","-15","","NA"
"2018-11-22 17:00","2018","11","22","17:00","-9.5","","-19.0","","46","","30","","5","","","","102.41","","","","-12","","NA"
"2018-11-22 18:00","2018","11","22","18:00","-9.8","","-17.8","","52","","28","","7","","","","102.44","","","","-14","","NA"
"2018-11-22 19:00","2018","11","22","19:00","-10.2","","-17.7","","54","","29","","8","","","","102.44","","","","-15","","NA"
"2018-11-22 20:00","2018","11","22","20:00","-10.7","","-17.8","","56","","29","","8","","","","102.44","","","","-15","","NA"
"2018-11-22 21:00","2018","11","22","21:00","-11.4","","-17.4","","61","","29","","10","","","","102.45","","","","-17","","NA"
"2018-11-22 22:00","2018","11","22","22:00","-14.5","","-17.6","","77","","33","","9","","","","102.48","","","","-20","","NA"
"2018-11-22 23:00","2018","11","22","23:00","-15.8","","-18.2","","81","","33","","8","","","","102.49","","","","-21","","NA"
"2018-11-23 00:00","2018","11","23","00:00","-13.4","","-17.3","","72","","31","","10","","","","102.51","","","","-19","","NA"
"2018-11-23 01:00","2018","11","23","01:00","-15.7","","-18.4","","80","","34","","11","","","","102.46","","","","-22","","NA"
"2018-11-23 02:00","2018","11","23","02:00","-15.3","","-18.0","","80","","3","","6","","","","102.42","","","","-20","","NA"
"2018-11-23 03:00","2018","11","23","03:00","-14.4","","-17.0","","81","","2","","6","","","","102.38","","","","-19","","NA"
"2018-11-23 04:00","2018","11","23","04:00","-13.0","","-15.3","","83","","1","","9","","","","102.27","","","","-18","","NA"
"2018-11-23 05:00","2018","11","23","05:00","-11.8","","-13.4","","87","","1","","8","","","","102.20","","","","-17","","NA"
"2018-11-23 06:00","2018","11","23","06:00","-5.4","","-9.9","","70","","18","","29","","","","102.11","","","","-13","","NA"
"2018-11-23 07:00","2018","11","23","07:00","-5.6","","-9.7","","73","","18","","28","","","","102.11","","","","-14","","NA"
"2018-11-23 08:00","2018","11","23","08:00","-6.1","","-10.3","","72","","17","","33","","","","102.09","","","","-15","","NA"
"2018-11-23 09:00","2018","11","23","09:00","-6.1","","-9.9","","74","","17","","33","","","","102.02","","","","-15","","NA"
"2018-11-23 10:00","2018","11","23","10:00","-5.2","","-9.8","","70","","17","","30","","","","101.90","","","","-13","","NA"
"2018-11-23 11:00","2018","11","23","11:00","-4.7","","-9.8","","67","","17","","31","","","","101.78","","","","-13","","NA"
"2018-11-23 12:00","2018","11","23","12:00","-3.9","","-9.6","","64","","19","","28","","","","101.63","","","","-11","","NA"
"2018-11-23 13:00","2018","11","23","13:00","-3.0","","-8.6","","65","","18","","26","","","","101.51","","","","-10","","NA"
"2018-11-23 14:00","2018","11","23","14:00","-2.3","","-8.8","","61","","18","","26","","","","101.43","","","","-9","","NA"
"2018-11-23 15:00","2018","11","23","15:00","-1.4","","-8.2","","60","","18","","25","","","","101.35","","","","-8","","NA"
"2018-11-23 16:00","2018","11","23","16:00","-0.8","","-8.4","","56","","19","","28","","","","101.33","","","","-7","","NA"
"2018-11-23 17:00","2018","11","23","17:00","-0.6","","-7.7","","59","","19","","28","","","","101.30","","","","-7","","NA"
"2018-11-23 18:00","2018","11","23","18:00","0.0","","-6.9","","59","","18","","30","","","","101.26","","","","-6","","NA"
"2018-11-23 19:00","2018","11","23","19:00","0.4","","-6.7","","59","","18","","34","","","","101.21","","","","","","NA"
"2018-11-23 20:00","2018","11","23","20:00","0.7","","-6.0","","61","","18","","34","","","","101.11","","","","","","NA"
"2018-11-23 21:00","2018","11","23","21:00","0.7","","-5.2","","64","","18","","32","","","","101.05","","","","","","NA"
"2018-11-23 22:00","2018","11","23","22:00","0.8","","-4.7","","67","","18","","32","","","","100.99","","","","","","NA"
"2018-11-23 23:00","2018","11","23","23:00","0.6","","-5.1","","65","","18","","34","","","","100.94","","","","","","NA"
"2018-11-24 00:00","2018","11","24","00:00","0.8","","-4.3","","69","","18","","33","","","","100.91","","","","","","NA"
"2018-11-24 01:00","2018","11","24","01:00","1.0","","-4.4","","67","","18","","30","","","","100.79","","","","","","NA"
"2018-11-24 02:00","2018","11","24","02:00","0.5","","-4.4","","70","","18","","30","","","","100.76","","","","","","NA"
"2018-11-24 03:00","2018","11","24","03:00","0.5","","-4.2","","71","","17","","26","","","","100.71","","","","","","NA"
"2018-11-24 04:00","2018","11","24","04:00","0.5","","-4.2","","71","","17","","27","","","","100.61","","","","","","NA"
"2018-11-24 05:00","2018","11","24","05:00","0.2","","-4.8","","69","","17","","32","","","","100.56","","","","","","NA"
"2018-11-24 06:00","2018","11","24","06:00","0.2","","-5.0","","68","","16","","34","","","","100.49","","","","","","NA"
"2018-11-24 07:00","2018","11","24","07:00","0.4","","-5.0","","67","","16","","33","","","","100.45","","","","","","NA"
"2018-11-24 08:00","2018","11","24","08:00","0.7","","-4.8","","67","","16","","32","","","","100.36","","","","","","NA"
"2018-11-24 09:00","2018","11","24","09:00","1.3","","-4.3","","66","","17","","38","","","","100.30","","","","","","NA"
"2018-11-24 10:00","2018","11","24","10:00","1.6","","-3.9","","67","","17","","34","","","","100.28","","","","","","NA"
"2018-11-24 11:00","2018","11","24","11:00","3.0","","-1.2","","74","","17","","30","","","","100.19","","","","","","NA"
"2018-11-24 12:00","2018","11","24","12:00","3.7","","-0.3","","75","","16","","26","","","","100.09","","","","","","NA"
"2018-11-24 13:00","2018","11","24","13:00","4.4","","0.7","","77","","16","","23","","","","100.05","","","","","","NA"
"2018-11-24 14:00","2018","11","24","14:00","5.0","","1.3","","77","","18","","27","","","","99.98","","","","","","NA"
"2018-11-24 15:00","2018","11","24","15:00","4.2","","2.5","","89","","15","","24","","","","99.90","","","","","","NA"
"2018-11-24 16:00","2018","11","24","16:00","3.6","","2.4","","92","","14","","22","","","","99.76","","","","","","NA"
"2018-11-24 17:00","2018","11","24","17:00","5.4","","4.3","","93","","16","","19","","","","99.76","","","","","","NA"
"2018-11-24 18:00","2018","11","24","18:00","5.8","","4.5","","92","","18","","18","","","","99.68","","","","","","NA"
"2018-11-24 19:00","2018","11","24","19:00","5.5","","4.0","","91","","17","","26","","","","99.64","","","","","","NA"
"2018-11-24 20:00","2018","11","24","20:00","5.1","","3.9","","92","","18","","28","","","","99.59","","","","","","NA"
"2018-11-24 21:00","2018","11","24","21:00","4.7","","4.0","","95","","18","","25","","","","99.53","","","","","","NA"
"2018-11-24 22:00","2018","11","24","22:00","4.6","","3.9","","95","","18","","26","","","","99.53","","","","","","NA"
"2018-11-24 23:00","2018","11","24","23:00","4.9","","4.4","","96","","18","","20","","","","99.46","","","","","","NA"
"2018-11-25 00:00","2018","11","25","00:00","5.1","","4.3","","95","","18","","24","","","","99.45","","","","","","NA"
"2018-11-25 01:00","2018","11","25","01:00","5.1","","4.4","","95","","18","","27","","","","99.44","","","","","","NA"
"2018-11-25 02:00","2018","11","25","02:00","5.2","","4.7","","96","","17","","27","","","","99.44","","","","","","NA"
"2018-11-25 03:00","2018","11","25","03:00","5.3","","4.9","","97","","18","","25","","","","99.45","","","","","","NA"
"2018-11-25 04:00","2018","11","25","04:00","5.5","","5.0","","96","","18","","23","","","","99.43","","","","","","NA"
"2018-11-25 05:00","2018","11","25","05:00","5.9","","5.2","","96","","19","","22","","","","99.45","","","","","","NA"
"2018-11-25 06:00","2018","11","25","06:00","5.9","","5.0","","94","","18","","21","","","","99.44","","","","","","NA"
"2018-11-25 07:00","2018","11","25","07:00","6.7","","5.6","","93","","20","","20","","","","99.50","","","","","","NA"
"2018-11-25 08:00","2018","11","25","08:00","6.7","","5.6","","93","","23","","16","","","","99.55","","","","","","NA"
"2018-11-25 09:00","2018","11","25","09:00","6.6","","5.4","","92","","24","","17","","","","99.58","","","","","","NA"
"2018-11-25 10:00","2018","11","25","10:00","6.8","","5.3","","90","","23","","16","","","","99.65","","","","","","NA"
"2018-11-25 11:00","2018","11","25","11:00","7.0","","5.2","","88","","24","","20","","","","99.68","","","","","","NA"
"2018-11-25 12:00","2018","11","25","12:00","6.7","","5.1","","89","","24","","20","","","","99.70","","","","","","NA"
"2018-11-25 13:00","2018","11","25","13:00","7.5","","4.9","","84","","26","","14","","","","99.73","","","","","","NA"
"2018-11-25 14:00","2018","11","25","14:00","7.4","","4.3","","80","","27","","13","","","","99.77","","","","","","NA"
"2018-11-25 15:00","2018","11","25","15:00","6.5","","4.5","","87","","24","","14","","","","99.88","","","","","","NA"
"2018-11-25 16:00","2018","11","25","16:00","6.3","","3.9","","84","","25","","14","","","","99.97","","","","","","NA"
"2018-11-25 17:00","2018","11","25","17:00","5.7","","3.5","","86","","25","","14","","","","100.07","","","","","","NA"
"2018-11-25 18:00","2018","11","25","18:00","5.3","","3.3","","88","","26","","8","","","","100.13","","","","","","NA"
"2018-11-25 19:00","2018","11","25","19:00","5.2","","3.7","","90","","25","","7","","","","100.12","","","","","","NA"
"2018-11-25 20:00","2018","11","25","20:00","5.1","","2.8","","85","","25","","5","","","","100.09","","","","","","NA"
"2018-11-25 21:00","2018","11","25","21:00","4.9","","2.9","","87","","25","","4","","","","100.13","","","","","","NA"
"2018-11-25 22:00","2018","11","25","22:00","4.6","","2.0","","83","","27","","5","","","","100.10","","","","","","NA"
"2018-11-25 23:00","2018","11","25","23:00","4.0","","2.1","","87","","0","","1","","","","100.09","","","","","","NA"
"2018-11-26 00:00","2018","11","26","00:00","3.4","","2.1","","91","","22","","2","","","","100.05","","","","","","NA"
"2018-11-26 01:00","2018","11","26","01:00","3.2","","2.3","","94","","1","","3","","","","100.03","","","","","","NA"
"2018-11-26 02:00","2018","11","26","02:00","2.7","","1.9","","95","","5","","4","","","","100.03","","","","","","NA"
"2018-11-26 03:00","2018","11","26","03:00","2.7","","2.1","","96","","3","","3","","","","100.03","","","","","","NA"
"2018-11-26 04:00","2018","11","26","04:00","3.3","","2.7","","96","","9","","8","","","","99.94","","","","","","NA"
"2018-11-26 05:00","2018","11","26","05:00","3.5","","3.1","","97","","7","","10","","","","99.88","","","","","","NA"
"2018-11-26 06:00","2018","11","26","06:00","3.4","","2.9","","96","","7","","11","","","","99.81","","","","","","NA"
"2018-11-26 07:00","2018","11","26","07:00","3.5","","2.5","","93","","7","","13","","","","99.74","","","","","","NA"
"2018-11-26 08:00","2018","11","26","08:00","4.1","","2.6","","90","","7","","17","","","","99.66","","","","","","NA"
"2018-11-26 09:00","2018","11","26","09:00","4.1","","2.8","","91","","6","","18","","","","99.57","","","","","","NA"
"2018-11-26 10:00","2018","11","26","10:00","4.2","","2.8","","91","","8","","18","","","","99.54","","","","","","NA"
"2018-11-26 11:00","2018","11","26","11:00","4.0","","3.0","","93","","7","","19","","","","99.38","","","","","","NA"
"2018-11-26 12:00","2018","11","26","12:00","4.4","","3.6","","95","","7","","22","","","","99.20","","","","","","NA"
"2018-11-26 13:00","2018","11","26","13:00","4.8","","3.8","","93","","8","","26","","","","99.07","","","","","","NA"
"2018-11-26 14:00","2018","11","26","14:00","4.5","","3.3","","92","","8","","29","","","","98.95","","","","","","NA"
"2018-11-26 15:00","2018","11","26","15:00","4.6","","3.4","","92","","9","","24","","","","98.93","","","","","","NA"
"2018-11-26 16:00","2018","11","26","16:00","4.3","","3.2","","93","","9","","23","","","","98.91","","","","","","NA"
"2018-11-26 17:00","2018","11","26","17:00","4.1","","3.3","","95","","9","","19","","","","98.89","","","","","","NA"
"2018-11-26 18:00","2018","11","26","18:00","4.3","","3.3","","94","","8","","20","","","","98.84","","","","","","NA"
"2018-11-26 19:00","2018","11","26","19:00","4.1","","3.3","","95","","8","","20","","","","98.78","","","","","","NA"
"2018-11-26 20:00","2018","11","26","20:00","4.1","","3.3","","95","","7","","19","","","","98.77","","","","","","NA"
"2018-11-26 21:00","2018","11","26","21:00","4.4","","3.5","","94","","9","","18","","","","98.70","","","","","","NA"
"2018-11-26 22:00","2018","11","26","22:00","4.4","","3.7","","95","","8","","18","","","","98.64","","","","","","NA"
"2018-11-26 23:00","2018","11","26","23:00","4.4","","3.7","","95","","9","","16","","","","98.60","","","","","","NA"
"2018-11-27 00:00","2018","11","27","00:00","4.4","","3.3","","93","","11","","13","","","","98.57","","","","","","NA"
"2018-11-27 01:00","2018","11","27","01:00","4.3","","3.3","","93","","11","","13","","","","98.53","","","","","","NA"
"2018-11-27 02:00","2018","11","27","02:00","4.2","","3.1","","92","","13","","18","","","","98.53","","","","","","NA"
"2018-11-27 03:00","2018","11","27","03:00","3.7","","2.7","","93","","10","","16","","","","98.52","","","","","","NA"
"2018-11-27 04:00","2018","11","27","04:00","3.1","","2.0","","92","","8","","18","","","","98.48","","","","","","NA"
"2018-11-27 05:00","2018","11","27","05:00","2.2","","1.3","","94","","7","","19","","","","98.49","","","","","","NA"
"2018-11-27 06:00","2018","11","27","06:00","1.4","","0.8","","96","","5","","16","","","","98.51","","","","","","NA"
"2018-11-27 07:00","2018","11","27","07:00","0.5","","0.0","","96","","5","","13","","","","98.53","","","","","","NA"
"2018-11-27 08:00","2018","11","27","08:00","0.5","","0.0","","97","","4","","10","","","","98.54","","","","","","NA"
"2018-11-27 09:00","2018","11","27","09:00","1.0","","0.5","","97","","4","","13","","","","98.54","","","","","","NA"
"2018-11-27 10:00","2018","11","27","10:00","1.5","","0.8","","95","","4","","13","","","","98.56","","","","","","NA"
"2018-11-27 11:00","2018","11","27","11:00","1.5","","0.7","","94","","2","","13","","","","98.53","","","","","","NA"
"2018-11-27 12:00","2018","11","27","12:00","1.5","","0.4","","92","","36","","15","","","","98.47","","","","","","NA"
"2018-11-27 13:00","2018","11","27","13:00","0.9","","0.0","","94","","35","","12","","","","98.46","","","","","","NA"
"2018-11-27 14:00","2018","11","27","14:00","0.6","","0.0","","96","","35","","9","","","","98.48","","","","","","NA"
"2018-11-27 15:00","2018","11","27","15:00","0.2","","-0.3","","97","","34","","11","","","","98.52","","","","","","NA"
"2018-11-27 16:00","2018","11","27","16:00","0.1","","-0.3","","97","","32","","9","","","","98.55","","","","","","NA"
"2018-11-27 17:00","2018","11","27","17:00","0.1","","-0.3","","97","","32","","8","","","","98.58","","","","","","NA"
"2018-11-27 18:00","2018","11","27","18:00","0.1","","-0.5","","96","","31","","9","","","","98.61","","","","","","NA"
"2018-11-27 19:00","2018","11","27","19:00","0.0","","-0.5","","96","","29","","8","","","","98.61","","","","-3","","NA"
"2018-11-27 20:00","2018","11","27","20:00","0.1","","-0.3","","97","","27","","9","","","","98.57","","","","","","NA"
"2018-11-27 21:00","2018","11","27","21:00","0.2","","-0.2","","97","","27","","12","","","","98.54","","","","","","NA"
"2018-11-27 22:00","2018","11","27","22:00","0.2","","-0.2","","97","","28","","12","","","","98.52","","","","","","NA"
"2018-11-27 23:00","2018","11","27","23:00","0.2","","-0.1","","97","","27","","12","","","","98.50","","","","","","NA"
"2018-11-28 00:00","2018","11","28","00:00","0.2","","-0.3","","96","","28","","16","","","","98.48","","","","","","NA"
"2018-11-28 01:00","2018","11","28","01:00","0.0","","-0.5","","96","","28","","15","","","","98.45","","","","-4","","NA"
"2018-11-28 02:00","2018","11","28","02:00","0.0","","-0.5","","96","","28","","17","","","","98.47","","","","-5","","NA"
"2018-11-28 03:00","2018","11","28","03:00","0.0","","-0.7","","95","","29","","17","","","","98.49","","","","-5","","NA"
"2018-11-28 04:00","2018","11","28","04:00","-0.2","","-1.1","","93","","29","","17","","","","98.50","","","","-5","","NA"
"2018-11-28 05:00","2018","11","28","05:00","-0.3","","-1.5","","92","","29","","19","","","","98.53","","","","-5","","NA"
"2018-11-28 06:00","2018","11","28","06:00","-0.5","","-1.5","","93","","29","","18","","","","98.55","","","","-6","","NA"
"2018-11-28 07:00","2018","11","28","07:00","-0.6","","-1.6","","93","","30","","20","","","","98.63","","","","-6","","NA"
"2018-11-28 08:00","2018","11","28","08:00","-0.7","","-1.9","","92","","30","","21","","","","98.69","","","","-6","","NA"
"2018-11-28 09:00","2018","11","28","09:00","-0.5","","-1.9","","90","","30","","19","","","","98.73","","","","-6","","NA"
"2018-11-28 10:00","2018","11","28","10:00","-0.3","","-1.9","","89","","30","","22","","","","98.80","","","","-6","","NA"
"2018-11-28 11:00","2018","11","28","11:00","-0.3","","-1.8","","90","","30","","24","","","","98.83","","","","-6","","NA"
"2018-11-28 12:00","2018","11","28","12:00","-0.1","","-1.4","","91","","30","","20","","","","98.85","","","","-5","","NA"
"2018-11-28 13:00","2018","11","28","13:00","0.5","","-1.0","","90","","30","","20","","","","98.89","","","","","","NA"
"2018-11-28 14:00","2018","11","28","14:00","0.8","","-1.0","","88","","29","","22","","","","98.95","","","","","","NA"
"2018-11-28 15:00","2018","11","28","15:00","1.0","","-0.9","","88","","29","","21","","","","99.03","","","","","","NA"
"2018-11-28 16:00","2018","11","28","16:00","0.8","","-1.2","","87","","30","","24","","","","99.14","","","","","","NA"
"2018-11-28 17:00","2018","11","28","17:00","0.8","","-1.1","","87","","29","","17","","","","99.24","","","","","","NA"
"2018-11-28 18:00","2018","11","28","18:00","0.5","","-1.1","","88","","29","","19","","","","99.37","","","","","","NA"
"2018-11-28 19:00","2018","11","28","19:00","0.5","","-1.4","","87","","29","","21","","","","99.46","","","","","","NA"
"2018-11-28 20:00","2018","11","28","20:00","0.4","","-1.8","","85","","30","","20","","","","99.55","","","","","","NA"
"2018-11-28 21:00","2018","11","28","21:00","0.5","","-1.9","","84","","31","","23","","","","99.61","","","","","","NA"
"2018-11-28 22:00","2018","11","28","22:00","0.3","","-1.9","","85","","30","","20","","","","99.67","","","","","","NA"
"2018-11-28 23:00","2018","11","28","23:00","0.2","","-1.9","","86","","29","","17","","","","99.72","","","","","","NA"
"2018-11-29 00:00","2018","11","29","00:00","0.0","","-2.1","","86","","29","","18","","","","99.77","","","","-5","","NA"
"2018-11-29 01:00","2018","11","29","01:00","0.0","","-2.0","","87","","30","","16","","","","99.81","","","","-5","","NA"
"2018-11-29 02:00","2018","11","29","02:00","0.1","","-2.0","","86","","31","","17","","","","99.88","","","","","","NA"
"2018-11-29 03:00","2018","11","29","03:00","-0.3","","-2.1","","88","","28","","14","","","","99.96","","","","-5","","NA"
"2018-11-29 04:00","2018","11","29","04:00","-0.7","","-2.2","","89","","27","","16","","","","100.01","","","","-5","","NA"
"2018-11-29 05:00","2018","11","29","05:00","-0.5","","-2.4","","87","","29","","13","","","","100.07","","","","-5","","NA"
"2018-11-29 06:00","2018","11","29","06:00","-0.8","","-2.6","","87","","31","","14","","","","100.12","","","","-5","","NA"
"2018-11-29 07:00","2018","11","29","07:00","-0.4","","-2.4","","86","","29","","13","","","","100.19","","","","-5","","NA"
"2018-11-29 08:00","2018","11","29","08:00","-0.4","","-2.1","","88","","27","","13","","","","100.26","","","","-5","","NA"
"2018-11-29 09:00","2018","11","29","09:00","-0.2","","-1.9","","88","","27","","11","","","","100.36","","","","-4","","NA"
"2018-11-29 10:00","2018","11","29","10:00","0.2","","-1.8","","86","","26","","10","","","","100.41","","","","","","NA"
"2018-11-29 11:00","2018","11","29","11:00","0.7","","-2.0","","82","","30","","14","","","","100.39","","","","","","NA"
"2018-11-29 12:00","2018","11","29","12:00","1.1","","-1.9","","81","","28","","13","","","","100.34","","","","","","NA"
"2018-11-29 13:00","2018","11","29","13:00","1.4","","-2.0","","78","","28","","14","","","","100.28","","","","","","NA"
"2018-11-29 14:00","2018","11","29","14:00","1.5","","-1.8","","78","","28","","11","","","","100.31","","","","","","NA"
"2018-11-29 15:00","2018","11","29","15:00","1.6","","-1.8","","78","","27","","11","","","","100.33","","","","","","NA"
"2018-11-29 16:00","2018","11","29","16:00","1.3","","-1.6","","81","","27","","9","","","","100.38","","","","","","NA"
"2018-11-29 17:00","2018","11","29","17:00","1.1","","-1.4","","83","","27","","10","","","","100.43","","","","","","NA"
"2018-11-29 18:00","2018","11","29","18:00","1.0","","-1.4","","84","","27","","8","","","","100.43","","","","","","NA"
"2018-11-29 19:00","2018","11","29","19:00","0.9","","-1.4","","85","","27","","9","","","","100.45","","","","","","NA"
"2018-11-29 20:00","2018","11","29","20:00","0.7","","-1.4","","85","","27","","8","","","","100.47","","","","","","NA"
"2018-11-29 21:00","2018","11","29","21:00","0.7","","-1.6","","85","","27","","7","","","","100.48","","","","","","NA"
"2018-11-29 22:00","2018","11","29","22:00","0.3","","-1.4","","88","","34","","5","","","","100.45","","","","","","NA"
"2018-11-29 23:00","2018","11","29","23:00","0.4","","-1.4","","88","","29","","6","","","","100.49","","","","","","NA"
"2018-11-30 00:00","2018","11","30","00:00","0.4","","-1.3","","88","","28","","8","","","","100.48","","","","","","NA"
"2018-11-30 01:00","2018","11","30","01:00","0.1","","-1.2","","91","","32","","8","","","","100.43","","","","","","NA"
"2018-11-30 02:00","2018","11","30","02:00","0.2","","-1.3","","90","","","","0","","","","100.47","","","","","","NA"
"2018-11-30 03:00","2018","11","30","03:00","-0.1","","-1.3","","92","","36","","6","","","","100.47","","","","-2","","NA"
"2018-11-30 04:00","2018","11","30","04:00","0.0","","-1.2","","92","","6","","2","","","","100.48","","","","-1","","NA"
"2018-11-30 05:00","2018","11","30","05:00","0.2","","-1.3","","90","","2","","7","","","","100.47","","","","","","NA"
"2018-11-30 06:00","2018","11","30","06:00","0.1","","-2.0","","86","","5","","10","","","","100.47","","","","","","NA"
"2018-11-30 07:00","2018","11","30","07:00","0.0","","-2.0","","87","","5","","7","","","","100.54","","","","-2","","NA"
"2018-11-30 08:00","2018","11","30","08:00","0.1","","-1.9","","87","","5","","9","","","","100.54","","","","","","NA"
"2018-11-30 09:00","2018","11","30","09:00","0.3","","-2.1","","84","","5","","10","","","","100.56","","","","","","NA"
"2018-11-30 10:00","2018","11","30","10:00","0.8","","-2.1","","81","","7","","10","","","","100.57","","","","","","NA"
"2018-11-30 11:00","2018","11","30","11:00","1.6","","-1.5","","80","","9","","10","","","","100.55","","","","","","NA"
"2018-11-30 12:00","2018","11","30","12:00","1.6","","-1.4","","80","","11","","8","","","","100.52","","","","","","NA"
"2018-11-30 13:00","2018","11","30","13:00","1.7","","-1.4","","79","","8","","6","","","","100.49","","","","","","NA"
"2018-11-30 14:00","2018","11","30","14:00","1.9","","-1.1","","81","","13","","3","","","","100.50","","","","","","NA"
"2018-11-30 15:00","2018","11","30","15:00","1.8","","-0.3","","86","","","","0","","","","100.56","","","","","","NA"
"2018-11-30 16:00","2018","11","30","16:00","1.3","","-0.2","","90","","33","","4","","","","100.62","","","","","","NA"
"2018-11-30 17:00","2018","11","30","17:00","1.4","","-0.1","","90","","5","","2","","","","100.65","","","","","","NA"
"2018-11-30 18:00","2018","11","30","18:00","1.1","","-0.1","","92","","33","","6","","","","100.70","","","","","","NA"
"2018-11-30 19:00","2018","11","30","19:00","1.1","","-0.2","","91","","32","","4","","","","100.74","","","","","","NA"
"2018-11-30 20:00","2018","11","30","20:00","0.8","","-0.7","","90","","32","","3","","","","100.80","","","","","","NA"
"2018-11-30 21:00","2018","11","30","21:00","1.0","","-1.1","","86","","30","","6","","","","100.85","","","","","","NA"
"2018-11-30 22:00","2018","11","30","22:00","0.5","","-1.4","","87","","29","","4","","","","100.86","","","","","","NA"
"2018-11-30 23:00","2018","11","30","23:00","-1.1","","-2.0","","94","","28","","2","","","","100.90","","","","-2","","NA"
