"Station Name","KINGSTON CLIMATE"
"Province","ONTARIO"
"Latitude","44.22"
"Longitude","-76.60"
"Elevation","93.00"
"Climate Identifier","6104142"
"WMO Identifier","71820"
"TC Identifier","TKG"
"All times are specified in Local Standard Time (LST). Add 1 hour to adjust for Daylight Saving Time where and when it is observed."

"Legend"
"E","Estimated"
"M","Missing"
"NA","Not Available"

"Date/Time","Year","Month","Day","Time","Temp (°C)","Temp Flag","Dew Point Temp (°C)","Dew Point Temp Flag","Rel Hum (%)","Rel Hum Flag","Wind Dir (10s deg)","Wind Dir Flag","Wind Spd (km/h)","Wind Spd Flag","Visibility (km)","Visibility Flag","Stn Press (kPa)","Stn Press Flag","Hmdx","Hmdx Flag","Wind Chill","Wind Chill Flag","Weather"
"2016-11-01 00:00","2016","11","01","00:00","-0.5","","-2.2","","88","","3","","8","","","","101.29","","","","-3","","NA"
"2016-11-01 01:00","2016","11","01","01:00","1.0","","-0.7","","89","","4","","11","","","","101.27","","","","","","NA"
"2016-11-01 02:00","2016","11","01","02:00","2.3","","1.0","","91","","8","","8","","","","101.26","","","","","","NA"
"2016-11-01 03:00","2016","11","01","03:00","4.9","","2.3","","84","","12","","10","","","","101.19","","","","","","NA"
"2016-11-01 04:00","2016","11","01","04:00","6.3","","3.0","","80","","16","","28","","","","101.12","","","","","","NA"
"2016-11-01 05:00","2016","11","01","05:00","6.3","","3.3","","81","","16","","27","","","","101.13","","","","","","NA"
"2016-11-01 06:00","2016","11","01","06:00","6.3","","3.4","","82","","16","","24","","","","101.13","","","","","","NA"
"2016-11-01 07:00","2016","11","01","07:00","6.2","","2.6","","77","","15","","31","","","","101.09","","","","","","NA"
"2016-11-01 08:00","2016","11","01","08:00","6.4","","2.7","","77","","15","","34","","","","101.09","","","","","","NA"
"2016-11-01 09:00","2016","11","01","09:00","7.6","","3.5","","75","","17","","31","","","","101.09","","","","","","NA"
"2016-11-01 10:00","2016","11","01","10:00","8.2","","3.4","","72","","17","","31","","","","101.02","","","","","","NA"
"2016-11-01 11:00","2016","11","01","11:00","9.4","","4.5","","72","","17","","29","","","","100.96","","","","","","NA"
"2016-11-01 12:00","2016","11","01","12:00","9.4","","4.3","","70","","16","","29","","","","100.88","","","","","","NA"
"2016-11-01 13:00","2016","11","01","13:00","10.2","","4.9","","70","","16","","33","","","","100.73","","","","","","NA"
"2016-11-01 14:00","2016","11","01","14:00","11.4","","5.7","","68","","17","","26","","","","100.73","","","","","","NA"
"2016-11-01 15:00","2016","11","01","15:00","11.7","","7.3","","74","","14","","20","","","","100.59","","","","","","NA"
"2016-11-01 16:00","2016","11","01","16:00","12.8","","7.7","","71","","16","","27","","","","100.58","","","","","","NA"
"2016-11-01 17:00","2016","11","01","17:00","12.7","","8.0","","73","","16","","21","","","","100.56","","","","","","NA"
"2016-11-01 18:00","2016","11","01","18:00","13.2","","8.6","","74","","16","","25","","","","100.57","","","","","","NA"
"2016-11-01 19:00","2016","11","01","19:00","13.0","","8.9","","76","","17","","24","","","","100.59","","","","","","NA"
"2016-11-01 20:00","2016","11","01","20:00","12.7","","9.5","","81","","17","","21","","","","100.62","","","","","","NA"
"2016-11-01 21:00","2016","11","01","21:00","12.7","","9.3","","80","","18","","25","","","","100.63","","","","","","NA"
"2016-11-01 22:00","2016","11","01","22:00","12.8","","9.0","","78","","19","","26","","","","100.67","","","","","","NA"
"2016-11-01 23:00","2016","11","01","23:00","12.7","","9.0","","78","","19","","25","","","","100.70","","","","","","NA"
"2016-11-02 00:00","2016","11","02","00:00","12.5","","9.1","","80","","18","","22","","","","100.71","","","","","","NA"
"2016-11-02 01:00","2016","11","02","01:00","12.4","","9.1","","80","","18","","18","","","","100.72","","","","","","NA"
"2016-11-02 02:00","2016","11","02","02:00","12.3","","9.2","","82","","19","","14","","","","100.75","","","","","","NA"
"2016-11-02 03:00","2016","11","02","03:00","12.2","","9.6","","84","","19","","12","","","","100.75","","","","","","NA"
"2016-11-02 04:00","2016","11","02","04:00","11.3","","9.2","","87","","19","","11","","","","100.76","","","","","","NA"
"2016-11-02 05:00","2016","11","02","05:00","11.3","","9.1","","87","","20","","11","","","","100.81","","","","","","NA"
"2016-11-02 06:00","2016","11","02","06:00","11.2","","9.2","","88","","19","","8","","","","100.82","","","","","","NA"
"2016-11-02 07:00","2016","11","02","07:00","11.0","","9.5","","91","","18","","8","","","","100.87","","","","","","NA"
"2016-11-02 08:00","2016","11","02","08:00","12.4","","10.7","","89","","20","","7","","","","100.97","","","","","","NA"
"2016-11-02 09:00","2016","11","02","09:00","13.9","","11.2","","84","","22","","6","","","","100.99","","","","","","NA"
"2016-11-02 10:00","2016","11","02","10:00","14.4","","11.3","","82","","16","","7","","","","100.99","","","","","","NA"
"2016-11-02 11:00","2016","11","02","11:00","13.6","","11.2","","86","","15","","9","","","","100.95","","","","","","NA"
"2016-11-02 12:00","2016","11","02","12:00","12.8","","10.9","","88","","16","","9","","","","100.91","","","","","","NA"
"2016-11-02 13:00","2016","11","02","13:00","13.9","","11.2","","84","","18","","9","","","","100.92","","","","","","NA"
"2016-11-02 14:00","2016","11","02","14:00","14.1","","11.5","","84","","17","","13","","","","100.88","","","","","","NA"
"2016-11-02 15:00","2016","11","02","15:00","14.2","","11.5","","84","","17","","10","","","","100.86","","","","","","NA"
"2016-11-02 16:00","2016","11","02","16:00","12.3","","10.8","","91","","16","","5","","","","100.87","","","","","","NA"
"2016-11-02 17:00","2016","11","02","17:00","12.0","","10.6","","91","","15","","2","","","","100.88","","","","","","NA"
"2016-11-02 18:00","2016","11","02","18:00","12.1","","10.9","","92","","20","","3","","","","100.92","","","","","","NA"
"2016-11-02 19:00","2016","11","02","19:00","12.2","","10.9","","92","","19","","8","","","","100.90","","","","","","NA"
"2016-11-02 20:00","2016","11","02","20:00","12.9","","11.3","","90","","26","","9","","","","100.86","","","","","","NA"
"2016-11-02 21:00","2016","11","02","21:00","12.1","","10.6","","90","","20","","4","","","","100.86","","","","","","NA"
"2016-11-02 22:00","2016","11","02","22:00","11.9","","10.8","","94","","26","","6","","","","100.83","","","","","","NA"
"2016-11-02 23:00","2016","11","02","23:00","12.2","","10.2","","88","","27","","6","","","","100.75","","","","","","NA"
"2016-11-03 00:00","2016","11","03","00:00","11.6","","10.4","","92","","23","","5","","","","100.73","","","","","","NA"
"2016-11-03 01:00","2016","11","03","01:00","10.7","","9.7","","94","","33","","6","","","","100.63","","","","","","NA"
"2016-11-03 02:00","2016","11","03","02:00","10.7","","9.7","","93","","14","","5","","","","100.56","","","","","","NA"
"2016-11-03 03:00","2016","11","03","03:00","9.9","","9.0","","94","","33","","4","","","","100.52","","","","","","NA"
"2016-11-03 04:00","2016","11","03","04:00","10.0","","9.1","","95","","3","","3","","","","100.42","","","","","","NA"
"2016-11-03 05:00","2016","11","03","05:00","9.7","","8.6","","93","","33","","9","","","","100.43","","","","","","NA"
"2016-11-03 06:00","2016","11","03","06:00","9.5","","8.2","","92","","36","","10","","","","100.34","","","","","","NA"
"2016-11-03 07:00","2016","11","03","07:00","9.3","","8.2","","93","","35","","13","","","","100.36","","","","","","NA"
"2016-11-03 08:00","2016","11","03","08:00","9.0","","8.1","","94","","35","","17","","","","100.37","","","","","","NA"
"2016-11-03 09:00","2016","11","03","09:00","9.3","","8.3","","94","","6","","10","","","","100.23","","","","","","NA"
"2016-11-03 10:00","2016","11","03","10:00","10.0","","8.8","","93","","33","","4","","","","100.29","","","","","","NA"
"2016-11-03 11:00","2016","11","03","11:00","10.4","","9.1","","92","","30","","17","","","","100.43","","","","","","NA"
"2016-11-03 12:00","2016","11","03","12:00","11.7","","9.6","","87","","31","","12","","","","100.39","","","","","","NA"
"2016-11-03 13:00","2016","11","03","13:00","12.1","","9.3","","83","","30","","13","","","","100.37","","","","","","NA"
"2016-11-03 14:00","2016","11","03","14:00","12.5","","9.0","","79","","32","","10","","","","100.38","","","","","","NA"
"2016-11-03 15:00","2016","11","03","15:00","12.5","","8.7","","78","","32","","7","","","","100.41","","","","","","NA"
"2016-11-03 16:00","2016","11","03","16:00","11.8","","6.9","","72","","30","","13","","","","100.43","","","","","","NA"
"2016-11-03 17:00","2016","11","03","17:00","10.3","","7.0","","80","","32","","10","","","","100.47","","","","","","NA"
"2016-11-03 18:00","2016","11","03","18:00","10.6","","7.3","","80","","32","","11","","","","100.53","","","","","","NA"
"2016-11-03 19:00","2016","11","03","19:00","10.2","","6.9","","80","","32","","13","","","","100.57","","","","","","NA"
"2016-11-03 20:00","2016","11","03","20:00","10.0","","6.4","","79","","33","","18","","","","100.63","","","","","","NA"
"2016-11-03 21:00","2016","11","03","21:00","9.4","","6.4","","82","","32","","18","","","","100.68","","","","","","NA"
"2016-11-03 22:00","2016","11","03","22:00","8.9","","5.8","","81","","33","","16","","","","100.71","","","","","","NA"
"2016-11-03 23:00","2016","11","03","23:00","8.4","","4.3","","75","","34","","23","","","","100.79","","","","","","NA"
"2016-11-04 00:00","2016","11","04","00:00","7.6","","3.9","","77","","35","","23","","","","100.91","","","","","","NA"
"2016-11-04 01:00","2016","11","04","01:00","6.7","","2.8","","76","","35","","18","","","","100.94","","","","","","NA"
"2016-11-04 02:00","2016","11","04","02:00","5.3","","2.1","","80","","34","","15","","","","101.00","","","","","","NA"
"2016-11-04 03:00","2016","11","04","03:00","5.3","","1.9","","79","","33","","9","","","","101.03","","","","","","NA"
"2016-11-04 04:00","2016","11","04","04:00","5.1","","1.4","","77","","33","","20","","","","101.10","","","","","","NA"
"2016-11-04 05:00","2016","11","04","05:00","4.0","","0.5","","78","","2","","12","","","","101.21","","","","","","NA"
"2016-11-04 06:00","2016","11","04","06:00","3.1","","-0.3","","79","","32","","11","","","","101.25","","","","","","NA"
"2016-11-04 07:00","2016","11","04","07:00","1.3","","-0.9","","85","","34","","9","","","","101.32","","","","","","NA"
"2016-11-04 08:00","2016","11","04","08:00","3.5","","-0.2","","77","","35","","3","","","","101.42","","","","","","NA"
"2016-11-04 09:00","2016","11","04","09:00","4.0","","-0.2","","74","","34","","10","","","","101.44","","","","","","NA"
"2016-11-04 10:00","2016","11","04","10:00","4.5","","-0.7","","69","","36","","6","","","","101.42","","","","","","NA"
"2016-11-04 11:00","2016","11","04","11:00","5.3","","-1.7","","61","","34","","8","","","","101.46","","","","","","NA"
"2016-11-04 12:00","2016","11","04","12:00","6.4","","0.2","","65","","19","","10","","","","101.38","","","","","","NA"
"2016-11-04 13:00","2016","11","04","13:00","6.8","","-0.4","","60","","21","","13","","","","101.32","","","","","","NA"
"2016-11-04 14:00","2016","11","04","14:00","7.8","","-1.0","","54","","22","","16","","","","101.24","","","","","","NA"
"2016-11-04 15:00","2016","11","04","15:00","7.5","","0.8","","63","","17","","14","","","","101.25","","","","","","NA"
"2016-11-04 16:00","2016","11","04","16:00","8.2","","-1.2","","51","","24","","10","","","","101.23","","","","","","NA"
"2016-11-04 17:00","2016","11","04","17:00","7.3","","0.3","","61","","24","","14","","","","101.21","","","","","","NA"
"2016-11-04 18:00","2016","11","04","18:00","6.6","","-1.2","","57","","26","","13","","","","101.18","","","","","","NA"
"2016-11-04 19:00","2016","11","04","19:00","6.5","","-0.4","","61","","25","","12","","","","101.14","","","","","","NA"
"2016-11-04 20:00","2016","11","04","20:00","6.8","","0.7","","65","","25","","13","","","","101.10","","","","","","NA"
"2016-11-04 21:00","2016","11","04","21:00","7.5","","1.3","","65","","25","","16","","","","101.07","","","","","","NA"
"2016-11-04 22:00","2016","11","04","22:00","6.9","","2.4","","73","","26","","15","","","","101.08","","","","","","NA"
"2016-11-04 23:00","2016","11","04","23:00","8.3","","4.2","","75","","25","","14","","","","100.99","","","","","","NA"
"2016-11-05 00:00","2016","11","05","00:00","8.4","","3.6","","72","","25","","14","","","","100.96","","","","","","NA"
"2016-11-05 01:00","2016","11","05","01:00","8.4","","4.1","","74","","25","","11","","","","100.92","","","","","","NA"
"2016-11-05 02:00","2016","11","05","02:00","8.5","","3.9","","73","","26","","15","","","","100.87","","","","","","NA"
"2016-11-05 03:00","2016","11","05","03:00","8.6","","4.3","","74","","26","","16","","","","100.86","","","","","","NA"
"2016-11-05 04:00","2016","11","05","04:00","9.2","","4.6","","73","","26","","18","","","","100.85","","","","","","NA"
"2016-11-05 05:00","2016","11","05","05:00","9.1","","4.8","","75","","26","","13","","","","100.89","","","","","","NA"
"2016-11-05 06:00","2016","11","05","06:00","8.3","","4.8","","78","","26","","14","","","","100.93","","","","","","NA"
"2016-11-05 07:00","2016","11","05","07:00","8.3","","5.1","","80","","25","","12","","","","100.97","","","","","","NA"
"2016-11-05 08:00","2016","11","05","08:00","8.6","","5.3","","80","","25","","13","","","","101.03","","","","","","NA"
"2016-11-05 09:00","2016","11","05","09:00","10.6","","6.0","","73","","26","","13","","","","101.05","","","","","","NA"
"2016-11-05 10:00","2016","11","05","10:00","11.9","","6.0","","67","","27","","15","","","","101.02","","","","","","NA"
"2016-11-05 11:00","2016","11","05","11:00","12.4","","6.5","","67","","26","","15","","","","100.98","","","","","","NA"
"2016-11-05 12:00","2016","11","05","12:00","12.3","","6.9","","70","","25","","17","","","","100.94","","","","","","NA"
"2016-11-05 13:00","2016","11","05","13:00","12.3","","7.0","","70","","24","","15","","","","100.85","","","","","","NA"
"2016-11-05 14:00","2016","11","05","14:00","12.3","","7.6","","73","","24","","17","","","","100.77","","","","","","NA"
"2016-11-05 15:00","2016","11","05","15:00","12.3","","8.2","","76","","24","","19","","","","100.75","","","","","","NA"
"2016-11-05 16:00","2016","11","05","16:00","13.0","","8.2","","73","","24","","13","","","","100.77","","","","","","NA"
"2016-11-05 17:00","2016","11","05","17:00","11.8","","9.0","","83","","24","","17","","","","100.75","","","","","","NA"
"2016-11-05 18:00","2016","11","05","18:00","11.2","","8.7","","85","","23","","18","","","","100.74","","","","","","NA"
"2016-11-05 19:00","2016","11","05","19:00","10.3","","8.0","","86","","24","","13","","","","100.77","","","","","","NA"
"2016-11-05 20:00","2016","11","05","20:00","10.4","","7.8","","84","","26","","13","","","","100.81","","","","","","NA"
"2016-11-05 21:00","2016","11","05","21:00","10.2","","7.1","","81","","29","","15","","","","100.84","","","","","","NA"
"2016-11-05 22:00","2016","11","05","22:00","9.0","","5.9","","81","","30","","12","","","","100.90","","","","","","NA"
"2016-11-05 23:00","2016","11","05","23:00","8.2","","5.6","","83","","30","","9","","","","100.95","","","","","","NA"
"2016-11-06 00:00","2016","11","06","00:00","7.3","","3.5","","76","","32","","12","","","","101.02","","","","","","NA"
"2016-11-06 01:00","2016","11","06","01:00","5.5","","2.4","","81","","34","","13","","","","101.12","","","","","","NA"
"2016-11-06 02:00","2016","11","06","02:00","5.6","","0.4","","69","","35","","23","","","","101.20","","","","","","NA"
"2016-11-06 03:00","2016","11","06","03:00","3.7","","-0.8","","73","","34","","15","","","","101.31","","","","","","NA"
"2016-11-06 04:00","2016","11","06","04:00","2.5","","-1.1","","77","","33","","13","","","","101.38","","","","","","NA"
"2016-11-06 05:00","2016","11","06","05:00","2.1","","-1.0","","80","","32","","10","","","","101.48","","","","","","NA"
"2016-11-06 06:00","2016","11","06","06:00","1.1","","-1.4","","84","","33","","12","","","","101.52","","","","","","NA"
"2016-11-06 07:00","2016","11","06","07:00","0.2","","-1.8","","86","","34","","13","","","","101.58","","","","","","NA"
"2016-11-06 08:00","2016","11","06","08:00","2.9","","-0.5","","78","","33","","17","","","","101.70","","","","","","NA"
"2016-11-06 09:00","2016","11","06","09:00","4.5","","-0.9","","68","","35","","16","","","","101.76","","","","","","NA"
"2016-11-06 10:00","2016","11","06","10:00","5.9","","-0.7","","62","","35","","19","","","","101.80","","","","","","NA"
"2016-11-06 11:00","2016","11","06","11:00","6.9","","-1.6","","54","","35","","21","","","","101.79","","","","","","NA"
"2016-11-06 12:00","2016","11","06","12:00","7.2","","-1.6","","54","","35","","19","","","","101.78","","","","","","NA"
"2016-11-06 13:00","2016","11","06","13:00","8.1","","-1.6","","50","","36","","13","","","","101.75","","","","","","NA"
"2016-11-06 14:00","2016","11","06","14:00","9.1","","-0.6","","51","","35","","8","","","","101.75","","","","","","NA"
"2016-11-06 15:00","2016","11","06","15:00","9.2","","-2.2","","45","","32","","6","","","","101.74","","","","","","NA"
"2016-11-06 16:00","2016","11","06","16:00","8.5","","-2.4","","46","","35","","8","","","","101.76","","","","","","NA"
"2016-11-06 17:00","2016","11","06","17:00","7.8","","-2.0","","50","","17","","1","","","","101.78","","","","","","NA"
"2016-11-06 18:00","2016","11","06","18:00","7.0","","-0.1","","61","","22","","6","","","","101.83","","","","","","NA"
"2016-11-06 19:00","2016","11","06","19:00","4.5","","-0.2","","72","","22","","3","","","","101.87","","","","","","NA"
"2016-11-06 20:00","2016","11","06","20:00","3.4","","-0.2","","77","","21","","6","","","","101.88","","","","","","NA"
"2016-11-06 21:00","2016","11","06","21:00","1.3","","-0.3","","89","","35","","3","","","","101.90","","","","","","NA"
"2016-11-06 22:00","2016","11","06","22:00","0.1","","-1.1","","92","","1","","4","","","","101.93","","","","","","NA"
"2016-11-06 23:00","2016","11","06","23:00","-0.3","","-1.5","","92","","3","","4","","","","101.94","","","","-2","","NA"
"2016-11-07 00:00","2016","11","07","00:00","-0.4","","-1.5","","92","","4","","5","","","","101.93","","","","-2","","NA"
"2016-11-07 01:00","2016","11","07","01:00","-0.4","","-1.9","","90","","3","","4","","","","101.95","","","","-2","","NA"
"2016-11-07 02:00","2016","11","07","02:00","-0.9","","-1.7","","95","","4","","4","","","","101.96","","","","-2","","NA"
"2016-11-07 03:00","2016","11","07","03:00","-1.7","","-2.5","","95","","33","","4","","","","101.96","","","","-3","","NA"
"2016-11-07 04:00","2016","11","07","04:00","-1.0","","-1.7","","95","","33","","3","","","","101.95","","","","-2","","NA"
"2016-11-07 05:00","2016","11","07","05:00","6.8","","3.9","","81","","19","","16","","","","101.96","","","","","","NA"
"2016-11-07 06:00","2016","11","07","06:00","7.0","","3.5","","78","","20","","15","","","","101.97","","","","","","NA"
"2016-11-07 07:00","2016","11","07","07:00","6.6","","3.3","","79","","21","","13","","","","102.00","","","","","","NA"
"2016-11-07 08:00","2016","11","07","08:00","8.0","","3.2","","71","","20","","16","","","","102.04","","","","","","NA"
"2016-11-07 09:00","2016","11","07","09:00","9.0","","2.9","","66","","20","","18","","","","102.05","","","","","","NA"
"2016-11-07 10:00","2016","11","07","10:00","9.6","","2.5","","61","","19","","18","","","","102.03","","","","","","NA"
"2016-11-07 11:00","2016","11","07","11:00","10.0","","4.0","","66","","18","","19","","","","102.03","","","","","","NA"
"2016-11-07 12:00","2016","11","07","12:00","9.7","","4.0","","68","","17","","19","","","","102.00","","","","","","NA"
"2016-11-07 13:00","2016","11","07","13:00","10.3","","3.6","","63","","18","","18","","","","101.93","","","","","","NA"
"2016-11-07 14:00","2016","11","07","14:00","10.4","","3.7","","64","","19","","19","","","","101.86","","","","","","NA"
"2016-11-07 15:00","2016","11","07","15:00","10.4","","4.0","","65","","19","","16","","","","101.81","","","","","","NA"
"2016-11-07 16:00","2016","11","07","16:00","10.0","","4.6","","69","","19","","15","","","","101.73","","","","","","NA"
"2016-11-07 17:00","2016","11","07","17:00","8.6","","4.9","","77","","19","","12","","","","101.67","","","","","","NA"
"2016-11-07 18:00","2016","11","07","18:00","8.4","","5.8","","84","","21","","6","","","","101.63","","","","","","NA"
"2016-11-07 19:00","2016","11","07","19:00","6.8","","5.3","","90","","20","","6","","","","101.60","","","","","","NA"
"2016-11-07 20:00","2016","11","07","20:00","5.0","","4.3","","95","","18","","6","","","","101.55","","","","","","NA"
"2016-11-07 21:00","2016","11","07","21:00","3.5","","2.7","","94","","31","","1","","","","101.50","","","","","","NA"
"2016-11-07 22:00","2016","11","07","22:00","2.8","","1.9","","94","","","","0","","","","101.44","","","","","","NA"
"2016-11-07 23:00","2016","11","07","23:00","1.8","","1.2","","96","","12","","3","","","","101.37","","","","","","NA"
"2016-11-08 00:00","2016","11","08","00:00","1.4","","0.7","","95","","19","","6","","","","101.33","","","","","","NA"
"2016-11-08 01:00","2016","11","08","01:00","4.2","","3.6","","96","","19","","8","","","","101.28","","","","","","NA"
"2016-11-08 02:00","2016","11","08","02:00","8.6","","7.1","","90","","18","","11","","","","101.24","","","","","","NA"
"2016-11-08 03:00","2016","11","08","03:00","9.6","","7.2","","85","","18","","14","","","","101.20","","","","","","NA"
"2016-11-08 04:00","2016","11","08","04:00","9.3","","7.1","","86","","19","","15","","","","101.11","","","","","","NA"
"2016-11-08 05:00","2016","11","08","05:00","9.5","","7.1","","85","","18","","16","","","","101.07","","","","","","NA"
"2016-11-08 06:00","2016","11","08","06:00","9.3","","7.0","","86","","18","","17","","","","101.02","","","","","","NA"
"2016-11-08 07:00","2016","11","08","07:00","9.3","","6.8","","85","","18","","19","","","","100.98","","","","","","NA"
"2016-11-08 08:00","2016","11","08","08:00","10.1","","7.2","","82","","18","","20","","","","100.95","","","","","","NA"
"2016-11-08 09:00","2016","11","08","09:00","10.8","","7.2","","78","","18","","19","","","","100.89","","","","","","NA"
"2016-11-08 10:00","2016","11","08","10:00","11.5","","7.6","","77","","19","","20","","","","100.82","","","","","","NA"
"2016-11-08 11:00","2016","11","08","11:00","11.6","","7.2","","75","","18","","18","","","","100.72","","","","","","NA"
"2016-11-08 12:00","2016","11","08","12:00","12.4","","7.7","","73","","18","","16","","","","100.61","","","","","","NA"
"2016-11-08 13:00","2016","11","08","13:00","11.8","","7.4","","74","","19","","16","","","","100.51","","","","","","NA"
"2016-11-08 14:00","2016","11","08","14:00","12.3","","7.9","","75","","19","","19","","","","100.42","","","","","","NA"
"2016-11-08 15:00","2016","11","08","15:00","12.3","","7.9","","75","","20","","19","","","","100.37","","","","","","NA"
"2016-11-08 16:00","2016","11","08","16:00","12.7","","8.5","","76","","21","","7","","","","100.33","","","","","","NA"
"2016-11-08 17:00","2016","11","08","17:00","11.8","","8.0","","78","","22","","9","","","","100.31","","","","","","NA"
"2016-11-08 18:00","2016","11","08","18:00","11.7","","8.6","","81","","22","","11","","","","100.29","","","","","","NA"
"2016-11-08 19:00","2016","11","08","19:00","11.3","","8.6","","83","","23","","7","","","","100.24","","","","","","NA"
"2016-11-08 20:00","2016","11","08","20:00","11.4","","9.4","","88","","23","","6","","","","100.20","","","","","","NA"
"2016-11-08 21:00","2016","11","08","21:00","11.3","","9.6","","89","","22","","6","","","","100.15","","","","","","NA"
"2016-11-08 22:00","2016","11","08","22:00","11.9","","10.0","","89","","24","","11","","","","100.10","","","","","","NA"
"2016-11-08 23:00","2016","11","08","23:00","11.6","","10.0","","90","","25","","9","","","","100.06","","","","","","NA"
"2016-11-09 00:00","2016","11","09","00:00","11.3","","10.0","","91","","25","","8","","","","100.01","","","","","","NA"
"2016-11-09 01:00","2016","11","09","01:00","11.0","","9.8","","93","","23","","7","","","","100.01","","","","","","NA"
"2016-11-09 02:00","2016","11","09","02:00","10.3","","9.3","","93","","32","","4","","","","100.01","","","","","","NA"
"2016-11-09 03:00","2016","11","09","03:00","10.4","","8.7","","89","","35","","10","","","","100.03","","","","","","NA"
"2016-11-09 04:00","2016","11","09","04:00","10.0","","8.7","","92","","34","","13","","","","100.06","","","","","","NA"
"2016-11-09 05:00","2016","11","09","05:00","8.5","","6.0","","84","","35","","27","","","","100.14","","","","","","NA"
"2016-11-09 06:00","2016","11","09","06:00","7.5","","4.2","","79","","35","","28","","","","100.22","","","","","","NA"
"2016-11-09 07:00","2016","11","09","07:00","6.2","","2.9","","79","","35","","22","","","","100.29","","","","","","NA"
"2016-11-09 08:00","2016","11","09","08:00","5.8","","2.3","","78","","35","","23","","","","100.39","","","","","","NA"
"2016-11-09 09:00","2016","11","09","09:00","5.4","","1.0","","73","","35","","27","","","","100.41","","","","","","NA"
"2016-11-09 10:00","2016","11","09","10:00","5.8","","0.2","","67","","36","","24","","","","100.50","","","","","","NA"
"2016-11-09 11:00","2016","11","09","11:00","6.6","","0.6","","66","","35","","23","","","","100.49","","","","","","NA"
"2016-11-09 12:00","2016","11","09","12:00","7.0","","0.0","","61","","35","","24","","","","100.47","","","","","","NA"
"2016-11-09 13:00","2016","11","09","13:00","7.2","","-0.7","","57","","35","","25","","","","100.47","","","","","","NA"
"2016-11-09 14:00","2016","11","09","14:00","6.8","","-0.9","","58","","36","","20","","","","100.47","","","","","","NA"
"2016-11-09 15:00","2016","11","09","15:00","6.1","","-1.6","","58","","34","","20","","","","100.55","","","","","","NA"
"2016-11-09 16:00","2016","11","09","16:00","4.7","","-2.5","","60","","34","","15","","","","100.57","","","","","","NA"
"2016-11-09 17:00","2016","11","09","17:00","2.7","","-3.1","","66","","36","","9","","","","100.64","","","","","","NA"
"2016-11-09 18:00","2016","11","09","18:00","1.0","","-3.3","","73","","35","","12","","","","100.72","","","","","","NA"
"2016-11-09 19:00","2016","11","09","19:00","1.4","","-3.3","","71","","34","","7","","","","100.77","","","","","","NA"
"2016-11-09 20:00","2016","11","09","20:00","0.7","","-3.1","","76","","33","","5","","","","100.76","","","","","","NA"
"2016-11-09 21:00","2016","11","09","21:00","-0.2","","-2.3","","86","","31","","6","","","","100.78","","","","-2","","NA"
"2016-11-09 22:00","2016","11","09","22:00","-0.3","","-3.0","","82","","30","","6","","","","100.77","","","","-2","","NA"
"2016-11-09 23:00","2016","11","09","23:00","-1.4","","-3.4","","87","","31","","7","","","","100.76","","","","-4","","NA"
"2016-11-10 00:00","2016","11","10","00:00","-1.4","","-3.7","","84","","32","","7","","","","100.69","","","","-4","","NA"
"2016-11-10 01:00","2016","11","10","01:00","-2.2","","-3.6","","90","","32","","9","","","","100.69","","","","-6","","NA"
"2016-11-10 02:00","2016","11","10","02:00","-1.5","","-3.8","","84","","29","","5","","","","100.67","","","","-3","","NA"
"2016-11-10 03:00","2016","11","10","03:00","-0.8","","-3.3","","83","","29","","10","","","","100.64","","","","-4","","NA"
"2016-11-10 04:00","2016","11","10","04:00","-0.5","","-3.5","","80","","21","","7","","","","100.57","","","","-3","","NA"
"2016-11-10 05:00","2016","11","10","05:00","-1.0","","-3.8","","81","","27","","6","","","","100.51","","","","-3","","NA"
"2016-11-10 06:00","2016","11","10","06:00","1.0","","-1.5","","84","","27","","7","","","","100.49","","","","","","NA"
"2016-11-10 07:00","2016","11","10","07:00","2.3","","-0.8","","80","","25","","8","","","","100.41","","","","","","NA"
"2016-11-10 08:00","2016","11","10","08:00","4.4","","1.8","","83","","22","","13","","","","100.36","","","","","","NA"
"2016-11-10 09:00","2016","11","10","09:00","7.4","","4.4","","82","","22","","16","","","","100.24","","","","","","NA"
"2016-11-10 10:00","2016","11","10","10:00","9.0","","5.3","","77","","21","","30","","","","100.07","","","","","","NA"
"2016-11-10 11:00","2016","11","10","11:00","10.2","","5.3","","72","","21","","28","","","","99.96","","","","","","NA"
"2016-11-10 12:00","2016","11","10","12:00","10.9","","6.2","","73","","20","","28","","","","99.76","","","","","","NA"
"2016-11-10 13:00","2016","11","10","13:00","11.7","","4.8","","63","","22","","31","","","","99.64","","","","","","NA"
"2016-11-10 14:00","2016","11","10","14:00","12.4","","5.0","","61","","21","","29","","","","99.50","","","","","","NA"
"2016-11-10 15:00","2016","11","10","15:00","13.9","","4.8","","54","","23","","39","","","","99.35","","","","","","NA"
"2016-11-10 16:00","2016","11","10","16:00","12.7","","7.0","","68","","22","","31","","","","99.27","","","","","","NA"
"2016-11-10 17:00","2016","11","10","17:00","12.5","","6.5","","67","","22","","35","","","","99.20","","","","","","NA"
"2016-11-10 18:00","2016","11","10","18:00","12.1","","5.9","","66","","22","","32","","","","99.16","","","","","","NA"
"2016-11-10 19:00","2016","11","10","19:00","12.1","","6.7","","70","","24","","35","","","","99.08","","","","","","NA"
"2016-11-10 20:00","2016","11","10","20:00","12.2","","6.5","","68","","24","","39","","","","99.02","","","","","","NA"
"2016-11-10 21:00","2016","11","10","21:00","12.3","","5.7","","64","","24","","40","","","","98.96","","","","","","NA"
"2016-11-10 22:00","2016","11","10","22:00","12.3","","5.6","","64","","24","","38","","","","98.88","","","","","","NA"
"2016-11-10 23:00","2016","11","10","23:00","12.4","","5.6","","63","","24","","36","","","","98.78","","","","","","NA"
"2016-11-11 00:00","2016","11","11","00:00","12.0","","5.4","","64","","25","","29","","","","98.72","","","","","","NA"
"2016-11-11 01:00","2016","11","11","01:00","11.9","","5.0","","63","","25","","26","","","","98.73","","","","","","NA"
"2016-11-11 02:00","2016","11","11","02:00","11.9","","5.0","","63","","26","","27","","","","98.80","","","","","","NA"
"2016-11-11 03:00","2016","11","11","03:00","11.7","","5.3","","65","","27","","24","","","","98.86","","","","","","NA"
"2016-11-11 04:00","2016","11","11","04:00","10.2","","5.5","","73","","32","","22","","","","99.08","","","","","","NA"
"2016-11-11 05:00","2016","11","11","05:00","8.6","","2.9","","67","","32","","23","","","","99.31","","","","","","NA"
"2016-11-11 06:00","2016","11","11","06:00","7.0","","-0.2","","60","","31","","26","","","","99.48","","","","","","NA"
"2016-11-11 07:00","2016","11","11","07:00","5.9","","-1.1","","60","","33","","32","","","","99.71","","","","","","NA"
"2016-11-11 08:00","2016","11","11","08:00","4.7","","-2.3","","60","","33","","29","","","","99.90","","","","","","NA"
"2016-11-11 09:00","2016","11","11","09:00","4.9","","-4.6","","50","","33","","37","","","","100.01","","","","","","NA"
"2016-11-11 10:00","2016","11","11","10:00","5.5","","-3.7","","51","","34","","32","","","","100.16","","","","","","NA"
"2016-11-11 11:00","2016","11","11","11:00","5.5","","-3.5","","52","","34","","38","","","","100.30","","","","","","NA"
"2016-11-11 12:00","2016","11","11","12:00","5.7","","-5.2","","45","","35","","38","","","","100.38","","","","","","NA"
"2016-11-11 13:00","2016","11","11","13:00","6.0","","-5.3","","44","","33","","29","","","","100.46","","","","","","NA"
"2016-11-11 14:00","2016","11","11","14:00","5.9","","-5.7","","43","","33","","31","","","","100.54","","","","","","NA"
"2016-11-11 15:00","2016","11","11","15:00","5.1","","-6.4","","43","","33","","36","","","","100.65","","","","","","NA"
"2016-11-11 16:00","2016","11","11","16:00","4.4","","-6.4","","45","","32","","29","","","","100.78","","","","","","NA"
"2016-11-11 17:00","2016","11","11","17:00","3.0","","-6.4","","50","","33","","21","","","","100.91","","","","","","NA"
"2016-11-11 18:00","2016","11","11","18:00","2.5","","-5.8","","54","","33","","12","","","","101.03","","","","","","NA"
"2016-11-11 19:00","2016","11","11","19:00","0.6","","-5.7","","62","","31","","8","","","","101.16","","","","","","NA"
"2016-11-11 20:00","2016","11","11","20:00","1.7","","-5.6","","58","","31","","11","","","","101.25","","","","","","NA"
"2016-11-11 21:00","2016","11","11","21:00","1.1","","-5.4","","62","","32","","10","","","","101.36","","","","","","NA"
"2016-11-11 22:00","2016","11","11","22:00","0.0","","-5.8","","65","","34","","13","","","","101.43","","","","-4","","NA"
"2016-11-11 23:00","2016","11","11","23:00","-0.3","","-6.9","","61","","33","","17","","","","101.44","","","","-5","","NA"
"2016-11-12 00:00","2016","11","12","00:00","-1.3","","-7.1","","65","","31","","11","","","","101.44","","","","-5","","NA"
"2016-11-12 01:00","2016","11","12","01:00","-1.4","","-6.5","","68","","32","","12","","","","101.49","","","","-5","","NA"
"2016-11-12 02:00","2016","11","12","02:00","-1.8","","-6.5","","70","","32","","14","","","","101.51","","","","-6","","NA"
"2016-11-12 03:00","2016","11","12","03:00","-2.2","","-6.5","","72","","32","","8","","","","101.51","","","","-5","","NA"
"2016-11-12 04:00","2016","11","12","04:00","-2.5","","-6.0","","77","","33","","7","","","","101.54","","","","-5","","NA"
"2016-11-12 05:00","2016","11","12","05:00","-3.0","","-5.9","","80","","34","","8","","","","101.56","","","","-6","","NA"
"2016-11-12 06:00","2016","11","12","06:00","-3.7","","-6.6","","80","","29","","7","","","","101.56","","","","-7","","NA"
"2016-11-12 07:00","2016","11","12","07:00","-2.7","","-5.9","","78","","28","","12","","","","101.59","","","","-7","","NA"
"2016-11-12 08:00","2016","11","12","08:00","-0.9","","-4.6","","76","","27","","10","","","","101.60","","","","-4","","NA"
"2016-11-12 09:00","2016","11","12","09:00","0.6","","-4.3","","70","","27","","9","","","","101.59","","","","","","NA"
"2016-11-12 10:00","2016","11","12","10:00","2.2","","-4.3","","62","","27","","19","","","","101.59","","","","","","NA"
"2016-11-12 11:00","2016","11","12","11:00","3.6","","-3.0","","62","","27","","25","","","","101.52","","","","","","NA"
"2016-11-12 12:00","2016","11","12","12:00","4.8","","-2.2","","61","","24","","25","","","","101.37","","","","","","NA"
"2016-11-12 13:00","2016","11","12","13:00","5.6","","-2.6","","55","","26","","18","","","","101.24","","","","","","NA"
"2016-11-12 14:00","2016","11","12","14:00","7.0","","-2.4","","51","","24","","23","","","","101.08","","","","","","NA"
"2016-11-12 15:00","2016","11","12","15:00","6.5","","-0.5","","61","","22","","25","","","","100.97","","","","","","NA"
"2016-11-12 16:00","2016","11","12","16:00","7.0","","0.8","","64","","24","","31","","","","100.89","","","","","","NA"
"2016-11-12 17:00","2016","11","12","17:00","6.8","","1.6","","69","","24","","34","","","","100.82","","","","","","NA"
"2016-11-12 18:00","2016","11","12","18:00","7.7","","2.6","","70","","24","","35","","","","100.77","","","","","","NA"
"2016-11-12 19:00","2016","11","12","19:00","8.1","","2.5","","68","","22","","32","","","","100.72","","","","","","NA"
"2016-11-12 20:00","2016","11","12","20:00","8.8","","2.2","","63","","24","","37","","","","100.65","","","","","","NA"
"2016-11-12 21:00","2016","11","12","21:00","8.4","","2.7","","67","","24","","38","","","","100.62","","","","","","NA"
"2016-11-12 22:00","2016","11","12","22:00","8.1","","2.9","","70","","24","","33","","","","100.58","","","","","","NA"
"2016-11-12 23:00","2016","11","12","23:00","7.7","","1.8","","66","","25","","29","","","","100.57","","","","","","NA"
"2016-11-13 00:00","2016","11","13","00:00","7.2","","1.7","","68","","25","","23","","","","100.57","","","","","","NA"
"2016-11-13 01:00","2016","11","13","01:00","7.2","","1.4","","66","","25","","26","","","","100.54","","","","","","NA"
"2016-11-13 02:00","2016","11","13","02:00","7.1","","1.4","","67","","25","","22","","","","100.57","","","","","","NA"
"2016-11-13 03:00","2016","11","13","03:00","6.9","","1.2","","67","","25","","22","","","","100.52","","","","","","NA"
"2016-11-13 04:00","2016","11","13","04:00","6.9","","1.0","","66","","25","","24","","","","100.51","","","","","","NA"
"2016-11-13 05:00","2016","11","13","05:00","6.9","","1.1","","67","","24","","27","","","","100.51","","","","","","NA"
"2016-11-13 06:00","2016","11","13","06:00","6.5","","1.2","","69","","25","","25","","","","100.54","","","","","","NA"
"2016-11-13 07:00","2016","11","13","07:00","6.3","","1.5","","72","","25","","19","","","","100.58","","","","","","NA"
"2016-11-13 08:00","2016","11","13","08:00","6.9","","2.1","","72","","25","","26","","","","100.60","","","","","","NA"
"2016-11-13 09:00","2016","11","13","09:00","7.6","","2.5","","70","","25","","24","","","","100.62","","","","","","NA"
"2016-11-13 10:00","2016","11","13","10:00","8.8","","3.9","","72","","24","","24","","","","100.58","","","","","","NA"
"2016-11-13 11:00","2016","11","13","11:00","9.4","","3.9","","69","","23","","24","","","","100.55","","","","","","NA"
"2016-11-13 12:00","2016","11","13","12:00","9.3","","3.6","","68","","23","","26","","","","100.47","","","","","","NA"
"2016-11-13 13:00","2016","11","13","13:00","9.1","","4.2","","71","","22","","25","","","","100.40","","","","","","NA"
"2016-11-13 14:00","2016","11","13","14:00","8.6","","3.8","","72","","22","","30","","","","100.32","","","","","","NA"
"2016-11-13 15:00","2016","11","13","15:00","9.1","","3.0","","66","","23","","28","","","","100.28","","","","","","NA"
"2016-11-13 16:00","2016","11","13","16:00","9.3","","2.9","","64","","24","","21","","","","100.23","","","","","","NA"
"2016-11-13 17:00","2016","11","13","17:00","9.5","","2.7","","62","","24","","27","","","","100.23","","","","","","NA"
"2016-11-13 18:00","2016","11","13","18:00","8.5","","3.5","","71","","22","","16","","","","100.22","","","","","","NA"
"2016-11-13 19:00","2016","11","13","19:00","7.5","","3.8","","78","","20","","15","","","","100.22","","","","","","NA"
"2016-11-13 20:00","2016","11","13","20:00","8.7","","6.7","","87","","21","","17","","","","100.18","","","","","","NA"
"2016-11-13 21:00","2016","11","13","21:00","9.5","","5.4","","76","","23","","24","","","","100.17","","","","","","NA"
"2016-11-13 22:00","2016","11","13","22:00","9.7","","4.3","","69","","24","","25","","","","100.16","","","","","","NA"
"2016-11-13 23:00","2016","11","13","23:00","9.6","","4.1","","69","","24","","29","","","","100.15","","","","","","NA"
"2016-11-14 00:00","2016","11","14","00:00","9.8","","3.5","","65","","24","","32","","","","100.13","","","","","","NA"
"2016-11-14 01:00","2016","11","14","01:00","9.4","","3.9","","68","","22","","25","","","","100.14","","","","","","NA"
"2016-11-14 02:00","2016","11","14","02:00","9.0","","4.7","","75","","22","","18","","","","100.16","","","","","","NA"
"2016-11-14 03:00","2016","11","14","03:00","8.6","","4.7","","76","","22","","23","","","","100.13","","","","","","NA"
"2016-11-14 04:00","2016","11","14","04:00","8.6","","4.5","","75","","23","","24","","","","100.15","","","","","","NA"
"2016-11-14 05:00","2016","11","14","05:00","8.6","","3.1","","68","","24","","25","","","","100.20","","","","","","NA"
"2016-11-14 06:00","2016","11","14","06:00","8.1","","1.9","","65","","24","","20","","","","100.19","","","","","","NA"
"2016-11-14 07:00","2016","11","14","07:00","7.9","","1.4","","64","","24","","18","","","","100.22","","","","","","NA"
"2016-11-14 08:00","2016","11","14","08:00","8.2","","1.7","","63","","24","","19","","","","100.30","","","","","","NA"
"2016-11-14 09:00","2016","11","14","09:00","9.1","","1.6","","59","","25","","19","","","","100.32","","","","","","NA"
"2016-11-14 10:00","2016","11","14","10:00","10.3","","1.8","","55","","24","","17","","","","100.31","","","","","","NA"
"2016-11-14 11:00","2016","11","14","11:00","11.1","","2.1","","54","","22","","14","","","","100.29","","","","","","NA"
"2016-11-14 12:00","2016","11","14","12:00","11.9","","2.3","","52","","22","","14","","","","100.24","","","","","","NA"
"2016-11-14 13:00","2016","11","14","13:00","11.4","","4.5","","62","","19","","26","","","","100.22","","","","","","NA"
"2016-11-14 14:00","2016","11","14","14:00","11.6","","4.1","","60","","20","","20","","","","100.22","","","","","","NA"
"2016-11-14 15:00","2016","11","14","15:00","10.3","","5.9","","75","","19","","22","","","","100.26","","","","","","NA"
"2016-11-14 16:00","2016","11","14","16:00","9.4","","5.5","","77","","20","","13","","","","100.30","","","","","","NA"
"2016-11-14 17:00","2016","11","14","17:00","8.5","","5.3","","80","","23","","8","","","","100.29","","","","","","NA"
"2016-11-14 18:00","2016","11","14","18:00","7.7","","5.5","","86","","19","","8","","","","100.35","","","","","","NA"
"2016-11-14 19:00","2016","11","14","19:00","8.1","","5.7","","85","","19","","7","","","","100.36","","","","","","NA"
"2016-11-14 20:00","2016","11","14","20:00","7.7","","4.2","","79","","24","","7","","","","100.33","","","","","","NA"
"2016-11-14 21:00","2016","11","14","21:00","4.6","","3.6","","93","","","","0","","","","100.31","","","","","","NA"
"2016-11-14 22:00","2016","11","14","22:00","4.1","","3.3","","94","","8","","4","","","","100.31","","","","","","NA"
"2016-11-14 23:00","2016","11","14","23:00","3.4","","2.7","","95","","8","","3","","","","100.32","","","","","","NA"
"2016-11-15 00:00","2016","11","15","00:00","2.6","","1.8","","95","","11","","6","","","","100.34","","","","","","NA"
"2016-11-15 01:00","2016","11","15","01:00","2.1","","1.5","","96","","6","","6","","","","100.32","","","","","","NA"
"2016-11-15 02:00","2016","11","15","02:00","0.8","","0.1","","95","","2","","4","","","","100.33","","","","","","NA"
"2016-11-15 03:00","2016","11","15","03:00","1.1","","0.4","","95","","36","","4","","","","100.32","","","","","","NA"
"2016-11-15 04:00","2016","11","15","04:00","1.1","","0.3","","95","","3","","5","","","","100.30","","","","","","NA"
"2016-11-15 05:00","2016","11","15","05:00","1.8","","1.1","","95","","4","","5","","","","100.27","","","","","","NA"
"2016-11-15 06:00","2016","11","15","06:00","0.5","","-0.2","","95","","36","","5","","","","100.30","","","","","","NA"
"2016-11-15 07:00","2016","11","15","07:00","0.6","","-0.1","","95","","36","","4","","","","100.35","","","","","","NA"
"2016-11-15 08:00","2016","11","15","08:00","2.0","","1.4","","96","","3","","5","","","","100.38","","","","","","NA"
"2016-11-15 09:00","2016","11","15","09:00","6.8","","5.5","","92","","6","","7","","","","100.37","","","","","","NA"
"2016-11-15 10:00","2016","11","15","10:00","9.2","","6.5","","83","","6","","4","","","","100.34","","","","","","NA"
"2016-11-15 11:00","2016","11","15","11:00","11.3","","7.4","","77","","16","","6","","","","100.27","","","","","","NA"
"2016-11-15 12:00","2016","11","15","12:00","10.7","","7.2","","79","","20","","6","","","","100.21","","","","","","NA"
"2016-11-15 13:00","2016","11","15","13:00","11.6","","6.5","","71","","19","","7","","","","100.14","","","","","","NA"
"2016-11-15 14:00","2016","11","15","14:00","11.2","","7.1","","76","","16","","7","","","","100.07","","","","","","NA"
"2016-11-15 15:00","2016","11","15","15:00","11.4","","7.1","","75","","18","","5","","","","100.05","","","","","","NA"
"2016-11-15 16:00","2016","11","15","16:00","10.8","","7.5","","80","","21","","5","","","","100.03","","","","","","NA"
"2016-11-15 17:00","2016","11","15","17:00","8.3","","5.6","","83","","32","","3","","","","100.05","","","","","","NA"
"2016-11-15 18:00","2016","11","15","18:00","7.0","","5.0","","87","","15","","3","","","","100.07","","","","","","NA"
"2016-11-15 19:00","2016","11","15","19:00","8.1","","4.5","","78","","36","","8","","","","99.99","","","","","","NA"
"2016-11-15 20:00","2016","11","15","20:00","4.8","","2.9","","88","","34","","8","","","","99.98","","","","","","NA"
"2016-11-15 21:00","2016","11","15","21:00","4.5","","2.6","","88","","35","","10","","","","99.93","","","","","","NA"
"2016-11-15 22:00","2016","11","15","22:00","4.7","","2.9","","88","","35","","10","","","","99.89","","","","","","NA"
"2016-11-15 23:00","2016","11","15","23:00","5.3","","3.1","","85","","35","","11","","","","99.83","","","","","","NA"
"2016-11-16 00:00","2016","11","16","00:00","5.7","","3.3","","85","","34","","12","","","","99.75","","","","","","NA"
"2016-11-16 01:00","2016","11","16","01:00","6.4","","3.3","","81","","3","","9","","","","99.70","","","","","","NA"
"2016-11-16 02:00","2016","11","16","02:00","6.8","","3.3","","79","","2","","7","","","","99.70","","","","","","NA"
"2016-11-16 03:00","2016","11","16","03:00","6.4","","3.7","","83","","30","","6","","","","99.68","","","","","","NA"
"2016-11-16 04:00","2016","11","16","04:00","6.1","","3.4","","83","","29","","7","","","","99.63","","","","","","NA"
"2016-11-16 05:00","2016","11","16","05:00","5.5","","3.2","","85","","32","","9","","","","99.66","","","","","","NA"
"2016-11-16 06:00","2016","11","16","06:00","4.7","","3.0","","89","","33","","9","","","","99.65","","","","","","NA"
"2016-11-16 07:00","2016","11","16","07:00","4.6","","2.9","","89","","33","","10","","","","99.69","","","","","","NA"
"2016-11-16 08:00","2016","11","16","08:00","5.3","","3.4","","88","","34","","10","","","","99.70","","","","","","NA"
"2016-11-16 09:00","2016","11","16","09:00","6.3","","3.8","","84","","28","","6","","","","99.68","","","","","","NA"
"2016-11-16 10:00","2016","11","16","10:00","8.1","","4.8","","80","","8","","4","","","","99.64","","","","","","NA"
"2016-11-16 11:00","2016","11","16","11:00","8.8","","5.3","","79","","17","","9","","","","99.65","","","","","","NA"
"2016-11-16 12:00","2016","11","16","12:00","9.7","","5.7","","76","","18","","10","","","","99.60","","","","","","NA"
"2016-11-16 13:00","2016","11","16","13:00","11.0","","6.3","","73","","18","","13","","","","99.59","","","","","","NA"
"2016-11-16 14:00","2016","11","16","14:00","12.1","","5.5","","64","","22","","16","","","","99.60","","","","","","NA"
"2016-11-16 15:00","2016","11","16","15:00","9.7","","6.3","","80","","19","","20","","","","99.67","","","","","","NA"
"2016-11-16 16:00","2016","11","16","16:00","10.1","","6.9","","80","","21","","10","","","","99.72","","","","","","NA"
"2016-11-16 17:00","2016","11","16","17:00","9.5","","5.0","","73","","25","","14","","","","99.79","","","","","","NA"
"2016-11-16 18:00","2016","11","16","18:00","8.8","","5.4","","79","","26","","12","","","","99.85","","","","","","NA"
"2016-11-16 19:00","2016","11","16","19:00","8.8","","5.6","","80","","29","","10","","","","99.90","","","","","","NA"
"2016-11-16 20:00","2016","11","16","20:00","8.7","","5.9","","83","","28","","12","","","","99.93","","","","","","NA"
"2016-11-16 21:00","2016","11","16","21:00","8.5","","5.9","","84","","30","","14","","","","99.97","","","","","","NA"
"2016-11-16 22:00","2016","11","16","22:00","8.0","","5.6","","85","","30","","15","","","","100.02","","","","","","NA"
"2016-11-16 23:00","2016","11","16","23:00","8.2","","5.7","","84","","31","","14","","","","100.09","","","","","","NA"
"2016-11-17 00:00","2016","11","17","00:00","7.8","","5.5","","85","","29","","5","","","","100.17","","","","","","NA"
"2016-11-17 01:00","2016","11","17","01:00","8.1","","5.7","","85","","27","","10","","","","100.24","","","","","","NA"
"2016-11-17 02:00","2016","11","17","02:00","7.9","","5.4","","84","","28","","6","","","","100.30","","","","","","NA"
"2016-11-17 03:00","2016","11","17","03:00","6.2","","4.6","","89","","28","","7","","","","100.36","","","","","","NA"
"2016-11-17 04:00","2016","11","17","04:00","6.8","","5.0","","88","","31","","9","","","","100.44","","","","","","NA"
"2016-11-17 05:00","2016","11","17","05:00","7.3","","5.0","","86","","31","","8","","","","100.51","","","","","","NA"
"2016-11-17 06:00","2016","11","17","06:00","7.8","","5.1","","83","","32","","10","","","","100.58","","","","","","NA"
"2016-11-17 07:00","2016","11","17","07:00","7.8","","5.1","","83","","31","","7","","","","100.66","","","","","","NA"
"2016-11-17 08:00","2016","11","17","08:00","8.1","","5.0","","81","","32","","6","","","","100.72","","","","","","NA"
"2016-11-17 09:00","2016","11","17","09:00","8.7","","5.0","","77","","35","","6","","","","100.74","","","","","","NA"
"2016-11-17 10:00","2016","11","17","10:00","9.5","","4.9","","73","","31","","5","","","","100.82","","","","","","NA"
"2016-11-17 11:00","2016","11","17","11:00","9.9","","4.2","","67","","30","","4","","","","100.81","","","","","","NA"
"2016-11-17 12:00","2016","11","17","12:00","9.9","","4.2","","68","","21","","6","","","","100.77","","","","","","NA"
"2016-11-17 13:00","2016","11","17","13:00","10.1","","4.4","","68","","19","","7","","","","100.77","","","","","","NA"
"2016-11-17 14:00","2016","11","17","14:00","10.2","","4.1","","66","","19","","9","","","","100.73","","","","","","NA"
"2016-11-17 15:00","2016","11","17","15:00","10.3","","3.6","","63","","19","","7","","","","100.78","","","","","","NA"
"2016-11-17 16:00","2016","11","17","16:00","9.4","","4.0","","69","","16","","9","","","","100.82","","","","","","NA"
"2016-11-17 17:00","2016","11","17","17:00","8.5","","4.5","","76","","15","","12","","","","100.80","","","","","","NA"
"2016-11-17 18:00","2016","11","17","18:00","8.8","","5.1","","77","","17","","13","","","","100.81","","","","","","NA"
"2016-11-17 19:00","2016","11","17","19:00","8.2","","5.0","","81","","18","","11","","","","100.83","","","","","","NA"
"2016-11-17 20:00","2016","11","17","20:00","7.1","","4.8","","85","","20","","5","","","","100.81","","","","","","NA"
"2016-11-17 21:00","2016","11","17","21:00","4.3","","3.5","","95","","36","","5","","","","100.87","","","","","","NA"
"2016-11-17 22:00","2016","11","17","22:00","2.6","","1.8","","94","","5","","5","","","","100.84","","","","","","NA"
"2016-11-17 23:00","2016","11","17","23:00","2.8","","2.1","","96","","9","","5","","","","100.81","","","","","","NA"
"2016-11-18 00:00","2016","11","18","00:00","1.2","","0.5","","95","","8","","5","","","","100.84","","","","","","NA"
"2016-11-18 01:00","2016","11","18","01:00","2.9","","2.3","","96","","11","","7","","","","100.80","","","","","","NA"
"2016-11-18 02:00","2016","11","18","02:00","8.1","","7.3","","94","","17","","14","","","","100.85","","","","","","NA"
"2016-11-18 03:00","2016","11","18","03:00","8.6","","6.2","","85","","16","","17","","","","100.86","","","","","","NA"
"2016-11-18 04:00","2016","11","18","04:00","8.2","","6.2","","87","","15","","18","","","","100.84","","","","","","NA"
"2016-11-18 05:00","2016","11","18","05:00","8.2","","5.9","","86","","17","","18","","","","100.87","","","","","","NA"
"2016-11-18 06:00","2016","11","18","06:00","8.3","","6.2","","87","","15","","18","","","","100.82","","","","","","NA"
"2016-11-18 07:00","2016","11","18","07:00","8.3","","5.9","","85","","14","","23","","","","100.79","","","","","","NA"
"2016-11-18 08:00","2016","11","18","08:00","8.9","","5.9","","81","","16","","20","","","","100.83","","","","","","NA"
"2016-11-18 09:00","2016","11","18","09:00","9.5","","6.2","","80","","16","","20","","","","100.82","","","","","","NA"
"2016-11-18 10:00","2016","11","18","10:00","9.6","","6.1","","79","","17","","20","","","","100.81","","","","","","NA"
"2016-11-18 11:00","2016","11","18","11:00","10.2","","6.0","","75","","17","","11","","","","100.77","","","","","","NA"
"2016-11-18 12:00","2016","11","18","12:00","10.8","","6.3","","74","","16","","15","","","","100.66","","","","","","NA"
"2016-11-18 13:00","2016","11","18","13:00","11.4","","6.6","","72","","16","","8","","","","100.65","","","","","","NA"
"2016-11-18 14:00","2016","11","18","14:00","12.1","","5.6","","64","","15","","5","","","","100.59","","","","","","NA"
"2016-11-18 15:00","2016","11","18","15:00","13.4","","5.4","","59","","15","","5","","","","100.56","","","","","","NA"
"2016-11-18 16:00","2016","11","18","16:00","12.6","","5.2","","61","","11","","7","","","","100.53","","","","","","NA"
"2016-11-18 17:00","2016","11","18","17:00","12.1","","4.9","","61","","9","","11","","","","100.44","","","","","","NA"
"2016-11-18 18:00","2016","11","18","18:00","10.3","","3.8","","64","","7","","10","","","","100.42","","","","","","NA"
"2016-11-18 19:00","2016","11","18","19:00","10.2","","4.0","","65","","6","","10","","","","100.37","","","","","","NA"
"2016-11-18 20:00","2016","11","18","20:00","9.6","","4.0","","68","","5","","10","","","","100.32","","","","","","NA"
"2016-11-18 21:00","2016","11","18","21:00","8.1","","3.7","","74","","5","","9","","","","100.27","","","","","","NA"
"2016-11-18 22:00","2016","11","18","22:00","8.4","","4.2","","75","","4","","5","","","","100.25","","","","","","NA"
"2016-11-18 23:00","2016","11","18","23:00","5.2","","2.8","","85","","4","","6","","","","100.27","","","","","","NA"
"2016-11-19 00:00","2016","11","19","00:00","6.6","","4.7","","88","","2","","2","","","","100.29","","","","","","NA"
"2016-11-19 01:00","2016","11","19","01:00","6.6","","4.2","","85","","9","","6","","","","100.17","","","","","","NA"
"2016-11-19 02:00","2016","11","19","02:00","6.1","","3.4","","83","","9","","6","","","","100.11","","","","","","NA"
"2016-11-19 03:00","2016","11","19","03:00","5.6","","4.1","","90","","14","","4","","","","100.12","","","","","","NA"
"2016-11-19 04:00","2016","11","19","04:00","11.6","","7.6","","77","","14","","17","","","","100.06","","","","","","NA"
"2016-11-19 05:00","2016","11","19","05:00","11.2","","7.4","","77","","12","","11","","","","99.99","","","","","","NA"
"2016-11-19 06:00","2016","11","19","06:00","10.9","","6.5","","74","","10","","7","","","","99.88","","","","","","NA"
"2016-11-19 07:00","2016","11","19","07:00","10.6","","5.8","","73","","7","","8","","","","99.78","","","","","","NA"
"2016-11-19 08:00","2016","11","19","08:00","10.5","","5.6","","72","","10","","8","","","","99.69","","","","","","NA"
"2016-11-19 09:00","2016","11","19","09:00","11.9","","6.9","","71","","9","","9","","","","99.60","","","","","","NA"
"2016-11-19 10:00","2016","11","19","10:00","14.8","","7.6","","62","","13","","13","","","","99.55","","","","","","NA"
"2016-11-19 11:00","2016","11","19","11:00","13.6","","8.4","","71","","17","","9","","","","99.45","","","","","","NA"
"2016-11-19 12:00","2016","11","19","12:00","13.9","","8.7","","71","","19","","19","","","","99.33","","","","","","NA"
"2016-11-19 13:00","2016","11","19","13:00","14.0","","9.0","","72","","19","","19","","","","99.27","","","","","","NA"
"2016-11-19 14:00","2016","11","19","14:00","14.1","","8.6","","70","","23","","20","","","","99.25","","","","","","NA"
"2016-11-19 15:00","2016","11","19","15:00","11.4","","6.5","","72","","25","","32","","","","99.29","","","","","","NA"
"2016-11-19 16:00","2016","11","19","16:00","8.9","","4.1","","72","","25","","37","","","","99.42","","","","","","NA"
"2016-11-19 17:00","2016","11","19","17:00","6.1","","3.2","","81","","25","","37","","","","99.52","","","","","","NA"
"2016-11-19 18:00","2016","11","19","18:00","4.7","","2.6","","86","","26","","26","","","","99.60","","","","","","NA"
"2016-11-19 19:00","2016","11","19","19:00","4.3","","2.3","","86","","25","","25","","","","99.58","","","","","","NA"
"2016-11-19 20:00","2016","11","19","20:00","4.0","","2.0","","87","","26","","20","","","","99.51","","","","","","NA"
"2016-11-19 21:00","2016","11","19","21:00","3.9","","2.0","","87","","27","","13","","","","99.50","","","","","","NA"
"2016-11-19 22:00","2016","11","19","22:00","4.3","","2.3","","87","","26","","10","","","","99.44","","","","","","NA"
"2016-11-19 23:00","2016","11","19","23:00","4.7","","2.0","","83","","25","","17","","","","99.32","","","","","","NA"
"2016-11-20 00:00","2016","11","20","00:00","4.2","","2.5","","88","","26","","12","","","","99.20","","","","","","NA"
"2016-11-20 01:00","2016","11","20","01:00","3.6","","1.8","","88","","28","","18","","","","99.13","","","","","","NA"
"2016-11-20 02:00","2016","11","20","02:00","3.1","","1.3","","89","","27","","21","","","","99.10","","","","","","NA"
"2016-11-20 03:00","2016","11","20","03:00","2.2","","0.9","","91","","27","","17","","","","99.07","","","","","","NA"
"2016-11-20 04:00","2016","11","20","04:00","1.4","","0.4","","93","","26","","19","","","","99.02","","","","","","NA"
"2016-11-20 05:00","2016","11","20","05:00","1.0","","0.0","","93","","26","","18","","","","98.98","","","","","","NA"
"2016-11-20 06:00","2016","11","20","06:00","0.7","","-0.2","","94","","26","","22","","","","98.87","","","","","","NA"
"2016-11-20 07:00","2016","11","20","07:00","0.7","","-0.3","","93","","27","","22","","","","98.84","","","","","","NA"
"2016-11-20 08:00","2016","11","20","08:00","0.9","","0.0","","94","","28","","21","","","","98.81","","","","","","NA"
"2016-11-20 09:00","2016","11","20","09:00","1.1","","-0.7","","88","","31","","29","","","","98.85","","","","","","NA"
"2016-11-20 10:00","2016","11","20","10:00","0.0","","-1.5","","90","","30","","27","","","","98.87","","","","-6","","NA"
"2016-11-20 11:00","2016","11","20","11:00","-1.2","","-3.0","","88","","30","","31","","","","98.87","","","","-8","","NA"
"2016-11-20 12:00","2016","11","20","12:00","-1.9","","-3.1","","92","","30","","25","","","","98.86","","","","-8","","NA"
"2016-11-20 13:00","2016","11","20","13:00","-2.2","","-3.4","","91","","29","","29","","","","98.84","","","","-9","","NA"
"2016-11-20 14:00","2016","11","20","14:00","-2.3","","-3.5","","91","","28","","25","","","","98.83","","","","-9","","NA"
"2016-11-20 15:00","2016","11","20","15:00","-2.4","","-3.7","","90","","28","","28","","","","98.86","","","","-9","","NA"
"2016-11-20 16:00","2016","11","20","16:00","-2.6","","-4.0","","90","","28","","27","","","","98.91","","","","-10","","NA"
"2016-11-20 17:00","2016","11","20","17:00","-2.8","","-4.3","","90","","29","","28","","","","98.95","","","","-10","","NA"
"2016-11-20 18:00","2016","11","20","18:00","-2.9","","-4.7","","88","","29","","29","","","","98.95","","","","-10","","NA"
"2016-11-20 19:00","2016","11","20","19:00","-2.9","","-4.7","","87","","29","","31","","","","98.93","","","","-10","","NA"
"2016-11-20 20:00","2016","11","20","20:00","-3.1","","-4.5","","90","","29","","28","","","","98.94","","","","-10","","NA"
"2016-11-20 21:00","2016","11","20","21:00","-2.8","","-5.5","","82","","29","","30","","","","98.96","","","","-10","","NA"
"2016-11-20 22:00","2016","11","20","22:00","-3.3","","-4.6","","91","","28","","27","","","","98.94","","","","-10","","NA"
"2016-11-20 23:00","2016","11","20","23:00","-3.2","","-4.7","","89","","28","","26","","","","98.94","","","","-10","","NA"
"2016-11-21 00:00","2016","11","21","00:00","-3.3","","-4.7","","90","","28","","26","","","","98.92","","","","-10","","NA"
"2016-11-21 01:00","2016","11","21","01:00","-3.4","","-5.3","","87","","28","","31","","","","98.93","","","","-11","","NA"
"2016-11-21 02:00","2016","11","21","02:00","-3.5","","-5.2","","88","","28","","30","","","","98.97","","","","-11","","NA"
"2016-11-21 03:00","2016","11","21","03:00","-3.5","","-5.0","","90","","28","","26","","","","98.99","","","","-11","","NA"
"2016-11-21 04:00","2016","11","21","04:00","-3.8","","-5.6","","87","","28","","29","","","","98.98","","","","-11","","NA"
"2016-11-21 05:00","2016","11","21","05:00","-3.9","","-5.5","","89","","27","","29","","","","99.02","","","","-11","","NA"
"2016-11-21 06:00","2016","11","21","06:00","-4.1","","-5.6","","89","","27","","30","","","","99.06","","","","-12","","NA"
"2016-11-21 07:00","2016","11","21","07:00","-4.2","","-6.0","","87","","27","","31","","","","99.10","","","","-12","","NA"
"2016-11-21 08:00","2016","11","21","08:00","-3.9","","-6.1","","85","","27","","29","","","","99.16","","","","-11","","NA"
"2016-11-21 09:00","2016","11","21","09:00","-3.9","","-5.8","","86","","26","","32","","","","99.16","","","","-12","","NA"
"2016-11-21 10:00","2016","11","21","10:00","-3.7","","-6.2","","83","","27","","34","","","","99.20","","","","-12","","NA"
"2016-11-21 11:00","2016","11","21","11:00","-3.3","","-6.5","","78","","26","","31","","","","99.21","","","","-11","","NA"
"2016-11-21 12:00","2016","11","21","12:00","-3.3","","-5.7","","84","","27","","31","","","","99.24","","","","-11","","NA"
"2016-11-21 13:00","2016","11","21","13:00","-3.1","","-5.6","","83","","27","","32","","","","99.29","","","","-11","","NA"
"2016-11-21 14:00","2016","11","21","14:00","-2.8","","-5.3","","82","","27","","32","","","","99.33","","","","-10","","NA"
"2016-11-21 15:00","2016","11","21","15:00","-2.7","","-5.2","","83","","27","","32","","","","99.40","","","","-10","","NA"
"2016-11-21 16:00","2016","11","21","16:00","-2.8","","-4.5","","88","","27","","28","","","","99.46","","","","-10","","NA"
"2016-11-21 17:00","2016","11","21","17:00","-2.7","","-4.7","","86","","27","","28","","","","99.54","","","","-10","","NA"
"2016-11-21 18:00","2016","11","21","18:00","-2.4","","-4.8","","84","","27","","26","","","","99.61","","","","-9","","NA"
"2016-11-21 19:00","2016","11","21","19:00","-2.5","","-5.1","","82","","27","","27","","","","99.66","","","","-9","","NA"
"2016-11-21 20:00","2016","11","21","20:00","-2.5","","-5.1","","82","","27","","27","","","","99.74","","","","-9","","NA"
"2016-11-21 21:00","2016","11","21","21:00","-2.1","","-6.4","","73","","28","","28","","","","99.78","","","","-9","","NA"
"2016-11-21 22:00","2016","11","21","22:00","-2.2","","-7.1","","69","","28","","27","","","","99.84","","","","-9","","NA"
"2016-11-21 23:00","2016","11","21","23:00","-2.1","","-6.7","","71","","27","","24","","","","99.87","","","","-8","","NA"
"2016-11-22 00:00","2016","11","22","00:00","-2.0","","-6.8","","70","","28","","26","","","","99.94","","","","-9","","NA"
"2016-11-22 01:00","2016","11","22","01:00","-2.2","","-7.0","","69","","28","","24","","","","100.02","","","","-9","","NA"
"2016-11-22 02:00","2016","11","22","02:00","-2.5","","-7.1","","71","","28","","24","","","","100.09","","","","-9","","NA"
"2016-11-22 03:00","2016","11","22","03:00","-2.4","","-6.9","","71","","28","","22","","","","100.16","","","","-9","","NA"
"2016-11-22 04:00","2016","11","22","04:00","-2.4","","-6.8","","71","","28","","24","","","","100.24","","","","-9","","NA"
"2016-11-22 05:00","2016","11","22","05:00","-2.3","","-6.6","","72","","28","","23","","","","100.32","","","","-9","","NA"
"2016-11-22 06:00","2016","11","22","06:00","-2.3","","-6.6","","72","","29","","22","","","","100.39","","","","-8","","NA"
"2016-11-22 07:00","2016","11","22","07:00","-2.3","","-6.9","","71","","29","","25","","","","100.49","","","","-9","","NA"
"2016-11-22 08:00","2016","11","22","08:00","-2.2","","-6.8","","71","","29","","21","","","","100.62","","","","-8","","NA"
"2016-11-22 09:00","2016","11","22","09:00","-1.8","","-6.9","","68","","27","","22","","","","100.72","","","","-8","","NA"
"2016-11-22 10:00","2016","11","22","10:00","-0.9","","-6.4","","66","","29","","24","","","","100.82","","","","-7","","NA"
"2016-11-22 11:00","2016","11","22","11:00","-0.7","","-6.7","","64","","30","","30","","","","100.87","","","","-7","","NA"
"2016-11-22 12:00","2016","11","22","12:00","-0.2","","-6.6","","62","","30","","27","","","","100.88","","","","-6","","NA"
"2016-11-22 13:00","2016","11","22","13:00","0.2","","-6.3","","61","","30","","23","","","","100.91","","","","","","NA"
"2016-11-22 14:00","2016","11","22","14:00","0.4","","-6.7","","59","","30","","19","","","","100.95","","","","","","NA"
"2016-11-22 15:00","2016","11","22","15:00","0.3","","-6.6","","60","","29","","19","","","","101.02","","","","","","NA"
"2016-11-22 16:00","2016","11","22","16:00","-0.1","","-6.4","","62","","32","","19","","","","101.11","","","","-5","","NA"
"2016-11-22 17:00","2016","11","22","17:00","-0.6","","-6.4","","65","","30","","15","","","","101.17","","","","-5","","NA"
"2016-11-22 18:00","2016","11","22","18:00","-1.3","","-6.5","","68","","31","","12","","","","101.29","","","","-5","","NA"
"2016-11-22 19:00","2016","11","22","19:00","-1.3","","-6.3","","69","","32","","17","","","","101.37","","","","-6","","NA"
"2016-11-22 20:00","2016","11","22","20:00","-1.5","","-6.2","","70","","31","","14","","","","101.40","","","","-6","","NA"
"2016-11-22 21:00","2016","11","22","21:00","-1.9","","-6.4","","71","","31","","18","","","","101.43","","","","-7","","NA"
"2016-11-22 22:00","2016","11","22","22:00","-2.0","","-6.5","","71","","32","","20","","","","101.42","","","","-8","","NA"
"2016-11-22 23:00","2016","11","22","23:00","-2.1","","-6.4","","73","","32","","15","","","","101.43","","","","-7","","NA"
"2016-11-23 00:00","2016","11","23","00:00","-2.3","","-6.2","","75","","33","","17","","","","101.45","","","","-8","","NA"
"2016-11-23 01:00","2016","11","23","01:00","-4.0","","-7.4","","77","","31","","9","","","","101.47","","","","-8","","NA"
"2016-11-23 02:00","2016","11","23","02:00","-4.6","","-7.4","","81","","29","","8","","","","101.51","","","","-8","","NA"
"2016-11-23 03:00","2016","11","23","03:00","-5.0","","-7.5","","83","","27","","12","","","","101.57","","","","-10","","NA"
"2016-11-23 04:00","2016","11","23","04:00","-5.6","","-8.1","","82","","29","","12","","","","101.57","","","","-11","","NA"
"2016-11-23 05:00","2016","11","23","05:00","-5.8","","-8.2","","83","","29","","13","","","","101.62","","","","-11","","NA"
"2016-11-23 06:00","2016","11","23","06:00","-6.5","","-8.5","","85","","28","","7","","","","101.65","","","","-10","","NA"
"2016-11-23 07:00","2016","11","23","07:00","-7.0","","-8.8","","87","","28","","10","","","","101.66","","","","-12","","NA"
"2016-11-23 08:00","2016","11","23","08:00","-6.8","","-8.8","","86","","28","","13","","","","101.69","","","","-12","","NA"
"2016-11-23 09:00","2016","11","23","09:00","-5.8","","-8.5","","81","","31","","8","","","","101.69","","","","-10","","NA"
"2016-11-23 10:00","2016","11","23","10:00","-4.2","","-7.8","","76","","35","","12","","","","101.68","","","","-9","","NA"
"2016-11-23 11:00","2016","11","23","11:00","-2.5","","-7.1","","71","","5","","2","","","","101.72","","","","-3","","NA"
"2016-11-23 12:00","2016","11","23","12:00","-2.5","","-7.1","","70","","7","","2","","","","101.60","","","","-3","","NA"
"2016-11-23 13:00","2016","11","23","13:00","-2.2","","-6.5","","72","","18","","5","","","","101.56","","","","-4","","NA"
"2016-11-23 14:00","2016","11","23","14:00","-1.7","","-6.1","","72","","18","","2","","","","101.56","","","","-2","","NA"
"2016-11-23 15:00","2016","11","23","15:00","-1.7","","-5.9","","73","","10","","3","","","","101.58","","","","-3","","NA"
"2016-11-23 16:00","2016","11","23","16:00","-1.8","","-6.0","","73","","30","","5","","","","101.58","","","","-4","","NA"
"2016-11-23 17:00","2016","11","23","17:00","-2.1","","-6.5","","72","","31","","5","","","","101.59","","","","-4","","NA"
"2016-11-23 18:00","2016","11","23","18:00","-2.5","","-6.5","","74","","1","","7","","","","101.53","","","","-5","","NA"
"2016-11-23 19:00","2016","11","23","19:00","-2.2","","-5.8","","76","","4","","7","","","","101.47","","","","-5","","NA"
"2016-11-23 20:00","2016","11","23","20:00","-2.3","","-5.5","","78","","3","","6","","","","101.45","","","","-5","","NA"
"2016-11-23 21:00","2016","11","23","21:00","-2.2","","-5.8","","76","","4","","11","","","","101.46","","","","-6","","NA"
"2016-11-23 22:00","2016","11","23","22:00","-2.1","","-5.4","","78","","5","","7","","","","101.51","","","","-5","","NA"
"2016-11-23 23:00","2016","11","23","23:00","-1.9","","-4.7","","81","","7","","5","","","","101.50","","","","-4","","NA"
"2016-11-24 00:00","2016","11","24","00:00","-1.7","","-4.6","","81","","5","","10","","","","101.35","","","","-5","","NA"
"2016-11-24 01:00","2016","11","24","01:00","-1.7","","-4.8","","80","","5","","15","","","","101.31","","","","-7","","NA"
"2016-11-24 02:00","2016","11","24","02:00","-1.7","","-4.7","","80","","5","","13","","","","101.32","","","","-6","","NA"
"2016-11-24 03:00","2016","11","24","03:00","-1.9","","-4.2","","84","","5","","15","","","","101.25","","","","-7","","NA"
"2016-11-24 04:00","2016","11","24","04:00","-2.1","","-3.9","","87","","6","","17","","","","101.20","","","","-7","","NA"
"2016-11-24 05:00","2016","11","24","05:00","-2.0","","-3.2","","92","","8","","8","","","","101.18","","","","-5","","NA"
"2016-11-24 06:00","2016","11","24","06:00","-2.2","","-3.1","","93","","4","","11","","","","101.11","","","","-6","","NA"
"2016-11-24 07:00","2016","11","24","07:00","-1.9","","-2.9","","93","","5","","19","","","","101.06","","","","-7","","NA"
"2016-11-24 08:00","2016","11","24","08:00"
"2016-11-24 09:00","2016","11","24","09:00"
"2016-11-24 10:00","2016","11","24","10:00"
"2016-11-24 11:00","2016","11","24","11:00"
"2016-11-24 12:00","2016","11","24","12:00"
"2016-11-24 13:00","2016","11","24","13:00"
"2016-11-24 14:00","2016","11","24","14:00"
"2016-11-24 15:00","2016","11","24","15:00","1.1","","-0.5","","89","","5","","14","","","","100.94","","","","","","NA"
"2016-11-24 16:00","2016","11","24","16:00","0.9","","-0.4","","91","","5","","17","","","","100.95","","","","","","NA"
"2016-11-24 17:00","2016","11","24","17:00","1.1","","-0.4","","90","","4","","17","","","","100.99","","","","","","NA"
"2016-11-24 18:00","2016","11","24","18:00","1.0","","-0.3","","91","","4","","14","","","","101.02","","","","","","NA"
"2016-11-24 19:00","2016","11","24","19:00","0.9","","-0.3","","92","","4","","16","","","","101.08","","","","","","NA"
"2016-11-24 20:00","2016","11","24","20:00","0.9","","-0.2","","92","","4","","16","","","","101.07","","","","","","NA"
"2016-11-24 21:00","2016","11","24","21:00","0.9","","-0.2","","93","","5","","12","","","","101.12","","","","","","NA"
"2016-11-24 22:00","2016","11","24","22:00","0.7","","-0.2","","93","","5","","16","","","","101.05","","","","","","NA"
"2016-11-24 23:00","2016","11","24","23:00","0.7","","-0.1","","94","","4","","11","","","","101.12","","","","","","NA"
"2016-11-25 00:00","2016","11","25","00:00","0.5","","-0.1","","96","","4","","13","","","","101.10","","","","","","NA"
"2016-11-25 01:00","2016","11","25","01:00","0.4","","-0.1","","97","","3","","13","","","","101.10","","","","","","NA"
"2016-11-25 02:00","2016","11","25","02:00","0.4","","0.0","","97","","4","","13","","","","101.10","","","","","","NA"
"2016-11-25 03:00","2016","11","25","03:00","0.5","","-0.1","","96","","3","","10","","","","101.12","","","","","","NA"
"2016-11-25 04:00","2016","11","25","04:00","0.5","","-0.2","","95","","3","","10","","","","101.10","","","","","","NA"
"2016-11-25 05:00","2016","11","25","05:00","0.5","","-0.2","","95","","4","","10","","","","101.08","","","","","","NA"
"2016-11-25 06:00","2016","11","25","06:00","0.5","","-0.1","","95","","4","","6","","","","101.09","","","","","","NA"
"2016-11-25 07:00","2016","11","25","07:00","0.6","","-0.1","","95","","4","","5","","","","101.09","","","","","","NA"
"2016-11-25 08:00","2016","11","25","08:00","0.6","","0.0","","95","","2","","8","","","","101.12","","","","","","NA"
"2016-11-25 09:00","2016","11","25","09:00","0.8","","0.1","","95","","4","","6","","","","101.10","","","","","","NA"
"2016-11-25 10:00","2016","11","25","10:00","1.3","","0.5","","95","","3","","7","","","","101.09","","","","","","NA"
"2016-11-25 11:00","2016","11","25","11:00","1.6","","0.8","","95","","6","","5","","","","101.03","","","","","","NA"
"2016-11-25 12:00","2016","11","25","12:00","2.2","","1.4","","94","","3","","4","","","","100.98","","","","","","NA"
"2016-11-25 13:00","2016","11","25","13:00","2.4","","1.5","","94","","5","","4","","","","100.92","","","","","","NA"
"2016-11-25 14:00","2016","11","25","14:00","2.7","","1.9","","95","","4","","5","","","","100.89","","","","","","NA"
"2016-11-25 15:00","2016","11","25","15:00","2.9","","2.2","","95","","36","","4","","","","100.89","","","","","","NA"
"2016-11-25 16:00","2016","11","25","16:00","2.3","","1.8","","96","","34","","6","","","","100.91","","","","","","NA"
"2016-11-25 17:00","2016","11","25","17:00","2.4","","1.9","","96","","29","","4","","","","100.95","","","","","","NA"
"2016-11-25 18:00","2016","11","25","18:00","2.8","","2.3","","96","","30","","6","","","","100.98","","","","","","NA"
"2016-11-25 19:00","2016","11","25","19:00","2.6","","2.1","","97","","30","","2","","","","100.99","","","","","","NA"
"2016-11-25 20:00","2016","11","25","20:00","2.0","","1.5","","97","","0","","1","","","","100.95","","","","","","NA"
"2016-11-25 21:00","2016","11","25","21:00","2.1","","1.7","","97","","","","0","","","","100.95","","","","","","NA"
"2016-11-25 22:00","2016","11","25","22:00","2.5","","2.0","","97","","19","","3","","","","100.89","","","","","","NA"
"2016-11-25 23:00","2016","11","25","23:00","2.4","","2.0","","97","","0","","1","","","","100.86","","","","","","NA"
"2016-11-26 00:00","2016","11","26","00:00","2.7","","2.3","","97","","26","","7","","","","100.87","","","","","","NA"
"2016-11-26 01:00","2016","11","26","01:00","3.1","","2.6","","97","","27","","7","","","","100.83","","","","","","NA"
"2016-11-26 02:00","2016","11","26","02:00","2.8","","2.1","","95","","28","","6","","","","100.83","","","","","","NA"
"2016-11-26 03:00","2016","11","26","03:00","2.9","","2.0","","94","","26","","7","","","","100.82","","","","","","NA"
"2016-11-26 04:00","2016","11","26","04:00","2.6","","1.7","","93","","27","","8","","","","100.81","","","","","","NA"
"2016-11-26 05:00","2016","11","26","05:00","2.4","","1.5","","94","","27","","13","","","","100.83","","","","","","NA"
"2016-11-26 06:00","2016","11","26","06:00","2.3","","1.2","","93","","28","","10","","","","100.88","","","","","","NA"
"2016-11-26 07:00","2016","11","26","07:00","1.3","","0.5","","94","","33","","3","","","","100.89","","","","","","NA"
"2016-11-26 08:00","2016","11","26","08:00","1.3","","0.6","","95","","32","","5","","","","100.92","","","","","","NA"
"2016-11-26 09:00","2016","11","26","09:00","2.0","","1.1","","94","","33","","7","","","","100.94","","","","","","NA"
"2016-11-26 10:00","2016","11","26","10:00","2.6","","1.4","","92","","35","","5","","","","100.94","","","","","","NA"
"2016-11-26 11:00","2016","11","26","11:00","3.9","","1.5","","85","","35","","2","","","","100.90","","","","","","NA"
"2016-11-26 12:00","2016","11","26","12:00","4.0","","1.6","","85","","22","","7","","","","100.84","","","","","","NA"
"2016-11-26 13:00","2016","11","26","13:00","4.3","","1.3","","81","","25","","5","","","","100.78","","","","","","NA"
"2016-11-26 14:00","2016","11","26","14:00","4.5","","-0.7","","69","","28","","12","","","","100.77","","","","","","NA"
"2016-11-26 15:00","2016","11","26","15:00","4.2","","-0.5","","71","","28","","12","","","","100.79","","","","","","NA"
"2016-11-26 16:00","2016","11","26","16:00","3.8","","-0.1","","76","","27","","11","","","","100.82","","","","","","NA"
"2016-11-26 17:00","2016","11","26","17:00","3.4","","-0.6","","75","","27","","10","","","","100.84","","","","","","NA"
"2016-11-26 18:00","2016","11","26","18:00","2.8","","-1.1","","76","","29","","7","","","","100.86","","","","","","NA"
"2016-11-26 19:00","2016","11","26","19:00","1.9","","-1.2","","80","","33","","4","","","","100.84","","","","","","NA"
"2016-11-26 20:00","2016","11","26","20:00","1.7","","-1.1","","81","","33","","3","","","","100.84","","","","","","NA"
"2016-11-26 21:00","2016","11","26","21:00","1.6","","-1.2","","82","","32","","4","","","","100.84","","","","","","NA"
"2016-11-26 22:00","2016","11","26","22:00","0.0","","-1.3","","91","","33","","7","","","","100.81","","","","-2","","NA"
"2016-11-26 23:00","2016","11","26","23:00","-0.2","","-1.6","","90","","33","","7","","","","100.77","","","","-3","","NA"
"2016-11-27 00:00","2016","11","27","00:00","-0.3","","-1.6","","90","","33","","6","","","","100.77","","","","-2","","NA"
"2016-11-27 01:00","2016","11","27","01:00","-0.6","","-1.6","","92","","34","","9","","","","100.76","","","","-4","","NA"
"2016-11-27 02:00","2016","11","27","02:00","-0.5","","-1.6","","93","","34","","7","","","","100.77","","","","-3","","NA"
"2016-11-27 03:00","2016","11","27","03:00","-0.3","","-1.5","","92","","33","","8","","","","100.77","","","","-3","","NA"
"2016-11-27 04:00","2016","11","27","04:00","-0.4","","-1.5","","93","","34","","8","","","","100.75","","","","-3","","NA"
"2016-11-27 05:00","2016","11","27","05:00","-0.5","","-1.5","","93","","33","","8","","","","100.76","","","","-3","","NA"
"2016-11-27 06:00","2016","11","27","06:00","-0.7","","-1.6","","94","","32","","7","","","","100.76","","","","-3","","NA"
"2016-11-27 07:00","2016","11","27","07:00","-0.5","","-1.3","","94","","31","","10","","","","100.79","","","","-4","","NA"
"2016-11-27 08:00","2016","11","27","08:00","-0.6","","-1.3","","95","","33","","7","","","","100.85","","","","-3","","NA"
"2016-11-27 09:00","2016","11","27","09:00","0.4","","-0.7","","92","","34","","8","","","","100.85","","","","","","NA"
"2016-11-27 10:00","2016","11","27","10:00","1.8","","-0.6","","85","","30","","8","","","","100.89","","","","","","NA"
"2016-11-27 11:00","2016","11","27","11:00","2.7","","-1.1","","76","","33","","12","","","","100.85","","","","","","NA"
"2016-11-27 12:00","2016","11","27","12:00","3.5","","-0.9","","73","","33","","10","","","","100.80","","","","","","NA"
"2016-11-27 13:00","2016","11","27","13:00","4.2","","-1.3","","68","","34","","14","","","","100.78","","","","","","NA"
"2016-11-27 14:00","2016","11","27","14:00","4.3","","-2.1","","63","","34","","11","","","","100.77","","","","","","NA"
"2016-11-27 15:00","2016","11","27","15:00","3.8","","-2.9","","61","","32","","9","","","","100.76","","","","","","NA"
"2016-11-27 16:00","2016","11","27","16:00","2.8","","-2.9","","66","","33","","7","","","","100.80","","","","","","NA"
"2016-11-27 17:00","2016","11","27","17:00","1.9","","-3.4","","68","","2","","4","","","","100.83","","","","","","NA"
"2016-11-27 18:00","2016","11","27","18:00","1.1","","-3.3","","72","","","","0","","","","100.85","","","","","","NA"
"2016-11-27 19:00","2016","11","27","19:00","-0.7","","-3.2","","83","","","","0","","","","100.87","","","","","","NA"
"2016-11-27 20:00","2016","11","27","20:00","-2.4","","-4.0","","89","","1","","4","","","","100.86","","","","-4","","NA"
"2016-11-27 21:00","2016","11","27","21:00","-3.5","","-4.8","","91","","2","","7","","","","100.84","","","","-6","","NA"
"2016-11-27 22:00","2016","11","27","22:00","-3.2","","-4.8","","89","","3","","8","","","","100.88","","","","-6","","NA"
"2016-11-27 23:00","2016","11","27","23:00","-2.1","","-3.8","","88","","5","","10","","","","100.88","","","","-6","","NA"
"2016-11-28 00:00","2016","11","28","00:00","-2.5","","-3.9","","90","","4","","7","","","","100.89","","","","-5","","NA"
"2016-11-28 01:00","2016","11","28","01:00","-2.8","","-4.1","","91","","4","","8","","","","100.87","","","","-6","","NA"
"2016-11-28 02:00","2016","11","28","02:00","-3.0","","-4.0","","93","","3","","7","","","","100.90","","","","-6","","NA"
"2016-11-28 03:00","2016","11","28","03:00","-3.0","","-4.2","","91","","4","","8","","","","100.89","","","","-6","","NA"
"2016-11-28 04:00","2016","11","28","04:00","-2.0","","-3.3","","91","","4","","8","","","","100.89","","","","-5","","NA"
"2016-11-28 05:00","2016","11","28","05:00","-1.4","","-2.9","","90","","4","","9","","","","100.91","","","","-5","","NA"
"2016-11-28 06:00","2016","11","28","06:00","-1.0","","-2.7","","88","","6","","12","","","","100.91","","","","-5","","NA"
"2016-11-28 07:00","2016","11","28","07:00","-1.2","","-2.9","","89","","5","","10","","","","100.94","","","","-5","","NA"
"2016-11-28 08:00","2016","11","28","08:00","-1.5","","-3.0","","89","","6","","12","","","","100.94","","","","-6","","NA"
"2016-11-28 09:00","2016","11","28","09:00","-0.3","","-2.0","","89","","6","","14","","","","100.95","","","","-5","","NA"
"2016-11-28 10:00","2016","11","28","10:00","1.3","","-1.1","","84","","6","","14","","","","100.96","","","","","","NA"
"2016-11-28 11:00","2016","11","28","11:00","2.6","","-0.9","","78","","5","","14","","","","100.92","","","","","","NA"
"2016-11-28 12:00","2016","11","28","12:00","4.1","","-0.5","","72","","6","","17","","","","100.80","","","","","","NA"
"2016-11-28 13:00","2016","11","28","13:00","4.3","","-0.5","","71","","6","","20","","","","100.69","","","","","","NA"
"2016-11-28 14:00","2016","11","28","14:00","4.9","","-0.2","","69","","7","","21","","","","100.62","","","","","","NA"
"2016-11-28 15:00","2016","11","28","15:00","5.0","","-0.8","","66","","7","","20","","","","100.58","","","","","","NA"
"2016-11-28 16:00","2016","11","28","16:00","3.9","","-0.9","","71","","6","","18","","","","100.57","","","","","","NA"
"2016-11-28 17:00","2016","11","28","17:00","2.5","","-1.2","","77","","7","","15","","","","100.55","","","","","","NA"
"2016-11-28 18:00","2016","11","28","18:00","1.9","","-1.6","","78","","5","","19","","","","100.58","","","","","","NA"
"2016-11-28 19:00","2016","11","28","19:00","1.3","","-2.1","","78","","6","","23","","","","100.54","","","","","","NA"
"2016-11-28 20:00","2016","11","28","20:00","1.1","","-2.1","","79","","5","","20","","","","100.49","","","","","","NA"
"2016-11-28 21:00","2016","11","28","21:00","0.6","","-2.2","","82","","6","","18","","","","100.38","","","","","","NA"
"2016-11-28 22:00","2016","11","28","22:00","1.1","","-1.8","","81","","4","","21","","","","100.30","","","","","","NA"
"2016-11-28 23:00","2016","11","28","23:00","1.4","","-1.4","","82","","5","","14","","","","100.31","","","","","","NA"
"2016-11-29 00:00","2016","11","29","00:00","1.7","","-1.0","","82","","5","","11","","","","100.24","","","","","","NA"
"2016-11-29 01:00","2016","11","29","01:00","1.9","","-0.6","","83","","6","","11","","","","100.19","","","","","","NA"
"2016-11-29 02:00","2016","11","29","02:00","2.1","","-0.4","","83","","5","","13","","","","100.11","","","","","","NA"
"2016-11-29 03:00","2016","11","29","03:00","2.7","","0.2","","83","","6","","8","","","","100.13","","","","","","NA"
"2016-11-29 04:00","2016","11","29","04:00","4.3","","0.9","","79","","9","","11","","","","99.94","","","","","","NA"
"2016-11-29 05:00","2016","11","29","05:00","3.9","","1.6","","85","","7","","10","","","","99.90","","","","","","NA"
"2016-11-29 06:00","2016","11","29","06:00","4.3","","3.1","","92","","10","","9","","","","99.82","","","","","","NA"
"2016-11-29 07:00","2016","11","29","07:00","6.5","","4.5","","87","","11","","14","","","","99.68","","","","","","NA"
"2016-11-29 08:00","2016","11","29","08:00","7.7","","4.8","","82","","15","","27","","","","99.66","","","","","","NA"
"2016-11-29 09:00","2016","11","29","09:00","8.3","","5.7","","84","","15","","25","","","","99.61","","","","","","NA"
"2016-11-29 10:00","2016","11","29","10:00","8.6","","6.3","","85","","17","","21","","","","99.66","","","","","","NA"
"2016-11-29 11:00","2016","11","29","11:00","9.0","","6.9","","87","","17","","18","","","","99.61","","","","","","NA"
"2016-11-29 12:00","2016","11","29","12:00","9.9","","7.6","","86","","17","","17","","","","99.56","","","","","","NA"
"2016-11-29 13:00","2016","11","29","13:00","9.6","","7.8","","88","","17","","13","","","","99.57","","","","","","NA"
"2016-11-29 14:00","2016","11","29","14:00","9.4","","7.6","","88","","17","","20","","","","99.55","","","","","","NA"
"2016-11-29 15:00","2016","11","29","15:00","9.9","","7.5","","85","","16","","18","","","","99.56","","","","","","NA"
"2016-11-29 16:00","2016","11","29","16:00","9.5","","7.6","","88","","17","","14","","","","99.60","","","","","","NA"
"2016-11-29 17:00","2016","11","29","17:00","9.2","","7.5","","89","","17","","8","","","","99.62","","","","","","NA"
"2016-11-29 18:00","2016","11","29","18:00","8.9","","7.1","","89","","20","","10","","","","99.68","","","","","","NA"
"2016-11-29 19:00","2016","11","29","19:00","7.0","","5.8","","92","","19","","3","","","","99.71","","","","","","NA"
"2016-11-29 20:00","2016","11","29","20:00","7.9","","7.0","","95","","18","","5","","","","99.78","","","","","","NA"
"2016-11-29 21:00","2016","11","29","21:00","5.6","","4.4","","92","","28","","4","","","","99.80","","","","","","NA"
"2016-11-29 22:00","2016","11","29","22:00","5.9","","5.2","","96","","15","","4","","","","99.82","","","","","","NA"
"2016-11-29 23:00","2016","11","29","23:00","4.8","","4.3","","96","","","","0","","","","99.86","","","","","","NA"
"2016-11-30 00:00","2016","11","30","00:00","3.0","","2.6","","97","","14","","4","","","","99.89","","","","","","NA"
"2016-11-30 01:00","2016","11","30","01:00","1.3","","0.9","","97","","5","","2","","","","99.90","","","","","","NA"
"2016-11-30 02:00","2016","11","30","02:00","0.5","","0.2","","98","","5","","3","","","","99.94","","","","","","NA"
"2016-11-30 03:00","2016","11","30","03:00","0.3","","0.0","","98","","4","","6","","","","100.01","","","","","","NA"
"2016-11-30 04:00","2016","11","30","04:00","0.7","","0.4","","98","","6","","8","","","","99.95","","","","","","NA"
"2016-11-30 05:00","2016","11","30","05:00","1.9","","1.6","","98","","5","","5","","","","99.91","","","","","","NA"
"2016-11-30 06:00","2016","11","30","06:00","3.4","","3.0","","97","","4","","9","","","","99.90","","","","","","NA"
"2016-11-30 07:00","2016","11","30","07:00","3.7","","3.3","","97","","6","","7","","","","99.89","","","","","","NA"
"2016-11-30 08:00","2016","11","30","08:00","3.9","","3.6","","97","","5","","13","","","","99.82","","","","","","NA"
"2016-11-30 09:00","2016","11","30","09:00","4.6","","4.2","","97","","5","","12","","","","99.79","","","","","","NA"
"2016-11-30 10:00","2016","11","30","10:00","5.6","","5.2","","97","","5","","16","","","","99.72","","","","","","NA"
"2016-11-30 11:00","2016","11","30","11:00","8.3","","7.7","","96","","6","","12","","","","99.61","","","","","","NA"
"2016-11-30 12:00","2016","11","30","12:00","11.0","","8.6","","85","","7","","12","","","","99.48","","","","","","NA"
"2016-11-30 13:00","2016","11","30","13:00","11.0","","8.2","","83","","9","","12","","","","99.41","","","","","","NA"
"2016-11-30 14:00","2016","11","30","14:00","10.9","","8.3","","84","","9","","12","","","","99.37","","","","","","NA"
"2016-11-30 15:00","2016","11","30","15:00","10.2","","8.5","","89","","8","","11","","","","99.21","","","","","","NA"
"2016-11-30 16:00","2016","11","30","16:00","9.8","","8.4","","91","","10","","7","","","","99.17","","","","","","NA"
"2016-11-30 17:00","2016","11","30","17:00","10.7","","7.9","","83","","12","","16","","","","99.14","","","","","","NA"
"2016-11-30 18:00","2016","11","30","18:00","10.2","","7.7","","84","","14","","21","","","","99.03","","","","","","NA"
"2016-11-30 19:00","2016","11","30","19:00","10.5","","7.4","","81","","14","","24","","","","98.92","","","","","","NA"
"2016-11-30 20:00","2016","11","30","20:00","10.1","","7.6","","85","","15","","23","","","","98.84","","","","","","NA"
"2016-11-30 21:00","2016","11","30","21:00","10.5","","7.8","","83","","15","","31","","","","98.64","","","","","","NA"
"2016-11-30 22:00","2016","11","30","22:00","9.9","","8.5","","91","","15","","39","","","","98.43","","","","","","NA"
"2016-11-30 23:00","2016","11","30","23:00","10.2","","8.1","","87","","14","","37","","","","98.25","","","","","","NA"
