"Station Name","KINGSTON CLIMATE"
"Province","ONTARIO"
"Latitude","44.22"
"Longitude","-76.60"
"Elevation","93.00"
"Climate Identifier","6104142"
"WMO Identifier","71820"
"TC Identifier","TKG"
"All times are specified in Local Standard Time (LST). Add 1 hour to adjust for Daylight Saving Time where and when it is observed."

"Legend"
"E","Estimated"
"M","Missing"
"NA","Not Available"

"Date/Time","Year","Month","Day","Time","Temp (°C)","Temp Flag","Dew Point Temp (°C)","Dew Point Temp Flag","Rel Hum (%)","Rel Hum Flag","Wind Dir (10s deg)","Wind Dir Flag","Wind Spd (km/h)","Wind Spd Flag","Visibility (km)","Visibility Flag","Stn Press (kPa)","Stn Press Flag","Hmdx","Hmdx Flag","Wind Chill","Wind Chill Flag","Weather"
"2017-03-01 00:00","2017","03","01","00:00","5.0","","1.8","","80","","19","","13","","","","99.65","","","","","","NA"
"2017-03-01 01:00","2017","03","01","01:00","5.3","","2.1","","80","","18","","9","","","","99.54","","","","","","NA"
"2017-03-01 02:00","2017","03","01","02:00","5.2","","2.4","","82","","18","","10","","","","99.40","","","","","","NA"
"2017-03-01 03:00","2017","03","01","03:00","5.2","","3.1","","86","","19","","14","","","","99.30","","","","","","NA"
"2017-03-01 04:00","2017","03","01","04:00","6.7","","4.2","","84","","15","","23","","","","99.07","","","","","","NA"
"2017-03-01 05:00","2017","03","01","05:00","5.6","","4.6","","93","","15","","23","","","","98.87","","","","","","NA"
"2017-03-01 06:00","2017","03","01","06:00","6.4","","5.5","","94","","15","","29","","","","98.65","","","","","","NA"
"2017-03-01 07:00","2017","03","01","07:00","6.4","","5.4","","93","","16","","31","","","","98.51","","","","","","NA"
"2017-03-01 08:00","2017","03","01","08:00","7.9","","6.5","","91","","23","","23","","","","98.56","","","","","","NA"
"2017-03-01 09:00","2017","03","01","09:00","7.8","","6.0","","89","","19","","26","","","","98.41","","","","","","NA"
"2017-03-01 10:00","2017","03","01","10:00","5.9","","4.8","","93","","16","","32","","","","98.09","","","","","","NA"
"2017-03-01 11:00","2017","03","01","11:00","7.0","","5.7","","92","","18","","22","","","","98.09","","","","","","NA"
"2017-03-01 12:00","2017","03","01","12:00","12.5","","10.0","","85","","25","","13","","","","98.13","","","","","","NA"
"2017-03-01 13:00","2017","03","01","13:00","11.4","","8.3","","81","","23","","28","","","","98.11","","","","","","NA"
"2017-03-01 14:00","2017","03","01","14:00","10.1","","7.0","","81","","24","","25","","","","98.04","","","","","","NA"
"2017-03-01 15:00","2017","03","01","15:00","11.5","","7.5","","76","","24","","28","","","","98.03","","","","","","NA"
"2017-03-01 16:00","2017","03","01","16:00","11.1","","7.5","","79","","24","","28","","","","97.96","","","","","","NA"
"2017-03-01 17:00","2017","03","01","17:00","10.4","","7.1","","80","","24","","21","","","","97.95","","","","","","NA"
"2017-03-01 18:00","2017","03","01","18:00","10.4","","8.1","","86","","23","","25","","","","97.89","","","","","","NA"
"2017-03-01 19:00","2017","03","01","19:00","6.0","","4.7","","91","","20","","18","","","","97.85","","","","","","NA"
"2017-03-01 20:00","2017","03","01","20:00","9.6","","6.7","","82","","22","","21","","","","97.76","","","","","","NA"
"2017-03-01 21:00","2017","03","01","21:00","8.9","","5.1","","77","","24","","37","","","","97.80","","","","","","NA"
"2017-03-01 22:00","2017","03","01","22:00","7.8","","4.6","","80","","23","","46","","","","97.85","","","","","","NA"
"2017-03-01 23:00","2017","03","01","23:00","5.4","","2.1","","79","","23","","41","","","","97.99","","","","","","NA"
"2017-03-02 00:00","2017","03","02","00:00","5.2","","0.8","","74","","24","","30","","","","98.10","","","","","","NA"
"2017-03-02 01:00","2017","03","02","01:00","2.7","","0.4","","85","","27","","26","","","","98.20","","","","","","NA"
"2017-03-02 02:00","2017","03","02","02:00","0.2","","-2.6","","82","","26","","32","","","","98.36","","","","","","NA"
"2017-03-02 03:00","2017","03","02","03:00","-1.5","","-7.2","","65","","25","","31","","","","98.44","","","","-9","","NA"
"2017-03-02 04:00","2017","03","02","04:00","-3.4","","-8.6","","68","","26","","33","","","","98.58","","","","-11","","NA"
"2017-03-02 05:00","2017","03","02","05:00","-6.0","","-8.9","","80","","30","","26","","","","98.83","","","","-14","","NA"
"2017-03-02 06:00","2017","03","02","06:00","-8.2","","-11.6","","76","","30","","33","","","","99.13","","","","-18","","NA"
"2017-03-02 07:00","2017","03","02","07:00","-9.8","","-12.4","","82","","30","","27","","","","99.39","","","","-19","","NA"
"2017-03-02 08:00","2017","03","02","08:00","-9.7","","-15.0","","66","","30","","29","","","","99.59","","","","-19","","NA"
"2017-03-02 09:00","2017","03","02","09:00","-9.4","","-14.7","","66","","30","","31","","","","99.76","","","","-19","","NA"
"2017-03-02 10:00","2017","03","02","10:00","-8.7","","-13.4","","69","","30","","25","","","","99.91","","","","-17","","NA"
"2017-03-02 11:00","2017","03","02","11:00","-7.9","","-14.9","","57","","29","","28","","","","100.02","","","","-17","","NA"
"2017-03-02 12:00","2017","03","02","12:00","-6.0","","-14.4","","52","","29","","24","","","","100.10","","","","-13","","NA"
"2017-03-02 13:00","2017","03","02","13:00","-4.8","","-13.4","","51","","29","","26","","","","100.15","","","","-12","","NA"
"2017-03-02 14:00","2017","03","02","14:00","-3.9","","-13.1","","49","","28","","20","","","","100.21","","","","-10","","NA"
"2017-03-02 15:00","2017","03","02","15:00","-2.9","","-12.4","","48","","28","","19","","","","100.27","","","","-9","","NA"
"2017-03-02 16:00","2017","03","02","16:00","-2.9","","-13.8","","43","","30","","21","","","","100.35","","","","-9","","NA"
"2017-03-02 17:00","2017","03","02","17:00","-3.4","","-14.4","","42","","28","","16","","","","100.44","","","","-9","","NA"
"2017-03-02 18:00","2017","03","02","18:00","-3.8","","-13.9","","45","","28","","18","","","","100.55","","","","-10","","NA"
"2017-03-02 19:00","2017","03","02","19:00","-4.5","","-13.9","","48","","29","","16","","","","100.69","","","","-10","","NA"
"2017-03-02 20:00","2017","03","02","20:00","-5.1","","-12.9","","54","","30","","17","","","","100.78","","","","-11","","NA"
"2017-03-02 21:00","2017","03","02","21:00","-5.7","","-13.9","","52","","30","","22","","","","100.85","","","","-13","","NA"
"2017-03-02 22:00","2017","03","02","22:00","-6.5","","-13.7","","57","","30","","21","","","","100.91","","","","-14","","NA"
"2017-03-02 23:00","2017","03","02","23:00","-6.9","","-13.5","","60","","32","","16","","","","100.97","","","","-13","","NA"
"2017-03-03 00:00","2017","03","03","00:00","-8.2","","-15.7","","55","","34","","24","","","","101.03","","","","-16","","NA"
"2017-03-03 01:00","2017","03","03","01:00","-8.6","","-14.9","","60","","32","","19","","","","101.10","","","","-16","","NA"
"2017-03-03 02:00","2017","03","03","02:00","-9.7","","-15.0","","65","","35","","16","","","","101.08","","","","-17","","NA"
"2017-03-03 03:00","2017","03","03","03:00","-10.5","","-15.4","","67","","35","","15","","","","101.07","","","","-17","","NA"
"2017-03-03 04:00","2017","03","03","04:00","-10.9","","-15.9","","67","","1","","9","","","","101.13","","","","-16","","NA"
"2017-03-03 05:00","2017","03","03","05:00","-11.1","","-17.1","","61","","3","","9","","","","101.17","","","","-16","","NA"
"2017-03-03 06:00","2017","03","03","06:00","-11.7","","-17.5","","62","","1","","7","","","","101.19","","","","-16","","NA"
"2017-03-03 07:00","2017","03","03","07:00","-11.6","","-16.6","","66","","2","","5","","","","101.22","","","","-15","","NA"
"2017-03-03 08:00","2017","03","03","08:00","-10.4","","-16.9","","59","","6","","6","","","","101.25","","","","-14","","NA"
"2017-03-03 09:00","2017","03","03","09:00","-9.3","","-18.3","","48","","12","","7","","","","101.23","","","","-13","","NA"
"2017-03-03 10:00","2017","03","03","10:00","-8.6","","-15.8","","56","","12","","6","","","","101.22","","","","-12","","NA"
"2017-03-03 11:00","2017","03","03","11:00","-8.3","","-12.4","","73","","28","","4","","","","101.25","","","","-10","","NA"
"2017-03-03 12:00","2017","03","03","12:00","-7.1","","-12.4","","66","","22","","2","","","","101.24","","","","-8","","NA"
"2017-03-03 13:00","2017","03","03","13:00","-6.1","","-10.6","","71","","16","","9","","","","101.19","","","","-10","","NA"
"2017-03-03 14:00","2017","03","03","14:00","-7.1","","-9.7","","81","","34","","17","","","","101.23","","","","-14","","NA"
"2017-03-03 15:00","2017","03","03","15:00","-7.1","","-11.4","","71","","33","","21","","","","101.36","","","","-14","","NA"
"2017-03-03 16:00","2017","03","03","16:00","-7.8","","-11.7","","74","","31","","24","","","","101.51","","","","-16","","NA"
"2017-03-03 17:00","2017","03","03","17:00","-9.2","","-12.3","","78","","32","","18","","","","101.65","","","","-16","","NA"
"2017-03-03 18:00","2017","03","03","18:00","-9.7","","-14.6","","67","","32","","22","","","","101.79","","","","-18","","NA"
"2017-03-03 19:00","2017","03","03","19:00","-10.3","","-16.5","","60","","31","","17","","","","101.91","","","","-18","","NA"
"2017-03-03 20:00","2017","03","03","20:00","-11.5","","-16.6","","66","","31","","10","","","","101.97","","","","-17","","NA"
"2017-03-03 21:00","2017","03","03","21:00","-11.8","","-17.6","","62","","33","","15","","","","102.07","","","","-19","","NA"
"2017-03-03 22:00","2017","03","03","22:00","-12.6","","-17.6","","67","","33","","10","","","","102.13","","","","-18","","NA"
"2017-03-03 23:00","2017","03","03","23:00","-13.0","","-18.4","","64","","31","","6","","","","102.13","","","","-17","","NA"
"2017-03-04 00:00","2017","03","04","00:00","-13.3","","-17.8","","69","","29","","5","","","","102.14","","","","-17","","NA"
"2017-03-04 01:00","2017","03","04","01:00","-14.0","","-18.1","","71","","24","","3","","","","102.11","","","","-16","","NA"
"2017-03-04 02:00","2017","03","04","02:00","-13.2","","-19.3","","60","","27","","9","","","","102.12","","","","-19","","NA"
"2017-03-04 03:00","2017","03","04","03:00","-13.5","","-18.8","","64","","29","","12","","","","102.12","","","","-20","","NA"
"2017-03-04 04:00","2017","03","04","04:00","-13.2","","-18.0","","67","","29","","13","","","","102.14","","","","-20","","NA"
"2017-03-04 05:00","2017","03","04","05:00","-13.0","","-17.6","","68","","31","","16","","","","102.20","","","","-21","","NA"
"2017-03-04 06:00","2017","03","04","06:00","-14.2","","-18.5","","70","","34","","22","","","","102.29","","","","-24","","NA"
"2017-03-04 07:00","2017","03","04","07:00","-14.9","","-21.0","","60","","34","","24","","","","102.41","","","","-25","","NA"
"2017-03-04 08:00","2017","03","04","08:00","-14.9","","-21.0","","60","","35","","24","","","","102.51","","","","-25","","NA"
"2017-03-04 09:00","2017","03","04","09:00","-14.2","","-20.3","","60","","35","","23","","","","102.58","","","","-24","","NA"
"2017-03-04 10:00","2017","03","04","10:00","-14.3","","-21.9","","53","","34","","23","","","","102.68","","","","-24","","NA"
"2017-03-04 11:00","2017","03","04","11:00","-13.6","","-21.9","","50","","34","","23","","","","102.76","","","","-23","","NA"
"2017-03-04 12:00","2017","03","04","12:00","-12.6","","-22.0","","45","","33","","16","","","","102.78","","","","-20","","NA"
"2017-03-04 13:00","2017","03","04","13:00","-12.0","","-22.3","","42","","34","","18","","","","102.78","","","","-20","","NA"
"2017-03-04 14:00","2017","03","04","14:00","-11.2","","-22.9","","38","","35","","16","","","","102.76","","","","-18","","NA"
"2017-03-04 15:00","2017","03","04","15:00","-10.1","","-22.6","","35","","35","","15","","","","102.75","","","","-17","","NA"
"2017-03-04 16:00","2017","03","04","16:00","-10.0","","-22.9","","34","","32","","15","","","","102.75","","","","-17","","NA"
"2017-03-04 17:00","2017","03","04","17:00","-10.1","","-23.8","","32","","32","","15","","","","102.77","","","","-17","","NA"
"2017-03-04 18:00","2017","03","04","18:00","-10.7","","-23.5","","34","","33","","15","","","","102.79","","","","-18","","NA"
"2017-03-04 19:00","2017","03","04","19:00","-11.3","","-23.1","","37","","1","","6","","","","102.80","","","","-15","","NA"
"2017-03-04 20:00","2017","03","04","20:00","-12.7","","-21.3","","48","","34","","7","","","","102.84","","","","-17","","NA"
"2017-03-04 21:00","2017","03","04","21:00","-13.0","","-21.5","","49","","3","","10","","","","102.92","","","","-19","","NA"
"2017-03-04 22:00","2017","03","04","22:00","-13.5","","-21.4","","52","","3","","8","","","","102.95","","","","-19","","NA"
"2017-03-04 23:00","2017","03","04","23:00","-14.2","","-21.6","","53","","4","","9","","","","102.93","","","","-20","","NA"
"2017-03-05 00:00","2017","03","05","00:00","-14.8","","-21.2","","58","","1","","9","","","","102.93","","","","-21","","NA"
"2017-03-05 01:00","2017","03","05","01:00","-15.3","","-21.1","","61","","1","","8","","","","102.95","","","","-21","","NA"
"2017-03-05 02:00","2017","03","05","02:00","-15.1","","-21.0","","61","","2","","12","","","","102.95","","","","-22","","NA"
"2017-03-05 03:00","2017","03","05","03:00","-15.4","","-20.8","","63","","3","","11","","","","102.96","","","","-22","","NA"
"2017-03-05 04:00","2017","03","05","04:00","-16.1","","-20.9","","66","","2","","8","","","","103.02","","","","-22","","NA"
"2017-03-05 05:00","2017","03","05","05:00","-16.4","","-21.1","","67","","1","","7","","","","103.10","","","","-21","","NA"
"2017-03-05 06:00","2017","03","05","06:00","-16.8","","-21.3","","68","","2","","7","","","","103.09","","","","-22","","NA"
"2017-03-05 07:00","2017","03","05","07:00","-16.6","","-20.8","","70","","36","","7","","","","103.14","","","","-22","","NA"
"2017-03-05 08:00","2017","03","05","08:00","-15.0","","-20.5","","63","","4","","11","","","","103.11","","","","-22","","NA"
"2017-03-05 09:00","2017","03","05","09:00","-13.1","","-19.9","","57","","5","","11","","","","103.14","","","","-19","","NA"
"2017-03-05 10:00","2017","03","05","10:00","-11.6","","-20.2","","49","","6","","8","","","","103.08","","","","-16","","NA"
"2017-03-05 11:00","2017","03","05","11:00","-10.4","","-19.2","","48","","10","","6","","","","102.99","","","","-14","","NA"
"2017-03-05 12:00","2017","03","05","12:00","-8.8","","-17.5","","49","","13","","13","","","","102.87","","","","-15","","NA"
"2017-03-05 13:00","2017","03","05","13:00","-7.9","","-19.0","","41","","15","","14","","","","102.76","","","","-14","","NA"
"2017-03-05 14:00","2017","03","05","14:00","-6.9","","-18.9","","38","","16","","14","","","","102.65","","","","-13","","NA"
"2017-03-05 15:00","2017","03","05","15:00","-7.4","","-16.7","","47","","18","","11","","","","102.58","","","","-12","","NA"
"2017-03-05 16:00","2017","03","05","16:00","-6.7","","-15.6","","49","","18","","10","","","","102.50","","","","-11","","NA"
"2017-03-05 17:00","2017","03","05","17:00","-6.5","","-15.5","","49","","21","","6","","","","102.50","","","","-9","","NA"
"2017-03-05 18:00","2017","03","05","18:00","-7.2","","-17.2","","45","","27","","3","","","","102.45","","","","-9","","NA"
"2017-03-05 19:00","2017","03","05","19:00","-7.3","","-14.9","","54","","1","","3","","","","102.43","","","","-9","","NA"
"2017-03-05 20:00","2017","03","05","20:00","-7.7","","-15.3","","54","","5","","5","","","","102.35","","","","-10","","NA"
"2017-03-05 21:00","2017","03","05","21:00","-7.0","","-14.3","","56","","7","","12","","","","102.24","","","","-12","","NA"
"2017-03-05 22:00","2017","03","05","22:00","-6.0","","-14.6","","50","","8","","17","","","","102.18","","","","-12","","NA"
"2017-03-05 23:00","2017","03","05","23:00","-6.4","","-14.8","","51","","9","","18","","","","102.13","","","","-13","","NA"
"2017-03-06 00:00","2017","03","06","00:00","-6.1","","-15.1","","49","","8","","15","","","","102.10","","","","-12","","NA"
"2017-03-06 01:00","2017","03","06","01:00","-5.7","","-14.7","","49","","8","","15","","","","102.07","","","","-11","","NA"
"2017-03-06 02:00","2017","03","06","02:00","-5.3","","-14.6","","48","","8","","13","","","","102.02","","","","-10","","NA"
"2017-03-06 03:00","2017","03","06","03:00","-5.0","","-12.6","","55","","6","","8","","","","101.99","","","","-9","","NA"
"2017-03-06 04:00","2017","03","06","04:00","-5.8","","-13.5","","55","","5","","11","","","","101.93","","","","-11","","NA"
"2017-03-06 05:00","2017","03","06","05:00","-6.7","","-12.7","","63","","6","","11","","","","101.83","","","","-12","","NA"
"2017-03-06 06:00","2017","03","06","06:00","-5.7","","-12.1","","61","","6","","14","","","","101.78","","","","-11","","NA"
"2017-03-06 07:00","2017","03","06","07:00","-5.4","","-12.7","","57","","4","","12","","","","101.79","","","","-10","","NA"
"2017-03-06 08:00","2017","03","06","08:00","-4.8","","-12.1","","57","","6","","15","","","","101.75","","","","-10","","NA"
"2017-03-06 09:00","2017","03","06","09:00","-3.6","","-11.5","","54","","6","","12","","","","101.72","","","","-8","","NA"
"2017-03-06 10:00","2017","03","06","10:00","-1.9","","-11.5","","48","","6","","12","","","","101.67","","","","-6","","NA"
"2017-03-06 11:00","2017","03","06","11:00","-0.7","","-12.1","","42","","7","","13","","","","101.56","","","","-5","","NA"
"2017-03-06 12:00","2017","03","06","12:00","0.8","","-12.6","","36","","5","","12","","","","101.50","","","","","","NA"
"2017-03-06 13:00","2017","03","06","13:00","1.5","","-12.6","","34","","6","","13","","","","101.39","","","","","","NA"
"2017-03-06 14:00","2017","03","06","14:00","2.7","","-12.0","","33","","5","","10","","","","101.33","","","","","","NA"
"2017-03-06 15:00","2017","03","06","15:00","3.0","","-12.0","","32","","7","","8","","","","101.29","","","","","","NA"
"2017-03-06 16:00","2017","03","06","16:00","3.4","","-12.1","","31","","5","","9","","","","101.26","","","","","","NA"
"2017-03-06 17:00","2017","03","06","17:00","2.5","","-10.4","","38","","5","","18","","","","101.22","","","","","","NA"
"2017-03-06 18:00","2017","03","06","18:00","2.1","","-9.3","","43","","5","","11","","","","101.18","","","","","","NA"
"2017-03-06 19:00","2017","03","06","19:00","1.7","","-9.4","","43","","5","","14","","","","101.18","","","","","","NA"
"2017-03-06 20:00","2017","03","06","20:00","1.5","","-9.2","","45","","4","","16","","","","101.16","","","","","","NA"
"2017-03-06 21:00","2017","03","06","21:00","1.3","","-7.7","","51","","4","","18","","","","101.13","","","","","","NA"
"2017-03-06 22:00","2017","03","06","22:00","1.3","","-6.4","","56","","5","","14","","","","101.08","","","","","","NA"
"2017-03-06 23:00","2017","03","06","23:00","1.8","","-5.7","","57","","6","","13","","","","101.01","","","","","","NA"
"2017-03-07 00:00","2017","03","07","00:00","2.2","","-4.9","","59","","7","","9","","","","100.93","","","","","","NA"
"2017-03-07 01:00","2017","03","07","01:00","4.2","","-2.1","","64","","14","","14","","","","100.88","","","","","","NA"
"2017-03-07 02:00","2017","03","07","02:00","3.7","","-1.6","","68","","16","","25","","","","100.82","","","","","","NA"
"2017-03-07 03:00","2017","03","07","03:00","3.3","","-0.2","","78","","16","","21","","","","100.78","","","","","","NA"
"2017-03-07 04:00","2017","03","07","04:00","2.4","","1.4","","93","","15","","19","","","","100.74","","","","","","NA"
"2017-03-07 05:00","2017","03","07","05:00","2.5","","1.8","","95","","14","","19","","","","100.68","","","","","","NA"
"2017-03-07 06:00","2017","03","07","06:00","2.9","","2.3","","96","","14","","23","","","","100.62","","","","","","NA"
"2017-03-07 07:00","2017","03","07","07:00","3.1","","2.5","","96","","15","","20","","","","100.55","","","","","","NA"
"2017-03-07 08:00","2017","03","07","08:00","3.3","","2.6","","95","","16","","27","","","","100.48","","","","","","NA"
"2017-03-07 09:00","2017","03","07","09:00","3.4","","2.6","","94","","16","","26","","","","100.46","","","","","","NA"
"2017-03-07 10:00","2017","03","07","10:00","3.6","","2.8","","95","","15","","29","","","","100.35","","","","","","NA"
"2017-03-07 11:00","2017","03","07","11:00","4.2","","3.1","","93","","16","","33","","","","100.32","","","","","","NA"
"2017-03-07 12:00","2017","03","07","12:00","4.1","","3.4","","95","","16","","30","","","","100.24","","","","","","NA"
"2017-03-07 13:00","2017","03","07","13:00","4.3","","3.6","","96","","16","","32","","","","100.11","","","","","","NA"
"2017-03-07 14:00","2017","03","07","14:00","4.7","","4.0","","95","","16","","37","","","","100.02","","","","","","NA"
"2017-03-07 15:00","2017","03","07","15:00","4.7","","3.9","","95","","16","","30","","","","99.97","","","","","","NA"
"2017-03-07 16:00","2017","03","07","16:00","4.8","","4.0","","95","","16","","29","","","","99.90","","","","","","NA"
"2017-03-07 17:00","2017","03","07","17:00","5.5","","4.7","","94","","17","","27","","","","99.90","","","","","","NA"
"2017-03-07 18:00","2017","03","07","18:00","5.4","","4.6","","95","","16","","33","","","","99.88","","","","","","NA"
"2017-03-07 19:00","2017","03","07","19:00","5.0","","4.2","","95","","16","","28","","","","99.88","","","","","","NA"
"2017-03-07 20:00","2017","03","07","20:00","5.2","","4.5","","95","","17","","27","","","","99.80","","","","","","NA"
"2017-03-07 21:00","2017","03","07","21:00","6.5","","5.3","","92","","19","","21","","","","99.84","","","","","","NA"
"2017-03-07 22:00","2017","03","07","22:00","6.7","","5.6","","93","","21","","17","","","","99.79","","","","","","NA"
"2017-03-07 23:00","2017","03","07","23:00","6.6","","5.9","","95","","25","","13","","","","99.81","","","","","","NA"
"2017-03-08 00:00","2017","03","08","00:00","7.1","","4.5","","84","","29","","22","","","","99.85","","","","","","NA"
"2017-03-08 01:00","2017","03","08","01:00","7.2","","1.6","","68","","26","","20","","","","99.97","","","","","","NA"
"2017-03-08 02:00","2017","03","08","02:00","6.1","","1.0","","70","","28","","12","","","","100.10","","","","","","NA"
"2017-03-08 03:00","2017","03","08","03:00","4.8","","1.3","","78","","29","","7","","","","100.14","","","","","","NA"
"2017-03-08 04:00","2017","03","08","04:00","3.4","","0.7","","83","","16","","11","","","","100.06","","","","","","NA"
"2017-03-08 05:00","2017","03","08","05:00","2.2","","0.3","","88","","15","","15","","","","100.08","","","","","","NA"
"2017-03-08 06:00","2017","03","08","06:00","1.9","","0.2","","89","","18","","16","","","","100.15","","","","","","NA"
"2017-03-08 07:00","2017","03","08","07:00","2.4","","1.0","","91","","17","","22","","","","100.07","","","","","","NA"
"2017-03-08 08:00","2017","03","08","08:00","2.9","","1.4","","90","","18","","23","","","","100.02","","","","","","NA"
"2017-03-08 09:00","2017","03","08","09:00","3.6","","2.3","","91","","18","","25","","","","99.94","","","","","","NA"
"2017-03-08 10:00","2017","03","08","10:00","3.6","","1.7","","87","","18","","16","","","","99.85","","","","","","NA"
"2017-03-08 11:00","2017","03","08","11:00","5.7","","2.1","","77","","19","","27","","","","99.69","","","","","","NA"
"2017-03-08 12:00","2017","03","08","12:00","6.4","","1.5","","71","","20","","34","","","","99.58","","","","","","NA"
"2017-03-08 13:00","2017","03","08","13:00","8.4","","-1.0","","52","","22","","42","","","","99.44","","","","","","NA"
"2017-03-08 14:00","2017","03","08","14:00","8.4","","-3.7","","42","","24","","47","","","","99.34","","","","","","NA"
"2017-03-08 15:00","2017","03","08","15:00","7.5","","-3.5","","45","","24","","46","","","","99.33","","","","","","NA"
"2017-03-08 16:00","2017","03","08","16:00","7.5","","-3.4","","46","","24","","44","","","","99.29","","","","","","NA"
"2017-03-08 17:00","2017","03","08","17:00","5.6","","-0.7","","64","","25","","50","","","","99.37","","","","","","NA"
"2017-03-08 18:00","2017","03","08","18:00","4.7","","-1.3","","65","","25","","20","","","","99.42","","","","","","NA"
"2017-03-08 19:00","2017","03","08","19:00","5.0","","-1.5","","63","","26","","12","","","","99.51","","","","","","NA"
"2017-03-08 20:00","2017","03","08","20:00","4.4","","-1.8","","64","","23","","15","","","","99.56","","","","","","NA"
"2017-03-08 21:00","2017","03","08","21:00","4.4","","-4.5","","52","","28","","21","","","","99.62","","","","","","NA"
"2017-03-08 22:00","2017","03","08","22:00","3.5","","-4.1","","58","","26","","19","","","","99.67","","","","","","NA"
"2017-03-08 23:00","2017","03","08","23:00","2.9","","-4.2","","60","","25","","25","","","","99.70","","","","","","NA"
"2017-03-09 00:00","2017","03","09","00:00","0.0","","-3.0","","80","","28","","37","","","","99.79","","","","-7","","NA"
"2017-03-09 01:00","2017","03","09","01:00","-0.4","","-3.1","","82","","27","","19","","","","99.80","","","","-6","","NA"
"2017-03-09 02:00","2017","03","09","02:00","-0.8","","-3.1","","84","","28","","28","","","","99.87","","","","-7","","NA"
"2017-03-09 03:00","2017","03","09","03:00","-1.2","","-2.9","","88","","26","","19","","","","99.91","","","","-7","","NA"
"2017-03-09 04:00","2017","03","09","04:00","-2.3","","-5.9","","76","","28","","32","","","","100.05","","","","-10","","NA"
"2017-03-09 05:00","2017","03","09","05:00","-2.8","","-9.0","","62","","27","","30","","","","100.14","","","","-10","","NA"
"2017-03-09 06:00","2017","03","09","06:00","-3.5","","-8.8","","67","","27","","26","","","","100.25","","","","-11","","NA"
"2017-03-09 07:00","2017","03","09","07:00","-3.5","","-8.9","","66","","26","","27","","","","100.32","","","","-11","","NA"
"2017-03-09 08:00","2017","03","09","08:00","-2.9","","-8.0","","68","","26","","28","","","","100.37","","","","-10","","NA"
"2017-03-09 09:00","2017","03","09","09:00"
"2017-03-09 10:00","2017","03","09","10:00"
"2017-03-09 11:00","2017","03","09","11:00","-1.5","","-7.0","","66","","26","","27","","","","100.49","","","","-8","","NA"
"2017-03-09 12:00","2017","03","09","12:00","-0.7","","-8.3","","57","","27","","32","","","","100.49","","","","-8","","NA"
"2017-03-09 13:00","2017","03","09","13:00","0.6","","-7.3","","56","","27","","32","","","","100.48","","","","","","NA"
"2017-03-09 14:00","2017","03","09","14:00","-0.1","","-8.3","","54","","25","","31","","","","100.44","","","","-7","","NA"
"2017-03-09 15:00","2017","03","09","15:00","-0.2","","-8.8","","52","","27","","30","","","","100.48","","","","-7","","NA"
"2017-03-09 16:00","2017","03","09","16:00","0.0","","-9.0","","51","","27","","32","","","","100.48","","","","-7","","NA"
"2017-03-09 17:00","2017","03","09","17:00","-0.2","","-8.5","","53","","27","","30","","","","100.50","","","","-7","","NA"
"2017-03-09 18:00","2017","03","09","18:00","-0.6","","-7.9","","58","","27","","27","","","","100.52","","","","-7","","NA"
"2017-03-09 19:00","2017","03","09","19:00","-0.9","","-8.3","","57","","27","","26","","","","100.57","","","","-7","","NA"
"2017-03-09 20:00","2017","03","09","20:00","-1.2","","-8.1","","59","","27","","18","","","","100.60","","","","-6","","NA"
"2017-03-09 21:00","2017","03","09","21:00","-1.4","","-8.5","","58","","28","","23","","","","100.65","","","","-7","","NA"
"2017-03-09 22:00","2017","03","09","22:00","-1.6","","-8.9","","57","","29","","22","","","","100.59","","","","-8","","NA"
"2017-03-09 23:00","2017","03","09","23:00","-2.3","","-8.7","","61","","26","","14","","","","100.57","","","","-7","","NA"
"2017-03-10 00:00","2017","03","10","00:00","-2.9","","-8.4","","66","","26","","11","","","","100.51","","","","-7","","NA"
"2017-03-10 01:00","2017","03","10","01:00","-3.5","","-8.5","","68","","28","","4","","","","100.43","","","","-5","","NA"
"2017-03-10 02:00","2017","03","10","02:00","-3.4","","-8.3","","69","","27","","8","","","","100.37","","","","-7","","NA"
"2017-03-10 03:00","2017","03","10","03:00","-3.5","","-8.2","","70","","29","","8","","","","100.27","","","","-7","","NA"
"2017-03-10 04:00","2017","03","10","04:00","-4.1","","-8.9","","69","","27","","8","","","","100.22","","","","-8","","NA"
"2017-03-10 05:00","2017","03","10","05:00","-4.4","","-9.2","","69","","28","","12","","","","100.22","","","","-9","","NA"
"2017-03-10 06:00","2017","03","10","06:00","-4.6","","-9.7","","68","","29","","15","","","","100.25","","","","-10","","NA"
"2017-03-10 07:00","2017","03","10","07:00","-5.0","","-10.2","","67","","29","","16","","","","100.29","","","","-11","","NA"
"2017-03-10 08:00","2017","03","10","08:00","-4.7","","-10.9","","62","","30","","21","","","","100.30","","","","-11","","NA"
"2017-03-10 09:00","2017","03","10","09:00","-3.7","","-10.5","","59","","31","","22","","","","100.29","","","","-10","","NA"
"2017-03-10 10:00","2017","03","10","10:00","-3.5","","-13.0","","48","","27","","21","","","","100.26","","","","-10","","NA"
"2017-03-10 11:00","2017","03","10","11:00","-3.8","","-13.4","","47","","29","","20","","","","100.25","","","","-10","","NA"
"2017-03-10 12:00","2017","03","10","12:00","-3.6","","-15.6","","39","","29","","25","","","","100.24","","","","-11","","NA"
"2017-03-10 13:00","2017","03","10","13:00","-3.7","","-15.0","","41","","29","","25","","","","100.20","","","","-11","","NA"
"2017-03-10 14:00","2017","03","10","14:00","-3.9","","-16.4","","37","","29","","26","","","","100.16","","","","-11","","NA"
"2017-03-10 15:00","2017","03","10","15:00","-4.1","","-16.3","","38","","28","","26","","","","100.16","","","","-11","","NA"
"2017-03-10 16:00","2017","03","10","16:00","-4.7","","-18.4","","33","","28","","24","","","","100.17","","","","-12","","NA"
"2017-03-10 17:00","2017","03","10","17:00","-5.8","","-15.5","","46","","26","","36","","","","100.25","","","","-15","","NA"
"2017-03-10 18:00","2017","03","10","18:00","-9.1","","-11.0","","86","","31","","19","","","","100.45","","","","-17","","NA"
"2017-03-10 19:00","2017","03","10","19:00","-10.2","","-12.9","","81","","32","","25","","","","100.57","","","","-19","","NA"
"2017-03-10 20:00","2017","03","10","20:00","-11.2","","-17.2","","61","","32","","22","","","","100.70","","","","-20","","NA"
"2017-03-10 21:00","2017","03","10","21:00","-12.2","","-20.3","","51","","31","","26","","","","100.81","","","","-22","","NA"
"2017-03-10 22:00","2017","03","10","22:00","-12.8","","-21.2","","49","","31","","26","","","","100.90","","","","-23","","NA"
"2017-03-10 23:00","2017","03","10","23:00","-13.8","","-21.1","","54","","32","","21","","","","100.95","","","","-23","","NA"
"2017-03-11 00:00","2017","03","11","00:00","-14.8","","-23.5","","48","","32","","14","","","","100.98","","","","-22","","NA"
"2017-03-11 01:00","2017","03","11","01:00","-15.5","","-22.9","","53","","34","","12","","","","100.97","","","","-23","","NA"
"2017-03-11 02:00","2017","03","11","02:00","-16.0","","-21.5","","63","","32","","8","","","","101.01","","","","-22","","NA"
"2017-03-11 03:00","2017","03","11","03:00","-16.2","","-21.5","","63","","31","","8","","","","101.00","","","","-22","","NA"
"2017-03-11 04:00","2017","03","11","04:00","-16.8","","-21.6","","66","","32","","7","","","","101.03","","","","-22","","NA"
"2017-03-11 05:00","2017","03","11","05:00","-17.9","","-21.9","","71","","32","","8","","","","101.07","","","","-24","","NA"
"2017-03-11 06:00","2017","03","11","06:00","-17.7","","-20.9","","76","","32","","6","","","","101.09","","","","-22","","NA"
"2017-03-11 07:00","2017","03","11","07:00","-17.4","","-21.0","","73","","30","","6","","","","101.15","","","","-22","","NA"
"2017-03-11 08:00","2017","03","11","08:00","-14.6","","-21.6","","55","","29","","17","","","","101.19","","","","-23","","NA"
"2017-03-11 09:00","2017","03","11","09:00","-13.9","","-21.8","","51","","31","","24","","","","101.20","","","","-24","","NA"
"2017-03-11 10:00","2017","03","11","10:00","-13.7","","-23.0","","46","","30","","27","","","","101.19","","","","-24","","NA"
"2017-03-11 11:00","2017","03","11","11:00","-12.7","","-21.8","","47","","29","","25","","","","101.14","","","","-22","","NA"
"2017-03-11 12:00","2017","03","11","12:00","-12.0","","-21.9","","43","","29","","24","","","","101.11","","","","-21","","NA"
"2017-03-11 13:00","2017","03","11","13:00","-10.7","","-20.3","","45","","27","","27","","","","101.06","","","","-20","","NA"
"2017-03-11 14:00","2017","03","11","14:00","-10.1","","-20.7","","42","","30","","31","","","","101.05","","","","-20","","NA"
"2017-03-11 15:00","2017","03","11","15:00","-9.4","","-20.7","","39","","31","","28","","","","101.07","","","","-18","","NA"
"2017-03-11 16:00","2017","03","11","16:00","-9.7","","-21.9","","36","","29","","28","","","","101.11","","","","-19","","NA"
"2017-03-11 17:00","2017","03","11","17:00","-10.0","","-21.6","","38","","31","","27","","","","101.15","","","","-19","","NA"
"2017-03-11 18:00","2017","03","11","18:00","-10.6","","-22.3","","38","","31","","21","","","","101.21","","","","-19","","NA"
"2017-03-11 19:00","2017","03","11","19:00","-11.4","","-21.4","","43","","32","","17","","","","101.27","","","","-19","","NA"
"2017-03-11 20:00","2017","03","11","20:00","-12.0","","-21.4","","45","","32","","15","","","","101.35","","","","-19","","NA"
"2017-03-11 21:00","2017","03","11","21:00","-12.4","","-21.2","","48","","32","","17","","","","101.42","","","","-20","","NA"
"2017-03-11 22:00","2017","03","11","22:00","-13.6","","-20.9","","54","","34","","14","","","","101.50","","","","-21","","NA"
"2017-03-11 23:00","2017","03","11","23:00","-13.8","","-22.5","","48","","33","","15","","","","101.59","","","","-21","","NA"
"2017-03-12 00:00","2017","03","12","00:00","-14.3","","-23.0","","48","","33","","16","","","","101.60","","","","-22","","NA"
"2017-03-12 01:00","2017","03","12","01:00","-14.9","","-22.8","","51","","32","","11","","","","101.61","","","","-21","","NA"
"2017-03-12 02:00","2017","03","12","02:00","-15.8","","-22.4","","57","","33","","9","","","","101.62","","","","-22","","NA"
"2017-03-12 03:00","2017","03","12","03:00","-15.7","","-21.8","","60","","31","","10","","","","101.59","","","","-22","","NA"
"2017-03-12 04:00","2017","03","12","04:00","-16.2","","-22.0","","61","","32","","8","","","","101.60","","","","-22","","NA"
"2017-03-12 05:00","2017","03","12","05:00","-16.2","","-21.5","","63","","28","","9","","","","101.67","","","","-22","","NA"
"2017-03-12 06:00","2017","03","12","06:00","-16.1","","-21.8","","62","","29","","10","","","","101.67","","","","-23","","NA"
"2017-03-12 07:00","2017","03","12","07:00","-16.0","","-21.6","","62","","30","","10","","","","101.73","","","","-22","","NA"
"2017-03-12 08:00","2017","03","12","08:00","-14.8","","-21.6","","56","","32","","11","","","","101.74","","","","-21","","NA"
"2017-03-12 09:00","2017","03","12","09:00","-13.5","","-21.8","","50","","32","","13","","","","101.74","","","","-20","","NA"
"2017-03-12 10:00","2017","03","12","10:00","-12.0","","-20.7","","48","","30","","12","","","","101.74","","","","-18","","NA"
"2017-03-12 11:00","2017","03","12","11:00","-11.8","","-22.4","","41","","24","","14","","","","101.70","","","","-19","","NA"
"2017-03-12 12:00","2017","03","12","12:00","-9.5","","-18.9","","46","","26","","16","","","","101.66","","","","-16","","NA"
"2017-03-12 13:00","2017","03","12","13:00","-7.9","","-16.7","","49","","29","","14","","","","101.63","","","","-14","","NA"
"2017-03-12 14:00","2017","03","12","14:00","-8.6","","-19.7","","40","","25","","15","","","","101.59","","","","-15","","NA"
"2017-03-12 15:00","2017","03","12","15:00","-7.1","","-20.1","","35","","30","","18","","","","101.59","","","","-14","","NA"
"2017-03-12 16:00","2017","03","12","16:00","-6.8","","-19.4","","36","","28","","16","","","","101.57","","","","-13","","NA"
"2017-03-12 17:00","2017","03","12","17:00","-7.0","","-20.8","","32","","29","","21","","","","101.62","","","","-14","","NA"
"2017-03-12 18:00","2017","03","12","18:00","-7.8","","-20.1","","36","","30","","16","","","","101.66","","","","-14","","NA"
"2017-03-12 19:00","2017","03","12","19:00","-9.0","","-19.5","","42","","31","","11","","","","101.75","","","","-14","","NA"
"2017-03-12 20:00","2017","03","12","20:00","-9.4","","-18.7","","46","","29","","9","","","","101.84","","","","-14","","NA"
"2017-03-12 21:00","2017","03","12","21:00","-10.2","","-18.3","","51","","29","","9","","","","101.88","","","","-15","","NA"
"2017-03-12 22:00","2017","03","12","22:00","-11.0","","-18.4","","54","","31","","9","","","","101.92","","","","-16","","NA"
"2017-03-12 23:00","2017","03","12","23:00","-11.8","","-18.5","","58","","3","","9","","","","102.01","","","","-17","","NA"
"2017-03-13 00:00","2017","03","13","00:00","-12.5","","-19.9","","54","","36","","11","","","","102.02","","","","-19","","NA"
"2017-03-13 01:00","2017","03","13","01:00","-13.9","","-19.6","","62","","35","","9","","","","102.08","","","","-20","","NA"
"2017-03-13 02:00","2017","03","13","02:00","-13.6","","-20.3","","57","","36","","8","","","","102.09","","","","-19","","NA"
"2017-03-13 03:00","2017","03","13","03:00","-15.1","","-20.2","","65","","35","","10","","","","102.10","","","","-21","","NA"
"2017-03-13 04:00","2017","03","13","04:00","-14.8","","-19.7","","66","","35","","2","","","","102.13","","","","-16","","NA"
"2017-03-13 05:00","2017","03","13","05:00","-14.8","","-20.7","","61","","36","","6","","","","102.15","","","","-19","","NA"
"2017-03-13 06:00","2017","03","13","06:00","-15.4","","-20.3","","66","","35","","7","","","","102.20","","","","-20","","NA"
"2017-03-13 07:00","2017","03","13","07:00","-14.2","","-19.9","","62","","1","","7","","","","102.28","","","","-19","","NA"
"2017-03-13 08:00","2017","03","13","08:00","-13.0","","-20.2","","54","","4","","11","","","","102.28","","","","-19","","NA"
"2017-03-13 09:00","2017","03","13","09:00","-11.6","","-20.7","","47","","4","","8","","","","102.30","","","","-16","","NA"
"2017-03-13 10:00","2017","03","13","10:00","-10.5","","-21.5","","40","","6","","9","","","","102.24","","","","-15","","NA"
"2017-03-13 11:00","2017","03","13","11:00","-9.4","","-22.4","","34","","5","","8","","","","102.12","","","","-14","","NA"
"2017-03-13 12:00","2017","03","13","12:00","-8.7","","-22.7","","31","","12","","8","","","","102.12","","","","-13","","NA"
"2017-03-13 13:00","2017","03","13","13:00","-8.2","","-23.0","","29","","4","","8","","","","102.02","","","","-12","","NA"
"2017-03-13 14:00","2017","03","13","14:00","-7.8","","-20.2","","36","","10","","4","","","","101.96","","","","-10","","NA"
"2017-03-13 15:00","2017","03","13","15:00","-7.9","","-24.0","","26","","36","","8","","","","101.90","","","","-12","","NA"
"2017-03-13 16:00","2017","03","13","16:00","-7.8","","-22.7","","29","","6","","11","","","","101.80","","","","-13","","NA"
"2017-03-13 17:00","2017","03","13","17:00","-7.7","","-21.9","","31","","5","","11","","","","101.79","","","","-13","","NA"
"2017-03-13 18:00","2017","03","13","18:00","-8.7","","-17.2","","50","","2","","14","","","","101.81","","","","-15","","NA"
"2017-03-13 19:00","2017","03","13","19:00","-9.0","","-15.8","","58","","4","","11","","","","101.79","","","","-14","","NA"
"2017-03-13 20:00","2017","03","13","20:00","-9.3","","-13.7","","71","","6","","14","","","","101.75","","","","-16","","NA"
"2017-03-13 21:00","2017","03","13","21:00","-9.7","","-13.1","","76","","4","","19","","","","101.68","","","","-17","","NA"
"2017-03-13 22:00","2017","03","13","22:00","-10.0","","-12.9","","79","","3","","21","","","","101.59","","","","-18","","NA"
"2017-03-13 23:00","2017","03","13","23:00","-10.4","","-13.2","","80","","3","","19","","","","101.55","","","","-18","","NA"
"2017-03-14 00:00","2017","03","14","00:00","-10.6","","-13.8","","77","","3","","20","","","","101.50","","","","-19","","NA"
"2017-03-14 01:00","2017","03","14","01:00","-10.8","","-13.6","","80","","3","","21","","","","101.44","","","","-19","","NA"
"2017-03-14 02:00","2017","03","14","02:00","-10.8","","-13.5","","80","","3","","20","","","","101.35","","","","-19","","NA"
"2017-03-14 03:00","2017","03","14","03:00","-10.8","","-13.1","","83","","2","","23","","","","101.21","","","","-19","","NA"
"2017-03-14 04:00","2017","03","14","04:00","-10.7","","-13.2","","82","","3","","25","","","","101.10","","","","-20","","NA"
"2017-03-14 05:00","2017","03","14","05:00","-10.6","","-13.1","","82","","3","","25","","","","101.11","","","","-20","","NA"
"2017-03-14 06:00","2017","03","14","06:00","-10.6","","-12.7","","84","","3","","23","","","","101.05","","","","-19","","NA"
"2017-03-14 07:00","2017","03","14","07:00","-10.5","","-12.9","","83","","3","","26","","","","100.90","","","","-20","","NA"
"2017-03-14 08:00","2017","03","14","08:00","-10.2","","-12.7","","82","","3","","26","","","","100.87","","","","-19","","NA"
"2017-03-14 09:00","2017","03","14","09:00","-9.9","","-12.5","","82","","2","","23","","","","100.74","","","","-18","","NA"
"2017-03-14 10:00","2017","03","14","10:00","-9.7","","-12.0","","83","","1","","27","","","","100.58","","","","-19","","NA"
"2017-03-14 11:00","2017","03","14","11:00","-9.6","","-12.0","","82","","1","","30","","","","100.43","","","","-19","","NA"
"2017-03-14 12:00","2017","03","14","12:00","-9.5","","-11.9","","83","","2","","33","","","","100.31","","","","-19","","NA"
"2017-03-14 13:00","2017","03","14","13:00","-9.2","","-11.5","","83","","1","","33","","","","100.12","","","","-19","","NA"
"2017-03-14 14:00","2017","03","14","14:00","-9.2","","-11.5","","83","","1","","33","","","","100.01","","","","-19","","NA"
"2017-03-14 15:00","2017","03","14","15:00","-9.4","","-11.8","","83","","36","","37","","","","99.91","","","","-20","","NA"
"2017-03-14 16:00","2017","03","14","16:00","-9.4","","-11.8","","83","","36","","39","","","","99.78","","","","-20","","NA"
"2017-03-14 17:00","2017","03","14","17:00","-9.5","","-11.5","","85","","35","","37","","","","99.72","","","","-20","","NA"
"2017-03-14 18:00","2017","03","14","18:00","-9.6","","-11.7","","85","","34","","35","","","","99.72","","","","-20","","NA"
"2017-03-14 19:00","2017","03","14","19:00","-9.9","","-11.6","","87","","34","","37","","","","99.68","","","","-20","","NA"
"2017-03-14 20:00","2017","03","14","20:00","-9.7","","-11.8","","85","","34","","38","","","","99.66","","","","-20","","NA"
"2017-03-14 21:00","2017","03","14","21:00","-9.7","","-11.8","","85","","33","","37","","","","99.59","","","","-20","","NA"
"2017-03-14 22:00","2017","03","14","22:00","-9.7","","-11.7","","85","","33","","33","","","","99.52","","","","-20","","NA"
"2017-03-14 23:00","2017","03","14","23:00","-9.9","","-12.0","","85","","33","","33","","","","99.45","","","","-20","","NA"
"2017-03-15 00:00","2017","03","15","00:00","-10.0","","-12.2","","84","","33","","30","","","","99.39","","","","-20","","NA"
"2017-03-15 01:00","2017","03","15","01:00","-10.3","","-12.3","","85","","33","","30","","","","99.29","","","","-20","","NA"
"2017-03-15 02:00","2017","03","15","02:00","-10.3","","-12.4","","85","","33","","27","","","","99.20","","","","-19","","NA"
"2017-03-15 03:00","2017","03","15","03:00","-10.2","","-12.8","","81","","32","","28","","","","99.11","","","","-19","","NA"
"2017-03-15 04:00","2017","03","15","04:00","-10.0","","-13.2","","78","","32","","27","","","","99.05","","","","-19","","NA"
"2017-03-15 05:00","2017","03","15","05:00","-10.0","","-13.4","","76","","32","","29","","","","99.04","","","","-19","","NA"
"2017-03-15 06:00","2017","03","15","06:00","-10.2","","-12.8","","81","","32","","23","","","","99.03","","","","-19","","NA"
"2017-03-15 07:00","2017","03","15","07:00","-10.1","","-13.0","","79","","32","","24","","","","99.05","","","","-19","","NA"
"2017-03-15 08:00","2017","03","15","08:00","-9.8","","-13.1","","77","","32","","25","","","","99.06","","","","-19","","NA"
"2017-03-15 09:00","2017","03","15","09:00","-9.8","","-12.5","","81","","32","","23","","","","99.08","","","","-18","","NA"
"2017-03-15 10:00","2017","03","15","10:00","-9.6","","-12.0","","83","","32","","23","","","","99.10","","","","-18","","NA"
"2017-03-15 11:00","2017","03","15","11:00","-9.1","","-12.0","","80","","31","","25","","","","99.14","","","","-18","","NA"
"2017-03-15 12:00","2017","03","15","12:00","-8.6","","-11.3","","80","","31","","26","","","","99.18","","","","-17","","NA"
"2017-03-15 13:00","2017","03","15","13:00","-8.0","","-10.9","","80","","31","","24","","","","99.20","","","","-16","","NA"
"2017-03-15 14:00","2017","03","15","14:00","-7.2","","-10.2","","79","","32","","21","","","","99.22","","","","-15","","NA"
"2017-03-15 15:00","2017","03","15","15:00","-5.8","","-10.8","","68","","31","","23","","","","99.28","","","","-13","","NA"
"2017-03-15 16:00","2017","03","15","16:00","-5.0","","-11.8","","59","","31","","28","","","","99.33","","","","-13","","NA"
"2017-03-15 17:00","2017","03","15","17:00","-3.8","","-12.8","","49","","31","","19","","","","99.38","","","","-10","","NA"
"2017-03-15 18:00","2017","03","15","18:00","-3.3","","-13.8","","44","","31","","17","","","","99.49","","","","-9","","NA"
"2017-03-15 19:00","2017","03","15","19:00","-4.3","","-13.3","","49","","30","","25","","","","99.63","","","","-11","","NA"
"2017-03-15 20:00","2017","03","15","20:00","-4.9","","-13.1","","53","","32","","24","","","","99.77","","","","-12","","NA"
"2017-03-15 21:00","2017","03","15","21:00","-5.2","","-13.3","","53","","30","","17","","","","99.85","","","","-11","","NA"
"2017-03-15 22:00","2017","03","15","22:00","-5.3","","-15.2","","45","","29","","16","","","","99.90","","","","-11","","NA"
"2017-03-15 23:00","2017","03","15","23:00","-5.5","","-15.8","","44","","30","","24","","","","99.91","","","","-13","","NA"
"2017-03-16 00:00","2017","03","16","00:00","-6.8","","-15.8","","49","","32","","26","","","","99.92","","","","-15","","NA"
"2017-03-16 01:00","2017","03","16","01:00","-7.2","","-16.4","","48","","30","","15","","","","99.98","","","","-13","","NA"
"2017-03-16 02:00","2017","03","16","02:00","-7.5","","-16.2","","49","","31","","18","","","","99.99","","","","-14","","NA"
"2017-03-16 03:00","2017","03","16","03:00","-7.9","","-16.6","","50","","30","","16","","","","100.02","","","","-14","","NA"
"2017-03-16 04:00","2017","03","16","04:00","-8.7","","-16.9","","52","","31","","16","","","","100.07","","","","-15","","NA"
"2017-03-16 05:00","2017","03","16","05:00","-8.8","","-17.1","","51","","30","","16","","","","100.11","","","","-16","","NA"
"2017-03-16 06:00","2017","03","16","06:00","-9.7","","-17.4","","53","","30","","15","","","","100.16","","","","-16","","NA"
"2017-03-16 07:00","2017","03","16","07:00","-9.7","","-17.2","","54","","27","","12","","","","100.24","","","","-16","","NA"
"2017-03-16 08:00","2017","03","16","08:00","-8.4","","-17.2","","49","","29","","18","","","","100.28","","","","-15","","NA"
"2017-03-16 09:00","2017","03","16","09:00","-7.6","","-16.9","","47","","29","","20","","","","100.32","","","","-15","","NA"
"2017-03-16 10:00","2017","03","16","10:00","-6.3","","-15.9","","47","","27","","20","","","","100.33","","","","-13","","NA"
"2017-03-16 11:00","2017","03","16","11:00","-4.8","","-15.4","","43","","28","","18","","","","100.33","","","","-11","","NA"
"2017-03-16 12:00","2017","03","16","12:00","-3.7","","-14.7","","42","","26","","21","","","","100.31","","","","-10","","NA"
"2017-03-16 13:00","2017","03","16","13:00","-2.8","","-12.9","","46","","25","","24","","","","100.30","","","","-9","","NA"
"2017-03-16 14:00","2017","03","16","14:00","-1.2","","-13.8","","38","","26","","20","","","","100.29","","","","-7","","NA"
"2017-03-16 15:00","2017","03","16","15:00","-0.6","","-14.7","","33","","27","","27","","","","100.28","","","","-7","","NA"
"2017-03-16 16:00","2017","03","16","16:00","-0.4","","-11.7","","42","","25","","24","","","","100.28","","","","-6","","NA"
"2017-03-16 17:00","2017","03","16","17:00","-0.3","","-11.9","","41","","25","","24","","","","100.32","","","","-6","","NA"
"2017-03-16 18:00","2017","03","16","18:00","-0.7","","-12.2","","42","","25","","18","","","","100.40","","","","-6","","NA"
"2017-03-16 19:00","2017","03","16","19:00","-1.6","","-11.4","","47","","26","","18","","","","100.53","","","","-7","","NA"
"2017-03-16 20:00","2017","03","16","20:00","-2.6","","-10.7","","53","","27","","16","","","","100.63","","","","-8","","NA"
"2017-03-16 21:00","2017","03","16","21:00","-3.2","","-11.0","","55","","27","","16","","","","100.72","","","","-9","","NA"
"2017-03-16 22:00","2017","03","16","22:00","-3.5","","-11.1","","55","","27","","17","","","","100.75","","","","-9","","NA"
"2017-03-16 23:00","2017","03","16","23:00","-4.4","","-11.3","","58","","28","","14","","","","100.82","","","","-10","","NA"
"2017-03-17 00:00","2017","03","17","00:00","-4.8","","-11.7","","59","","28","","14","","","","100.88","","","","-10","","NA"
"2017-03-17 01:00","2017","03","17","01:00","-5.6","","-11.9","","61","","28","","13","","","","100.90","","","","-11","","NA"
"2017-03-17 02:00","2017","03","17","02:00","-5.9","","-11.9","","62","","29","","14","","","","100.94","","","","-11","","NA"
"2017-03-17 03:00","2017","03","17","03:00","-6.7","","-11.8","","67","","28","","14","","","","100.97","","","","-12","","NA"
"2017-03-17 04:00","2017","03","17","04:00","-7.3","","-11.6","","71","","32","","10","","","","101.03","","","","-12","","NA"
"2017-03-17 05:00","2017","03","17","05:00","-7.6","","-11.5","","73","","31","","8","","","","101.09","","","","-12","","NA"
"2017-03-17 06:00","2017","03","17","06:00","-9.6","","-12.6","","79","","32","","8","","","","101.15","","","","-14","","NA"
"2017-03-17 07:00","2017","03","17","07:00","-10.4","","-12.5","","84","","32","","8","","","","101.24","","","","-15","","NA"
"2017-03-17 08:00","2017","03","17","08:00","-8.7","","-12.7","","72","","34","","11","","","","101.31","","","","-14","","NA"
"2017-03-17 09:00","2017","03","17","09:00","-5.8","","-13.5","","55","","35","","11","","","","101.35","","","","-11","","NA"
"2017-03-17 10:00","2017","03","17","10:00","-2.7","","-14.4","","40","","1","","3","","","","101.35","","","","-4","","NA"
"2017-03-17 11:00","2017","03","17","11:00","-2.4","","-11.9","","48","","19","","9","","","","101.29","","","","-6","","NA"
"2017-03-17 12:00","2017","03","17","12:00","-2.4","","-9.5","","58","","18","","15","","","","101.25","","","","-7","","NA"
"2017-03-17 13:00","2017","03","17","13:00","-1.8","","-10.2","","52","","18","","16","","","","101.21","","","","-7","","NA"
"2017-03-17 14:00","2017","03","17","14:00","-1.4","","-9.8","","53","","18","","17","","","","101.18","","","","-7","","NA"
"2017-03-17 15:00","2017","03","17","15:00","-1.1","","-8.8","","56","","18","","17","","","","101.17","","","","-6","","NA"
"2017-03-17 16:00","2017","03","17","16:00","-1.1","","-7.1","","64","","17","","18","","","","101.14","","","","-6","","NA"
"2017-03-17 17:00","2017","03","17","17:00","-1.0","","-5.9","","70","","16","","16","","","","101.12","","","","-6","","NA"
"2017-03-17 18:00","2017","03","17","18:00","-1.1","","-4.4","","78","","16","","15","","","","101.10","","","","-6","","NA"
"2017-03-17 19:00","2017","03","17","19:00","-1.6","","-4.2","","82","","15","","12","","","","101.08","","","","-6","","NA"
"2017-03-17 20:00","2017","03","17","20:00","-2.0","","-4.5","","83","","14","","12","","","","101.09","","","","-6","","NA"
"2017-03-17 21:00","2017","03","17","21:00","-4.3","","-5.4","","92","","7","","4","","","","101.09","","","","-6","","NA"
"2017-03-17 22:00","2017","03","17","22:00","-5.7","","-6.8","","92","","5","","5","","","","101.10","","","","-8","","NA"
"2017-03-17 23:00","2017","03","17","23:00","-6.6","","-7.3","","95","","4","","6","","","","101.08","","","","-10","","NA"
"2017-03-18 00:00","2017","03","18","00:00","-7.1","","-8.9","","87","","4","","6","","","","101.08","","","","-10","","NA"
"2017-03-18 01:00","2017","03","18","01:00","-7.6","","-10.2","","82","","5","","8","","","","101.10","","","","-12","","NA"
"2017-03-18 02:00","2017","03","18","02:00","-9.8","","-13.1","","77","","3","","9","","","","101.06","","","","-15","","NA"
"2017-03-18 03:00","2017","03","18","03:00","-7.9","","-12.2","","71","","4","","13","","","","101.03","","","","-14","","NA"
"2017-03-18 04:00","2017","03","18","04:00","-7.4","","-13.1","","64","","4","","11","","","","101.00","","","","-12","","NA"
"2017-03-18 05:00","2017","03","18","05:00","-8.0","","-13.7","","64","","5","","8","","","","100.96","","","","-12","","NA"
"2017-03-18 06:00","2017","03","18","06:00","-7.8","","-13.9","","62","","4","","14","","","","100.96","","","","-14","","NA"
"2017-03-18 07:00","2017","03","18","07:00","-7.0","","-14.1","","57","","4","","16","","","","101.00","","","","-13","","NA"
"2017-03-18 08:00","2017","03","18","08:00","-4.8","","-13.6","","50","","4","","18","","","","100.99","","","","-11","","NA"
"2017-03-18 09:00","2017","03","18","09:00","-3.0","","-13.6","","44","","4","","20","","","","100.97","","","","-9","","NA"
"2017-03-18 10:00","2017","03","18","10:00","-0.6","","-12.1","","41","","6","","19","","","","100.97","","","","-6","","NA"
"2017-03-18 11:00","2017","03","18","11:00","0.6","","-12.3","","38","","3","","21","","","","100.94","","","","","","NA"
"2017-03-18 12:00","2017","03","18","12:00","1.8","","-12.2","","35","","6","","23","","","","100.92","","","","","","NA"
"2017-03-18 13:00","2017","03","18","13:00","2.5","","-11.0","","36","","4","","19","","","","100.88","","","","","","NA"
"2017-03-18 14:00","2017","03","18","14:00","3.4","","-11.2","","33","","4","","24","","","","100.83","","","","","","NA"
"2017-03-18 15:00","2017","03","18","15:00","3.5","","-11.1","","33","","5","","23","","","","100.81","","","","","","NA"
"2017-03-18 16:00","2017","03","18","16:00","2.8","","-10.9","","36","","4","","23","","","","100.86","","","","","","NA"
"2017-03-18 17:00","2017","03","18","17:00","2.5","","-9.2","","42","","5","","15","","","","100.92","","","","","","NA"
"2017-03-18 18:00","2017","03","18","18:00","2.1","","-8.8","","44","","5","","18","","","","100.98","","","","","","NA"
"2017-03-18 19:00","2017","03","18","19:00","1.3","","-8.4","","49","","4","","18","","","","101.05","","","","","","NA"
"2017-03-18 20:00","2017","03","18","20:00","0.5","","-8.7","","50","","5","","16","","","","101.14","","","","","","NA"
"2017-03-18 21:00","2017","03","18","21:00","0.0","","-8.1","","54","","5","","14","","","","101.17","","","","-4","","NA"
"2017-03-18 22:00","2017","03","18","22:00","-0.5","","-7.7","","58","","3","","12","","","","101.21","","","","-4","","NA"
"2017-03-18 23:00","2017","03","18","23:00","-0.9","","-8.6","","56","","3","","12","","","","101.23","","","","-5","","NA"
"2017-03-19 00:00","2017","03","19","00:00","-1.2","","-8.3","","59","","2","","13","","","","101.25","","","","-5","","NA"
"2017-03-19 01:00","2017","03","19","01:00","-1.6","","-8.3","","60","","3","","12","","","","101.26","","","","-6","","NA"
"2017-03-19 02:00","2017","03","19","02:00","-2.3","","-8.6","","62","","2","","15","","","","101.26","","","","-7","","NA"
"2017-03-19 03:00","2017","03","19","03:00","-2.9","","-8.6","","64","","3","","13","","","","101.25","","","","-8","","NA"
"2017-03-19 04:00","2017","03","19","04:00","-3.4","","-8.7","","67","","2","","12","","","","101.31","","","","-8","","NA"
"2017-03-19 05:00","2017","03","19","05:00","-3.5","","-8.4","","69","","1","","12","","","","101.36","","","","-8","","NA"
"2017-03-19 06:00","2017","03","19","06:00","-4.3","","-9.0","","70","","2","","12","","","","101.45","","","","-9","","NA"
"2017-03-19 07:00","2017","03","19","07:00","-4.3","","-9.2","","69","","1","","14","","","","101.54","","","","-9","","NA"
"2017-03-19 08:00","2017","03","19","08:00","-3.7","","-9.1","","66","","2","","14","","","","101.58","","","","-9","","NA"
"2017-03-19 09:00","2017","03","19","09:00","-1.4","","-8.5","","58","","2","","15","","","","101.60","","","","-6","","NA"
"2017-03-19 10:00","2017","03","19","10:00","0.7","","-7.2","","56","","1","","12","","","","101.61","","","","","","NA"
"2017-03-19 11:00","2017","03","19","11:00","1.9","","-6.4","","54","","36","","11","","","","101.58","","","","","","NA"
"2017-03-19 12:00","2017","03","19","12:00","3.3","","-6.2","","50","","5","","9","","","","101.50","","","","","","NA"
"2017-03-19 13:00","2017","03","19","13:00","2.7","","-5.0","","57","","16","","10","","","","101.46","","","","","","NA"
"2017-03-19 14:00","2017","03","19","14:00","2.7","","-5.7","","54","","17","","12","","","","101.39","","","","","","NA"
"2017-03-19 15:00","2017","03","19","15:00","2.7","","-4.5","","59","","18","","12","","","","101.35","","","","","","NA"
"2017-03-19 16:00","2017","03","19","16:00","2.4","","-4.7","","59","","18","","13","","","","101.33","","","","","","NA"
"2017-03-19 17:00","2017","03","19","17:00","1.3","","-3.3","","71","","16","","12","","","","101.33","","","","","","NA"
"2017-03-19 18:00","2017","03","19","18:00","0.6","","-2.5","","80","","19","","11","","","","101.34","","","","","","NA"
"2017-03-19 19:00","2017","03","19","19:00","-0.4","","-2.3","","87","","23","","6","","","","101.36","","","","-2","","NA"
"2017-03-19 20:00","2017","03","19","20:00","-0.2","","-2.7","","83","","23","","12","","","","101.37","","","","-4","","NA"
"2017-03-19 21:00","2017","03","19","21:00","-0.6","","-2.9","","84","","25","","11","","","","101.39","","","","-4","","NA"
"2017-03-19 22:00","2017","03","19","22:00","-1.1","","-2.9","","88","","26","","2","","","","101.39","","","","-2","","NA"
"2017-03-19 23:00","2017","03","19","23:00","-2.6","","-4.2","","89","","","","0","","","","101.34","","","","","","NA"
"2017-03-20 00:00","2017","03","20","00:00","-2.9","","-3.7","","94","","22","","6","","","","101.28","","","","-5","","NA"
"2017-03-20 01:00","2017","03","20","01:00","-4.0","","-4.7","","95","","27","","3","","","","101.21","","","","-5","","NA"
"2017-03-20 02:00","2017","03","20","02:00","-2.6","","-3.1","","96","","21","","8","","","","101.18","","","","-6","","NA"
"2017-03-20 03:00","2017","03","20","03:00","-2.2","","-2.7","","97","","24","","8","","","","101.15","","","","-5","","NA"
"2017-03-20 04:00","2017","03","20","04:00","-1.3","","-1.7","","97","","25","","5","","","","101.13","","","","-3","","NA"
"2017-03-20 05:00","2017","03","20","05:00","-0.7","","-1.1","","97","","25","","12","","","","101.13","","","","-5","","NA"
"2017-03-20 06:00","2017","03","20","06:00","-1.1","","-1.4","","97","","24","","7","","","","101.11","","","","-4","","NA"
"2017-03-20 07:00","2017","03","20","07:00","-1.2","","-1.5","","97","","24","","8","","","","101.09","","","","-4","","NA"
"2017-03-20 08:00","2017","03","20","08:00","-0.8","","-1.2","","97","","22","","9","","","","101.05","","","","-4","","NA"
"2017-03-20 09:00","2017","03","20","09:00","-0.2","","-0.6","","97","","20","","6","","","","101.01","","","","-2","","NA"
"2017-03-20 10:00","2017","03","20","10:00","0.3","","-0.1","","97","","16","","8","","","","100.96","","","","","","NA"
"2017-03-20 11:00","2017","03","20","11:00","0.6","","0.2","","97","","19","","9","","","","101.00","","","","","","NA"
"2017-03-20 12:00","2017","03","20","12:00","1.1","","0.8","","97","","19","","6","","","","100.99","","","","","","NA"
"2017-03-20 13:00","2017","03","20","13:00","2.1","","1.2","","94","","20","","5","","","","100.93","","","","","","NA"
"2017-03-20 14:00","2017","03","20","14:00","1.9","","0.6","","91","","18","","9","","","","100.81","","","","","","NA"
"2017-03-20 15:00","2017","03","20","15:00","1.6","","0.0","","89","","18","","13","","","","100.69","","","","","","NA"
"2017-03-20 16:00","2017","03","20","16:00","1.3","","0.1","","91","","19","","16","","","","100.66","","","","","","NA"
"2017-03-20 17:00","2017","03","20","17:00","1.1","","-0.2","","91","","18","","16","","","","100.59","","","","","","NA"
"2017-03-20 18:00","2017","03","20","18:00","0.9","","-0.3","","91","","19","","15","","","","100.55","","","","","","NA"
"2017-03-20 19:00","2017","03","20","19:00","0.5","","-0.7","","91","","20","","9","","","","100.56","","","","","","NA"
"2017-03-20 20:00","2017","03","20","20:00","0.6","","-1.1","","89","","21","","9","","","","100.55","","","","","","NA"
"2017-03-20 21:00","2017","03","20","21:00","0.0","","-1.4","","90","","21","","5","","","","100.54","","","","-2","","NA"
"2017-03-20 22:00","2017","03","20","22:00","-0.4","","-1.7","","91","","22","","8","","","","100.53","","","","-3","","NA"
"2017-03-20 23:00","2017","03","20","23:00","0.3","","-1.1","","90","","20","","8","","","","100.45","","","","","","NA"
"2017-03-21 00:00","2017","03","21","00:00","0.3","","-1.0","","91","","25","","4","","","","100.41","","","","","","NA"
"2017-03-21 01:00","2017","03","21","01:00","0.9","","-0.8","","88","","24","","7","","","","100.41","","","","","","NA"
"2017-03-21 02:00","2017","03","21","02:00","0.6","","-0.7","","91","","26","","4","","","","100.34","","","","","","NA"
"2017-03-21 03:00","2017","03","21","03:00","1.0","","-0.2","","92","","22","","10","","","","100.25","","","","","","NA"
"2017-03-21 04:00","2017","03","21","04:00","1.0","","0.1","","94","","23","","7","","","","100.22","","","","","","NA"
"2017-03-21 05:00","2017","03","21","05:00","0.8","","0.0","","94","","24","","7","","","","100.23","","","","","","NA"
"2017-03-21 06:00","2017","03","21","06:00","0.6","","0.0","","96","","25","","4","","","","100.21","","","","","","NA"
"2017-03-21 07:00","2017","03","21","07:00","0.7","","0.1","","96","","","","0","","","","100.19","","","","","","NA"
"2017-03-21 08:00","2017","03","21","08:00","0.8","","0.2","","96","","","","0","","","","100.18","","","","","","NA"
"2017-03-21 09:00","2017","03","21","09:00","1.1","","0.6","","96","","18","","1","","","","100.18","","","","","","NA"
"2017-03-21 10:00","2017","03","21","10:00","1.8","","1.0","","95","","20","","6","","","","100.15","","","","","","NA"
"2017-03-21 11:00","2017","03","21","11:00","3.7","","1.9","","88","","24","","7","","","","100.12","","","","","","NA"
"2017-03-21 12:00","2017","03","21","12:00","4.3","","1.7","","83","","27","","12","","","","100.10","","","","","","NA"
"2017-03-21 13:00","2017","03","21","13:00","5.4","","2.2","","80","","24","","13","","","","100.05","","","","","","NA"
"2017-03-21 14:00","2017","03","21","14:00","6.1","","1.2","","71","","22","","19","","","","99.96","","","","","","NA"
"2017-03-21 15:00","2017","03","21","15:00","4.6","","1.9","","83","","19","","18","","","","99.89","","","","","","NA"
"2017-03-21 16:00","2017","03","21","16:00","7.0","","2.1","","71","","22","","26","","","","99.83","","","","","","NA"
"2017-03-21 17:00","2017","03","21","17:00","6.0","","0.4","","67","","22","","21","","","","99.80","","","","","","NA"
"2017-03-21 18:00","2017","03","21","18:00","4.7","","-1.3","","65","","24","","7","","","","99.75","","","","","","NA"
"2017-03-21 19:00","2017","03","21","19:00","3.4","","-2.3","","66","","24","","14","","","","99.78","","","","","","NA"
"2017-03-21 20:00","2017","03","21","20:00","4.2","","-5.3","","50","","28","","24","","","","99.87","","","","","","NA"
"2017-03-21 21:00","2017","03","21","21:00","2.9","","-3.7","","62","","28","","24","","","","99.96","","","","","","NA"
"2017-03-21 22:00","2017","03","21","22:00","2.1","","-3.1","","68","","32","","25","","","","100.09","","","","","","NA"
"2017-03-21 23:00","2017","03","21","23:00","0.3","","-4.9","","68","","33","","33","","","","100.21","","","","","","NA"
"2017-03-22 00:00","2017","03","22","00:00","-2.1","","-8.3","","63","","32","","32","","","","100.41","","","","-9","","NA"
"2017-03-22 01:00","2017","03","22","01:00","-3.9","","-10.3","","61","","35","","29","","","","100.57","","","","-11","","NA"
"2017-03-22 02:00","2017","03","22","02:00","-6.0","","-13.0","","58","","34","","33","","","","100.73","","","","-15","","NA"
"2017-03-22 03:00","2017","03","22","03:00","-7.9","","-16.8","","49","","33","","34","","","","100.95","","","","-17","","NA"
"2017-03-22 04:00","2017","03","22","04:00","-8.9","","-16.6","","54","","34","","29","","","","101.10","","","","-18","","NA"
"2017-03-22 05:00","2017","03","22","05:00","-10.1","","-18.5","","50","","35","","35","","","","101.29","","","","-20","","NA"
"2017-03-22 06:00","2017","03","22","06:00","-10.7","","-18.0","","55","","35","","23","","","","101.48","","","","-19","","NA"
"2017-03-22 07:00","2017","03","22","07:00","-10.6","","-18.4","","53","","35","","22","","","","101.61","","","","-19","","NA"
"2017-03-22 08:00","2017","03","22","08:00","-10.2","","-18.6","","51","","35","","26","","","","101.72","","","","-19","","NA"
"2017-03-22 09:00","2017","03","22","09:00","-9.2","","-18.3","","48","","31","","21","","","","101.80","","","","-17","","NA"
"2017-03-22 10:00","2017","03","22","10:00","-9.1","","-19.0","","45","","34","","29","","","","101.91","","","","-18","","NA"
"2017-03-22 11:00","2017","03","22","11:00","-8.9","","-22.0","","34","","34","","22","","","","101.90","","","","-17","","NA"
"2017-03-22 12:00","2017","03","22","12:00","-7.4","","-19.3","","38","","31","","19","","","","101.93","","","","-14","","NA"
"2017-03-22 13:00","2017","03","22","13:00","-6.3","","-18.3","","38","","30","","20","","","","101.92","","","","-13","","NA"
"2017-03-22 14:00","2017","03","22","14:00","-5.3","","-17.8","","37","","32","","20","","","","101.92","","","","-12","","NA"
"2017-03-22 15:00","2017","03","22","15:00","-4.5","","-19.3","","31","","32","","16","","","","101.91","","","","-10","","NA"
"2017-03-22 16:00","2017","03","22","16:00","-3.8","","-19.8","","28","","31","","17","","","","101.91","","","","-10","","NA"
"2017-03-22 17:00","2017","03","22","17:00","-3.5","","-18.3","","31","","32","","17","","","","101.91","","","","-9","","NA"
"2017-03-22 18:00","2017","03","22","18:00","-4.0","","-19.6","","29","","31","","16","","","","101.93","","","","-10","","NA"
"2017-03-22 19:00","2017","03","22","19:00","-5.2","","-19.6","","31","","30","","8","","","","101.98","","","","-9","","NA"
"2017-03-22 20:00","2017","03","22","20:00","-5.5","","-19.7","","32","","29","","9","","","","102.01","","","","-10","","NA"
"2017-03-22 21:00","2017","03","22","21:00","-7.1","","-17.7","","43","","32","","5","","","","102.06","","","","-10","","NA"
"2017-03-22 22:00","2017","03","22","22:00","-8.1","","-16.9","","49","","30","","6","","","","102.07","","","","-11","","NA"
"2017-03-22 23:00","2017","03","22","23:00","-8.0","","-17.2","","47","","31","","9","","","","102.13","","","","-13","","NA"
"2017-03-23 00:00","2017","03","23","00:00","-8.6","","-16.8","","51","","30","","10","","","","102.18","","","","-14","","NA"
"2017-03-23 01:00","2017","03","23","01:00","-8.8","","-16.4","","54","","29","","6","","","","102.21","","","","-12","","NA"
"2017-03-23 02:00","2017","03","23","02:00","-9.0","","-15.5","","59","","29","","7","","","","102.21","","","","-13","","NA"
"2017-03-23 03:00","2017","03","23","03:00","-9.6","","-15.2","","63","","27","","7","","","","102.23","","","","-14","","NA"
"2017-03-23 04:00","2017","03","23","04:00","-9.6","","-14.7","","66","","29","","6","","","","102.24","","","","-13","","NA"
"2017-03-23 05:00","2017","03","23","05:00","-9.9","","-14.1","","71","","26","","11","","","","102.29","","","","-15","","NA"
"2017-03-23 06:00","2017","03","23","06:00","-10.3","","-14.2","","73","","27","","11","","","","102.34","","","","-16","","NA"
"2017-03-23 07:00","2017","03","23","07:00","-9.2","","-13.7","","70","","28","","10","","","","102.40","","","","-14","","NA"
"2017-03-23 08:00","2017","03","23","08:00","-6.3","","-11.8","","65","","29","","11","","","","102.44","","","","-11","","NA"
"2017-03-23 09:00","2017","03","23","09:00","-2.9","","-10.4","","56","","29","","10","","","","102.42","","","","-7","","NA"
"2017-03-23 10:00","2017","03","23","10:00","-0.9","","-9.8","","51","","27","","6","","","","102.41","","","","-3","","NA"
"2017-03-23 11:00","2017","03","23","11:00","-0.7","","-8.6","","55","","21","","16","","","","102.36","","","","-5","","NA"
"2017-03-23 12:00","2017","03","23","12:00","0.2","","-9.6","","48","","22","","19","","","","102.31","","","","","","NA"
"2017-03-23 13:00","2017","03","23","13:00","-0.1","","-7.7","","56","","19","","29","","","","102.26","","","","-6","","NA"
"2017-03-23 14:00","2017","03","23","14:00","-0.1","","-7.3","","58","","20","","32","","","","102.20","","","","-7","","NA"
"2017-03-23 15:00","2017","03","23","15:00","-0.3","","-7.1","","60","","20","","31","","","","102.14","","","","-7","","NA"
"2017-03-23 16:00","2017","03","23","16:00","0.1","","-8.7","","52","","20","","27","","","","102.11","","","","","","NA"
"2017-03-23 17:00","2017","03","23","17:00","-0.8","","-8.6","","55","","19","","28","","","","102.04","","","","-7","","NA"
"2017-03-23 18:00","2017","03","23","18:00","-1.3","","-10.7","","49","","21","","18","","","","102.09","","","","-7","","NA"
"2017-03-23 19:00","2017","03","23","19:00","-1.0","","-9.3","","53","","20","","12","","","","102.08","","","","-5","","NA"
"2017-03-23 20:00","2017","03","23","20:00","-1.5","","-8.0","","61","","20","","11","","","","102.05","","","","-5","","NA"
"2017-03-23 21:00","2017","03","23","21:00","-0.5","","-6.5","","64","","17","","13","","","","101.98","","","","-5","","NA"
"2017-03-23 22:00","2017","03","23","22:00","-0.5","","-5.5","","69","","15","","16","","","","101.88","","","","-5","","NA"
"2017-03-23 23:00","2017","03","23","23:00","-0.2","","-7.8","","57","","15","","17","","","","101.72","","","","-5","","NA"
"2017-03-24 00:00","2017","03","24","00:00","-0.1","","-7.3","","58","","16","","17","","","","101.64","","","","-5","","NA"
"2017-03-24 01:00","2017","03","24","01:00","0.3","","-6.6","","59","","15","","19","","","","101.53","","","","","","NA"
"2017-03-24 02:00","2017","03","24","02:00","0.4","","-5.8","","63","","15","","18","","","","101.44","","","","","","NA"
"2017-03-24 03:00","2017","03","24","03:00","0.8","","-5.7","","62","","15","","14","","","","101.37","","","","","","NA"
"2017-03-24 04:00","2017","03","24","04:00","1.1","","-6.4","","57","","13","","19","","","","101.12","","","","","","NA"
"2017-03-24 05:00","2017","03","24","05:00","1.2","","-6.0","","59","","16","","16","","","","101.18","","","","","","NA"
"2017-03-24 06:00","2017","03","24","06:00","1.1","","-4.7","","65","","15","","15","","","","101.04","","","","","","NA"
"2017-03-24 07:00","2017","03","24","07:00","1.5","","-4.2","","66","","19","","22","","","","100.99","","","","","","NA"
"2017-03-24 08:00","2017","03","24","08:00","0.0","","-1.2","","92","","17","","28","","","","100.91","","","","-6","","NA"
"2017-03-24 09:00","2017","03","24","09:00","0.4","","-0.6","","93","","16","","18","","","","100.86","","","","","","NA"
"2017-03-24 10:00","2017","03","24","10:00","0.9","","0.2","","95","","17","","23","","","","100.70","","","","","","NA"
"2017-03-24 11:00","2017","03","24","11:00","0.5","","-0.1","","95","","15","","14","","","","100.60","","","","","","NA"
"2017-03-24 12:00","2017","03","24","12:00","1.1","","0.5","","96","","15","","7","","","","100.55","","","","","","NA"
"2017-03-24 13:00","2017","03","24","13:00","1.4","","0.6","","94","","15","","3","","","","100.46","","","","","","NA"
"2017-03-24 14:00","2017","03","24","14:00","2.4","","1.3","","93","","18","","12","","","","100.27","","","","","","NA"
"2017-03-24 15:00","2017","03","24","15:00","3.3","","1.8","","90","","22","","8","","","","100.32","","","","","","NA"
"2017-03-24 16:00","2017","03","24","16:00","3.5","","2.0","","90","","26","","5","","","","100.33","","","","","","NA"
"2017-03-24 17:00","2017","03","24","17:00","3.5","","2.2","","91","","30","","4","","","","100.39","","","","","","NA"
"2017-03-24 18:00","2017","03","24","18:00","3.4","","2.4","","93","","36","","7","","","","100.49","","","","","","NA"
"2017-03-24 19:00","2017","03","24","19:00","3.4","","2.4","","93","","36","","4","","","","100.58","","","","","","NA"
"2017-03-24 20:00","2017","03","24","20:00","3.1","","2.2","","94","","35","","3","","","","100.67","","","","","","NA"
"2017-03-24 21:00","2017","03","24","21:00","2.6","","1.7","","94","","1","","8","","","","100.77","","","","","","NA"
"2017-03-24 22:00","2017","03","24","22:00","2.2","","1.1","","93","","1","","10","","","","100.85","","","","","","NA"
"2017-03-24 23:00","2017","03","24","23:00","1.6","","0.6","","93","","2","","11","","","","100.90","","","","","","NA"
"2017-03-25 00:00","2017","03","25","00:00","1.2","","0.2","","93","","2","","11","","","","100.94","","","","","","NA"
"2017-03-25 01:00","2017","03","25","01:00","0.9","","0.0","","94","","2","","12","","","","100.98","","","","","","NA"
"2017-03-25 02:00","2017","03","25","02:00","0.7","","-0.2","","94","","2","","7","","","","100.99","","","","","","NA"
"2017-03-25 03:00","2017","03","25","03:00","0.7","","-0.3","","94","","36","","9","","","","101.08","","","","","","NA"
"2017-03-25 04:00","2017","03","25","04:00","0.6","","-0.1","","95","","3","","4","","","","101.11","","","","","","NA"
"2017-03-25 05:00","2017","03","25","05:00","0.7","","-0.1","","94","","1","","6","","","","101.13","","","","","","NA"
"2017-03-25 06:00","2017","03","25","06:00","0.8","","-0.1","","93","","1","","10","","","","101.24","","","","","","NA"
"2017-03-25 07:00","2017","03","25","07:00","1.2","","-0.3","","90","","3","","13","","","","101.33","","","","","","NA"
"2017-03-25 08:00","2017","03","25","08:00","1.4","","-0.4","","88","","2","","19","","","","101.40","","","","","","NA"
"2017-03-25 09:00","2017","03","25","09:00","2.0","","-0.1","","86","","3","","17","","","","101.47","","","","","","NA"
"2017-03-25 10:00","2017","03","25","10:00","2.0","","-0.3","","85","","3","","24","","","","101.51","","","","","","NA"
"2017-03-25 11:00","2017","03","25","11:00","2.4","","0.0","","84","","2","","20","","","","101.65","","","","","","NA"
"2017-03-25 12:00","2017","03","25","12:00","2.6","","0.0","","83","","1","","22","","","","101.66","","","","","","NA"
"2017-03-25 13:00","2017","03","25","13:00","2.3","","-1.0","","79","","1","","20","","","","101.70","","","","","","NA"
"2017-03-25 14:00","2017","03","25","14:00","2.2","","-1.5","","77","","2","","18","","","","101.72","","","","","","NA"
"2017-03-25 15:00","2017","03","25","15:00","2.6","","-0.6","","80","","5","","21","","","","101.74","","","","","","NA"
"2017-03-25 16:00","2017","03","25","16:00","1.8","","-2.0","","76","","5","","19","","","","101.77","","","","","","NA"
"2017-03-25 17:00","2017","03","25","17:00","1.9","","-1.8","","76","","6","","16","","","","101.76","","","","","","NA"
"2017-03-25 18:00","2017","03","25","18:00","1.4","","-2.5","","75","","5","","19","","","","101.83","","","","","","NA"
"2017-03-25 19:00","2017","03","25","19:00","0.2","","-2.9","","80","","5","","12","","","","101.90","","","","","","NA"
"2017-03-25 20:00","2017","03","25","20:00","-0.9","","-3.4","","83","","4","","9","","","","101.96","","","","-4","","NA"
"2017-03-25 21:00","2017","03","25","21:00","-1.2","","-3.8","","82","","5","","9","","","","101.95","","","","-4","","NA"
"2017-03-25 22:00","2017","03","25","22:00","-1.2","","-3.7","","83","","4","","11","","","","101.92","","","","-5","","NA"
"2017-03-25 23:00","2017","03","25","23:00","-1.9","","-4.1","","85","","3","","9","","","","101.92","","","","-5","","NA"
"2017-03-26 00:00","2017","03","26","00:00","-1.9","","-3.9","","86","","3","","5","","","","101.91","","","","-4","","NA"
"2017-03-26 01:00","2017","03","26","01:00","-1.9","","-4.1","","85","","5","","12","","","","101.86","","","","-6","","NA"
"2017-03-26 02:00","2017","03","26","02:00","-1.6","","-4.0","","84","","6","","15","","","","101.82","","","","-6","","NA"
"2017-03-26 03:00","2017","03","26","03:00","-1.2","","-4.0","","81","","5","","15","","","","101.78","","","","-6","","NA"
"2017-03-26 04:00","2017","03","26","04:00","-1.3","","-4.6","","78","","5","","16","","","","101.75","","","","-6","","NA"
"2017-03-26 05:00","2017","03","26","05:00","-1.3","","-4.8","","77","","5","","17","","","","101.74","","","","-6","","NA"
"2017-03-26 06:00","2017","03","26","06:00","-1.1","","-4.6","","77","","5","","19","","","","101.74","","","","-6","","NA"
"2017-03-26 07:00","2017","03","26","07:00","-1.1","","-4.7","","77","","5","","19","","","","101.73","","","","-6","","NA"
"2017-03-26 08:00","2017","03","26","08:00","-1.3","","-5.0","","76","","5","","23","","","","101.68","","","","-7","","NA"
"2017-03-26 09:00","2017","03","26","09:00","-1.0","","-5.6","","71","","6","","22","","","","101.63","","","","-7","","NA"
"2017-03-26 10:00","2017","03","26","10:00","-1.0","","-4.5","","77","","5","","26","","","","101.58","","","","-7","","NA"
"2017-03-26 11:00","2017","03","26","11:00","0.1","","-4.6","","71","","5","","23","","","","101.54","","","","","","NA"
"2017-03-26 12:00","2017","03","26","12:00","0.1","","-4.0","","74","","5","","23","","","","101.44","","","","","","NA"
"2017-03-26 13:00","2017","03","26","13:00","0.4","","-3.4","","75","","5","","23","","","","101.39","","","","","","NA"
"2017-03-26 14:00","2017","03","26","14:00","1.0","","-3.3","","73","","5","","21","","","","101.30","","","","","","NA"
"2017-03-26 15:00","2017","03","26","15:00","1.2","","-2.8","","74","","6","","21","","","","101.18","","","","","","NA"
"2017-03-26 16:00","2017","03","26","16:00","1.4","","-2.1","","78","","5","","19","","","","101.09","","","","","","NA"
"2017-03-26 17:00","2017","03","26","17:00","1.6","","-1.8","","78","","6","","17","","","","101.03","","","","","","NA"
"2017-03-26 18:00","2017","03","26","18:00","1.6","","-1.4","","80","","5","","12","","","","101.01","","","","","","NA"
"2017-03-26 19:00","2017","03","26","19:00","1.2","","-1.5","","83","","5","","12","","","","100.97","","","","","","NA"
"2017-03-26 20:00","2017","03","26","20:00","1.4","","-1.0","","84","","6","","9","","","","100.95","","","","","","NA"
"2017-03-26 21:00","2017","03","26","21:00","2.9","","0.5","","84","","12","","14","","","","100.90","","","","","","NA"
"2017-03-26 22:00","2017","03","26","22:00","3.0","","0.7","","85","","14","","23","","","","100.84","","","","","","NA"
"2017-03-26 23:00","2017","03","26","23:00","2.7","","0.6","","86","","14","","23","","","","100.75","","","","","","NA"
"2017-03-27 00:00","2017","03","27","00:00","2.5","","0.9","","89","","15","","19","","","","100.65","","","","","","NA"
"2017-03-27 01:00","2017","03","27","01:00","2.1","","1.0","","92","","16","","14","","","","100.58","","","","","","NA"
"2017-03-27 02:00","2017","03","27","02:00","2.3","","1.4","","94","","17","","19","","","","100.51","","","","","","NA"
"2017-03-27 03:00","2017","03","27","03:00","2.3","","1.2","","93","","16","","15","","","","100.44","","","","","","NA"
"2017-03-27 04:00","2017","03","27","04:00","2.3","","1.3","","93","","16","","16","","","","100.37","","","","","","NA"
"2017-03-27 05:00","2017","03","27","05:00","2.4","","1.4","","93","","16","","19","","","","100.31","","","","","","NA"
"2017-03-27 06:00","2017","03","27","06:00","2.3","","1.3","","93","","16","","13","","","","100.28","","","","","","NA"
"2017-03-27 07:00","2017","03","27","07:00","2.6","","1.6","","93","","17","","16","","","","100.29","","","","","","NA"
"2017-03-27 08:00","2017","03","27","08:00","2.5","","1.8","","95","","17","","15","","","","100.28","","","","","","NA"
"2017-03-27 09:00","2017","03","27","09:00","2.6","","2.0","","96","","16","","19","","","","100.24","","","","","","NA"
"2017-03-27 10:00","2017","03","27","10:00","3.3","","2.7","","96","","16","","15","","","","100.20","","","","","","NA"
"2017-03-27 11:00","2017","03","27","11:00","3.7","","2.8","","94","","17","","15","","","","100.19","","","","","","NA"
"2017-03-27 12:00","2017","03","27","12:00","3.7","","2.8","","94","","17","","17","","","","100.18","","","","","","NA"
"2017-03-27 13:00","2017","03","27","13:00","4.0","","3.2","","94","","21","","10","","","","100.16","","","","","","NA"
"2017-03-27 14:00","2017","03","27","14:00","4.5","","3.4","","93","","19","","9","","","","100.12","","","","","","NA"
"2017-03-27 15:00","2017","03","27","15:00","4.4","","3.3","","93","","20","","15","","","","100.10","","","","","","NA"
"2017-03-27 16:00","2017","03","27","16:00","4.9","","3.9","","93","","21","","9","","","","100.08","","","","","","NA"
"2017-03-27 17:00","2017","03","27","17:00","4.8","","3.7","","93","","20","","10","","","","100.11","","","","","","NA"
"2017-03-27 18:00","2017","03","27","18:00","3.9","","3.0","","94","","19","","6","","","","100.11","","","","","","NA"
"2017-03-27 19:00","2017","03","27","19:00","3.8","","3.1","","95","","15","","4","","","","100.13","","","","","","NA"
"2017-03-27 20:00","2017","03","27","20:00","3.6","","3.1","","96","","17","","7","","","","100.16","","","","","","NA"
"2017-03-27 21:00","2017","03","27","21:00","3.5","","3.0","","97","","16","","6","","","","100.17","","","","","","NA"
"2017-03-27 22:00","2017","03","27","22:00","3.5","","3.0","","97","","18","","8","","","","100.13","","","","","","NA"
"2017-03-27 23:00","2017","03","27","23:00","3.7","","3.2","","97","","19","","9","","","","100.12","","","","","","NA"
"2017-03-28 00:00","2017","03","28","00:00","3.6","","3.2","","97","","21","","8","","","","100.11","","","","","","NA"
"2017-03-28 01:00","2017","03","28","01:00","3.2","","2.8","","97","","18","","8","","","","100.09","","","","","","NA"
"2017-03-28 02:00","2017","03","28","02:00","2.7","","2.3","","97","","16","","8","","","","100.05","","","","","","NA"
"2017-03-28 03:00","2017","03","28","03:00","3.1","","2.7","","97","","18","","4","","","","100.03","","","","","","NA"
"2017-03-28 04:00","2017","03","28","04:00","3.0","","2.6","","97","","17","","4","","","","100.03","","","","","","NA"
"2017-03-28 05:00","2017","03","28","05:00","3.2","","2.8","","97","","31","","3","","","","100.04","","","","","","NA"
"2017-03-28 06:00","2017","03","28","06:00","3.6","","3.2","","97","","14","","2","","","","100.07","","","","","","NA"
"2017-03-28 07:00","2017","03","28","07:00","3.6","","3.2","","97","","32","","3","","","","100.12","","","","","","NA"
"2017-03-28 08:00","2017","03","28","08:00","5.1","","4.6","","97","","34","","5","","","","100.15","","","","","","NA"
"2017-03-28 09:00","2017","03","28","09:00","5.4","","4.9","","97","","1","","18","","","","100.23","","","","","","NA"
"2017-03-28 10:00","2017","03","28","10:00","5.5","","4.2","","91","","1","","15","","","","100.30","","","","","","NA"
"2017-03-28 11:00","2017","03","28","11:00","5.8","","4.2","","90","","36","","16","","","","100.31","","","","","","NA"
"2017-03-28 12:00","2017","03","28","12:00","6.1","","4.1","","87","","1","","17","","","","100.33","","","","","","NA"
"2017-03-28 13:00","2017","03","28","13:00","7.0","","4.2","","82","","2","","18","","","","100.33","","","","","","NA"
"2017-03-28 14:00","2017","03","28","14:00","7.2","","4.1","","81","","36","","18","","","","100.35","","","","","","NA"
"2017-03-28 15:00","2017","03","28","15:00","7.1","","3.7","","79","","2","","18","","","","100.39","","","","","","NA"
"2017-03-28 16:00","2017","03","28","16:00","7.3","","2.9","","74","","4","","17","","","","100.45","","","","","","NA"
"2017-03-28 17:00","2017","03","28","17:00","7.0","","2.6","","74","","3","","17","","","","100.51","","","","","","NA"
"2017-03-28 18:00","2017","03","28","18:00","5.7","","1.3","","73","","1","","21","","","","100.63","","","","","","NA"
"2017-03-28 19:00","2017","03","28","19:00","4.6","","0.6","","75","","2","","14","","","","100.71","","","","","","NA"
"2017-03-28 20:00","2017","03","28","20:00","3.2","","-0.1","","79","","36","","10","","","","100.80","","","","","","NA"
"2017-03-28 21:00","2017","03","28","21:00","1.8","","-0.7","","84","","30","","7","","","","100.83","","","","","","NA"
"2017-03-28 22:00","2017","03","28","22:00","-0.1","","-1.1","","93","","31","","7","","","","100.85","","","","-3","","NA"
"2017-03-28 23:00","2017","03","28","23:00","-0.2","","-1.7","","89","","32","","10","","","","100.88","","","","-4","","NA"
"2017-03-29 00:00","2017","03","29","00:00","0.0","","-1.4","","90","","33","","15","","","","100.92","","","","-4","","NA"
"2017-03-29 01:00","2017","03","29","01:00","-0.2","","-1.7","","89","","33","","14","","","","100.94","","","","-4","","NA"
"2017-03-29 02:00","2017","03","29","02:00","-0.5","","-2.0","","89","","33","","14","","","","101.01","","","","-5","","NA"
"2017-03-29 03:00","2017","03","29","03:00","-0.7","","-2.4","","88","","33","","14","","","","101.06","","","","-5","","NA"
"2017-03-29 04:00","2017","03","29","04:00","-1.6","","-3.0","","90","","33","","12","","","","101.06","","","","-6","","NA"
"2017-03-29 05:00","2017","03","29","05:00","-1.5","","-2.9","","90","","33","","12","","","","101.11","","","","-6","","NA"
"2017-03-29 06:00","2017","03","29","06:00","-2.1","","-3.4","","91","","33","","12","","","","101.16","","","","-6","","NA"
"2017-03-29 07:00","2017","03","29","07:00","-0.4","","-2.3","","87","","34","","9","","","","101.19","","","","-4","","NA"
"2017-03-29 08:00","2017","03","29","08:00","1.6","","-1.3","","81","","33","","8","","","","101.26","","","","","","NA"
"2017-03-29 09:00","2017","03","29","09:00","3.7","","-1.5","","69","","35","","11","","","","101.28","","","","","","NA"
"2017-03-29 10:00","2017","03","29","10:00","5.1","","-3.7","","53","","1","","16","","","","101.29","","","","","","NA"
"2017-03-29 11:00","2017","03","29","11:00","4.8","","-3.3","","56","","32","","22","","","","101.35","","","","","","NA"
"2017-03-29 12:00","2017","03","29","12:00","5.7","","-2.7","","55","","32","","22","","","","101.33","","","","","","NA"
"2017-03-29 13:00","2017","03","29","13:00","5.5","","-3.4","","53","","32","","28","","","","101.34","","","","","","NA"
"2017-03-29 14:00","2017","03","29","14:00","5.2","","-2.7","","56","","35","","24","","","","101.34","","","","","","NA"
"2017-03-29 15:00","2017","03","29","15:00","5.6","","-3.6","","52","","33","","21","","","","101.35","","","","","","NA"
"2017-03-29 16:00","2017","03","29","16:00","6.3","","-3.8","","48","","35","","17","","","","101.34","","","","","","NA"
"2017-03-29 17:00","2017","03","29","17:00","6.2","","-5.1","","44","","32","","11","","","","101.38","","","","","","NA"
"2017-03-29 18:00","2017","03","29","18:00","5.0","","-5.8","","45","","1","","9","","","","101.45","","","","","","NA"
"2017-03-29 19:00","2017","03","29","19:00","4.9","","-6.2","","45","","3","","6","","","","101.46","","","","","","NA"
"2017-03-29 20:00","2017","03","29","20:00","3.5","","-5.2","","53","","2","","16","","","","101.53","","","","","","NA"
"2017-03-29 21:00","2017","03","29","21:00","1.8","","-5.3","","59","","1","","13","","","","101.56","","","","","","NA"
"2017-03-29 22:00","2017","03","29","22:00","1.7","","-5.8","","57","","1","","15","","","","101.49","","","","","","NA"
"2017-03-29 23:00","2017","03","29","23:00","-0.6","","-6.3","","65","","36","","10","","","","101.46","","","","-4","","NA"
"2017-03-30 00:00","2017","03","30","00:00","-0.1","","-6.2","","64","","2","","7","","","","101.42","","","","-3","","NA"
"2017-03-30 01:00","2017","03","30","01:00","-1.3","","-6.0","","71","","36","","7","","","","101.41","","","","-4","","NA"
"2017-03-30 02:00","2017","03","30","02:00","-2.2","","-6.1","","75","","34","","8","","","","101.45","","","","-5","","NA"
"2017-03-30 03:00","2017","03","30","03:00","-2.6","","-6.1","","77","","34","","10","","","","101.45","","","","-6","","NA"
"2017-03-30 04:00","2017","03","30","04:00","-3.5","","-6.4","","80","","35","","11","","","","101.50","","","","-8","","NA"
"2017-03-30 05:00","2017","03","30","05:00","-4.2","","-6.4","","85","","35","","11","","","","101.53","","","","-9","","NA"
"2017-03-30 06:00","2017","03","30","06:00","-3.8","","-6.1","","84","","35","","11","","","","101.56","","","","-8","","NA"
"2017-03-30 07:00","2017","03","30","07:00","-0.8","","-5.4","","71","","2","","10","","","","101.51","","","","-4","","NA"
"2017-03-30 08:00","2017","03","30","08:00","1.2","","-5.0","","64","","4","","13","","","","101.51","","","","","","NA"
"2017-03-30 09:00","2017","03","30","09:00","2.5","","-4.9","","58","","6","","17","","","","101.47","","","","","","NA"
"2017-03-30 10:00","2017","03","30","10:00","3.2","","-4.8","","56","","7","","19","","","","101.41","","","","","","NA"
"2017-03-30 11:00","2017","03","30","11:00","3.4","","-4.8","","55","","9","","23","","","","101.35","","","","","","NA"
"2017-03-30 12:00","2017","03","30","12:00","3.9","","-4.3","","55","","10","","23","","","","101.22","","","","","","NA"
"2017-03-30 13:00","2017","03","30","13:00","4.4","","-4.0","","55","","10","","21","","","","101.20","","","","","","NA"
"2017-03-30 14:00","2017","03","30","14:00","4.7","","-4.2","","52","","10","","18","","","","101.13","","","","","","NA"
"2017-03-30 15:00","2017","03","30","15:00","4.9","","-5.0","","49","","7","","20","","","","101.02","","","","","","NA"
"2017-03-30 16:00","2017","03","30","16:00","5.1","","-4.9","","49","","6","","20","","","","100.88","","","","","","NA"
"2017-03-30 17:00","2017","03","30","17:00","4.7","","-4.5","","51","","7","","17","","","","100.85","","","","","","NA"
"2017-03-30 18:00","2017","03","30","18:00","4.3","","-4.1","","54","","4","","14","","","","100.87","","","","","","NA"
"2017-03-30 19:00","2017","03","30","19:00","3.7","","-4.1","","57","","6","","18","","","","100.83","","","","","","NA"
"2017-03-30 20:00","2017","03","30","20:00","3.4","","-5.0","","54","","5","","19","","","","100.86","","","","","","NA"
"2017-03-30 21:00","2017","03","30","21:00","2.9","","-5.5","","54","","5","","15","","","","100.93","","","","","","NA"
"2017-03-30 22:00","2017","03","30","22:00","2.5","","-4.7","","59","","12","","9","","","","100.91","","","","","","NA"
"2017-03-30 23:00","2017","03","30","23:00","2.2","","-5.0","","59","","8","","16","","","","100.66","","","","","","NA"
"2017-03-31 00:00","2017","03","31","00:00","2.0","","-3.9","","65","","11","","13","","","","100.64","","","","","","NA"
"2017-03-31 01:00","2017","03","31","01:00","1.1","","-2.0","","80","","6","","14","","","","100.53","","","","","","NA"
"2017-03-31 02:00","2017","03","31","02:00","1.6","","-2.4","","75","","3","","8","","","","100.61","","","","","","NA"
"2017-03-31 03:00","2017","03","31","03:00","0.7","","-0.9","","89","","5","","21","","","","100.38","","","","","","NA"
"2017-03-31 04:00","2017","03","31","04:00","0.3","","-0.6","","94","","5","","22","","","","100.38","","","","","","NA"
"2017-03-31 05:00","2017","03","31","05:00","0.5","","-0.4","","94","","6","","26","","","","100.31","","","","","","NA"
"2017-03-31 06:00","2017","03","31","06:00","0.5","","-0.4","","94","","5","","23","","","","100.30","","","","","","NA"
"2017-03-31 07:00","2017","03","31","07:00","0.8","","-0.1","","93","","6","","23","","","","100.26","","","","","","NA"
"2017-03-31 08:00","2017","03","31","08:00","1.1","","0.3","","95","","6","","21","","","","100.25","","","","","","NA"
"2017-03-31 09:00","2017","03","31","09:00","1.4","","0.7","","95","","6","","23","","","","100.19","","","","","","NA"
"2017-03-31 10:00","2017","03","31","10:00","2.2","","1.4","","95","","6","","22","","","","100.13","","","","","","NA"
"2017-03-31 11:00","2017","03","31","11:00","2.3","","1.5","","94","","6","","24","","","","100.12","","","","","","NA"
"2017-03-31 12:00","2017","03","31","12:00","2.9","","2.1","","95","","6","","22","","","","100.06","","","","","","NA"
"2017-03-31 13:00","2017","03","31","13:00","3.1","","2.4","","95","","6","","22","","","","100.01","","","","","","NA"
"2017-03-31 14:00","2017","03","31","14:00","2.9","","2.2","","95","","5","","23","","","","99.94","","","","","","NA"
"2017-03-31 15:00","2017","03","31","15:00","2.6","","1.8","","95","","5","","24","","","","99.90","","","","","","NA"
"2017-03-31 16:00","2017","03","31","16:00","2.4","","1.7","","95","","4","","20","","","","99.88","","","","","","NA"
"2017-03-31 17:00","2017","03","31","17:00","2.4","","1.8","","95","","4","","19","","","","99.89","","","","","","NA"
"2017-03-31 18:00","2017","03","31","18:00","2.1","","1.4","","95","","5","","23","","","","99.89","","","","","","NA"
"2017-03-31 19:00","2017","03","31","19:00","1.4","","0.7","","95","","5","","22","","","","99.89","","","","","","NA"
"2017-03-31 20:00","2017","03","31","20:00","0.9","","0.3","","96","","4","","21","","","","99.94","","","","","","NA"
"2017-03-31 21:00","2017","03","31","21:00","0.9","","0.3","","96","","5","","21","","","","99.93","","","","","","NA"
"2017-03-31 22:00","2017","03","31","22:00","0.9","","0.3","","96","","5","","19","","","","99.90","","","","","","NA"
"2017-03-31 23:00","2017","03","31","23:00","0.5","","0.0","","96","","4","","15","","","","99.90","","","","","","NA"
